{"type": "FeatureCollection", "features": [{"type": "Feature", "geometry": {"type": "Polygon", "coordinates": [[[-96.80262200005623, 40.84137900017126], [-96.80415000021853, 40.841379999857125], [-96.80228599959725, 40.83865100029085], [-96.80222899969583, 40.838567000057374], [-96.80197799962566, 40.83820300008098], [-96.80124000038208, 40.83713700001158], [-96.80089100040264, 40.836618000012955], [-96.80012800014639, 40.83551000025445], [-96.80013399999419, 40.83471999975555], [-96.80013999984196, 40.833987000068404], [-96.80008100029073, 40.833987000068404], [-96.80010499968186, 40.83350299984774], [-96.8001080000549, 40.8334649997819], [-96.80011399990269, 40.832708000138815], [-96.80011999975048, 40.83188700010441], [-96.7996849995573, 40.83187100011863], [-96.79906699996432, 40.83188300010833], [-96.79705000008046, 40.83187299977724], [-96.79660300019174, 40.83188300010833], [-96.79621900005218, 40.83188200027918], [-96.79622200042522, 40.83158699972891], [-96.79625000001431, 40.8282449999416], [-96.79430199972744, 40.8282440000576], [-96.79430199972744, 40.82815400024062], [-96.79403399993883, 40.82760899998584], [-96.79409199966514, 40.82123600021858], [-96.79409300038839, 40.8211359998174], [-96.79396799981659, 40.82118200007506], [-96.79384700034109, 40.82123300024954], [-96.79373099999013, 40.821291000306985], [-96.79362100038529, 40.821354000253365], [-96.79351500008006, 40.821422000074335], [-96.79341600034587, 40.82149599974033], [-96.79332299956113, 40.821573999941954], [-96.7932360004208, 40.82165599998533], [-96.79315699987977, 40.82174199985553], [-96.79309099975752, 40.821814999863385], [-96.79299500039637, 40.821760000209494], [-96.79291800040349, 40.82183600013943], [-96.79279399965661, 40.821746999765516], [-96.79263100034831, 40.821879999951776], [-96.79275600002178, 40.82196800016864], [-96.79265300008962, 40.822037999995075], [-96.7925450001346, 40.82210199988831], [-96.79243100033177, 40.822160999841394], [-96.79231199960778, 40.822213999892796], [-96.79218899958413, 40.822260000082636], [-96.79206200026084, 40.822299999719284], [-96.79193099984126, 40.82233400017324], [-96.79179799977187, 40.822360000148784], [-96.79166300005267, 40.82238000027985], [-96.79152699961021, 40.82239299991995], [-96.79079100001648, 40.82244499981453], [-96.7907369995898, 40.82244499981453], [-96.79068300006143, 40.822438000014095], [-96.7906320000078, 40.82242499970301], [-96.79058400032723, 40.82240500026531], [-96.79050099958825, 40.82234799979528], [-96.79045999958035, 40.82229199992986], [-96.79043000034146, 40.822220999716826], [-96.790406000052, 40.82214900013174], [-96.7903779995646, 40.82200200011298], [-96.79037500008985, 40.82192800033171], [-96.79037500008985, 40.820995000232806], [-96.79013700043849, 40.820995000232806], [-96.7901390000883, 40.82193700014415], [-96.79015699963166, 40.822078999742594], [-96.79015599980674, 40.822132999835674], [-96.790145999761, 40.822158999889965], [-96.79011099960091, 40.82220600009294], [-96.79005799989746, 40.82224199986437], [-96.78999199977521, 40.822262000031024], [-96.78972399998662, 40.82230099969292], [-96.78959000009232, 40.82231599997506], [-96.78942699988569, 40.82232099984177], [-96.78926600022723, 40.82230800018757], [-96.78912300011208, 40.82229399987728], [-96.78905000031715, 40.82229199992986], [-96.78799400015795, 40.82229199992986], [-96.78799400015795, 40.822271999772205], [-96.787661000072, 40.822271999772205], [-96.78765199985119, 40.822502000201155], [-96.78764799965323, 40.8226249998668], [-96.7876329995846, 40.824122999993214], [-96.7876180004143, 40.82547600032375], [-96.78760800036856, 40.8263859999134], [-96.7875899999269, 40.82808099973296], [-96.77793399995475, 40.82817999997373], [-96.77785399958881, 40.82819799993986], [-96.77776300025052, 40.82822100000271], [-96.77776300025052, 40.82827999995017], [-96.77776400007544, 40.8283310001044], [-96.77785399958881, 40.8283310001044], [-96.7778529997639, 40.82910999998396], [-96.7778460000912, 40.83199099991772], [-96.77783799969528, 40.83546299996504], [-96.77783799969528, 40.83554199982507], [-96.77783699987037, 40.835703999708066], [-96.77782799964953, 40.84046500026894], [-96.77768000040986, 40.84046399988961], [-96.77059100014245, 40.840461999810564], [-96.7689680004439, 40.83919800029199], [-96.76831099959455, 40.83869999981157], [-96.76831599961743, 40.83608299970038], [-96.7683270003864, 40.8337940001484], [-96.76835099977752, 40.82837899989384], [-96.76838500011272, 40.82103399995982], [-96.76128699962449, 40.82104499987871], [-96.76124300014187, 40.81994100028479], [-96.76125999986031, 40.81642199970661], [-96.76125400001254, 40.816201999926726], [-96.76124800016474, 40.81598300016594], [-96.7612590000354, 40.815705000157806], [-96.76140499962527, 40.815706000230854], [-96.76140600034849, 40.81553900006212], [-96.76182200027509, 40.81547199972565], [-96.76232000021749, 40.81539900021553], [-96.7628290000305, 40.81533399989495], [-96.76348000013375, 40.815262000312714], [-96.76376800001383, 40.81523699967467], [-96.76413100023699, 40.81520800006487], [-96.76449399956182, 40.81517999984355], [-96.76478499981498, 40.815157000017095], [-96.76484099989148, 40.81515200029025], [-96.76507600006812, 40.815135000264306], [-96.76549399964455, 40.81510200028152], [-96.76784000031469, 40.81508999997466], [-96.76842799977042, 40.81509300022158], [-96.76842399957246, 40.81564599990106], [-96.76842399957246, 40.81570799969704], [-96.76842299974756, 40.81579700001557], [-96.76838500011272, 40.82103399995982], [-96.77077600009038, 40.82102999998888], [-96.77080799987743, 40.81590400011827], [-96.77080899970235, 40.815713000061855], [-96.77081000042557, 40.815548000061604], [-96.7708120000754, 40.81527999970571], [-96.77095799966527, 40.81531100012188], [-96.77194600005241, 40.815358999816624], [-96.77272299965402, 40.81544699984656], [-96.77483400014752, 40.81561699979023], [-96.777739999786, 40.81584999971314], [-96.77802699984117, 40.81587299997921], [-96.78085100036218, 40.81609200010312], [-96.78254799968057, 40.816254999980586], [-96.78282200021528, 40.816266000012114], [-96.78306400006463, 40.816266000012114], [-96.78323499976884, 40.816260999688986], [-96.78346900012058, 40.81624600007701], [-96.78371299961972, 40.81622099980977], [-96.78395100016942, 40.81618799968737], [-96.78410799962994, 40.81615999987962], [-96.78637999978191, 40.815736999768085], [-96.78736399997109, 40.8155690002822], [-96.78762799956174, 40.81553100013714], [-96.78777599969975, 40.81549099981778], [-96.78788500037801, 40.81546200031901], [-96.78850799999384, 40.81537100007478], [-96.78878400017837, 40.815374999707146], [-96.78888799993545, 40.81538000009705], [-96.78895900008055, 40.81538699996239], [-96.78902000017992, 40.81539299974929], [-96.78912300011208, 40.81540999970912], [-96.7892029995797, 40.815426999664595], [-96.7892510001586, 40.81543899991049], [-96.78939699974848, 40.815485000039736], [-96.78949399983284, 40.81552300021115], [-96.78962799972714, 40.81558700027172], [-96.78975499994876, 40.81566399986975], [-96.78985100020823, 40.81573400023022], [-96.78994200044481, 40.81581499994328], [-96.7911519996915, 40.81698999999236], [-96.79193699968904, 40.817307999982106], [-96.79227399997295, 40.81737799996758], [-96.7928270001669, 40.81749199988287], [-96.79619899996068, 40.8179290002361], [-96.79620300015864, 40.81781200026815], [-96.79644900020595, 40.817845000262594], [-96.79720999991405, 40.81795099974219], [-96.79888700003927, 40.81818999983936], [-96.79939300037756, 40.81825099994235], [-96.79943299966222, 40.81422399986176], [-96.7994310000124, 40.81388999980132], [-96.79956400008177, 40.81388999980132], [-96.80005000032861, 40.81389300010245], [-96.80105999955872, 40.813879000055714], [-96.80106200010687, 40.81369699985884], [-96.80098400028905, 40.80957399989393], [-96.80053499985216, 40.809386999965355], [-96.80001299962035, 40.80920300002301], [-96.79907100016229, 40.80889999985604], [-96.79818800025544, 40.808654999891914], [-96.79759599970342, 40.808506999705656], [-96.79684800041412, 40.80833999977448], [-96.7962990004181, 40.80824200002227], [-96.79611000027224, 40.808209000010706], [-96.7953839998259, 40.80809000020355], [-96.79478100030155, 40.80801199978559], [-96.79431799962097, 40.807967000104284], [-96.79381200018099, 40.8079100001468], [-96.79318199999413, 40.80786499971638], [-96.79245600044612, 40.80782800011018], [-96.79162700006765, 40.807807999671276], [-96.79043600018923, 40.807807999671276], [-96.78959599994009, 40.80781100024748], [-96.78936599978633, 40.80781199975958], [-96.78955900013018, 40.80803099997429], [-96.78981199985016, 40.80831700029664], [-96.79004100017902, 40.80847099995964], [-96.78990700028471, 40.80847099995964], [-96.78930100038733, 40.80846999977752], [-96.7875680001856, 40.80846599972895], [-96.78632600025357, 40.808646999816766], [-96.7851899997284, 40.80883799981738], [-96.78516499961404, 40.80999999966142], [-96.78474700003763, 40.81000099982047], [-96.78266700040459, 40.810007000094444], [-96.78036099991742, 40.81000599993549], [-96.77869100036322, 40.809981000036515], [-96.77870200023388, 40.80992700024974], [-96.77870100040896, 40.80818000004877], [-96.77870100040896, 40.80786700009881], [-96.77870100040896, 40.807779999726684], [-96.77870100040896, 40.806431999878036], [-96.77860699979931, 40.80644099975295], [-96.77798199963533, 40.80644000022022], [-96.76976500013701, 40.80643400030362], [-96.7612449997917, 40.80643499983644], [-96.75896199976907, 40.806436000049224], [-96.75895799957111, 40.80476500018541], [-96.75895699974619, 40.804298999862596], [-96.75894500005063, 40.802832999896054], [-96.75903600028724, 40.80283999972518], [-96.76025599957964, 40.80283799987122], [-96.76149099983898, 40.802842000259034], [-96.76212600004871, 40.80284499969977], [-96.76342599970707, 40.80284700023352], [-96.76373000037901, 40.80284999967398], [-96.76372799983088, 40.80376200009783], [-96.76372600018105, 40.80469100021554], [-96.76847700017423, 40.80494999974914], [-96.76849100041792, 40.802873999953064], [-96.76611999963343, 40.80286200015463], [-96.7661380000751, 40.79932899976876], [-96.7664979999252, 40.799330999728454], [-96.767453999627, 40.79933500032763], [-96.76851599963396, 40.79933700028714], [-96.76850599958823, 40.80084500019803], [-96.76904799991152, 40.80083800015855], [-96.76962100019698, 40.80105099986384], [-96.77031400013303, 40.80120599967941], [-96.77035699979074, 40.80109299995491], [-96.77329299956642, 40.80106699980452], [-96.77329500011456, 40.80073699999234], [-96.77344400007748, 40.80073599969367], [-96.77344099970443, 40.800543999873454], [-96.77325999995445, 40.80054500017502], [-96.77326400015241, 40.79989700017648], [-96.77326699962715, 40.79934100020598], [-96.77326599980223, 40.79929400012459], [-96.77400999979191, 40.7992889998825], [-96.77401399998988, 40.799199000220284], [-96.77401499981477, 40.797241999825204], [-96.77401300016496, 40.79595699973818], [-96.77380300010267, 40.79595800010887], [-96.77327500002308, 40.795962000231306], [-96.773275999848, 40.7955749998518], [-96.77335700003884, 40.795578000301006], [-96.77350500017685, 40.7955749998518], [-96.7737479998511, 40.79556700024017], [-96.77403300025644, 40.79552099990419], [-96.77425199964125, 40.79545900028797], [-96.77453100019882, 40.795372999671415], [-96.77469900042833, 40.79532100032008], [-96.77498999978313, 40.79520399993036], [-96.77502599976815, 40.79518099998064], [-96.77560599972628, 40.79554300003928], [-96.77603599989659, 40.7958109998631], [-96.77662599990047, 40.79536000017743], [-96.77717400007155, 40.7951830000653], [-96.77678699955895, 40.794818000280586], [-96.77653999968675, 40.79472500018982], [-96.7764109998153, 40.794502000062984], [-96.77642599988393, 40.79435400027893], [-96.77634800006612, 40.79434599984003], [-96.77626699987526, 40.794333999860015], [-96.77575700023733, 40.79422300011206], [-96.77578700037456, 40.794141999884744], [-96.77616099957005, 40.79316000028345], [-96.77621499999674, 40.79293599992451], [-96.77619699955507, 40.792712000170035], [-96.77613800000384, 40.79256899986476], [-96.77606299966077, 40.79243999974366], [-96.77595700025387, 40.792306999709666], [-96.77574899984141, 40.792147999845994], [-96.77549699994633, 40.79203099998547], [-96.77556800009144, 40.791913000167284], [-96.7739189995553, 40.79191499967029], [-96.77364900011689, 40.79190899980094], [-96.77345400012322, 40.791905000114404], [-96.77328500006881, 40.79191399991879], [-96.77248900020062, 40.79191499967029], [-96.76911599968359, 40.79192199997063], [-96.76875599983347, 40.79190700029776], [-96.76848600039507, 40.79190700029776], [-96.76847100032644, 40.78928299970962], [-96.76845600025783, 40.78658799991586], [-96.76844500038717, 40.78462599985002], [-96.7684479998619, 40.78451600005995], [-96.76792499980519, 40.784514000334156], [-96.76656400004745, 40.7845100002022], [-96.76291799971897, 40.78451900032873], [-96.7621610002088, 40.78451600005995], [-96.76059600023659, 40.7845100002022], [-96.75883500044579, 40.78449799980491], [-96.7588370000956, 40.78460699976329], [-96.75884600031641, 40.786213000079265], [-96.75883299989763, 40.78643799982724], [-96.75452399977033, 40.78642999979484], [-96.7541549996994, 40.78642999979484], [-96.75415800007244, 40.78826099992804], [-96.75298899993533, 40.78825799982838], [-96.74953199975272, 40.78824799972171], [-96.74953099992781, 40.787915000003785], [-96.74949800031585, 40.787664999675755], [-96.7494949999428, 40.78654899966692], [-96.7494949999428, 40.78592999993966], [-96.74951099983633, 40.78586500000165], [-96.74944600043732, 40.78459699978703], [-96.75057799986618, 40.78459800032887], [-96.75057700004128, 40.7845100002022], [-96.75058799991191, 40.783701000021054], [-96.74947200037657, 40.7837000001459], [-96.74948800027012, 40.783193000283454], [-96.7493679997212, 40.78319199972045], [-96.74715099982082, 40.78319199972045], [-96.7471659998894, 40.7845019999376], [-96.74647999962606, 40.78450000021138], [-96.74486699997327, 40.784496999941744], [-96.74486799979819, 40.784135000194986], [-96.74486899962308, 40.78378999973309], [-96.74357599963741, 40.78449399967199], [-96.7407799996038, 40.784490000219016], [-96.73981800005426, 40.784496000078576], [-96.73981600040443, 40.784580000096], [-96.73981100038155, 40.785409000165295], [-96.73980899983343, 40.78578600014833], [-96.73923300007324, 40.78629799980158], [-96.73869699959772, 40.7867759999747], [-96.73854500016007, 40.78690600004426], [-96.73750300024457, 40.787807999660274], [-96.73628300005383, 40.7888680000846], [-96.735724999837, 40.78934200028158], [-96.73573099968479, 40.78901700033034], [-96.73573400005783, 40.788425999762275], [-96.7357380002558, 40.78790499984548], [-96.73575599979915, 40.785531999896996], [-96.7357940003323, 40.7849349997819], [-96.73577800043877, 40.78459000007482], [-96.73584000036305, 40.77760699971421], [-96.73395400000047, 40.77758699969312], [-96.73395499982536, 40.77749000008362], [-96.73397999993972, 40.77578099970226], [-96.73477699963283, 40.77578799966253], [-96.73481000014313, 40.77577399974126], [-96.73481799964073, 40.77507799993547], [-96.73512399996247, 40.77508399996494], [-96.73511700028978, 40.77551099999144], [-96.73553900006416, 40.77552299997164], [-96.73556400017853, 40.77398199974577], [-96.73501500018253, 40.77397899968134], [-96.73480500012025, 40.77397700031861], [-96.73481000014313, 40.77292499995195], [-96.73134100026495, 40.77290299980653], [-96.73134100026495, 40.77288199969191], [-96.73138200027282, 40.77034300025027], [-96.7313739998769, 40.77020499979242], [-96.73112199998182, 40.77020499979242], [-96.73091699994242, 40.77017600023658], [-96.73058600040463, 40.770175000157835], [-96.73056200011517, 40.77009000021245], [-96.73056100029028, 40.76984200031069], [-96.73038100036523, 40.7698429997141], [-96.73033600015937, 40.762993000262476], [-96.73032899958837, 40.762001000065744], [-96.73031500024297, 40.75977699993612], [-96.7305010000158, 40.759775999700885], [-96.73125000002835, 40.759772999675505], [-96.73140499983904, 40.759730999986296], [-96.73193499956848, 40.75971400005592], [-96.73193000044391, 40.75899999973556], [-96.73239599970093, 40.75892700004166], [-96.7326059997632, 40.75888499981791], [-96.7332250000794, 40.75878699987306], [-96.73304400032943, 40.75861200009822], [-96.73271600026638, 40.75811900021913], [-96.73268699995405, 40.75801400003488], [-96.7326540003421, 40.757800999734826], [-96.73265000014413, 40.75769399987599], [-96.73263599990044, 40.75575799995185], [-96.73397699956668, 40.75576300006923], [-96.73462799966993, 40.75576499997999], [-96.73463400041602, 40.75491499982145], [-96.73506700006106, 40.75491600012984], [-96.73506799988598, 40.754697999913766], [-96.73507000043412, 40.75428200029607], [-96.73508700015256, 40.75414700011096], [-96.73513700038127, 40.75401600025908], [-96.73526700007761, 40.75383900020504], [-96.73532399997903, 40.75378599999341], [-96.7354560002235, 40.75369500026327], [-96.73560799966114, 40.75362299983518], [-96.73641699994815, 40.75329600002871], [-96.73593200042455, 40.75265300003902], [-96.73886200035247, 40.75125000022066], [-96.73888999994156, 40.749089000214326], [-96.7388990001624, 40.74848499985196], [-96.73949400018915, 40.748489999835805], [-96.73978700009211, 40.748491999965324], [-96.73978700009211, 40.74858500013767], [-96.7399059999178, 40.748585999860786], [-96.7399069997427, 40.74849299968984], [-96.73988300035158, 40.74484399988127], [-96.73987599978057, 40.74392699991431], [-96.73508999962729, 40.743879000299586], [-96.73151299979408, 40.74385199973546], [-96.73049400034313, 40.743844000019905], [-96.73031400041808, 40.743838999686744], [-96.73031799971771, 40.74143999971602], [-96.73051199988647, 40.74140500019475], [-96.7309789998667, 40.74132400022069], [-96.73132700002125, 40.74127900026816], [-96.73155899982483, 40.74128099993392], [-96.73176600041238, 40.74130400016995], [-96.73176600041238, 40.74114400022783], [-96.73176600041238, 40.741011000268024], [-96.7313529999605, 40.7392819997322], [-96.7302890003037, 40.73932099982004], [-96.73024499992276, 40.736692000083984], [-96.73024200044804, 40.73642499988709], [-96.72982599962312, 40.73608000015667], [-96.72974500033058, 40.73601900010896], [-96.7296699999875, 40.735975999796224], [-96.72957600027618, 40.73593599987608], [-96.72948500003959, 40.73590900017164], [-96.72938700013029, 40.73589099968191], [-96.72931199978723, 40.73588400028431], [-96.72923200031958, 40.73588299968962], [-96.72914299973283, 40.73588999976801], [-96.72903099957982, 40.73591000008525], [-96.72892699982276, 40.73594299994889], [-96.72885499985273, 40.73597399997093], [-96.7287750003851, 40.73602000002091], [-96.7287119997376, 40.736067999861554], [-96.72864999981331, 40.73612600013336], [-96.72860600033071, 40.736180000035766], [-96.72856600014774, 40.736238000209866], [-96.72852699978966, 40.73627999976455], [-96.7284730002613, 40.73632199997339], [-96.7284160003599, 40.73635299981883], [-96.72836899960592, 40.73637200009021], [-96.72833099997109, 40.73638400033044], [-96.7280640000074, 40.73645599968454], [-96.72798299981653, 40.73647300011621], [-96.72788300025742, 40.73648000013259], [-96.72782299998298, 40.73647699973669], [-96.7277119996549, 40.73646099989204], [-96.72765499975348, 40.736454999779134], [-96.72749800029297, 40.73645599968454], [-96.72740299985841, 40.73646899981487], [-96.72728900005559, 40.736494000163056], [-96.7271919999712, 40.736508000190575], [-96.7269099999389, 40.736518999821165], [-96.72680799983165, 40.73653000013061], [-96.7266630000667, 40.736558000167555], [-96.72652800034749, 40.73659200029381], [-96.72642500041532, 40.73662900011118], [-96.72631599973705, 40.73666599990798], [-96.72627100042953, 40.736672000001846], [-96.72618699986563, 40.736666999810204], [-96.72611200042087, 40.73664300011029], [-96.72604499957541, 40.7366070002039], [-96.72596900030574, 40.73657599979613], [-96.72587700024424, 40.736553999871276], [-96.72570800018984, 40.736551000159444], [-96.72563700004473, 40.73656299968671], [-96.72512499985865, 40.73667999989931], [-96.72501899955344, 40.736711000258545], [-96.72493400006294, 40.736746000207695], [-96.72485799989497, 40.73678700022188], [-96.72479699979559, 40.736829000110646], [-96.72475900016074, 40.736858999820505], [-96.72471300013001, 40.736902000243184], [-96.72468600036582, 40.73692499995126], [-96.72461900041867, 40.73695999978782], [-96.7245370004029, 40.73697899988585], [-96.72441199983112, 40.736985999848926], [-96.72436499997545, 40.73699399970862], [-96.72431499974674, 40.73700499993953], [-96.72425700002042, 40.737024000024704], [-96.72398599985878, 40.737126000317524], [-96.72392899995737, 40.73714200000229], [-96.72387999955356, 40.73714800005323], [-96.72381000013166, 40.73714299989736], [-96.72350100033519, 40.737094000255865], [-96.72344899955833, 40.73708399993564], [-96.72337999996135, 40.73705899980913], [-96.72334499980126, 40.73704200020788], [-96.72329000044799, 40.737002000248], [-96.7231840001428, 40.73690300014186], [-96.72316900007417, 40.73686100029981], [-96.72313800011203, 40.7368249998307], [-96.72309499955601, 40.736804999788504], [-96.72303900037782, 40.736795000105516], [-96.72296900005763, 40.73673400003271], [-96.72291999965384, 40.73671599976625], [-96.72282199974453, 40.736700999880746], [-96.72271600033764, 40.736711000258545], [-96.722629000299, 40.736745000306655], [-96.72255899997882, 40.73679899970662], [-96.72250000042757, 40.7368500000451], [-96.72240900019096, 40.73688400002213], [-96.7223060002588, 40.73690099966376], [-96.72220199960343, 40.73690099966376], [-96.72207000025726, 40.73691700008331], [-96.72199900011216, 40.73694200026314], [-96.72177900000412, 40.73701100000282], [-96.72169600016345, 40.73702699971525], [-96.7216300000412, 40.737025999818435], [-96.72155100039849, 40.73700699973383], [-96.72149100012403, 40.73697600019314], [-96.72144599991819, 40.73693700009179], [-96.72141599978094, 40.73690300014186], [-96.72136300007753, 40.736858999820505], [-96.72131000037407, 40.73682599973054], [-96.72124500007673, 40.73679799980639], [-96.72113999959645, 40.736773000253066], [-96.72103400018955, 40.73676700016831], [-96.72055499961544, 40.73676399978541], [-96.72043499996484, 40.73676800006902], [-96.72043699961465, 40.73699399970862], [-96.7204380003379, 40.73742999979554], [-96.71916200007065, 40.73742700012316], [-96.71898999964321, 40.73774599992086], [-96.71874399959592, 40.73815800000975], [-96.7184399998223, 40.73861500001285], [-96.71818299990433, 40.738966000096774], [-96.71777700002349, 40.73946799984101], [-96.71731900026407, 40.73956300009851], [-96.7170890001103, 40.73960899970871], [-96.71661799993211, 40.73970399976483], [-96.71630199956464, 40.73976999979558], [-96.7164549997255, 40.740147000097735], [-96.71646300012142, 40.740182000280946], [-96.71648400003781, 40.74026699967699], [-96.7165819999471, 40.74066300029196], [-96.71662399977988, 40.74081599978985], [-96.71669099972704, 40.74106500028888], [-96.71672099986428, 40.741169000180314], [-96.71745300015837, 40.743496999692326], [-96.71747200042495, 40.74362300018144], [-96.71748199957237, 40.74377799994799], [-96.71750199966388, 40.74393399982686], [-96.71750199966388, 40.74410500028155], [-96.71750199966388, 40.744319999795465], [-96.71747800027273, 40.74443000011689], [-96.71746800022699, 40.744556000199616], [-96.71745999983106, 40.74470199975928], [-96.71736500029482, 40.74522000023545], [-96.71716299973016, 40.745854000043984], [-96.71673599993288, 40.746691999922525], [-96.71670699962058, 40.74673800004704], [-96.71634799959537, 40.74723500026599], [-96.71592900019404, 40.747704999812385], [-96.7155459998794, 40.74811400027518], [-96.71522100018937, 40.74833800002327], [-96.71449399991816, 40.748335999889115], [-96.71271200021093, 40.74833500016224], [-96.71227399964472, 40.748322000309315], [-96.71203299962029, 40.74832000017468], [-96.71175099958798, 40.7448120001295], [-96.71173300004463, 40.744566999860616], [-96.71167500031831, 40.743778999743306], [-96.71163099993738, 40.74331000015769], [-96.71161699969367, 40.74307000019203], [-96.71160699964794, 40.742936999999735], [-96.71159400012746, 40.74281599998266], [-96.71157200038614, 40.74267199999047], [-96.71153999970079, 40.74250099993513], [-96.71150500043899, 40.742346999731936], [-96.71144799963926, 40.742139000067084], [-96.71141800040037, 40.74204400008559], [-96.71138099969211, 40.741933999901676], [-96.71134499970712, 40.741891999832944], [-96.711273999562, 40.74166300033676], [-96.7111609995841, 40.74141899986932], [-96.71105199980416, 40.74121599987504], [-96.71100499994849, 40.741150999752634], [-96.710956000443, 40.74106500028888], [-96.71085699981049, 40.740896999701846], [-96.71063300040281, 40.740564000189075], [-96.71054600036418, 40.74059900015287], [-96.70989899956058, 40.739686000301944], [-96.70934299989189, 40.73890199968624], [-96.70871199988011, 40.73804399999925], [-96.70874100019245, 40.737944000199434], [-96.70835899970271, 40.73742199998827], [-96.70691699975411, 40.73539299985742], [-96.70674900042295, 40.73515900014513], [-96.70645599962167, 40.73474899972371], [-96.70635299968951, 40.73468300015695], [-96.70625800015327, 40.73461799977698], [-96.70565100043095, 40.7337639997573], [-96.70571599982995, 40.7337639997573], [-96.7053669998505, 40.733259999947265], [-96.70466100039398, 40.732241000109696], [-96.70410999984985, 40.73144599978037], [-96.70342699995955, 40.73049599976069], [-96.70330499976083, 40.73049599976069], [-96.7032679999509, 40.7304390000226], [-96.70252399996123, 40.729406999722535], [-96.70237599982322, 40.72920199980438], [-96.70165199992503, 40.72819300006548], [-96.70165199992503, 40.72804899973364], [-96.70162599998577, 40.728013999974664], [-96.70150700016009, 40.727920000278026], [-96.70138699961117, 40.72782299966249], [-96.70133800010568, 40.72775700003307], [-96.70042900025956, 40.726484999772325], [-96.70029500036526, 40.726299000127554], [-96.6991499996193, 40.72470400007385], [-96.69802999988599, 40.72314200000497], [-96.6978259996715, 40.72284199968051], [-96.69653900043191, 40.72106300012634], [-96.69523200020254, 40.7192409997687], [-96.69398699989746, 40.71750499999485], [-96.6933979997185, 40.71668299995321], [-96.6929059996239, 40.71599699978259], [-96.6926169999189, 40.71559500015954], [-96.69199400030307, 40.71472599969474], [-96.69199500012797, 40.71444699976573], [-96.69199599995288, 40.7142949997883], [-96.69199199975493, 40.71363900016976], [-96.69258699978168, 40.71327800012719], [-96.69289700030139, 40.71308999983167], [-96.69296400024854, 40.713049000196506], [-96.69292099969252, 40.712996999742735], [-96.69287200018702, 40.71302599972585], [-96.69283000035423, 40.71291700017004], [-96.6928139995624, 40.712836000240856], [-96.69280900043783, 40.71273799985018], [-96.69303700004349, 40.71235600020204], [-96.69344499957415, 40.71209399972535], [-96.69349999982575, 40.71207399974015], [-96.69364899978866, 40.71201699988563], [-96.6936870003218, 40.71201699988563], [-96.69404299997396, 40.71201800015823], [-96.69477400044315, 40.7120210002951], [-96.69632500017167, 40.712026999887506], [-96.69640299998949, 40.712026999887506], [-96.6963839997229, 40.711991999874314], [-96.69566200037286, 40.710597000028756], [-96.69440700002204, 40.708292000250765], [-96.69245899973515, 40.70465300027114], [-96.69195599976992, 40.70397699994551], [-96.69132099956018, 40.70285700005707], [-96.69054399995856, 40.70143599989542], [-96.6899690000233, 40.70037400028659], [-96.68930700004938, 40.699139000049726], [-96.68867900041069, 40.69800100001622], [-96.68848100004395, 40.697635999739084], [-96.688484000417, 40.6973840000788], [-96.69021000004771, 40.69738599970149], [-96.69366100038255, 40.69738899981646], [-96.6957350001678, 40.697391999931305], [-96.69982500001198, 40.69739599985722], [-96.69985500014921, 40.694589000129334], [-96.69986299964683, 40.6938019999124], [-96.69029200006348, 40.69376699985648], [-96.69016300019204, 40.69376699985648], [-96.69010499956741, 40.69578000002708], [-96.68959800030254, 40.69577799967509], [-96.68884400026711, 40.69577600000414], [-96.68822699960074, 40.695775000168666], [-96.68750000022783, 40.69577199998095], [-96.68726599987609, 40.69577100014541], [-96.6872730004471, 40.69578300021438], [-96.68809100005663, 40.697300000207186], [-96.6877379998792, 40.69729000003704], [-96.68579600033843, 40.69729000003704], [-96.68361799989779, 40.69723699972321], [-96.68360799985204, 40.69725099983594], [-96.68233499995785, 40.697254999770266], [-96.68233499995785, 40.69737700003678], [-96.68234599982851, 40.69919699981444], [-96.68245799998152, 40.699433999995705], [-96.68279000024253, 40.70013499982336], [-96.6835989996312, 40.7020609997319], [-96.68418600016035, 40.7030349999713], [-96.6848010002786, 40.70400900026876], [-96.68523300009872, 40.704642000140446], [-96.68499000042448, 40.70464099975703], [-96.68250499983716, 40.70463500018017], [-96.67299600017812, 40.70461200020811], [-96.67299399962998, 40.70695300032471], [-96.67272599984136, 40.70695300032471], [-96.67120799972481, 40.70620799990926], [-96.67064200001037, 40.70620399983154], [-96.67060500020044, 40.70822899994851], [-96.66821800042075, 40.70822800029995], [-96.66821199967465, 40.71184900017387], [-96.6634359995671, 40.71185100004325], [-96.6634359995671, 40.711339999805155], [-96.66344099958998, 40.7080309997779], [-96.66344700033608, 40.70459999968659], [-96.65848399973247, 40.704594000106], [-96.66109599964307, 40.70835299983812], [-96.66055000002012, 40.70858400022487], [-96.66053199957845, 40.70859099977014], [-96.65964500037197, 40.708590000126954], [-96.65964600019689, 40.708702000242965], [-96.6596400003491, 40.70881400017055], [-96.65962699993032, 40.708925999909766], [-96.65960799966375, 40.70903699982419], [-96.65958199972447, 40.709146999918794], [-96.659232999745, 40.710448000322], [-96.65932200033178, 40.71045799987862], [-96.65941000019534, 40.71047300023211], [-96.65957800042482, 40.71052199972907], [-96.65973200041063, 40.71059500012177], [-96.65980100000759, 40.71063799981193], [-96.65992300020633, 40.71073999969428], [-96.66001799974256, 40.71085600007832], [-96.66008300003989, 40.71098400031447], [-96.66010300013139, 40.71105099983993], [-96.6601190000249, 40.71118699993975], [-96.66011800019999, 40.711305000111736], [-96.65922600007232, 40.71129699988739], [-96.65437999964458, 40.71128899966213], [-96.65399899987807, 40.711281999719525], [-96.6539930000303, 40.71171399966059], [-96.65393299975582, 40.71547500034021], [-96.65393299975582, 40.715884999681016], [-96.65393500030397, 40.717272000211146], [-96.65394500034971, 40.719071000249926], [-96.65394600017463, 40.71918200027328], [-96.65389000009813, 40.721219000167125], [-96.653931000106, 40.72174799970884], [-96.65392299971008, 40.722961999836365], [-96.65392600008315, 40.72432100023749], [-96.65349199971487, 40.72432100023749], [-96.64986999967583, 40.72432100023749], [-96.64922799979341, 40.72432100023749], [-96.64922299977053, 40.724943000184545], [-96.64921799974766, 40.72546899987183], [-96.64921199989988, 40.72624000008042], [-96.64921799974766, 40.72633099993513], [-96.65204999976629, 40.726331999992674], [-96.65391600003741, 40.72633300005021], [-96.65390900036469, 40.72864000021676], [-96.653895000121, 40.729937000220126], [-96.653895000121, 40.73020599990449], [-96.65389299957286, 40.731115999885006], [-96.65389299957286, 40.73358499967716], [-96.65165399993117, 40.7335860003064], [-96.64911800018855, 40.733591000048904], [-96.64682099992221, 40.73359599979102], [-96.64677900008941, 40.73359599979102], [-96.64568000027252, 40.73359199999735], [-96.6456650002039, 40.73359199999735], [-96.64452600020402, 40.73358800020343], [-96.64454100027264, 40.73189599978483], [-96.64453600024976, 40.730857999680914], [-96.64454000044772, 40.729971000326344], [-96.6445599996409, 40.72856499982079], [-96.64454700012043, 40.728405999899856], [-96.64458999977813, 40.728327999838264], [-96.64463499998396, 40.72824600025097], [-96.64455700016616, 40.72785099995996], [-96.64454600029552, 40.72779600006956], [-96.64454700012043, 40.727406000037796], [-96.64454799994535, 40.7269739998063], [-96.64458899995321, 40.726849999877366], [-96.64463900018193, 40.72669899967942], [-96.64464000000683, 40.72646500002581], [-96.64463900018193, 40.72632799976234], [-96.64464099983175, 40.726190999897646], [-96.64436899984518, 40.72618999983798], [-96.64422599973005, 40.726190999897646], [-96.64360200028932, 40.726191999957294], [-96.64275799984222, 40.72620399999131], [-96.64151500008525, 40.72622100031949], [-96.64148099975006, 40.72622299975715], [-96.64148099975006, 40.726195000136215], [-96.64076699989764, 40.726196000195806], [-96.64076900044577, 40.726165999762735], [-96.64012800038824, 40.72622499987547], [-96.63977500021085, 40.726229000112], [-96.63769499967948, 40.726226999993784], [-96.63755699958723, 40.72622100031949], [-96.63711300007152, 40.72620199987236], [-96.63650499962598, 40.72620700016969], [-96.63636700043203, 40.72620399999131], [-96.63505699982962, 40.72620399999131], [-96.6348860001254, 40.726202999931836], [-96.63228199971239, 40.72620999966714], [-96.63172400039389, 40.72620999966714], [-96.63082300004538, 40.726210999726504], [-96.62978500032784, 40.726213999904566], [-96.6295359999075, 40.726216000023214], [-96.62952099983889, 40.72620800022909], [-96.62944700021903, 40.7262119997859], [-96.62878799971986, 40.726213999904566], [-96.62601299960266, 40.72621800014175], [-96.6256429997068, 40.72621800014175], [-96.62567500039216, 40.72296099972819], [-96.62567700004199, 40.722725000324424], [-96.62568100023994, 40.72228700031534], [-96.62568200006486, 40.722137000097284], [-96.6256850004379, 40.7218949997501], [-96.62568899973755, 40.72147399990476], [-96.6256999996082, 40.720290999710386], [-96.62570100033145, 40.72020700013391], [-96.62570200015634, 40.720126000223075], [-96.62571200020209, 40.71956999983915], [-96.62572100042291, 40.719078000054445], [-96.62571100037718, 40.71899300014114], [-96.62573300011849, 40.71770800016439], [-96.62573399994339, 40.71762500024028], [-96.6257349997683, 40.71754299972147], [-96.62574599963897, 40.71688400018768], [-96.62575800023284, 40.71621599973473], [-96.62575900005776, 40.716105000212785], [-96.62573099957034, 40.71586900033201], [-96.62572899992053, 40.715474000119485], [-96.6257260004458, 40.71478700019703], [-96.62572399989766, 40.71447800026951], [-96.62572200024783, 40.71409800019272], [-96.62572200024783, 40.71392199969461], [-96.62571800004987, 40.7133000002575], [-96.62568200006486, 40.7133000002575], [-96.62567899969181, 40.71259900008392], [-96.62568600026282, 40.71182099995368], [-96.6256839997147, 40.71168299991261], [-96.62561199974466, 40.71168400019024], [-96.62561199974466, 40.71152899987446], [-96.6256209999655, 40.71006300024889], [-96.62562699981328, 40.708599999962594], [-96.62560400024705, 40.706281999942156], [-96.62556999991187, 40.70456699994374], [-96.62542299959878, 40.70456499985565], [-96.62541299955303, 40.70353500029225], [-96.62537099972023, 40.699259999806955], [-96.62275499961169, 40.69925599999301], [-96.6227350004185, 40.6973049999512], [-96.61581799968025, 40.69729499978181], [-96.61588299997757, 40.70455099991813], [-96.6147869996354, 40.70454899982951], [-96.61478300033575, 40.7061140000618], [-96.61477599976475, 40.70856500019091], [-96.613603000328, 40.708563000222846], [-96.61359900013004, 40.709915999955676], [-96.6098499998694, 40.70991000017307], [-96.60915100008555, 40.7116039997209], [-96.60915000026064, 40.71179599986879], [-96.6110419995727, 40.71180099988654], [-96.61103499990001, 40.715431000147994], [-96.6105190004143, 40.715429999926606], [-96.60615099983744, 40.715428999705246], [-96.60615099983744, 40.715406000056774], [-96.60614699963946, 40.71354499991713], [-96.60614499998965, 40.71178899997953], [-96.60170899964075, 40.71176500015904], [-96.59969000010707, 40.71175500011775], [-96.59961899996196, 40.71175500011775], [-96.597530999933, 40.7117439997983], [-96.59681399970752, 40.71174300020245], [-96.59679000031637, 40.70987299979928], [-96.59667099959238, 40.70987299979928], [-96.596685999661, 40.70765600000815], [-96.59107799970025, 40.70764699968811], [-96.59106400035483, 40.711735000030785], [-96.59249399970955, 40.711736999903536], [-96.59311200020083, 40.711738000180404], [-96.59308500043666, 40.713986999863124], [-96.59663700015551, 40.71396199991058], [-96.59652599982742, 40.725256000167995], [-96.5968970004465, 40.725574999774025], [-96.5970310003408, 40.725699000036236], [-96.59719700002215, 40.72585299997435], [-96.59721700011364, 40.72587399996922], [-96.5974749998565, 40.72614800004099], [-96.5976439999109, 40.726331999992674], [-96.59777899963012, 40.726478000065946], [-96.59792299957016, 40.726634999722066], [-96.59819499955672, 40.72693600001734], [-96.5985579997799, 40.72733699986751], [-96.59897899972937, 40.72780200028258], [-96.59907900018679, 40.727899000248], [-96.59890199973647, 40.72799199994172], [-96.59769599978944, 40.7286229998258], [-96.59761799997165, 40.72866200003552], [-96.59708200039442, 40.72892800005325], [-96.59686200028641, 40.72904100001032], [-96.59640100015396, 40.72927100008312], [-96.59622799990159, 40.72935799982941], [-96.59598699987717, 40.72974299996266], [-96.59509999977237, 40.72927100008312], [-96.59254899996114, 40.727916000143146], [-96.5923640000132, 40.72811199966187], [-96.59176099959053, 40.72778200025108], [-96.58989900041571, 40.72676499967734], [-96.58964800034552, 40.72662800003151], [-96.58907400023519, 40.72631400031583], [-96.58890699983058, 40.72622599993461], [-96.58854100013271, 40.726229000112], [-96.58704800013051, 40.7262390000215], [-96.58689400014472, 40.726236999903534], [-96.58697600016049, 40.72638500029879], [-96.58701399979532, 40.726561999897676], [-96.58701499962022, 40.727314000248704], [-96.58701600034345, 40.727688000226735], [-96.58701999964309, 40.731018999843826], [-96.58701999964309, 40.731104000056], [-96.58701899981817, 40.73121799970559], [-96.58701700016836, 40.73186899980229], [-96.58701399979532, 40.732914000182475], [-96.58701200014549, 40.73345500011183], [-96.58700899977244, 40.73469200022549], [-96.58701899981817, 40.73577300020813], [-96.58702600038919, 40.737247999688314], [-96.58703100041207, 40.73835800017699], [-96.58702999968884, 40.738624000230125], [-96.58703100041207, 40.739429999700064], [-96.58703100041207, 40.740117999679114], [-96.58703200023697, 40.740441000247856], [-96.58697100013761, 40.740439999721715], [-96.58696500028982, 40.74063499994088], [-96.58697399961234, 40.740715000231916], [-96.58697699998538, 40.7408109999097], [-96.58696899958947, 40.74117400003357], [-96.58696500028982, 40.74181099977136], [-96.58702600038919, 40.74181099977136], [-96.58701799999328, 40.74318299995196], [-96.58701499962022, 40.74370799994444], [-96.58700399974957, 40.745691999944235], [-96.58699799990178, 40.746543999779405], [-96.58699000040419, 40.74800699979802], [-96.58697399961234, 40.75060500011398], [-96.58697199996253, 40.751169999671596], [-96.58696600011476, 40.75215499981363], [-96.58695699989391, 40.75393199970398], [-96.58695100004613, 40.754778999930814], [-96.58690400019046, 40.75488700002685], [-96.58689499996962, 40.755190999985274], [-96.58688800029694, 40.755328000015794], [-96.58706800022199, 40.755342999783444], [-96.58811299961224, 40.75531500016904], [-96.5881109999624, 40.755914999920606], [-96.588238000184, 40.75611900024932], [-96.58834899961377, 40.75628199973181], [-96.58885999997494, 40.75650599986321], [-96.5889560002344, 40.7564930002468], [-96.5889560002344, 40.75654800022913], [-96.58949900038262, 40.75647800005818], [-96.58947500009319, 40.75665999994101], [-96.58939700027537, 40.756928999760206], [-96.5892299998708, 40.75718200022841], [-96.5891810003653, 40.75756600033382], [-96.58921800017522, 40.75756300020865], [-96.58925499998516, 40.75777400006015], [-96.58979700030845, 40.758091999993205], [-96.5897999997832, 40.75882400027194], [-96.59184799962918, 40.758832000226704], [-96.59185100000221, 40.75887600030115], [-96.59184799962918, 40.75890900033783], [-96.59502799980234, 40.75893300016863], [-96.59501199990882, 40.758061000073035], [-96.595298999964, 40.758061000073035], [-96.59536300043641, 40.758061000073035], [-96.59537099993402, 40.75835100029749], [-96.59542100016273, 40.758570999928835], [-96.59544499955386, 40.75867899998869], [-96.5956370000728, 40.75893300016863], [-96.59566300001205, 40.75896799999147], [-96.59599799974782, 40.75918299976237], [-96.59614500006091, 40.75922400023473], [-96.59641700004748, 40.759297999844925], [-96.59640000032904, 40.75935500003105], [-96.59635699977302, 40.75951400014858], [-96.59625300001593, 40.7597290001948], [-96.59611400009878, 40.7599889997965], [-96.59602000038744, 40.760267999991335], [-96.59597900037957, 40.7605529996763], [-96.59599000025023, 40.76083999993868], [-96.59605399982432, 40.76112300014329], [-96.59616599997732, 40.76139200027388], [-96.59623700012243, 40.761479000196985], [-96.59617400037324, 40.76150399998957], [-96.59635799959794, 40.761728999741024], [-96.59656099998752, 40.761847000113654], [-96.59673699971461, 40.76188299996652], [-96.59758299981154, 40.76209000027299], [-96.59804200029417, 40.762124000274845], [-96.59811799956383, 40.7622600001083], [-96.59806400003546, 40.762285000287555], [-96.59796500030126, 40.76232699972385], [-96.59787300023976, 40.76236599990562], [-96.59777399960726, 40.762407999971096], [-96.59768699956861, 40.762448999815064], [-96.59758000033682, 40.762511000310994], [-96.5975090001917, 40.76256300017752], [-96.59744399989437, 40.76261799990046], [-96.59700700005136, 40.76248500002227], [-96.59682299992835, 40.762772000107425], [-96.59673800043784, 40.76312299993037], [-96.59673099986684, 40.763232000261986], [-96.59672699966887, 40.76329500020982], [-96.59672400019414, 40.763336999688256], [-96.59671999999618, 40.76340599994019], [-96.59662899975959, 40.76360699988126], [-96.59655799961448, 40.76368200023165], [-96.59644299998676, 40.76380500005148], [-96.59635099992524, 40.76391299977197], [-96.59629499984874, 40.76397900027079], [-96.59627300010744, 40.76400499997507], [-96.59621399965789, 40.764177000013106], [-96.59620699998518, 40.76423000010523], [-96.59620199996233, 40.76426700019585], [-96.59619799976436, 40.764296000289235], [-96.59619199991658, 40.76433799981552], [-96.59618500024389, 40.764390999779245], [-96.59619000026676, 40.764547000287294], [-96.59619500028964, 40.76470299974878], [-96.59620000031249, 40.764842000225244], [-96.5962060001603, 40.76501299998189], [-96.59640399962869, 40.76531199982006], [-96.59640299980379, 40.765364000216685], [-96.59617199982509, 40.765364000216685], [-96.59583899973917, 40.76558100000633], [-96.59578299966267, 40.76562199993405], [-96.5957340001572, 40.7656679998892], [-96.59569099960116, 40.76571799971559], [-96.59565600033939, 40.765770999939576], [-96.5956300004001, 40.76582599972932], [-96.59561100013353, 40.76588399990366], [-96.5956019999127, 40.76594200002733], [-96.59560100008778, 40.766001999703214], [-96.5956089995854, 40.76605999972396], [-96.59562600020215, 40.766117999694075], [-96.59565100031651, 40.766174000016], [-96.59568499975337, 40.76622800001444], [-96.59572599976126, 40.76627800009993], [-96.59577400034016, 40.76632400028136], [-96.59582899969342, 40.76636599988679], [-96.59588999979279, 40.76640300014895], [-96.59595599991503, 40.7664340002608], [-96.59603600028098, 40.766468000081524], [-96.59594900024233, 40.766587999790076], [-96.59586899987639, 40.76671099967462], [-96.59579600008146, 40.76683699971856], [-96.5957299999592, 40.76696499977781], [-96.59617500019813, 40.767088999770166], [-96.5961509999087, 40.76714000001262], [-96.59626800008456, 40.767173000028585], [-96.59635500012321, 40.76719700027729], [-96.59637799968942, 40.767144999954226], [-96.59681899973037, 40.76726800016858], [-96.59728800025876, 40.76672000017164], [-96.59738100014518, 40.766611000117656], [-96.59747800022954, 40.76643300012574], [-96.59767599969796, 40.76631400027423], [-96.59794299966165, 40.76628099983171], [-96.59924300021832, 40.76628199996906], [-96.59940600042493, 40.767837000083816], [-96.59987400023007, 40.767809000289226], [-96.5998829995526, 40.76787400020733], [-96.59989400032157, 40.767912999855504], [-96.59992000026082, 40.767967999913594], [-96.59995100022299, 40.76801900016183], [-96.59998999968272, 40.76806800014996], [-96.6000370004367, 40.76811299966298], [-96.6001010000108, 40.768161000153114], [-96.60066000005256, 40.7685440000014], [-96.60071199993108, 40.768582999936726], [-96.60077800005331, 40.76864299994953], [-96.60082099971102, 40.76869100005682], [-96.60086500009196, 40.768749999871915], [-96.60090199990188, 40.768811999932495], [-96.60093200003911, 40.76887600013188], [-96.60095299995551, 40.76894199978398], [-96.6009660003743, 40.76900900014712], [-96.60102199955247, 40.76946300013764], [-96.60097999971968, 40.76949699976934], [-96.60097899989478, 40.769728000187975], [-96.60097800006986, 40.76983499972395], [-96.60116800004067, 40.76983400032041], [-96.6011489997741, 40.77091900016097], [-96.60234100037574, 40.77092800008805], [-96.602323999759, 40.77201499985504], [-96.602323999759, 40.772228000185315], [-96.60124599985846, 40.772228000185315], [-96.6011279998577, 40.772228000185315], [-96.60101999990266, 40.77222700013745], [-96.60101099968182, 40.772608000276485], [-96.60055600029547, 40.77259300032302], [-96.5997419999856, 40.77265100003354], [-96.59875799979643, 40.772609000318624], [-96.59872000016158, 40.7697219996748], [-96.59817399964034, 40.76972100026957], [-96.59579799973127, 40.76971499975576], [-96.59533199957595, 40.76971399967008], [-96.59365100015108, 40.76970899992172], [-96.59182099986499, 40.769703000087176], [-96.58956399978162, 40.769696000166135], [-96.58944999997883, 40.769696000166135], [-96.58867300037718, 40.76969299990817], [-96.58867300037718, 40.77181500022647], [-96.58793299968717, 40.77181500022647], [-96.58791199977078, 40.773899999976635], [-96.5880199997258, 40.77389799993122], [-96.58836000038274, 40.77389799993122], [-96.58835899965952, 40.773926999903516], [-96.58836000038274, 40.77394200023607], [-96.58836000038274, 40.77445200000428], [-96.58836000038274, 40.775933000034286], [-96.58842499978175, 40.775967999748175], [-96.5886109995546, 40.77607200014985], [-96.58867300037718, 40.776105999801025], [-96.58863499984405, 40.776156999925504], [-96.5883929999947, 40.776493000046784], [-96.58837799992611, 40.77699200022301], [-96.58833000024552, 40.77703299991275], [-96.58826900014614, 40.777132000137605], [-96.58826900014614, 40.777909999875256], [-96.5890690002123, 40.77777200016863], [-96.5890769997099, 40.777561999828364], [-96.58909199977852, 40.777036999814754], [-96.58927000005376, 40.777037999790224], [-96.58926000000801, 40.77756900028123], [-96.58965800039128, 40.7775849997587], [-96.59049600009227, 40.77757100021613], [-96.59055700019164, 40.77786900004657], [-96.59017999972478, 40.778063000057855], [-96.58948500013892, 40.7788639999436], [-96.58912299974068, 40.780236000098796], [-96.5890480002959, 40.7807160002083], [-96.5889560002344, 40.78149300023532], [-96.58901700033377, 40.7823410001254], [-96.59012000034863, 40.78224900014114], [-96.59058800015377, 40.781835999898554], [-96.59078300014745, 40.78141399994298], [-96.59111700005829, 40.779824000197394], [-96.59137200032643, 40.77974400002591], [-96.59220400017963, 40.779802000295895], [-96.59380400031196, 40.7785560002897], [-96.59481400044041, 40.777878999675295], [-96.59437400022436, 40.77746400021332], [-96.59436199963048, 40.77736299986187], [-96.59461799972352, 40.77719199991354], [-96.59463299979213, 40.77729299984471], [-96.59510300014541, 40.77768699973837], [-96.59541899961461, 40.77750299967487], [-96.59556000007991, 40.77752299972125], [-96.595735999807, 40.77754900024871], [-96.59575199970052, 40.77863499989984], [-96.59638600008535, 40.778635999851254], [-96.59635699977302, 40.77937899972157], [-96.59555500005703, 40.77938899980323], [-96.59564600029363, 40.78150599972338], [-96.59519299965878, 40.78149400014371], [-96.59511700038912, 40.7809670000833], [-96.59445299986707, 40.78108199988265], [-96.59375900010613, 40.78133400032606], [-96.59328999957775, 40.78164299992919], [-96.59288299987197, 40.7820200002036], [-96.59253499971743, 40.782191999865134], [-96.59150799987056, 40.78302699980543], [-96.59182500006295, 40.78314100023569], [-96.59242900031055, 40.78318700030618], [-96.59253499971743, 40.78302699980543], [-96.59257999992327, 40.78303799990322], [-96.59271600036571, 40.78301499982034], [-96.59280699970401, 40.782946000204205], [-96.59309399975918, 40.78283200011939], [-96.59335099967713, 40.78316299971149], [-96.59403100009268, 40.782867000279595], [-96.59460400037813, 40.78236199997089], [-96.5949969998402, 40.78219099996726], [-96.59483100015885, 40.78174599970423], [-96.59525299993325, 40.78166599980696], [-96.5958270000436, 40.78167600022454], [-96.59581199997497, 40.782488000264614], [-96.59561600015641, 40.78277499966355], [-96.59520600007758, 40.78314899998408], [-96.59484200002952, 40.783401999946996], [-96.59486100029609, 40.78372299999152], [-96.59547499969109, 40.78378600023772], [-96.59547300004127, 40.78419999978569], [-96.59262699977894, 40.78418899988035], [-96.59169399964338, 40.78418499972881], [-96.5915460004037, 40.784183999860936], [-96.58989299966962, 40.78417799997318], [-96.58989100001978, 40.784521999917175], [-96.58988900036995, 40.78502200017032], [-96.58979300011049, 40.7850490003381], [-96.58967299956159, 40.78509700015571], [-96.589624999881, 40.78512199990528], [-96.58959200026904, 40.78514099984473], [-96.58952600014679, 40.785186000037534], [-96.58945300035187, 40.78524900025627], [-96.58940499977297, 40.785301000013895], [-96.58937299998591, 40.78534200001648], [-96.58934500039683, 40.78538499969339], [-96.58930900041183, 40.78545800025161], [-96.58928799959712, 40.7855189998366], [-96.58927699972647, 40.78557000021599], [-96.58927000005376, 40.78565500008112], [-96.58927000005376, 40.785755000223254], [-96.58927099987866, 40.78587300010211], [-96.58927099987866, 40.78593200030299], [-96.58927099987866, 40.7860169997048], [-96.58926699968072, 40.786096999802595], [-96.58926199965784, 40.78612999992539], [-96.58925400016024, 40.78616899974018], [-96.5892370004418, 40.786226999840984], [-96.58922400002301, 40.78626300008918], [-96.58919800008374, 40.78632100010783], [-96.58914899967994, 40.78640599969192], [-96.58912899958847, 40.78643399981116], [-96.5890609998164, 40.78651499991959], [-96.58899600041737, 40.786583999908814], [-96.58882300016502, 40.786767000154036], [-96.58874699999704, 40.7868479998563], [-96.5885829999655, 40.786862999991826], [-96.58841700028415, 40.78687199979949], [-96.58825099970447, 40.786874999961825], [-96.58756100014149, 40.786874000134446], [-96.58752000013362, 40.786866999982074], [-96.58748099977555, 40.78685500001068], [-96.58744499979053, 40.786838000217486], [-96.5874139998284, 40.78681699974679], [-96.58738600023929, 40.78679299978374], [-96.58734900042938, 40.78673600000677], [-96.5872590000177, 40.78629399977707], [-96.58694699984817, 40.78627299981453], [-96.5866539999452, 40.78627299981453], [-96.58423899967809, 40.78626600027897], [-96.58423700002827, 40.78564900032626], [-96.58236900010735, 40.78564200004481], [-96.58236699955921, 40.78471799994262], [-96.58236400008447, 40.78415500028513], [-96.57737799991465, 40.78414000021809], [-96.57737700008974, 40.78547499971784], [-96.57885699967316, 40.785480000320234], [-96.57885699967316, 40.78622199997501], [-96.57907299958323, 40.78662600031073], [-96.58054700021717, 40.78777099975565], [-96.5804869999427, 40.78784100029311], [-96.58067199989063, 40.787925999972096], [-96.58123699978015, 40.78833400004545], [-96.58215300019728, 40.78797100031824], [-96.58215400002219, 40.7884319999464], [-96.58325700003705, 40.7885240002076], [-96.58468599956683, 40.78897999973906], [-96.5862940000951, 40.788976999671824], [-96.58694699984817, 40.788975000080356], [-96.58694699984817, 40.78797399975077], [-96.58726499986548, 40.787972000129095], [-96.58755000027084, 40.787972000129095], [-96.58782399990722, 40.78813600019289], [-96.58856000039928, 40.78832900033811], [-96.58964900017044, 40.78826899973986], [-96.58972699998826, 40.78900299979655], [-96.58939599955214, 40.790036999799064], [-96.58939499972723, 40.791466000239446], [-96.5928209999477, 40.79251500019254], [-96.59648700036769, 40.792518000099925], [-96.59648399999463, 40.79152500023189], [-96.59788300028549, 40.791534000087786], [-96.59788099973736, 40.79118600001001], [-96.59853199984062, 40.791183000042444], [-96.5985310000157, 40.791079999940486], [-96.59951400037998, 40.791079000176424], [-96.60046599988378, 40.791076999968126], [-96.60046599988378, 40.79116899996534], [-96.60044900016536, 40.79126399979907], [-96.60127599999569, 40.79139000020648], [-96.60126199975198, 40.78913799991419], [-96.60126000010217, 40.788726000141764], [-96.60125500007929, 40.78789499968571], [-96.60124800040661, 40.786622000305975], [-96.60123800036085, 40.784712000103106], [-96.60123599981273, 40.784436999962324], [-96.60123599981273, 40.7842180001215], [-96.6014869998829, 40.78421899998886], [-96.6025709996312, 40.78422200027104], [-96.60566600031386, 40.78423099975642], [-96.60568999970498, 40.7844110000904], [-96.6058169999266, 40.784506999933065], [-96.60585700010958, 40.78754400012844], [-96.605873999828, 40.78791400019208], [-96.60590700033828, 40.7886100001739], [-96.60588800007172, 40.79129199991026], [-96.60589100044476, 40.79150800027402], [-96.60588800007172, 40.79168400022718], [-96.60513200038648, 40.791682999792144], [-96.60429200013735, 40.79167600014671], [-96.60408600027301, 40.791674999711496], [-96.60409100029588, 40.7924010002113], [-96.60407600022728, 40.7926169996877], [-96.6042400002588, 40.792621999752285], [-96.60512599964038, 40.79262000027053], [-96.60490399988254, 40.79266399973574], [-96.60472300013255, 40.79272599992179], [-96.6044939998037, 40.792847000227894], [-96.6043049996578, 40.79298700004837], [-96.60462299967513, 40.79322999990058], [-96.60475300026978, 40.79338600002541], [-96.60479799957731, 40.793568000161166], [-96.60479599992749, 40.79414100016679], [-96.60401900032586, 40.79414699983449], [-96.60401799960263, 40.79430700006706], [-96.60401699977773, 40.7946120003137], [-96.60390799999779, 40.7946120003137], [-96.60390700017287, 40.794777000008025], [-96.60401500012792, 40.794777000008025], [-96.60401299957977, 40.795034999759146], [-96.60401299957977, 40.79522499978883], [-96.60395999987632, 40.79522499978883], [-96.60310000043403, 40.79521799983673], [-96.60307199994661, 40.79616600003467], [-96.60398300034085, 40.796376000037505], [-96.60401199975485, 40.79659299986399], [-96.60328299983381, 40.79658600005613], [-96.60332300001676, 40.79676699990187], [-96.60332700021473, 40.79683299972659], [-96.60333800008537, 40.79697400033785], [-96.60355599964527, 40.79697400033785], [-96.60354999979748, 40.797373000155304], [-96.60279499993717, 40.79736599974969], [-96.60269000035518, 40.79728200026489], [-96.60199800024405, 40.79672899986996], [-96.60127500017079, 40.796722000076485], [-96.60128000019365, 40.79737100013663], [-96.60128600004143, 40.79812500018457], [-96.60128799969125, 40.79838800015553], [-96.60129299971413, 40.798843999947245], [-96.60127199979775, 40.798843999947245], [-96.60099800016135, 40.7988410003257], [-96.5992769996552, 40.79882600017592], [-96.59649700041342, 40.79880300012097], [-96.59650400008611, 40.79866599995388], [-96.59649400004037, 40.795164000278824], [-96.59292100040511, 40.7951339996742], [-96.59292200023005, 40.79573900017911], [-96.59293099955256, 40.798634999921504], [-96.59293200027578, 40.798772000152574], [-96.5901589998084, 40.79874900007896], [-96.58697100013761, 40.7987209997124], [-96.58666200034114, 40.7987160001072], [-96.58666399999095, 40.79890799977468], [-96.58675500022754, 40.79897800013161], [-96.58677500031904, 40.80169099992288], [-96.58871799968472, 40.801623999882906], [-96.59267100015987, 40.801488999992756], [-96.59308600026158, 40.8015139996909], [-96.59298199960618, 40.802401999671574], [-96.59386000038846, 40.80371799982829], [-96.59355099969366, 40.81098900000094], [-96.59302699981203, 40.810982999815764], [-96.59173100035164, 40.8109729997326], [-96.5913220000977, 40.8123850002317], [-96.59121800034065, 40.8123850002317], [-96.59072200004807, 40.81237900017277], [-96.5907089996293, 40.812530999685286], [-96.59049500026738, 40.81254000009279], [-96.59046799960487, 40.8130749999897], [-96.59046500013014, 40.813140999915724], [-96.5904409998407, 40.81330499967419], [-96.58701799999328, 40.81327599989979], [-96.5869789996352, 40.8132749997901], [-96.5869789996352, 40.81309600031321], [-96.58695199987103, 40.81309500020087], [-96.58654500016526, 40.81309099975115], [-96.58654599999016, 40.813271000031186], [-96.58577000021346, 40.813263999942535], [-96.58220500007582, 40.81322900016816], [-96.58029399959887, 40.81321000010811], [-96.57984300041046, 40.81320599966532], [-96.57872899962663, 40.8131959999172], [-96.5775009999383, 40.81318399994549], [-96.57737299989178, 40.81318299983442], [-96.5769529997672, 40.813179000069944], [-96.5762559996332, 40.813169999749135], [-96.5725440000808, 40.81312400005438], [-96.57254099970774, 40.813715999779475], [-96.57253900005792, 40.81411799986594], [-96.57145000028675, 40.81410499996387], [-96.5714259999973, 40.81866099997064], [-96.57106299977414, 40.81865899991367], [-96.56862199956777, 40.818651999713694], [-96.56861200042034, 40.820292999864904], [-96.56788799962385, 40.82028299982536], [-96.56769600000322, 40.8202809998173], [-96.56769600000322, 40.82057699967878], [-96.56767599991174, 40.82266200005873], [-96.56765699964517, 40.82277199986432], [-96.56764999997247, 40.82388700004951], [-96.56786800043068, 40.82388999989855], [-96.57108399969054, 40.82394100003008], [-96.57152700027964, 40.82439700030304], [-96.57310099957438, 40.82601299973474], [-96.5734400004064, 40.82626099991778], [-96.57407899991578, 40.82672800020896], [-96.5741579995585, 40.82672800020896], [-96.5742200003811, 40.82761599992021], [-96.57730699976953, 40.827670000263176], [-96.57821099959277, 40.82768599990318], [-96.58307200008913, 40.827772000111196], [-96.58688699957371, 40.827840000149365], [-96.59130299983113, 40.82788599983569], [-96.59167100007716, 40.8278900000729], [-96.59388999962738, 40.82791400013157], [-96.59566600038512, 40.827933000058614], [-96.59731500002295, 40.82794500008126], [-96.59941100044782, 40.82796100033461], [-96.6004380002947, 40.827969000120035], [-96.60117399988845, 40.82797500012835], [-96.60115700017, 40.83098499997839], [-96.60115499962188, 40.83161700016739], [-96.60062099969448, 40.83161499982141], [-96.59678500029352, 40.831577999866624], [-96.59507200018328, 40.83156199980629], [-96.59095899987454, 40.83152300015283], [-96.59041800027447, 40.83151900013479], [-96.59041699955125, 40.833105000259984], [-96.59041599972633, 40.83516099989913], [-96.59222900029398, 40.835178000229696], [-96.59276300022138, 40.83518400026541], [-96.59430700027723, 40.83519799989341], [-96.59587700027231, 40.83521299997707], [-96.59627499975726, 40.83521599999337], [-96.59633400020681, 40.83521699977224], [-96.59632599981089, 40.83855499991826], [-96.59632599981089, 40.83886700011123], [-96.59631699959004, 40.840116999879676], [-96.59630800026754, 40.84135100012495], [-96.59619699993945, 40.84134999975899], [-96.58907199968705, 40.84128400003892], [-96.58906500001436, 40.84227999988596], [-96.58878200015714, 40.84227799986166], [-96.58879200020287, 40.84244099994275], [-96.58879800005064, 40.8425519999061], [-96.59147199988554, 40.846135000071655], [-96.5914690004108, 40.84653099968148], [-96.59143199970256, 40.849144999693614], [-96.59143599990053, 40.849933999954686], [-96.59143099987764, 40.850146000124454], [-96.59140800031143, 40.850266999689694], [-96.59133899981613, 40.850381999695095], [-96.59128100008982, 40.850500999732795], [-96.5912860001127, 40.85058300001696], [-96.59126500019632, 40.85067400018867], [-96.59122599983824, 40.850769999995386], [-96.59120499992184, 40.85079399992532], [-96.59119800024916, 40.85081499985692], [-96.59118099963241, 40.85085000018108], [-96.59115700024127, 40.85088100027801], [-96.59110299981461, 40.85093600023896], [-96.59105599995893, 40.85098200020835], [-96.59103900024049, 40.850992999915626], [-96.59098399998891, 40.85101799998483], [-96.59093299993529, 40.851047999783624], [-96.5908919999274, 40.85106600033586], [-96.59087600003387, 40.85107299983203], [-96.59086000014035, 40.8510829999847], [-96.59081699958432, 40.85109799987105], [-96.59078499979726, 40.85111999992476], [-96.59072600024605, 40.851162999792486], [-96.59065900029888, 40.8512340002714], [-96.59059400000156, 40.85130099981143], [-96.59056999971213, 40.85133700009409], [-96.59049899956702, 40.85141700027466], [-96.59034600030446, 40.8515640003122], [-96.59024800039515, 40.8516549998161], [-96.59016399983125, 40.85175799966379], [-96.58978899991253, 40.85191100018432], [-96.59013600024217, 40.852289999916515], [-96.59038800013725, 40.852295999762184], [-96.59091799986668, 40.85259900009468], [-96.59113899979961, 40.852800999999516], [-96.5912929997854, 40.85318899972391], [-96.5914829997562, 40.85367899997123], [-96.59174800007006, 40.85394400021743], [-96.59211799996592, 40.85410599996899], [-96.59258300029632, 40.85423599996124], [-96.592842999689, 40.85439099985384], [-96.59303799968268, 40.85450600017545], [-96.59343199986799, 40.85506199984818], [-96.59347399970078, 40.855482000056014], [-96.59347799989874, 40.85551400017619], [-96.59340900030176, 40.8556490001947], [-96.59328000043033, 40.85579799997121], [-96.59295300019217, 40.85618000031607], [-96.59295999986487, 40.85633099985739], [-96.5936860003112, 40.85637600001857], [-96.59409700021493, 40.85640200023368], [-96.59446700011077, 40.85642299974666], [-96.59473900009735, 40.85644000005931], [-96.5948550004483, 40.856448999943325], [-96.59498599996955, 40.856505000175424], [-96.59502500032761, 40.85658299995875], [-96.59508499970374, 40.856701000275265], [-96.59513400010756, 40.85679800031465], [-96.59515000000108, 40.85682899966689], [-96.59519100000895, 40.85685699996797], [-96.59538799965244, 40.85698400028714], [-96.59538900037568, 40.857121000283556], [-96.59604100030383, 40.8571150001954], [-96.59611599974859, 40.85711400006744], [-96.60010500020876, 40.857105000273776], [-96.60023800027815, 40.857105000273776], [-96.6050150002106, 40.85709300009407], [-96.6053459997484, 40.85709199996573], [-96.6053449999235, 40.857228999738794], [-96.60534999994636, 40.85809099968653], [-96.60570599959853, 40.85810999979705], [-96.60566700013877, 40.86232800017583], [-96.61042999982752, 40.86229399985084], [-96.61049400029994, 40.8580979997994], [-96.62006499988328, 40.85803100033871], [-96.62007800030207, 40.85815500010863], [-96.62003700029418, 40.858867000124604], [-96.62002100040065, 40.85983599969114], [-96.62000499960881, 40.860805000029046], [-96.61998799989038, 40.86177399977878], [-96.61997199999685, 40.86274300029849], [-96.61995600010333, 40.86371200022865], [-96.6199539995552, 40.8638020000032], [-96.6199460000576, 40.86425599983965], [-96.61986800023978, 40.86427000012029], [-96.61515599970635, 40.864264000000375], [-96.60565000042033, 40.864306000149114], [-96.60565000042033, 40.86439299974162], [-96.6055929996206, 40.87091900000733], [-96.6055919997957, 40.8709899996908], [-96.60559099997079, 40.87109599979413], [-96.60531399996137, 40.87109399996038], [-96.602952000296, 40.871077999929526], [-96.60288600017377, 40.871077999929526], [-96.60288699999867, 40.87094599986726], [-96.60243000006417, 40.87094300010979], [-96.60242900023928, 40.871075000178074], [-96.60242699969113, 40.87121400006841], [-96.60286899955702, 40.87121599989854], [-96.60284400034098, 40.87126100013637], [-96.60276999982281, 40.871331000219065], [-96.60256700033155, 40.871532000151994], [-96.60246199985123, 40.871641999701495], [-96.60231999956102, 40.871785000065294], [-96.60221599980395, 40.87188300033579], [-96.60201800033555, 40.87208499985346], [-96.60218200036707, 40.87234299986118], [-96.60219499988754, 40.8723759998844], [-96.60231700008627, 40.87256800031092], [-96.60240099975188, 40.87270499999891], [-96.60251999957755, 40.87289800004032], [-96.60278700043956, 40.87300899992541], [-96.6029730002124, 40.87308600008519], [-96.60301599987012, 40.87316200026977], [-96.60306199990086, 40.87324199990506], [-96.60308399964217, 40.87328100014221], [-96.60312399982514, 40.87335100012711], [-96.60314899993949, 40.873394999710975], [-96.6031220001753, 40.87344300014995], [-96.60311700015245, 40.87348400003032], [-96.60310299990874, 40.87352400000515], [-96.60308100016744, 40.87356200019658], [-96.60301800041825, 40.873629000248606], [-96.60294200025025, 40.873734000325484], [-96.60292700018165, 40.87375999984011], [-96.60286899955702, 40.87376400002579], [-96.60276399997504, 40.87378900033168], [-96.60264799962408, 40.87381800013129], [-96.60256800015644, 40.87383300030373], [-96.60252700014857, 40.873851000098604], [-96.6025089997069, 40.873889000102345], [-96.60249799983625, 40.873929999706526], [-96.60247199989699, 40.873995000319276], [-96.60246400039938, 40.8740249999013], [-96.60245099998059, 40.874066999972506], [-96.60245500017854, 40.87408200008853], [-96.60246799969903, 40.874096000329594], [-96.60248699996559, 40.87410599972371], [-96.60256300013359, 40.87413500006373], [-96.6026490003473, 40.874170000293205], [-96.6027270001651, 40.87420099966588], [-96.60282400024948, 40.87424000001738], [-96.60294100042536, 40.874286000106366], [-96.60312899984801, 40.87436200027192], [-96.60324600002387, 40.874410000009796], [-96.60338300029123, 40.87446400026766], [-96.60347700000256, 40.87450000018868], [-96.60351200016265, 40.874515000206564], [-96.60355300017054, 40.87453100008611], [-96.60363600001122, 40.87456299983351], [-96.60368299986689, 40.87458299983764], [-96.6037609996847, 40.87484200016007], [-96.60378499997414, 40.87492199980306], [-96.60365299972965, 40.87511699988637], [-96.6036560001027, 40.87562399972436], [-96.60432800012235, 40.876210999878026], [-96.60442400038183, 40.8763230001596], [-96.60451300007027, 40.876420999826024], [-96.6045289999638, 40.87641299977553], [-96.60456099975084, 40.87639599983479], [-96.6047049996909, 40.8763199999665], [-96.60487100027056, 40.87623299974208], [-96.6055080001301, 40.87589799975419], [-96.60663299988629, 40.875307999982425], [-96.6069500000787, 40.87514199968135], [-96.60894500022124, 40.87409999981575], [-96.6090280000619, 40.87405799976543], [-96.60960800002005, 40.87376400002579], [-96.61055100020134, 40.87329700031994], [-96.61133399965075, 40.87289100013311], [-96.61169000020122, 40.87269899996398], [-96.6124989995899, 40.87228000014161], [-96.61310500038562, 40.87196599986918], [-96.61342900025072, 40.87179200008944], [-96.61374800009295, 40.87159599981329], [-96.61419599980661, 40.87135899982386], [-96.61435999983814, 40.871272999787024], [-96.61479000000845, 40.87127000004442], [-96.61518900021663, 40.87126800021591], [-96.61543199989086, 40.87127399970122], [-96.61554300021893, 40.87120799989836], [-96.61562799970946, 40.871160999792785], [-96.61849999991105, 40.8711779997192], [-96.6196590000024, 40.871184999807475], [-96.61980499959228, 40.871185999723004], [-96.61979000042197, 40.87843399997459], [-96.61974600004105, 40.880326999683696], [-96.61973900036836, 40.88068300032173], [-96.60773699972607, 40.880604999716134], [-96.60772699968032, 40.88100800015762], [-96.60770900013698, 40.88195499973299], [-96.60764999968742, 40.884706000254084], [-96.60765499971029, 40.88483599994878], [-96.60763999964169, 40.88516000006176], [-96.60535400014432, 40.885144000034735], [-96.60523399959541, 40.88513499997539], [-96.60522699992272, 40.88554700000435], [-96.6053459997484, 40.88557100023688], [-96.60748599965589, 40.8855789998597], [-96.60888900014474, 40.88558300001033], [-96.61226900033445, 40.88561000000193], [-96.61243099981783, 40.88561099969958], [-96.61253999959777, 40.885616000224964], [-96.61275600040616, 40.885607000229804], [-96.6130979998146, 40.88561099969958], [-96.61323199970892, 40.88561299977397], [-96.6132729997168, 40.889375000073855], [-96.62098799997308, 40.88956300018139], [-96.6210039998666, 40.88970399991149], [-96.62097200007958, 40.89289000017376], [-96.62170199982553, 40.892905999686036], [-96.62173699998563, 40.892493999977056], [-96.62162300018281, 40.892490999837925], [-96.62163400005346, 40.889729999944485], [-96.62162700038077, 40.88957800018139], [-96.62450600025505, 40.889649999862506], [-96.62450500043016, 40.88985200017193], [-96.6245010002322, 40.892969000147225], [-96.62700600001267, 40.892979000085546], [-96.62905499968358, 40.89298599990567], [-96.62904600036104, 40.89399199972435], [-96.63006499981202, 40.89634100015162], [-96.63078899971018, 40.896421999826046], [-96.63164800022591, 40.89642100029177], [-96.6321479998181, 40.89642000007838], [-96.63292500031804, 40.896266999850994], [-96.63403400018069, 40.89636799982777], [-96.63443099984073, 40.89641700011728], [-96.63447299967353, 40.89641100019462], [-96.63537599967185, 40.89629599998786], [-96.63537599967185, 40.89636799982777], [-96.6378570000612, 40.89636799982777], [-96.63894599983237, 40.89628400012008], [-96.64056299968311, 40.89585999977356], [-96.64229199968689, 40.894552999786235], [-96.642947999813, 40.89346400003401], [-96.642947999813, 40.89313499987858], [-96.64342700038712, 40.89313199976852], [-96.6435749996268, 40.8931299999214], [-96.64396700016229, 40.89312399970062], [-96.64403599975927, 40.893459000101636], [-96.64411899959993, 40.89361399986526], [-96.64457800008256, 40.89447300010335], [-96.64490399959749, 40.8947040001039], [-96.6448900002521, 40.895855000022316], [-96.64488699987903, 40.896040000073285], [-96.64488000020634, 40.8966540000213], [-96.64487500018349, 40.89703399989453], [-96.64486799961247, 40.89759799987071], [-96.64486699978757, 40.897705999852114], [-96.64486000011486, 40.89784200028203], [-96.64485099989403, 40.89859700027008], [-96.64481499990902, 40.89861100007874], [-96.64423499995088, 40.89878600015325], [-96.64419800014095, 40.89897599967115], [-96.64397999968276, 40.899455000143185], [-96.6439679999872, 40.89948199990635], [-96.64367000006136, 40.899485999895504], [-96.64348500011343, 40.89948800022944], [-96.64337200013553, 40.899489999884345], [-96.64277399973572, 40.899505999837444], [-96.64279600037536, 40.90026400031036], [-96.64281999976649, 40.90748499985917], [-96.64341700034139, 40.90749000008914], [-96.64363900009923, 40.90749100013514], [-96.64836099978008, 40.90752799978813], [-96.64835099973435, 40.911143999867036], [-96.65793800010952, 40.91122799971153], [-96.6570979998604, 40.91484000000404], [-96.66270199962318, 40.914891999987454], [-96.66274900037718, 40.90929700006913], [-96.6628020000806, 40.90404000000446], [-96.66283899989054, 40.900537000028976], [-96.66283499969259, 40.90026199999984], [-96.6630690000443, 40.89976599989098], [-96.66309699963341, 40.89968299990918], [-96.66317899964916, 40.897603999685664], [-96.6631610001058, 40.897332000283654], [-96.66317000032664, 40.89694000033637], [-96.66317699999935, 40.89659900000177], [-96.66318399967203, 40.89633999993708], [-96.66278700001199, 40.896374999968366], [-96.66242499961375, 40.8964080002331], [-96.66153900023218, 40.89634100015162], [-96.65921600002659, 40.89631999971687], [-96.65797699956927, 40.89631200003448], [-96.65557200024621, 40.896345000330705], [-96.65453700000343, 40.896294000236395], [-96.65316700002487, 40.89622599982312], [-96.65177000028211, 40.896282999904685], [-96.65003000040771, 40.89623400019496], [-96.65001199996603, 40.89318000015536], [-96.65001199996603, 40.893087999722816], [-96.6500150003391, 40.892951999705325], [-96.64997900035408, 40.89295100011857], [-96.64910200029502, 40.892941999762876], [-96.64910200029502, 40.89289399988244], [-96.6490870002264, 40.88984399970743], [-96.64911800018855, 40.88961999989173], [-96.64923500036443, 40.88940399983631], [-96.64943399965773, 40.889139999867396], [-96.64957500012304, 40.88895300024251], [-96.64930999980916, 40.888936999774316], [-96.64915300034865, 40.888953999889665], [-96.64913400008207, 40.88895700018919], [-96.64908300002845, 40.88879700009665], [-96.64908100037862, 40.88816499992169], [-96.65003100023262, 40.88857599976978], [-96.6502279998761, 40.88831399988567], [-96.65054199969546, 40.88844999992903], [-96.65078400044311, 40.88811400031274], [-96.65110300028533, 40.887657000038644], [-96.65109900008737, 40.88699799974821], [-96.65312500019208, 40.886990999973726], [-96.65311799962106, 40.885880999684936], [-96.65311799962106, 40.88578200006721], [-96.653121999819, 40.883948999858276], [-96.65312400036716, 40.882889999761765], [-96.65312600001697, 40.87863400027482], [-96.65538999977304, 40.87864900003523], [-96.65595300001273, 40.878652999925535], [-96.66025899976698, 40.87868099982977], [-96.66264200024705, 40.87869600025879], [-96.66671799984753, 40.878721000060594], [-96.66746299966212, 40.878725999748156], [-96.66803000009978, 40.87872899983216], [-96.66842799958472, 40.878728000030605], [-96.67060000017759, 40.87875599990315], [-96.67149099958203, 40.878754000300724], [-96.67164899976578, 40.87875299982032], [-96.67171999991089, 40.87933499975535], [-96.67194500004179, 40.88117900019329], [-96.6719829996766, 40.88148899983862], [-96.67209200035488, 40.88237600029841], [-96.6743689996314, 40.88238799997194], [-96.67449500002809, 40.88238899971826], [-96.67468499999892, 40.88264500015605], [-96.67480600037273, 40.88280599992148], [-96.67483499978673, 40.88297299975794], [-96.67490799958165, 40.88338199979009], [-96.67497299987899, 40.884094000245675], [-96.67477000038771, 40.884711999879926], [-96.67478700010615, 40.88504400028748], [-96.67480999967236, 40.88552200006418], [-96.67483399996182, 40.88601299985033], [-96.67492900039636, 40.88601200015879], [-96.67501600043501, 40.88601099978804], [-96.67523800019286, 40.88600899972574], [-96.67546099977562, 40.88601299985033], [-96.67551699985212, 40.88628800002843], [-96.67558299997435, 40.88657299997026], [-96.675705999998, 40.88710600005582], [-96.67582200034896, 40.88760800005225], [-96.67605900017541, 40.88870600001147], [-96.67698800011301, 40.888711999953784], [-96.67698100044032, 40.887954000219175], [-96.6769799997171, 40.88773200012775], [-96.67697899989219, 40.88765999971789], [-96.67741300026046, 40.88795800022624], [-96.67787600004273, 40.88813299995862], [-96.67810899967124, 40.88822099981987], [-96.67825400033452, 40.88834399976944], [-96.67837700035815, 40.88844999992903], [-96.67842400021381, 40.888489999688865], [-96.67863500010101, 40.88867200032814], [-96.67865199981945, 40.888684000218404], [-96.67905299967744, 40.88902000033593], [-96.67921199968609, 40.88913099967239], [-96.67918599974682, 40.88913500028743], [-96.67946500030439, 40.88937599971459], [-96.6798679998122, 40.88959900003991], [-96.6800860002704, 40.88972699968002], [-96.68027000039343, 40.88974499990667], [-96.68036499992967, 40.88973599979395], [-96.68063500026642, 40.88971300002856], [-96.68103000027662, 40.88983299966147], [-96.68119799960779, 40.88984300007378], [-96.681416000066, 40.89011299976948], [-96.68159000014329, 40.89038200009612], [-96.68162799977812, 40.890654999852224], [-96.68161400043272, 40.89093100005016], [-96.68152300019612, 40.891236000093556], [-96.68145100022612, 40.89148500028438], [-96.68149499970872, 40.891758999847816], [-96.68152400002104, 40.891880000126584], [-96.68156099983095, 40.8920309997544], [-96.68167499963377, 40.8922219999367], [-96.68169999974813, 40.8922219999367], [-96.68182000029705, 40.89222300021352], [-96.68181799974892, 40.89243599975266], [-96.68181100007622, 40.89330000029104], [-96.68202100013849, 40.89330200013301], [-96.68237099994286, 40.89330500023543], [-96.68245399978356, 40.89330500023543], [-96.68251900008087, 40.89330599981678], [-96.68263999955639, 40.89330700007719], [-96.68286600041051, 40.89330800033765], [-96.68306100040417, 40.89331000017938], [-96.68406700033468, 40.89331699996448], [-96.68543599959, 40.89332600026912], [-96.68601700027136, 40.89332999995144], [-96.68761599968046, 40.89334100009515], [-96.6912720000547, 40.89336700005712], [-96.69139400025344, 40.89336700005712], [-96.69142100001761, 40.889416999913], [-96.69142500021557, 40.88889399998245], [-96.69143100006336, 40.88864900019291], [-96.69174599970762, 40.88831399988567], [-96.69177500001994, 40.88828399998823], [-96.69222600010664, 40.8878450002735], [-96.69285100027064, 40.88737299968249], [-96.69338500019802, 40.88706499978376], [-96.6938689998967, 40.886858000042956], [-96.69441299986983, 40.88663700003149], [-96.69498600015525, 40.88649500019399], [-96.69537899961733, 40.88642499984629], [-96.69577299980263, 40.88636300031084], [-96.69628199961565, 40.886322000257564], [-96.6970530002678, 40.88632000020462], [-96.69746300034663, 40.88629499987727], [-96.69982300036216, 40.8863279997369], [-96.700670000284, 40.886338999686444], [-96.70103400033207, 40.88634499984333], [-96.70122400030286, 40.88634499984333], [-96.70122400030286, 40.886268999852874], [-96.70290800010078, 40.88627200027413], [-96.70459600009666, 40.88627400032853], [-96.70587700038676, 40.88627500001611], [-96.7062959997881, 40.886281000178855], [-96.7078220003006, 40.8863010000382], [-96.7078220003006, 40.88632900010281], [-96.70894500040693, 40.88637400025456], [-96.7097599996434, 40.88640599971002], [-96.71052500044777, 40.88644100024275], [-96.71052700009758, 40.88631699978554], [-96.7105279999225, 40.88618199980127], [-96.71055999970956, 40.88259099977997], [-96.71055999970956, 40.88255699967153], [-96.71057499977819, 40.88106799974383], [-96.71059499986966, 40.87891199994652], [-96.71060300026558, 40.878083999693175], [-96.71060300026558, 40.87798400014615], [-96.70821200028792, 40.877970999861084], [-96.70821499976265, 40.877583999768135], [-96.70823599967905, 40.8752050000738], [-96.70824999992277, 40.87346799989779], [-96.7106459999233, 40.8734720001011], [-96.71063699970246, 40.87444900023817], [-96.71062900020486, 40.87528599981097], [-96.71182799958086, 40.87528699966456], [-96.71183299960374, 40.87347399986303], [-96.71899200019134, 40.87348699967267], [-96.7198619996794, 40.87351100020276], [-96.72001800021332, 40.873513999843894], [-96.72018800009263, 40.87355899987836], [-96.72016999965096, 40.87525200002562], [-96.72016999965096, 40.875298999944064], [-96.72016899982606, 40.875354000008585], [-96.7201300003663, 40.878928999920305], [-96.72008599998537, 40.8827260002979], [-96.72006099987101, 40.884975999856835], [-96.72004699962733, 40.8861680000789], [-96.72004400015257, 40.886359000207406], [-96.72022400007764, 40.88635399973813], [-96.72137300012326, 40.88636100025913], [-96.72145599996392, 40.886357999841906], [-96.72151399969026, 40.886359000207406], [-96.72153399978174, 40.886359000207406], [-96.72169600016345, 40.886357999841906], [-96.72196599960188, 40.886357999841906], [-96.72207399955691, 40.88635399973813], [-96.72219599975566, 40.88634699989552], [-96.72227799977142, 40.886340000052186], [-96.72237800022883, 40.88632900010281], [-96.72246299971933, 40.88631800015161], [-96.72253800006241, 40.88630799988566], [-96.72261199968224, 40.88629600024373], [-96.72273800007893, 40.88627299996174], [-96.72282099991963, 40.8862550001489], [-96.72293100042279, 40.886229000108735], [-96.72304900042357, 40.88619899994526], [-96.72526600032396, 40.886205000114835], [-96.7295429997659, 40.88621699977333], [-96.7307100002532, 40.88622000019694], [-96.73060300012307, 40.886089999825266], [-96.73050900041174, 40.885975999707036], [-96.73034700003004, 40.8858420000796], [-96.7301620000821, 40.885708000180784], [-96.72996100024065, 40.88549900019233], [-96.72984400006477, 40.88532499998765], [-96.72993799977611, 40.88524900018405], [-96.73003200038576, 40.885081999978304], [-96.73099899995819, 40.88491200022666], [-96.73166099993207, 40.88484700014631], [-96.73215999969938, 40.88486300024519], [-96.73263500007552, 40.884931999820644], [-96.73316499980496, 40.88507500000115], [-96.73353800007385, 40.88521299999637], [-96.73384500022053, 40.88530600021471], [-96.73431499967548, 40.885406000245226], [-96.7348720000674, 40.88549700011451], [-96.73493300016676, 40.885549000080665], [-96.73497400017463, 40.88558300001033], [-96.73503699992384, 40.88563499990891], [-96.7350839997795, 40.88566899979434], [-96.73511899993959, 40.8856889998387], [-96.735175999841, 40.88571300001973], [-96.73524899963594, 40.88573300005074], [-96.73535699959098, 40.88574499979476], [-96.73542199988832, 40.88574200002877], [-96.73558000007206, 40.88571099994837], [-96.73568600037727, 40.885690999910665], [-96.73576400019508, 40.88568100022918], [-96.73579799963194, 40.88567700008447], [-96.73586100027946, 40.885672000242856], [-96.73592099965559, 40.885670000170265], [-96.73597599990718, 40.885670000170265], [-96.73624600024391, 40.88571099994837], [-96.7364839998953, 40.88575900028578], [-96.73675599988185, 40.885846999908374], [-96.73686200018707, 40.885891999708775], [-96.7371249999528, 40.886010000096476], [-96.73738100004584, 40.88612600021496], [-96.73757699986442, 40.886205000114835], [-96.737892000407, 40.8863010000382], [-96.73825599955676, 40.88637200020318], [-96.73848300023579, 40.886396999822296], [-96.73857600012221, 40.886402000288285], [-96.73874699982643, 40.88640700007479], [-96.738990000399, 40.886407999760365], [-96.73912299957007, 40.88650899984714], [-96.73927699955584, 40.88662499977006], [-96.73936100011976, 40.88668899978101], [-96.73982300007712, 40.88640700007479], [-96.73982300007712, 40.88624499987348], [-96.73982399990204, 40.886155000043004], [-96.73932799960949, 40.886155000043004], [-96.73935500027197, 40.884038000250825], [-96.74040499968508, 40.88401699998584], [-96.74041800010387, 40.88307299991791], [-96.74092500026708, 40.88307299991791], [-96.74383799957826, 40.88307400033301], [-96.74394499970836, 40.8831180002462], [-96.74393899986057, 40.88368799971878], [-96.7439320001879, 40.88434300014631], [-96.74712599970644, 40.8843679998527], [-96.74872800038692, 40.88438100023963], [-96.74873500005961, 40.883726000188254], [-96.74875400032619, 40.88178599985457], [-96.74875799962584, 40.881434000117025], [-96.74876500019683, 40.88077099990195], [-96.74877600006748, 40.87967000000932], [-96.7487769998924, 40.87961200009074], [-96.74963800005793, 40.879686999788426], [-96.75050000004838, 40.87974799967911], [-96.75140399987161, 40.87979799983711], [-96.75591899986324, 40.8798829998831], [-96.75636800030014, 40.87999400028226], [-96.7567950000974, 40.880100000232694], [-96.75684000030324, 40.880110999859035], [-96.75686799989232, 40.88011799968201], [-96.75692099959578, 40.88013100022456], [-96.75700500015968, 40.88014499986558], [-96.7571890002827, 40.88017599983636], [-96.7573370004207, 40.88020099975845], [-96.75740600001768, 40.88021299982636], [-96.75752400001845, 40.88023000014522], [-96.75776800041592, 40.880242999986564], [-96.75786100030234, 40.88024999979563], [-96.7579779995799, 40.8802540002683], [-96.75823799987089, 40.8802619998546], [-96.7589500000735, 40.88028500018809], [-96.75894599987554, 40.88021299982636], [-96.75891800028644, 40.88007099978896], [-96.75888599960108, 40.87990599966907], [-96.75884200011846, 40.87953200000259], [-96.75882799987477, 40.879356999939624], [-96.75888899997413, 40.879356999939624], [-96.7590699997241, 40.87935799973173], [-96.76187300032873, 40.87937099974434], [-96.76453799994276, 40.87938299996273], [-96.76482699964777, 40.87939299991665], [-96.76737800035731, 40.879477999803555], [-96.76767200008518, 40.87949200026185], [-96.77319300000731, 40.879656000267836], [-96.77531399964822, 40.87981500026256], [-96.7757830001766, 40.8798630001218], [-96.77619999992811, 40.87991799979041], [-96.77631700010397, 40.879935000185085], [-96.77654899990758, 40.879609000046756], [-96.7765790000448, 40.87956899967332], [-96.77666299971038, 40.87946900033208], [-96.77683599996276, 40.87925899986528], [-96.77695599961335, 40.879075000234714], [-96.7769730002301, 40.879046000021134], [-96.77718199956917, 40.87904999988739], [-96.77741599992089, 40.87904999988739], [-96.77743600001237, 40.87847800025551], [-96.77745799975368, 40.877041999946925], [-96.77967100035444, 40.87767699983901], [-96.77971300018723, 40.87760100008297], [-96.7821970000513, 40.87831300023992], [-96.78220500044722, 40.87758799972274], [-96.78220700009705, 40.87739700009186], [-96.78220899974687, 40.87722700029829], [-96.782211000295, 40.87704500010726], [-96.78222299999057, 40.875858999700164], [-96.7822609996254, 40.871856000178724], [-96.78700199957285, 40.87180000001906], [-96.78700300029607, 40.87167500007411], [-96.79187700031291, 40.871683000017875], [-96.79590799970755, 40.87169199986855], [-96.79597100035505, 40.86454700030974], [-96.79597800002774, 40.86375900018653], [-96.79599999976905, 40.859602000006625], [-96.79600499979195, 40.859554999816396], [-96.79598700024857, 40.85914900029765], [-96.79601700038582, 40.85727399996942], [-96.79601999986053, 40.85643899992117], [-96.79618399989207, 40.85643899992117], [-96.79689600009469, 40.85645500009174], [-96.79695899984388, 40.85645500009174], [-96.79707099999686, 40.856290000227446], [-96.79751000038802, 40.85564999966536], [-96.7977489998643, 40.85527699970482], [-96.7977139997042, 40.85525900029664], [-96.79732399971687, 40.855052000296126], [-96.79709000026344, 40.85496499998466], [-96.79695800001896, 40.85496100002229], [-96.79696300004184, 40.85488799981679], [-96.7969739999125, 40.853319999662354], [-96.79699200035415, 40.85267500001005], [-96.79714100031708, 40.85229299983942], [-96.79726699981545, 40.85229299983942], [-96.79745400031152, 40.852188999941625], [-96.79753899980201, 40.85205300014252], [-96.7977139997042, 40.851744000135895], [-96.79779099969709, 40.85164400021873], [-96.79698399995823, 40.85140599995831], [-96.79699200035415, 40.85046100012082], [-96.79692899970665, 40.85032399994182], [-96.79693399972952, 40.84999999989433], [-96.79653399969644, 40.85001800005181], [-96.79613600021149, 40.85001099976463], [-96.79607299956399, 40.85001099976463], [-96.79608699980768, 40.84820300033491], [-96.79610000022647, 40.846490999711605], [-96.7961010000514, 40.846345000262396], [-96.79610500024936, 40.8458260003284], [-96.79611000027224, 40.84519300005672], [-96.79611699994493, 40.84418300004728], [-96.79696800006472, 40.844188999947455], [-96.79721199956387, 40.84285400027978], [-96.79733200011277, 40.84285499994345], [-96.79733200011277, 40.84276199989766], [-96.79734399980835, 40.841377999805715], [-96.79775300006226, 40.84137900017126], [-96.80262200005623, 40.84137900017126]], [[-96.73031199986991, 40.759364999724404], [-96.73013299976978, 40.759367999768195], [-96.72792699974005, 40.75934299985269], [-96.72553999996035, 40.75931400031994], [-96.72371700024526, 40.75928999994619], [-96.72356300025946, 40.7590460001913], [-96.72327899967902, 40.758554999955486], [-96.72304000020273, 40.75810000003606], [-96.72281900026981, 40.75763999974835], [-96.72262599992595, 40.75719700025818], [-96.7224259999094, 40.7566820000202], [-96.72226400042601, 40.75620800016659], [-96.72209700002145, 40.75563500021137], [-96.72184699977619, 40.7556309997015], [-96.7207499996091, 40.755615999998824], [-96.72077899992142, 40.76154599991931], [-96.72079099961698, 40.765460999840236], [-96.72067299961621, 40.76552399971635], [-96.71968299957923, 40.765838000098015], [-96.7195169998979, 40.766597000303754], [-96.72079399999004, 40.766597000303754], [-96.7208059996856, 40.77018400018568], [-96.72318999999057, 40.77022299983882], [-96.7266630000667, 40.77027900010314], [-96.7266709995643, 40.772591000238265], [-96.72663700012743, 40.7738969999085], [-96.72660500034037, 40.77751300003894], [-96.72660399961715, 40.777603999813465], [-96.7268959996952, 40.77760699971421], [-96.72675900032617, 40.778981999821355], [-96.72670800027254, 40.78070000012448], [-96.72687300012899, 40.78070100004481], [-96.72687300012899, 40.78433000013653], [-96.72607600043585, 40.784327999724944], [-96.7257769997868, 40.784442999826624], [-96.72575199967245, 40.78445899968899], [-96.72573800032707, 40.78445899968899], [-96.72392599958431, 40.784453999689894], [-96.72206900043234, 40.78444699996262], [-96.72192600031721, 40.7844460000987], [-96.72138399999392, 40.784445000234754], [-96.72090699996794, 40.784442999826624], [-96.72060800021721, 40.78445899968899], [-96.72059399997349, 40.78436500018751], [-96.72059599962331, 40.78405399990451], [-96.71990100003745, 40.784042000104975], [-96.71949199978353, 40.784036000204395], [-96.71943999990499, 40.78364199987871], [-96.71949199978353, 40.783271999820315], [-96.71949900035455, 40.78276699987013], [-96.7195589997307, 40.78075000020356], [-96.71952899959345, 40.77998600011347], [-96.7194180001637, 40.779207000258324], [-96.71903599967396, 40.778766000208634], [-96.71860600040196, 40.778354000032785], [-96.718193999775, 40.77805800025754], [-96.71742999969385, 40.77785000006761], [-96.71593199966875, 40.77755699999034], [-96.71485100029354, 40.77744999996498], [-96.71457199973594, 40.77505199980141], [-96.71437699974229, 40.77347499985855], [-96.71425399971864, 40.771821999924285], [-96.71419599999231, 40.77077399973125], [-96.71417800044897, 40.77050899977048], [-96.71416500003016, 40.77028299973144], [-96.71400199982355, 40.77028299973144], [-96.71399500015087, 40.77017999987108], [-96.71360500016351, 40.77017899979239], [-96.71343600010911, 40.77017899979239], [-96.71331300008548, 40.768371000274], [-96.71325199998611, 40.768371000274], [-96.71277599978502, 40.76082399983098], [-96.71274700037102, 40.76037900001392], [-96.71279699970142, 40.76012099967611], [-96.71282400036394, 40.75973400001356], [-96.71280799957208, 40.75934700013919], [-96.71259400021016, 40.755697000258344], [-96.71258699963916, 40.755603999825986], [-96.71254499980637, 40.75498999977224], [-96.71231100035294, 40.75197099982245], [-96.71254599963127, 40.75200999995555], [-96.71292599957287, 40.75198400032306], [-96.71679600020734, 40.75201100030764], [-96.72070500030156, 40.75200900028397], [-96.72066099992063, 40.74856300010135], [-96.72065699972268, 40.74834599987878], [-96.72094499960276, 40.74834599987878], [-96.72118399997737, 40.74834599987878], [-96.72138499981881, 40.74834599987878], [-96.72144699974311, 40.74834700028599], [-96.72635599992003, 40.74838799995519], [-96.73018499964832, 40.74841799989626], [-96.73030500019723, 40.7484150000389], [-96.73030500019723, 40.74845299981043], [-96.73029699980133, 40.75229399999078], [-96.7302959999764, 40.75314200032443], [-96.73029099995352, 40.755750999922924], [-96.73031100004502, 40.75904000007447], [-96.73031199986991, 40.759364999724404]]]}, "properties": {"id": "covered-us-ne-lincoln", "status": "covered", "jurisdiction": "Lincoln", "country_id": "us", "state_id": "ne", "area_type": "city", "note": "Covered by public tree inventory for Lincoln; geometry from official jurisdiction boundary."}}]}