{"type": "FeatureCollection", "features": [{"type": "Feature", "geometry": {"type": "Polygon", "coordinates": [[[-71.47247600040903, 41.83436400032778], [-71.47247700023395, 41.83430800020218], [-71.47246200016534, 41.834234000152335], [-71.4724320000281, 41.83418099978365], [-71.47238299962432, 41.834122000293995], [-71.4722350003846, 41.83399999997434], [-71.47206399978208, 41.83387400024491], [-71.4719940003602, 41.833807000101864], [-71.47182699995561, 41.83362100007641], [-71.47174499993984, 41.8335380002001], [-71.47167299996983, 41.833486999859836], [-71.47159000012915, 41.83343800008522], [-71.47106299987446, 41.83320700025998], [-71.47097199963785, 41.83315700029815], [-71.47090200021597, 41.83311000021811], [-71.47083400044392, 41.83307299984602], [-71.4706079995898, 41.8329820001242], [-71.47058599984848, 41.832967999795144], [-71.47044399955827, 41.832911999786816], [-71.47036699956537, 41.83287999985568], [-71.4702579997854, 41.832831000285665], [-71.46998699962377, 41.83272299989901], [-71.46979099980518, 41.83265599988976], [-71.46969500044403, 41.832630999698516], [-71.46940400019089, 41.8325750000647], [-71.46930399973347, 41.83257100013681], [-71.46911299993776, 41.83253200015723], [-71.46902500007421, 41.832502999985415], [-71.46894999973114, 41.832467999899045], [-71.46888799980687, 41.83242899985672], [-71.46881900020989, 41.83237000009078], [-71.46875800011051, 41.83230800031217], [-71.46862400021621, 41.8322120002342], [-71.46848699994887, 41.83211300004486], [-71.46835600042762, 41.83203300019242], [-71.46828600010741, 41.83198299998286], [-71.46822099981009, 41.83192899976623], [-71.4680380004103, 41.83172899970741], [-71.46798200033379, 41.831683999909266], [-71.46791399966344, 41.831640000076035], [-71.46775600037799, 41.83155600031046], [-71.46767299963899, 41.83151999970782], [-71.46758999979832, 41.83149099974681], [-71.46743699963746, 41.831451999778565], [-71.46726199973526, 41.83141799978687], [-71.46719099959014, 41.83140899978605], [-71.4670240000839, 41.83140399978503], [-71.46686099987727, 41.831409999786224], [-71.46646199966911, 41.831451999778565], [-71.4662929996147, 41.831482999755295], [-71.46617700016208, 41.831508999724136], [-71.46609099994834, 41.831510999721296], [-71.46569299956508, 41.831447999780494], [-71.46561499974727, 41.83141799978687], [-71.46541599955563, 41.83131399970017], [-71.46531900036958, 41.83128000030448], [-71.46524599967633, 41.83126700027488], [-71.46510000008647, 41.831265000270086], [-71.46499200013142, 41.83124300021322], [-71.46492199981122, 41.83121500012999], [-71.46485999988695, 41.83118100001235], [-71.46480299998554, 41.83111899975144], [-71.46476899965036, 41.83104800004825], [-71.4647579997797, 41.83099099969217], [-71.4647579997797, 41.83093099993187], [-71.4647369998633, 41.83087800017492], [-71.46472599999265, 41.83082199967683], [-71.46472199979469, 41.83076499978882], [-71.46469300038069, 41.83065899995615], [-71.46474199988617, 41.830587999742754], [-71.4647500002821, 41.83031600031761], [-71.46474400043432, 41.83024699976043], [-71.46468599980967, 41.83012600010739], [-71.4646459996267, 41.83007100031115], [-71.46456899963381, 41.82987699994686], [-71.46442200021903, 41.82959699995086], [-71.46430400021825, 41.82939699996884], [-71.4641800003697, 41.829227999761386], [-71.46412500011812, 41.82913599989262], [-71.46402100036103, 41.828938999925434], [-71.4639479996678, 41.828841000069296], [-71.46379299985709, 41.82868100011842], [-71.46374400035161, 41.82861599998228], [-71.46367599968123, 41.82847499967644], [-71.46363499967335, 41.82840499976526], [-71.46346099959607, 41.828213999857375], [-71.46334799961816, 41.82807400005714], [-71.46324899988396, 41.827965000292366], [-71.46320000037848, 41.82791899980165], [-71.4631450001269, 41.8278809997206], [-71.46306499976095, 41.827835999894916], [-71.4629829997452, 41.82783199967085], [-71.46293000004174, 41.82784699984034], [-71.46287300014033, 41.827801999990754], [-71.46280399964503, 41.82776700001146], [-71.46274799956855, 41.82776700001146], [-71.462659999705, 41.82774500009125], [-71.46259399958277, 41.82769100031576], [-71.46255599994791, 41.82764100006159], [-71.46249499984856, 41.82752900004671], [-71.46245399984068, 41.82748099978909], [-71.46243200009935, 41.82741300025503], [-71.46241200000787, 41.8273029999699], [-71.46238699989352, 41.827247999756416], [-71.46235500010647, 41.827192000099124], [-71.46233199964193, 41.827137999857186], [-71.46230599970266, 41.82704699973076], [-71.46229700038016, 41.82697600019695], [-71.4623090000757, 41.82678900033148], [-71.46233300036518, 41.82673599982281], [-71.46236599997712, 41.82668500008762], [-71.46252300033596, 41.82646999989099], [-71.46254199970421, 41.82645299991313], [-71.46250400006939, 41.82613000014573], [-71.46230300022793, 41.825793000197365], [-71.46207999974685, 41.82554000022051], [-71.46193599980681, 41.82511499994056], [-71.46222500041013, 41.824781000316065], [-71.46242299987854, 41.82468699987107], [-71.46315199979959, 41.82466400012572], [-71.46318500030986, 41.824754000188136], [-71.46401999963783, 41.824641999808584], [-71.46449300036414, 41.824578999801844], [-71.46470300042643, 41.82462299980248], [-71.46492400035937, 41.824671000194606], [-71.46521600043742, 41.82460399979069], [-71.46629500016283, 41.82446900000277], [-71.46788500024942, 41.82437699998919], [-71.46820900011453, 41.82435799990445], [-71.46839900008531, 41.824321999939755], [-71.46898099969327, 41.82430299983869], [-71.47079099988788, 41.824209000030734], [-71.47130600044703, 41.82413900014109], [-71.47176400020642, 41.8241529997235], [-71.47163199996194, 41.82381600007974], [-71.47160000017489, 41.82373499977983], [-71.47157300041071, 41.823665000041366], [-71.47151099958812, 41.823510999945775], [-71.47107700011816, 41.822384000083176], [-71.47100000012527, 41.822239000206174], [-71.47089499964497, 41.82198699972187], [-71.47087700010161, 41.82194400006614], [-71.47082000020022, 41.82180900002532], [-71.47079900028382, 41.82175899986363], [-71.4707840002152, 41.82171899984], [-71.47044399955827, 41.82090399969203], [-71.47042900038797, 41.82081700007053], [-71.47042099999204, 41.82080799991824], [-71.47025100011274, 41.82037699999725], [-71.47022599999838, 41.820313000306825], [-71.47003100000471, 41.819828000019314], [-71.47001500011118, 41.819788000128405], [-71.46995400001181, 41.819641000030174], [-71.46993800011828, 41.81959100018402], [-71.4696729998044, 41.81893299974922], [-71.46965000023819, 41.81887599998753], [-71.46949299987935, 41.818484999843584], [-71.46941099986358, 41.818282000015614], [-71.46939300032025, 41.81823599993221], [-71.4693470002895, 41.81812199978684], [-71.46926000025086, 41.81790499987131], [-71.46922599991566, 41.81782100016016], [-71.46918400008288, 41.81771599986411], [-71.46901800040152, 41.81730500028231], [-71.46882000003481, 41.81680999970365], [-71.46869500036132, 41.81649800005119], [-71.46862500004113, 41.81631800002378], [-71.46834499965864, 41.81562299968956], [-71.4682850002825, 41.81557499987935], [-71.46820800028962, 41.81558599992272], [-71.468193000221, 41.81544499971058], [-71.46817800015239, 41.8153039998575], [-71.46816300008376, 41.815231000186756], [-71.46815499968785, 41.81517000013207], [-71.46813999961924, 41.81510499966964], [-71.46813200012164, 41.81504100006659], [-71.46810899965709, 41.81493799974476], [-71.46809399958849, 41.814838000034264], [-71.46805599995365, 41.81473500005545], [-71.46802499999151, 41.814671000082726], [-71.46794899982353, 41.81454499980295], [-71.4678340001958, 41.81430099996992], [-71.46780400005858, 41.81420099993447], [-71.46786699980777, 41.81415599986753], [-71.46769799975337, 41.813401999667654], [-71.46768000021001, 41.81332500004637], [-71.46767500018714, 41.81330799992621], [-71.46757200025499, 41.81331699979347], [-71.4670450000003, 41.81198700026534], [-71.46667099990648, 41.81104300004777], [-71.46655100025588, 41.8107419999599], [-71.46660300013441, 41.81069999977292], [-71.46786500015793, 41.81063900008998], [-71.46870299985893, 41.81060000014147], [-71.46778200031727, 41.808876000190494], [-71.4670819998102, 41.807928000200214], [-71.46694500044119, 41.80795599975397], [-71.46680300015095, 41.80779999997981], [-71.46712100016828, 41.8076230000593], [-71.46770299977622, 41.80729999972321], [-71.46785099991425, 41.80725099999433], [-71.46810899965709, 41.80626499987688], [-71.46790299979278, 41.80630000022569], [-71.46794499962557, 41.80609100025037], [-71.46906400043228, 41.806059000306064], [-71.4690719999299, 41.80602199970192], [-71.46911100028794, 41.80585099994387], [-71.46913999970194, 41.80542699997303], [-71.46928000034235, 41.80525199967083], [-71.46916499981629, 41.804863999963004], [-71.46841699962867, 41.804932000005685], [-71.46812100025097, 41.80495200024083], [-71.46773100026364, 41.80498900012371], [-71.46766799961613, 41.804939000222625], [-71.46707199976447, 41.80447000006778], [-71.46689299966432, 41.80456799972422], [-71.46679300010521, 41.80462399974761], [-71.46669799967064, 41.80467600006027], [-71.4666440001423, 41.804699000288174], [-71.46650699987494, 41.804774999817795], [-71.46638499967621, 41.80484800002127], [-71.46627800044439, 41.80490500021403], [-71.46617899981189, 41.804965999999965], [-71.46593500031273, 41.80512999991585], [-71.46575899968732, 41.8052559999662], [-71.46510699975916, 41.80570399999854], [-71.46505700042876, 41.805739999715726], [-71.46492000016141, 41.80587399974993], [-71.46475299975683, 41.805924999989166], [-71.46468599980967, 41.80594600031218], [-71.46432099993669, 41.80542600023672], [-71.46458000040279, 41.805376000007044], [-71.46487900015352, 41.8053209997093], [-71.46467599976394, 41.80508899980881], [-71.46472500016775, 41.8049639998432], [-71.4645829998775, 41.80499100027963], [-71.46434000020326, 41.80499299976591], [-71.46408499993514, 41.80497900001269], [-71.46396600010945, 41.80499499992171], [-71.46384300008582, 41.805023000087736], [-71.46371599986419, 41.80504100014013], [-71.46366499981058, 41.80504600019102], [-71.46335299964103, 41.80507799997161], [-71.46324600040924, 41.805093999855956], [-71.46315099997469, 41.805114999781765], [-71.46308099965448, 41.805139000262464], [-71.46300799985954, 41.80517500029712], [-71.4628780001632, 41.80516300006459], [-71.46279699997235, 41.805132000067374], [-71.46262700009304, 41.80505100024147], [-71.46244799999289, 41.80498499981162], [-71.46236099995426, 41.804965999999965], [-71.46230599970266, 41.80496500025641], [-71.46188200027845, 41.80509899990266], [-71.46109399990786, 41.80519799967621], [-71.46090800013502, 41.805222000125866], [-71.45947299985913, 41.805370000244665], [-71.45785500018346, 41.80555300010898], [-71.45770299984748, 41.80556899987465], [-71.45721400012596, 41.80561800022035], [-71.45494100014906, 41.805882000262834], [-71.45231400016985, 41.80613300011111], [-71.45133500000355, 41.80623799997734], [-71.45067899987741, 41.80630700029317], [-71.4504300003554, 41.80633999983568], [-71.45028499969213, 41.806361999744475], [-71.45023000033885, 41.80637000019639], [-71.44964199998479, 41.806449999973594], [-71.4492560001954, 41.806449000253195], [-71.4488260000251, 41.80649399970799], [-71.44801900028625, 41.80657600010642], [-71.44753300003946, 41.8066140001085], [-71.44742300043458, 41.80662600006921], [-71.44435399969117, 41.806952999975245], [-71.44367800037189, 41.80703199998278], [-71.44286499988694, 41.807129999738066], [-71.44222300000452, 41.80720299993662], [-71.44221399978368, 41.80702700008688], [-71.44219799989015, 41.806873999870305], [-71.44215400040754, 41.80657300028151], [-71.44213599996587, 41.80651400012516], [-71.44201499959206, 41.80604000014327], [-71.44186900000219, 41.805673999995584], [-71.44171800038944, 41.80536500021911], [-71.44161799993202, 41.80519300030681], [-71.44154099993914, 41.80506299982535], [-71.44140200002195, 41.80485300008717], [-71.44131800035636, 41.80475000012347], [-71.44129499989184, 41.804713999850016], [-71.44110599974594, 41.80447200023996], [-71.44087499976726, 41.80422600002598], [-71.44054099985641, 41.803945999689276], [-71.44029599963405, 41.80374099979088], [-71.44025200015142, 41.80370500028979], [-71.44019299970188, 41.8036600002154], [-71.44004200008914, 41.803475000098175], [-71.43998000016487, 41.80343800001065], [-71.43993800033206, 41.80341499999972], [-71.44000199990616, 41.80338699980068], [-71.43993800033206, 41.80328899967713], [-71.4395530003676, 41.80260599998346], [-71.43936800041966, 41.80228500004113], [-71.43930800014522, 41.80215099986692], [-71.43926600031243, 41.80202699998578], [-71.43924600022093, 41.80190800016041], [-71.43923199997722, 41.80160499974805], [-71.43923899964993, 41.801226000280735], [-71.43924500039601, 41.800888999861094], [-71.43924000037315, 41.80071600017731], [-71.43923399962705, 41.8006630001885], [-71.43922799977926, 41.800621999901715], [-71.43922899960418, 41.800443999757206], [-71.43924100019807, 41.80029000007596], [-71.43924100019807, 41.800216000219244], [-71.43924200002296, 41.800028999892824], [-71.43928800005372, 41.798885999916884], [-71.43933499990939, 41.79794700012823], [-71.43935300035106, 41.79767999996542], [-71.43935800037391, 41.79759800023643], [-71.43935900019883, 41.797377000321895], [-71.43933999993227, 41.797241000201765], [-71.43905799989994, 41.79616600002764], [-71.43887499960185, 41.79548399998214], [-71.438540999691, 41.794228999994715], [-71.4384479998046, 41.79400799984834], [-71.43834499987244, 41.79388400028409], [-71.43794099964138, 41.793536000290366], [-71.43776900011224, 41.79339900013247], [-71.43764199989064, 41.79323900003694], [-71.43753800013357, 41.793032000183004], [-71.437482999882, 41.79281999999562], [-71.43746100014067, 41.79273299973474], [-71.43742699980548, 41.79224499975475], [-71.4374209999577, 41.79215600016618], [-71.43740800043724, 41.791951000056784], [-71.43737599975186, 41.791679999892594], [-71.43736200040647, 41.79157299970756], [-71.43730200013202, 41.79102000015432], [-71.43726299977396, 41.79073000005869], [-71.43718400013124, 41.7904919997575], [-71.4371599998418, 41.790433000199066], [-71.43713499972745, 41.79015199989947], [-71.43691499961942, 41.78969999971502], [-71.43678499992306, 41.7894330000247], [-71.4367940001439, 41.78930399970818], [-71.43682400028113, 41.788914999892334], [-71.43682799958077, 41.7888590002066], [-71.4368359999767, 41.78873800004876], [-71.43648199997436, 41.78841200029157], [-71.43433399967095, 41.78643299967888], [-71.43420700034767, 41.78631999990679], [-71.43412199995885, 41.78630900019693], [-71.43404599979087, 41.78630700012773], [-71.43372899959846, 41.78629599974582], [-71.433675999895, 41.78629499971099], [-71.43357100031302, 41.78629200027631], [-71.43329599995342, 41.7863120003007], [-71.43323499985404, 41.78631599976895], [-71.43170199966886, 41.78624599999558], [-71.43160299993465, 41.78625400027973], [-71.42900299971964, 41.786256999716244], [-71.42625699991473, 41.786232000165704], [-71.42580599982803, 41.786226999986496], [-71.42375499960899, 41.78620799997173], [-71.42358499972968, 41.78620799997173], [-71.42311000025182, 41.78619999968184], [-71.42289900036464, 41.78620199975443], [-71.4220370003742, 41.78619300009715], [-71.42184599968019, 41.78619200006072], [-71.42175699999171, 41.78619100002433], [-71.4217200001818, 41.78618999998787], [-71.42166699958003, 41.78618999998787], [-71.42162300009741, 41.7861889999514], [-71.42149900024886, 41.786185999841926], [-71.42147599978432, 41.786185999841926], [-71.42060999959592, 41.78618399976883], [-71.4205510000447, 41.78618100032896], [-71.42080700013773, 41.78545499979025], [-71.4208749999098, 41.78533499995578], [-71.42118700007931, 41.78444799989025], [-71.42188099984028, 41.782547000124886], [-71.42203300017624, 41.7821310001627], [-71.42213199991043, 41.78186000001729], [-71.4221720000934, 41.78174899976557], [-71.4222139999262, 41.781634999669045], [-71.4222840002464, 41.78144800005911], [-71.42232000023141, 41.781349999880945], [-71.42262400000503, 41.78051699968802], [-71.42276299992221, 41.78014400023162], [-71.42380999986058, 41.777267000288795], [-71.42365300040007, 41.77723699970236], [-71.4230499999774, 41.77711900025177], [-71.42259999971557, 41.777030999941104], [-71.4221290004357, 41.77692800014735], [-71.42189799955871, 41.77687799979104], [-71.42142100043105, 41.77679200018573], [-71.42139399976855, 41.776786999940285], [-71.42135600013371, 41.77676799980787], [-71.4202499997458, 41.77654299968104], [-71.42022100033181, 41.77653599971208], [-71.41996199986573, 41.77644399985748], [-71.41991599983497, 41.77643599968911], [-71.41971599981842, 41.77639600017223], [-71.41953199969541, 41.77636000004975], [-71.41942899976326, 41.77634000027072], [-71.41943700015916, 41.77624299984711], [-71.41945899990047, 41.77617599970369], [-71.41947800016703, 41.7761209998036], [-71.41950699958106, 41.77603700024276], [-71.4195240001978, 41.77598699986175], [-71.41953099987049, 41.775968000162315], [-71.41953699971828, 41.775952999901975], [-71.41945899990047, 41.775940000030815], [-71.41918100006613, 41.775870999846006], [-71.41900500033904, 41.775826999854445], [-71.41897199982876, 41.77581699988258], [-71.41865999965921, 41.77570800028942], [-71.41856900032094, 41.775664000186026], [-71.41845200014507, 41.77560599991226], [-71.41841600016006, 41.77558899983366], [-71.41830300018215, 41.77553800024067], [-71.41825999962614, 41.77551899973824], [-71.41801199992902, 41.77536899994652], [-71.41771200035336, 41.7751509997221], [-71.41766399977448, 41.77511599977991], [-71.41748800004737, 41.77500900008699], [-71.41742699994802, 41.77497100010305], [-71.41711399995356, 41.774754000080485], [-71.41701400039446, 41.77468099976591], [-71.41697699968621, 41.774653999958836], [-71.41691599958683, 41.77461599976453], [-71.41675199955532, 41.77449899973011], [-71.41650399985821, 41.77432299983749], [-71.41647299989607, 41.77430300009322], [-71.41616800029753, 41.774055000200114], [-71.4161380001603, 41.7740359999283], [-71.41603900042611, 41.773955999885835], [-71.41510000044276, 41.77326999976315], [-71.415046999841, 41.77324300003209], [-71.4149630001754, 41.77319300015272], [-71.41492499964225, 41.77317000000755], [-71.4148789996115, 41.773143999804425], [-71.41455800011946, 41.773037000171506], [-71.41430700004929, 41.77297600014439], [-71.4142230003837, 41.772960999854256], [-71.41383400022127, 41.772896000119715], [-71.41329600009594, 41.77283100031935], [-71.4132309997986, 41.77282299970032], [-71.41295799998714, 41.772743999731], [-71.41280400000134, 41.77268999981472], [-71.41266599990908, 41.77264399982533], [-71.41204599976798, 41.77241400005368], [-71.41194700003378, 41.77238099979157], [-71.41188500010948, 41.77242699996953], [-71.41080700020898, 41.77320400010275], [-71.4105619999866, 41.77337999971618], [-71.41036699999293, 41.7735210000439], [-71.41003599955684, 41.773759999929496], [-71.40999999957182, 41.773899999863694], [-71.40993699982263, 41.77414799968621], [-71.40992599995197, 41.77419299971325], [-71.40948300026118, 41.77568899983734], [-71.40946800019256, 41.775738999780735], [-71.40927599967364, 41.77641100032896], [-71.40878699995208, 41.77812499986652], [-71.40824100032914, 41.7780250003115], [-71.40819899959803, 41.778016999670434], [-71.40725700013996, 41.778484000166294], [-71.40639699979933, 41.77895700016697], [-71.40598400024578, 41.779172999890726], [-71.4059640001543, 41.779203999716934], [-71.40581400036646, 41.77947900026357], [-71.4056689997032, 41.77948999980541], [-71.4052329996851, 41.779362999864986], [-71.40511399985942, 41.779328000211734], [-71.40503600004162, 41.779424999988635], [-71.40502099997299, 41.779495999981], [-71.40487000036026, 41.779757000041414], [-71.40481099991072, 41.779741999997434], [-71.40432700021205, 41.78027300022256], [-71.40430499957242, 41.78035000004155], [-71.4041060002791, 41.78056300005974], [-71.40378300023892, 41.78093199995459], [-71.4037680001703, 41.78095600011385], [-71.40357400000154, 41.78149999975105], [-71.4032469997634, 41.78242299982592], [-71.40308100008205, 41.782894000070606], [-71.40305099994481, 41.782979000114594], [-71.40309000030287, 41.78305399986278], [-71.40424699984611, 41.78533099975644], [-71.40425900043998, 41.78584900004541], [-71.40389600021682, 41.78585200017066], [-71.40365600001732, 41.785854000254105], [-71.40341900019085, 41.785854000254105], [-71.4016569996768, 41.785888999694514], [-71.40112299974943, 41.785907999803754], [-71.39829300027894, 41.78600699975317], [-71.39824700024819, 41.78601099991028], [-71.3977280003894, 41.78602999998337], [-71.39504199996065, 41.78614799978252], [-71.39413200028963, 41.78617400007237], [-71.39256300011945, 41.78619700024266], [-71.39177700029698, 41.78624299988872], [-71.39128900040035, 41.7862629999284], [-71.390603000137, 41.78628900017161], [-71.38992100007162, 41.786308000162315], [-71.38941300008351, 41.786334999751666], [-71.38899299995893, 41.786257999751655], [-71.38871199975154, 41.78620799997173], [-71.387385000329, 41.78605300020537], [-71.38476900022046, 41.78551900014602], [-71.38369899981754, 41.7853000002129], [-71.3781979999869, 41.78440000016729], [-71.37197200043317, 41.78342699980833], [-71.3717980003559, 41.78340000033404], [-71.37049799979923, 41.78320000010351], [-71.36994799997834, 41.78309800025478], [-71.36969400043341, 41.783058000204186], [-71.36993100025988, 41.7837170001181], [-71.37019800022357, 41.78549999992149], [-71.37022900018572, 41.785764999830256], [-71.37016200023857, 41.785992999871105], [-71.37010600016207, 41.78616499974138], [-71.37013700012422, 41.78624499995997], [-71.37017200028431, 41.78626600003432], [-71.37030799982843, 41.786280999891815], [-71.37049399960127, 41.786286000066816], [-71.3706149999751, 41.786311000266124], [-71.37087199989304, 41.78650199988632], [-71.37100800033548, 41.78669400030576], [-71.3710230004041, 41.78681000016884], [-71.3709680001525, 41.786985999953025], [-71.37088699996166, 41.787041999935276], [-71.37073100032603, 41.78709199973455], [-71.37064000008945, 41.78711200017919], [-71.37054999967776, 41.78719800001058], [-71.37050899966987, 41.78734900028445], [-71.37053499960915, 41.78750000020262], [-71.3706300000437, 41.7877169999635], [-71.37069600016594, 41.787827999930705], [-71.37075600044042, 41.78792800027363], [-71.37082699968721, 41.78807000010413], [-71.3708619998473, 41.78815499998422], [-71.37092299994667, 41.78827599990284], [-71.3709530000839, 41.78833700011288], [-71.37120499997896, 41.78873000007457], [-71.37135099956885, 41.78886600016997], [-71.37140599982044, 41.78886600016997], [-71.3714819999884, 41.78879499983603], [-71.37156800020212, 41.78880999977164], [-71.37160300036224, 41.788856000222026], [-71.37163799962403, 41.788977000157146], [-71.37168899967764, 41.789052000256895], [-71.37173899990636, 41.789153000020356], [-71.37176400002072, 41.78922299996864], [-71.37177900008933, 41.78926400018034], [-71.37178900013507, 41.78933400000747], [-71.37173899990636, 41.78938000008187], [-71.37168899967764, 41.78938999994807], [-71.37166299973838, 41.78938999994807], [-71.37166299973838, 41.789409999675755], [-71.37194899996865, 41.78975799996729], [-71.37197800028095, 41.789792999955594], [-71.3720019996721, 41.789823000026], [-71.3720309999844, 41.789857999978814], [-71.37214700033537, 41.78992899980519], [-71.37216200040396, 41.78993900025554], [-71.37221799958216, 41.7900149998764], [-71.372262999788, 41.790085000222966], [-71.3722779998566, 41.79013099975851], [-71.37232899991024, 41.7901759999565], [-71.37239900023043, 41.79019600010874], [-71.37254999984317, 41.79015599979796], [-71.37259099985107, 41.7901100002804], [-71.37261599996542, 41.79003500007888], [-71.37260599991968, 41.78992899980519], [-71.3725799999804, 41.789848000185614], [-71.37256999993467, 41.78978800005412], [-71.3725799999804, 41.78974800015854], [-71.3726009998968, 41.78969199986088], [-71.37264799975247, 41.78965399987025], [-71.37276199955528, 41.789626999669345], [-71.37285299979187, 41.78962199975492], [-71.37288299992912, 41.789610999941814], [-71.37288799995197, 41.78953099990475], [-71.37282100000482, 41.78912300030614], [-71.37276699957816, 41.78905700021577], [-71.37269100030848, 41.789011999902016], [-71.37262600001115, 41.78893099979352], [-71.37257499995754, 41.78882999968032], [-71.37255999988894, 41.78876999993555], [-71.37259099985107, 41.7886990001651], [-71.37265600014838, 41.78862900031443], [-71.37271100039997, 41.7885179997247], [-71.37273200031638, 41.78843200032441], [-71.37274200036211, 41.788392000252536], [-71.37276699957816, 41.78835200015564], [-71.372811999784, 41.788316000047146], [-71.37292300011208, 41.788316000047146], [-71.37302400039442, 41.78838700024179], [-71.37310999970983, 41.78848799971338], [-71.37318000003003, 41.78862900031443], [-71.37321000016725, 41.788750000008214], [-71.37319500009865, 41.78880999977164], [-71.37311499973269, 41.78891099991641], [-71.37300900032581, 41.78898200012188], [-71.37292300011208, 41.78912300030614], [-71.37300900032581, 41.789626999669345], [-71.37312999980131, 41.789731999791414], [-71.37320000012151, 41.78978800005412], [-71.3732610002209, 41.789818000126864], [-71.37330600042672, 41.789843000288435], [-71.37328100031236, 41.7899039996772], [-71.37325600019801, 41.78995899981199], [-71.37325100017515, 41.79003500007888], [-71.37323399955838, 41.79027400004021], [-71.37334300023663, 41.79028900029953], [-71.37355800032181, 41.790261999696305], [-71.37367200012463, 41.790226999964105], [-71.37378599992742, 41.79022300007], [-71.37386499957016, 41.79028900029953], [-71.37388200018691, 41.790385000268515], [-71.37387399979097, 41.79047299966728], [-71.37382500028549, 41.79069599987837], [-71.37379000012538, 41.79078800004881], [-71.37371599960724, 41.79094600031004], [-71.37368899984307, 41.79097199999353], [-71.37362799974369, 41.79098999997432], [-71.37353599968218, 41.79099399982052], [-71.37346999955994, 41.79098100031945], [-71.37335199955916, 41.79098999997432], [-71.37326899971849, 41.79105100028093], [-71.3732770001144, 41.791073000080864], [-71.37330800007653, 41.79111700032774], [-71.37358400026108, 41.79138900014843], [-71.37408399985327, 41.791879999790886], [-71.37417599991477, 41.791959000298775], [-71.37424600023498, 41.791959000298775], [-71.37433400009851, 41.79195000011018], [-71.37437299955826, 41.791879999790886], [-71.37438199977909, 41.79176600029372], [-71.37437299955826, 41.791621000088085], [-71.37436900025861, 41.791510999944194], [-71.3743600000378, 41.791397999746025], [-71.37436900025861, 41.791322999711944], [-71.37440000022076, 41.79122699980815], [-71.37441699993921, 41.79115200024378], [-71.3745090000007, 41.7910249999597], [-71.37457900032089, 41.790976999802666], [-71.37469300012371, 41.790906999760374], [-71.37470200034456, 41.790884999903525], [-71.3747979997057, 41.79088000008722], [-71.37482000034534, 41.790936999979216], [-71.37482899966784, 41.79109100003329], [-71.37479400040607, 41.79131400010382], [-71.37473300030669, 41.79147600022418], [-71.37463200002435, 41.79161700028096], [-71.37457099992498, 41.79170899979934], [-71.37448700025939, 41.79184900006519], [-71.37444299987847, 41.791905999765305], [-71.37441500028937, 41.79197400016375], [-71.37437799958113, 41.792046000270666], [-71.37438199977909, 41.79207300012247], [-71.37444399970339, 41.79215999993963], [-71.37481600014736, 41.79255499977993], [-71.37488599956926, 41.79255499977993], [-71.37492099972935, 41.79250299967727], [-71.37491499988157, 41.792416000325645], [-71.37492699957713, 41.79231099991163], [-71.37496199973724, 41.792212000320546], [-71.37501399961577, 41.79210099990716], [-71.37503100023253, 41.79206699978427], [-71.3750780000882, 41.792084000182825], [-71.37508399993598, 41.7921249999042], [-71.37515900027904, 41.792287999925584], [-71.37520600013471, 41.79250899997465], [-71.37518900041628, 41.79260799977678], [-71.37515900027904, 41.79266600007694], [-71.37513599981452, 41.79273600020759], [-71.37515400025616, 41.79280600026184], [-71.37517699982239, 41.79284600025852], [-71.37541600019698, 41.7931720002383], [-71.37571800032079, 41.79344599989209], [-71.37575400030578, 41.79351900027691], [-71.3757969999635, 41.79356400010574], [-71.3758749997813, 41.79362100029001], [-71.37613099987435, 41.79386499985973], [-71.37628300021031, 41.793922999692214], [-71.37646099958721, 41.79398800021573], [-71.37659100018188, 41.79409900004028], [-71.37668200041848, 41.79417599999877], [-71.37684599955169, 41.794315000324566], [-71.37703399987267, 41.79442399976686], [-71.37714400037585, 41.79450500030146], [-71.3772199996455, 41.794580999866646], [-71.37729900018654, 41.79469999990361], [-71.37999899996068, 41.79530000026457], [-71.38079900002684, 41.79629999999267], [-71.38519900039076, 41.80209999997184], [-71.38759899969094, 41.80350000029002], [-71.39009900034685, 41.80519999982561], [-71.39149899956432, 41.80599999967636], [-71.39349899972974, 41.80709999973323], [-71.39491499973904, 41.81059099989246], [-71.39495599974693, 41.810687000251484], [-71.39498400023434, 41.81077299992084], [-71.39525799987072, 41.81166900004079], [-71.39380900024945, 41.814254999705184], [-71.39352800004205, 41.8147560001686], [-71.3928760001139, 41.815120999727824], [-71.3919820003364, 41.81522000008242], [-71.39193100028278, 41.81522899968101], [-71.3916450000525, 41.81528499975862], [-71.39101999988853, 41.81540700026031], [-71.38900700020264, 41.81598599985128], [-71.38876000033042, 41.81594399975523], [-71.3884980003896, 41.815901000058794], [-71.38708300020521, 41.816372000018184], [-71.38669099966972, 41.81738700023199], [-71.38661899969972, 41.81771299989138], [-71.38645800004123, 41.817967999749754], [-71.3861240001304, 41.81835800016837], [-71.38586200018958, 41.8189539998248], [-71.38557199976134, 41.81899599995535], [-71.38546999965408, 41.819157000200484], [-71.38544500043804, 41.819224000278865], [-71.38541699995065, 41.819297000084624], [-71.38537900031581, 41.81934000017888], [-71.38527600038364, 41.8193930001152], [-71.38525499956893, 41.819414000039934], [-71.38522199995697, 41.81947900014591], [-71.38522899962966, 41.81959100018402], [-71.38522799980475, 41.81966199987363], [-71.38518400032214, 41.819800000299175], [-71.3850899997125, 41.820009999910404], [-71.38505200007766, 41.8201449997272], [-71.38503100016126, 41.820194999810276], [-71.38455300031039, 41.82054799980824], [-71.38446399972361, 41.820602000252656], [-71.38438400025598, 41.8206260002868], [-71.3839630003065, 41.82118099973874], [-71.38309000044539, 41.82232700004604], [-71.38294200030738, 41.822495999726435], [-71.38281400026086, 41.82262000015498], [-71.38279699964411, 41.82269499970918], [-71.3824929998705, 41.823121000116075], [-71.38225500021913, 41.82340199977595], [-71.38220199961737, 41.823470000223026], [-71.38199400010322, 41.8236430000504], [-71.38168600013165, 41.82387300013024], [-71.38149100013797, 41.82402800014004], [-71.38141800034305, 41.824104000167566], [-71.38132999958118, 41.82423300005181], [-71.38104300042431, 41.824621999696284], [-71.38102800035571, 41.824641999808584], [-71.38089000026343, 41.82481399971317], [-71.38073100025477, 41.82502300018579], [-71.38044500002451, 41.825366000068925], [-71.38021400004584, 41.82566600028898], [-71.38008000015154, 41.82582300014949], [-71.37997100037158, 41.82597200028353], [-71.37987099991416, 41.826125999815055], [-71.37956999961527, 41.82648300022541], [-71.37950900041425, 41.826556999864515], [-71.37945300033773, 41.826654999869994], [-71.37756299977718, 41.82911699988142], [-71.37749800037815, 41.82920200020477], [-71.37743399990576, 41.829287999779154], [-71.3742839998698, 41.83190399996039], [-71.37358699973579, 41.83248600027092], [-71.37361500022321, 41.83250799990058], [-71.37361299967507, 41.83260200024089], [-71.37329100035811, 41.83516499996456], [-71.37309899983919, 41.83660000030059], [-71.37299599990702, 41.83806500015622], [-71.37291200024143, 41.83925599994038], [-71.37287799990624, 41.839861999840416], [-71.37224699989447, 41.84333699992199], [-71.37226000031326, 41.84415699991764], [-71.37227000035901, 41.8447380001021], [-71.37229899977301, 41.84649999999285], [-71.3723330001082, 41.84687099983166], [-71.37241599994887, 41.848724000084125], [-71.3723339999331, 41.85054800017169], [-71.37452599971915, 41.85713599969039], [-71.37457699977276, 41.857145000087556], [-71.37468200025306, 41.85717199993325], [-71.37469700032167, 41.85717800019476], [-71.3747759999644, 41.857208000155794], [-71.37485200013238, 41.85725199980554], [-71.37491400005666, 41.85730499979963], [-71.37498900039972, 41.857390000152925], [-71.37500199992022, 41.85741399977572], [-71.37502100018678, 41.857449000268765], [-71.37669900013691, 41.85750000024567], [-71.37684100042712, 41.85747999969548], [-71.37900300007594, 41.85747799984083], [-71.37911100003096, 41.857467999897615], [-71.38158499984931, 41.85712800022846], [-71.38371899990902, 41.85708599969126], [-71.38741700011605, 41.85701699989584], [-71.38758100014758, 41.85701600029585], [-71.38945200044157, 41.85697800009495], [-71.39026599985311, 41.85696300006222], [-71.39110100007939, 41.856944999884554], [-71.3920669998269, 41.85692499982983], [-71.39250799986786, 41.856914999800146], [-71.39368000037801, 41.85689499973604], [-71.39555300032183, 41.85686000027793], [-71.39901800000203, 41.8568000000153], [-71.39924800015581, 41.85679300011481], [-71.39945599966994, 41.85678600021355], [-71.39959600031035, 41.85678199979175], [-71.39972400035687, 41.85678499994087], [-71.40061300011149, 41.85676699971305], [-71.4014240000483, 41.856757999931844], [-71.40197700024227, 41.856754000177325], [-71.40250399959864, 41.85673200018489], [-71.40380499998024, 41.85668600029801], [-71.40451800000776, 41.85669199993602], [-71.40507299985153, 41.856681999869906], [-71.40532800011967, 41.85667699983626], [-71.40554300020482, 41.856671999802224], [-71.40667399980877, 41.85665100005644], [-71.4069009995895, 41.85664700029522], [-71.40744499956263, 41.85663599994701], [-71.40750700038521, 41.856634999671975], [-71.40765999964778, 41.85663200018487], [-71.40786600041041, 41.856627000147306], [-71.40791200044117, 41.856625999872136], [-71.40927499984872, 41.856600999678065], [-71.40957600014761, 41.85692600010032], [-71.40965599961523, 41.85701300015758], [-71.41007300026506, 41.85746299992537], [-71.4103569999472, 41.85777000003608], [-71.41079299996528, 41.8586419996765], [-71.41077899972159, 41.858747999993106], [-71.41086099973734, 41.85889000007877], [-71.41099600035487, 41.85893099986114], [-71.41105699955592, 41.85891300023734], [-71.4113860003422, 41.85892700024253], [-71.41326900033177, 41.85913500014968], [-71.41587100019662, 41.859488999735596], [-71.41654400004117, 41.85956600003615], [-71.41741799972718, 41.85966600013178], [-71.41754800032183, 41.85968100019954], [-71.41771400000319, 41.859701000061364], [-71.41979000033659, 41.85995799970325], [-71.41986999980422, 41.85996799992615], [-71.42024100042329, 41.86001700012612], [-71.42215500037499, 41.86026600009758], [-71.42307599991663, 41.86038600008422], [-71.42524299958832, 41.86066800027033], [-71.42554499971212, 41.860706999828075], [-71.42596400001177, 41.8607519999573], [-71.42717300033186, 41.86091200001148], [-71.42776199961251, 41.86098499977773], [-71.4288730000233, 41.86111700020669], [-71.42890099961238, 41.86112000015244], [-71.42916000007848, 41.86114700032698], [-71.42976400032605, 41.86121399994269], [-71.42990599971796, 41.861255000242124], [-71.43021899971241, 41.86129500031306], [-71.4308010002187, 41.861372999978045], [-71.43353399960479, 41.86174099994448], [-71.43486799959834, 41.86183100005391], [-71.43499800019299, 41.861824000035064], [-71.43617099962974, 41.861074000076584], [-71.43627600011006, 41.86104299971595], [-71.43631100027015, 41.86100099974289], [-71.43643199974566, 41.86089700023249], [-71.43700099983313, 41.86052000017116], [-71.4387580003243, 41.8593580001928], [-71.44235299970086, 41.85696800007351], [-71.44298600026076, 41.856555999973246], [-71.4430669995533, 41.85646399991312], [-71.44397499957448, 41.85587500021788], [-71.44437299995776, 41.85560699970034], [-71.4444819997377, 41.855533000193425], [-71.44535100029915, 41.85494799982103], [-71.44563300033145, 41.85475900011147], [-71.44628100006165, 41.85432099977406], [-71.4466860001176, 41.85404999982768], [-71.44718200041017, 41.85374499989736], [-71.44791299998104, 41.853261000302425], [-71.44832399988478, 41.85298100023589], [-71.44949300002189, 41.852184999832495], [-71.44956900018987, 41.852132999955764], [-71.44963199993904, 41.85210199994478], [-71.44982899958254, 41.851993999961834], [-71.45065399976306, 41.85142499969233], [-71.45090700038138, 41.85125699979504], [-71.4509729996053, 41.85121399972649], [-71.45126300003352, 41.85101999988267], [-71.4518399996186, 41.850635000205855], [-71.45235199980468, 41.85029300026669], [-71.45250900016352, 41.85018799969542], [-71.45355199990392, 41.8494449998162], [-71.45407300031084, 41.84913599977891], [-71.45450299958284, 41.84884599977001], [-71.45490900036201, 41.84857500004789], [-71.45537600034226, 41.84826099980089], [-71.45555399971917, 41.848140000076405], [-71.45558100038166, 41.84812200009233], [-71.45567099989503, 41.848060000182684], [-71.4557529999108, 41.848006000147706], [-71.45590500024676, 41.84790299999172], [-71.45599200028539, 41.84784399976919], [-71.45612700000461, 41.84775199989206], [-71.45756499975522, 41.846786000220916], [-71.45762900022764, 41.84673100001899], [-71.45797800020709, 41.84649300030352], [-71.4584500002102, 41.84619099978368], [-71.45865600007453, 41.846053999804596], [-71.45952599956257, 41.84544000007065], [-71.45986500039461, 41.84525200015743], [-71.46029200019187, 41.84495700032981], [-71.4624839999779, 41.84344399998552], [-71.4631869999597, 41.84296000007989], [-71.46353099991627, 41.842750999947064], [-71.4645600003113, 41.84206599977277], [-71.46530900032383, 41.84156799969593], [-71.46554600015028, 41.84141499968017], [-71.46565199955721, 41.84133599992246], [-71.46639300007215, 41.84085499969128], [-71.46694899974082, 41.84047700009047], [-71.46771000034724, 41.8400790002966], [-71.46768500023288, 41.8399679998252], [-71.46874200021699, 41.83926000011977], [-71.4691439998999, 41.839005000062535], [-71.47050600038085, 41.838098999963464], [-71.47095499991943, 41.83787500019226], [-71.47149700024272, 41.83755500021078], [-71.4720589997592, 41.837224000296956], [-71.47219799967638, 41.83714300022915], [-71.47245899979228, 41.836980999786064], [-71.47238099997449, 41.83693600033387], [-71.47235699968503, 41.83690800006383], [-71.47232900009594, 41.83687400029314], [-71.47231300020242, 41.83681699977091], [-71.47230300015667, 41.83675500028414], [-71.47226200014879, 41.83669599982083], [-71.47204600023872, 41.83651499976164], [-71.47200400040593, 41.836473999666026], [-71.4717969998184, 41.8362760002711], [-71.47175300033577, 41.83622200032981], [-71.47173300024427, 41.8361890001202], [-71.4717209996504, 41.83616900026879], [-71.47170200028214, 41.836108000081055], [-71.47169499971112, 41.83604400005203], [-71.47170300010706, 41.83597399971689], [-71.47174400011492, 41.83584200027262], [-71.4717490001378, 41.83578600010163], [-71.47167399979472, 41.83565500020343], [-71.47166700012204, 41.835598999868814], [-71.47167299996983, 41.835556999920335], [-71.47167600034288, 41.83553400006433], [-71.4717909999706, 41.83523100008423], [-71.47185200006997, 41.83510699998578], [-71.47188899987988, 41.83504300029437], [-71.47193200043591, 41.83498899998203], [-71.47196300039805, 41.83493700018361], [-71.47198699978918, 41.83490699981732], [-71.47200799970558, 41.83491599999562], [-71.47217599993506, 41.834932999733994], [-71.47219400037673, 41.83489100001779], [-71.47223200001157, 41.834834999684006], [-71.4723340001188, 41.834705999744536], [-71.47238099997449, 41.83463500000418], [-71.47241600013459, 41.83456500013594], [-71.47247600040903, 41.83436400032778]]]}, "properties": {"id": "covered-us-ri-providence", "status": "covered", "jurisdiction": "Providence", "country_id": "us", "state_id": "ri", "area_type": "city", "note": "Covered by public tree inventory for Providence; geometry from official jurisdiction boundary."}}]}