{"type": "FeatureCollection", "features": [{"type": "Feature", "geometry": {"type": "Polygon", "coordinates": [[[141.50521361, 43.02230695], [141.50539694, 43.02103251], [141.50542167, 43.02085944], [141.50650528, 43.02043223], [141.50732805, 43.02018251], [141.50804722, 43.01999056], [141.50833333, 43.01991436], [141.50842167, 43.01989084], [141.50888, 43.01976584], [141.50910917, 43.01976584], [141.50947361, 43.01980751], [141.50979667, 43.01982833], [141.51016111, 43.01973472], [141.51089, 43.019495], [141.51141083, 43.01938084], [141.51267139, 43.01902667], [141.51390056, 43.01857861], [141.51425472, 43.01850584], [141.51511888, 43.01822472], [141.51532722, 43.01817277], [141.51568139, 43.01820417], [141.51605639, 43.01818333], [141.51649389, 43.01808944], [141.51666667, 43.01802344], [141.51684805, 43.01795417], [141.51728555, 43.01782917], [141.5178375, 43.01775611], [141.51788973, 43.0176], [141.51813944, 43.01754777], [141.51846027, 43.01749584], [141.51852472, 43.01748528], [141.51881639, 43.01738111], [141.51907694, 43.01718305], [141.51943112, 43.01702722], [141.51999361, 43.01690223], [141.52070195, 43.01679805], [141.52108722, 43.01670417], [141.52126558, 43.01666667], [141.52410778, 43.01606917], [141.52424861, 43.01610444], [141.52436694, 43.01613389], [141.52452445, 43.01617333], [141.525, 43.01645056], [141.52537073, 43.01666667], [141.52697222, 43.01760028], [141.52683667, 43.01794389], [141.52679501, 43.01824611], [141.52681584, 43.01852722], [141.52688889, 43.01871472], [141.52701389, 43.01887111], [141.52703694, 43.01889], [141.52719056, 43.01901695], [141.52752389, 43.01912111], [141.52799278, 43.01910028], [141.52843027, 43.01902723], [141.52870111, 43.01896472], [141.52924278, 43.01876695], [141.52953445, 43.01866278], [141.53001361, 43.01863139], [141.53088834, 43.01865222], [141.53144027, 43.01874584], [141.53188834, 43.01885], [141.53245083, 43.01875667], [141.53288834, 43.01870444], [141.53313834, 43.01860028], [141.53329111, 43.01856722], [141.53333333, 43.01855813], [141.5333725, 43.01854972], [141.53397139, 43.01863305], [141.53449222, 43.01877889], [141.53473195, 43.01886084], [141.53523195, 43.01886084], [141.53582555, 43.01880889], [141.53606528, 43.01886084], [141.53628389, 43.01885056], [141.53658611, 43.01874639], [141.53676306, 43.01873584], [141.53696111, 43.01875667], [141.53722111, 43.01862139], [141.5373775, 43.01857972], [141.5376275, 43.01862139], [141.53768361, 43.01862139], [141.53872111, 43.01862139], [141.53924195, 43.0186525], [141.53946056, 43.018715], [141.53980445, 43.01899639], [141.54031445, 43.01934], [141.54095, 43.01962139], [141.54127278, 43.01969417], [141.54154361, 43.01969417], [141.54166667, 43.01967425], [141.54225222, 43.01957944], [141.54247083, 43.01962111], [141.54268973, 43.01969417], [141.54359555, 43.01984], [141.54402278, 43.01995444], [141.54455389, 43.02016278], [141.54552278, 43.0205275], [141.54643917, 43.02074639], [141.54707445, 43.020965], [141.54746, 43.02117333], [141.54759528, 43.02135056], [141.54765973, 43.02153389], [141.54773083, 43.02173584], [141.54776195, 43.02179833], [141.54799112, 43.02188167], [141.54833472, 43.0220275], [141.54866027, 43.02208305], [141.54882416, 43.02211084], [141.55, 43.02222759], [141.55323, 43.02254833], [141.55363195, 43.02204417], [141.55367805, 43.02198611], [141.55438611, 43.02207972], [141.55726111, 43.02252778], [141.55792639, 43.02269584], [141.55833333, 43.02279839], [141.55870888, 43.02289305], [141.55961501, 43.02312167], [141.56125, 43.02361111], [141.56203139, 43.02389222], [141.56313528, 43.02432972], [141.56344778, 43.02441305], [141.56390611, 43.02435056], [141.56433306, 43.02425695], [141.56438973, 43.02425056], [141.56469778, 43.02421528], [141.56509361, 43.02428805], [141.56544778, 43.02428805], [141.56585361, 43.02434028], [141.56624944, 43.02452778], [141.56666667, 43.02475284], [141.56675361, 43.02479972], [141.56677027, 43.02480889], [141.56720778, 43.02489223], [141.56769027, 43.02483472], [141.56790584, 43.02480889], [141.56838389, 43.02480584], [141.56867112, 43.02480389], [141.56887581, 43.025], [141.56930139, 43.02540777], [141.56965584, 43.02575333], [141.5697075, 43.02580361], [141.56975112, 43.02585889], [141.56982083, 43.0259475], [141.56995778, 43.02612139], [141.57006694, 43.02632972], [141.57013472, 43.02655389], [141.57015027, 43.02676222], [141.57011389, 43.02694972], [141.57000973, 43.02710556], [141.56966222, 43.02740195], [141.56965555, 43.0274075], [141.5694275, 43.02754972], [141.56871278, 43.02799611], [141.56759805, 43.02870472], [141.56697306, 43.02910028], [141.56691222, 43.02914639], [141.56681611, 43.02921889], [141.56666667, 43.02933172], [141.56624917, 43.02964695], [141.56580667, 43.03020944], [141.56543722, 43.03085528], [141.56530694, 43.03129777], [141.5652275, 43.03177305], [141.56519195, 43.03198528], [141.56515555, 43.03258944], [141.56509834, 43.03311556], [141.56502956, 43.03333333], [141.56497333, 43.03351139], [141.56482222, 43.03385], [141.56473555, 43.0340725], [141.5646325, 43.03433667], [141.56459306, 43.03443833], [141.5644525, 43.03482889], [141.56443445, 43.03489611], [141.56437805, 43.03510778], [141.56434805, 43.03521944], [141.56431694, 43.03552667], [141.56437416, 43.03593805], [141.56444278, 43.03612861], [141.56452027, 43.03634444], [141.56463472, 43.03654222], [141.56485889, 43.03678695], [141.56513472, 43.03696917], [141.56543694, 43.03706805], [141.56574917, 43.03712028], [141.56614278, 43.03712944], [141.56642611, 43.03713584], [141.56666667, 43.03713584], [141.56777501, 43.03713584], [141.56811861, 43.03716722], [141.56821111, 43.03718833], [141.56884778, 43.03733389], [141.56934778, 43.03749528], [141.56935805, 43.03750084], [141.56977472, 43.03772444], [141.57024861, 43.038115], [141.57050389, 43.03839611], [141.5707175, 43.03878667], [141.57086834, 43.03922444], [141.57102973, 43.03978167], [141.57119112, 43.04013056], [141.57137861, 43.04038584], [141.57170167, 43.04064611], [141.57240973, 43.04114584], [141.57306261, 43.04166667], [141.57333667, 43.04188528], [141.57363861, 43.04220833], [141.57386805, 43.04263028], [141.57398222, 43.04299472], [141.57405, 43.04332305], [141.57401888, 43.04352084], [141.57372722, 43.04415611], [141.57350834, 43.04473417], [141.57347361, 43.04490056], [141.57343861, 43.04506889], [141.57335195, 43.04548417], [141.57335195, 43.04592695], [141.57337306, 43.04709333], [141.57340306, 43.04756917], [141.57343528, 43.04808305], [141.57347888, 43.04831472], [141.57358111, 43.04885333], [141.57367472, 43.04909305], [141.57377389, 43.04925444], [141.57385306, 43.04933389], [141.57388611, 43.04936667], [141.57390389, 43.04938472], [141.57431, 43.04968667], [141.57477889, 43.04996277], [141.57490158, 43.05], [141.575, 43.05002986], [141.57524222, 43.05010333], [141.57569528, 43.05015028], [141.57608056, 43.05021277], [141.57644528, 43.05031695], [141.57698694, 43.05052528], [141.57741389, 43.05071278], [141.57796056, 43.05105639], [141.57823667, 43.05125444], [141.57851278, 43.05140028], [141.57883416, 43.05149361], [141.57896056, 43.05153028], [141.57990834, 43.05175944], [141.58031445, 43.05183251], [141.58079889, 43.05183778], [141.58183, 43.05179611], [141.58264222, 43.05177528], [141.58294944, 43.05179084], [141.58326722, 43.05185333], [141.58333333, 43.05188139], [141.5836475, 43.05201472], [141.58406416, 43.05226472], [141.58449111, 43.05262444], [141.58485555, 43.05297333], [141.58514722, 43.05320777], [141.58541278, 43.05334833], [141.58578027, 43.0534875], [141.58599027, 43.05356723], [141.58651167, 43.053765], [141.58746472, 43.05409833], [141.58776778, 43.05425611], [141.58799139, 43.05437277], [141.58807416, 43.05441584], [141.58849083, 43.05468667], [141.58865889, 43.05480472], [141.58894361, 43.05500417], [141.58917584, 43.05520861], [141.58925111, 43.055275], [141.58935445, 43.05540917], [141.58935973, 43.05541584], [141.58958445, 43.05570722], [141.59000083, 43.05631667], [141.59022973, 43.05687389], [141.59033389, 43.05717084], [141.59039111, 43.05747278], [141.59036, 43.05780084], [141.59015167, 43.05832695], [141.59014878, 43.05833333], [141.58981834, 43.05906639], [141.58933389, 43.06026417], [141.58889139, 43.06145139], [141.58846944, 43.06270111], [141.58834834, 43.06315584], [141.5882975, 43.06334695], [141.58828416, 43.06342444], [141.58825584, 43.06359167], [141.5882525, 43.06371028], [141.58825, 43.0638075], [141.58824555, 43.06397195], [141.58834805, 43.06491777], [141.58836528, 43.06507584], [141.58837222, 43.06522], [141.58838611, 43.06550305], [141.58836, 43.06576333], [141.58829222, 43.06628944], [141.58824051, 43.06666667], [141.58817222, 43.06716444], [141.58813584, 43.06761222], [141.58811472, 43.06823695], [141.58809083, 43.06843028], [141.58808888, 43.06844528], [141.58799501, 43.06887777], [141.58794834, 43.06940389], [141.58800056, 43.06974251], [141.58821389, 43.070685], [141.58837083, 43.07098277], [141.58886472, 43.07191917], [141.58891501, 43.07200389], [141.58959389, 43.07314805], [141.59038027, 43.07428889], [141.59076027, 43.07482528], [141.59082481, 43.075], [141.59083333, 43.07502305], [141.59084889, 43.07521056], [141.59084722, 43.07522167], [141.59080722, 43.07548139], [141.59067694, 43.07570556], [141.59043195, 43.07593444], [141.58985389, 43.07627277], [141.58903639, 43.07660611], [141.58826027, 43.07683], [141.58798445, 43.07689251], [141.58771861, 43.07689251], [141.58741139, 43.07685084], [141.58714056, 43.07673639], [141.58659416, 43.07641028], [141.58652083, 43.07636639], [141.58632861, 43.07629861], [141.58623306, 43.07628389], [141.58609416, 43.07626223], [141.58553694, 43.07625195], [141.58528, 43.07629], [141.58485861, 43.07635251], [141.58483361, 43.07635611], [141.58444222, 43.07649], [141.58405778, 43.07662139], [141.58388389, 43.07670611], [141.58333333, 43.07697384], [141.58328694, 43.07699639], [141.58333333, 43.07701764], [141.58349445, 43.07709139], [141.58425555, 43.07744056], [141.58572416, 43.07823084], [141.58911973, 43.07999139], [141.59093611, 43.08093195], [141.59166667, 43.08131003], [141.59264027, 43.08181389], [141.59276611, 43.08187972], [141.59284973, 43.08192333], [141.59554406, 43.08333333], [141.59624361, 43.08369944], [141.59902917, 43.08516528], [141.6, 43.08567603], [141.60020501, 43.08578389], [141.60074027, 43.08605861], [141.60135333, 43.08637361], [141.60166667, 43.08653584], [141.60220667, 43.08681584], [141.60241278, 43.08692028], [141.60303445, 43.08723556], [141.60451667, 43.08799889], [141.60468667, 43.08808639], [141.6057625, 43.08862611], [141.60594611, 43.08871833], [141.60619389, 43.08884251], [141.60833333, 43.08994975], [141.60908472, 43.09033861], [141.60958083, 43.09059195], [141.61168694, 43.09166667], [141.61237501, 43.09201778], [141.61530555, 43.09352417], [141.61560639, 43.09367889], [141.61666667, 43.09421528], [141.61864888, 43.09521805], [141.61896445, 43.09538917], [141.62012445, 43.09601695], [141.62128667, 43.09657111], [141.6228375, 43.09737056], [141.62305973, 43.09744639], [141.62328, 43.09752167], [141.625, 43.09840444], [141.62699333, 43.09942751], [141.62776389, 43.09982111], [141.62811394, 43.1], [141.62882111, 43.10036139], [141.62942, 43.10066723], [141.63071056, 43.10130667], [141.63214139, 43.10201611], [141.63333333, 43.10261261], [141.63365056, 43.10277136], [141.63567944, 43.1038075], [141.63679834, 43.10438972], [141.63698472, 43.10448667], [141.63716027, 43.10457778], [141.63787722, 43.10495084], [141.63988839, 43.10598169], [141.64035278, 43.10622], [141.64035584, 43.10622139], [141.64166667, 43.1068898], [141.64213611, 43.10712917], [141.6435425, 43.10784611], [141.64392584, 43.10804167], [141.64450064, 43.10833333], [141.64654694, 43.10937167], [141.64702694, 43.10961556], [141.64727694, 43.10974222], [141.64951555, 43.11087861], [141.64957416, 43.11090861], [141.64962694, 43.11093528], [141.64983639, 43.11104167], [141.65, 43.1111255], [141.65151056, 43.11189944], [141.65170112, 43.11199695], [141.65340389, 43.11286944], [141.65709611, 43.11472111], [141.65833333, 43.11534361], [141.65903722, 43.11569778], [141.6601275, 43.11624639], [141.66031973, 43.11634305], [141.66095642, 43.11666667], [141.66297472, 43.11769251], [141.66320472, 43.11780944], [141.66521501, 43.11884305], [141.66666667, 43.11958397], [141.66843027, 43.12048389], [141.66863805, 43.12059], [141.66880416, 43.120675], [141.66874222, 43.12074305], [141.66862861, 43.12086805], [141.66856111, 43.12094195], [141.66809222, 43.12146528], [141.66712889, 43.12247277], [141.66666667, 43.1229645], [141.66598805, 43.12368639], [141.66514944, 43.12456111], [141.66473128, 43.125], [141.66419639, 43.12556111], [141.66361834, 43.12622251], [141.66346222, 43.12637333], [141.66330611, 43.12649305], [141.66282694, 43.12701389], [141.66228528, 43.12758167], [141.66206222, 43.12782667], [141.66164973, 43.12827972], [141.66136333, 43.12856584], [141.66066027, 43.12927944], [141.66053805, 43.12944084], [141.66036333, 43.12963611], [141.65982167, 43.13019861], [141.65937888, 43.13066972], [141.65919944, 43.13085861], [141.6590275, 43.13103944], [141.65873584, 43.13133111], [141.65843639, 43.13165667], [141.65833333, 43.13176577], [141.65799722, 43.13212167], [141.65786333, 43.13226333], [141.65778944, 43.13234305], [141.65773555, 43.13240111], [141.65770416, 43.132435], [141.65753278, 43.13261944], [141.65746111, 43.13269667], [141.65739472, 43.13276833], [141.65701195, 43.13316417], [141.65684278, 43.13331528], [141.65682545, 43.13333333], [141.65671778, 43.13344556], [141.65660834, 43.13358084], [141.65642306, 43.13379028], [141.65624389, 43.13399251], [141.65581944, 43.13443778], [141.65551472, 43.13475805], [141.65515667, 43.13510861], [141.65486889, 43.13539056], [141.65435333, 43.13596084], [141.65375944, 43.13655167], [141.65340805, 43.13694472], [141.65311112, 43.13724417], [141.65308222, 43.13728111], [141.65294167, 43.13746028], [141.65278222, 43.13762556], [141.65272555, 43.13768417], [141.65271528, 43.13769444], [141.65265722, 43.13775139], [141.65224139, 43.13816195], [141.65199139, 43.13840833], [141.65182973, 43.13860361], [141.65166584, 43.13877277], [141.65117611, 43.13930139], [141.65084027, 43.13967111], [141.65048888, 43.14004361], [141.6500775, 43.14047584], [141.65, 43.14054575], [141.64991861, 43.14061917], [141.64987056, 43.14067667], [141.64976222, 43.14080667], [141.64953056, 43.14104611], [141.64948416, 43.14110695], [141.64948111, 43.14111111], [141.64942139, 43.14113444], [141.64929361, 43.1411475], [141.6491375, 43.14119944], [141.64908445, 43.14124472], [141.64895778, 43.14135305], [141.64873889, 43.14154861], [141.64863594, 43.14166667], [141.64858, 43.14173084], [141.64840834, 43.14184528], [141.64838694, 43.14185556], [141.64818944, 43.14195222], [141.64797584, 43.14198084], [141.64780917, 43.14196251], [141.64759056, 43.14185833], [141.64740306, 43.14171777], [141.6473675, 43.14166667], [141.64727805, 43.14153805], [141.64712973, 43.14129861], [141.64703333, 43.14106167], [141.64688778, 43.140715], [141.64678611, 43.14038195], [141.64673667, 43.14022584], [141.64662472, 43.13999139], [141.64657694, 43.13991889], [141.6465075, 43.13981417], [141.64639805, 43.13971778], [141.64629917, 43.13967361], [141.64618195, 43.1396475], [141.64608306, 43.13967111], [141.64591389, 43.13974389], [141.64577584, 43.13984805], [141.64565861, 43.14001751], [141.64553611, 43.14014751], [141.6453225, 43.14037417], [141.64508278, 43.14057972], [141.64481722, 43.14074917], [141.64458694, 43.14089167], [141.64457778, 43.1408975], [141.64456445, 43.14090361], [141.64429445, 43.14102528], [141.64428361, 43.14103028], [141.64394501, 43.14118139], [141.6436925, 43.14130389], [141.64359361, 43.14140278], [141.64354917, 43.14148584], [141.64354389, 43.14160556], [141.64356591, 43.14166667], [141.64358805, 43.14172805], [141.6437625, 43.14186611], [141.64392667, 43.14193639], [141.64415834, 43.14206139], [141.64425472, 43.14215], [141.64432501, 43.14227251], [141.64432778, 43.14241056], [141.64430167, 43.14256667], [141.64421306, 43.14272528], [141.64412083, 43.14279972], [141.64407778, 43.14283444], [141.64385888, 43.14298305], [141.64369917, 43.14305805], [141.64352584, 43.14313917], [141.64309611, 43.14330695], [141.64303861, 43.14332944], [141.64272361, 43.14343861], [141.6424475, 43.14353251], [141.64227555, 43.14362361], [141.64220222, 43.14369167], [141.64204889, 43.14383444], [141.64187472, 43.14398305], [141.64177584, 43.14405333], [141.64166667, 43.14416775], [141.64163167, 43.14420444], [141.64160917, 43.14422777], [141.64158722, 43.14426333], [141.64139584, 43.14457167], [141.64107528, 43.145035], [141.64084888, 43.14531111], [141.64073167, 43.14549084], [141.64058333, 43.14568333], [141.64040888, 43.14583444], [141.64013027, 43.14602722], [141.63995056, 43.14608444], [141.63976834, 43.14608695], [141.63956722, 43.14604833], [141.63955195, 43.14604528], [141.63937222, 43.14597223], [141.63911694, 43.14586805], [141.63899222, 43.1457975], [141.63897389, 43.14578722], [141.63878639, 43.14570389], [141.63861195, 43.14563889], [141.63858834, 43.14563333], [141.63839584, 43.14558695], [141.63823944, 43.14558695], [141.63822333, 43.14559444], [141.63814167, 43.14563222], [141.6381275, 43.14563889], [141.63807528, 43.14569111], [141.6380675, 43.14585251], [141.63811973, 43.14609195], [141.6382075, 43.14640333], [141.63821083, 43.146415], [141.63835667, 43.14673777], [141.63837333, 43.14676], [141.63837861, 43.14676722], [141.63845555, 43.14687028], [141.6385025, 43.14690639], [141.6386325, 43.14700584], [141.63882805, 43.14708389], [141.63902834, 43.14719084], [141.63939333, 43.14735751], [141.63959195, 43.14746167], [141.63971834, 43.14752805], [141.63976528, 43.14755278], [141.63978805, 43.14756361], [141.63993973, 43.14763611], [141.64012222, 43.14776111], [141.64019501, 43.14792528], [141.64021361, 43.14805972], [141.64022167, 43.14811723], [141.64022639, 43.14815195], [141.64022611, 43.148165], [141.64022112, 43.14832111], [141.64015584, 43.14858944], [141.64008056, 43.14871167], [141.63989805, 43.14884195], [141.63968973, 43.14897223], [141.63926027, 43.14917777], [141.63924306, 43.14918917], [141.63917445, 43.14923417], [141.63907778, 43.14929778], [141.63901805, 43.14940195], [141.63903111, 43.14947972], [141.63905472, 43.14951139], [141.63912222, 43.14960195], [141.63919944, 43.14975417], [141.63927306, 43.14989889], [141.63933389, 43.14998722], [141.6393427, 43.15], [141.63946861, 43.15018277], [141.63964805, 43.15053944], [141.63971306, 43.15064361], [141.63980416, 43.15077389], [141.63998917, 43.15118278], [141.64007722, 43.15146556], [141.64012472, 43.15161777], [141.64018944, 43.15205778], [141.6402075, 43.15221389], [141.6402025, 43.15244277], [141.64015805, 43.15266667], [141.64006694, 43.15295333], [141.63987416, 43.15335444], [141.63965278, 43.15371639], [141.63934333, 43.15406], [141.63880944, 43.15455223], [141.63858528, 43.15472944], [141.63841584, 43.15484639], [141.63805917, 43.155065], [141.6377575, 43.15520305], [141.63735639, 43.15533584], [141.63691639, 43.15547639], [141.63664278, 43.15558056], [141.63586944, 43.15579417], [141.63543973, 43.15590611], [141.63496056, 43.15603389], [141.63411416, 43.156255], [141.63333333, 43.15646287], [141.63328361, 43.15647611], [141.63274222, 43.1566375], [141.63248195, 43.15670778], [141.63210416, 43.15680167], [141.63164112, 43.15692084], [141.63127333, 43.15701528], [141.63038778, 43.15724972], [141.6295625, 43.15747111], [141.62882056, 43.15767111], [141.62809139, 43.15785611], [141.62775278, 43.15793944], [141.62750528, 43.15803833], [141.62735694, 43.15811667], [141.62704109, 43.15833333], [141.62692445, 43.15841333], [141.62662805, 43.15860611], [141.62650306, 43.15867639], [141.62636222, 43.15880389], [141.62601861, 43.15903833], [141.62556278, 43.15938444], [141.62544555, 43.15947056], [141.62528944, 43.15956167], [141.62512, 43.15969972], [141.625, 43.15978423], [141.62482056, 43.15991056], [141.62413834, 43.16042639], [141.62367472, 43.16074639], [141.62303973, 43.16117611], [141.62236, 43.16111861], [141.62232889, 43.16111722], [141.62164111, 43.16108472], [141.62128306, 43.16104833], [141.62092111, 43.16101167], [141.61951611, 43.16086972], [141.61814834, 43.16075667], [141.61682861, 43.16066639], [141.61666667, 43.16065536], [141.61612278, 43.16061833], [141.61544027, 43.16057167], [141.61514722, 43.16054584], [141.61400501, 43.16044528], [141.61253805, 43.160355], [141.61148361, 43.16027611], [141.61114805, 43.16025111], [141.61098389, 43.160225], [141.61063805, 43.16016972], [141.60947361, 43.16010639], [141.60833333, 43.16000789], [141.60806501, 43.15998472], [141.60673361, 43.15989444], [141.60600501, 43.15983361], [141.60511306, 43.15975889], [141.60411917, 43.15967723], [141.60368694, 43.15964167], [141.60231501, 43.15953305], [141.60090667, 43.15944278], [141.6, 43.1593672], [141.59960694, 43.15933444], [141.59948611, 43.1593225], [141.59913834, 43.15928833], [141.59795917, 43.15917195], [141.59653778, 43.15907722], [141.59563027, 43.15901417], [141.59523778, 43.15898695], [141.59379805, 43.15888278], [141.59308584, 43.15882695], [141.59245416, 43.15877751], [141.59241667, 43.15877444], [141.59230416, 43.15876305], [141.59166667, 43.15869917], [141.59093195, 43.15862556], [141.58955083, 43.15852611], [141.5881875, 43.15839972], [141.58739852, 43.15833333], [141.58684722, 43.15828695], [141.58556083, 43.15817417], [141.58536361, 43.15815889], [141.58523528, 43.15814861], [141.58399472, 43.15805195], [141.58333333, 43.15799864], [141.58259528, 43.15793917], [141.58206167, 43.15789778], [141.58130944, 43.15783972], [141.58075472, 43.15779861], [141.58062667, 43.15778917], [141.58046528, 43.15777695], [141.57990973, 43.15773584], [141.57868222, 43.15763667], [141.57863722, 43.15772251], [141.57856733, 43.15833333], [141.57856027, 43.158395], [141.57839333, 43.1594825], [141.57811778, 43.16141417], [141.57795555, 43.16255611], [141.57788416, 43.16271584], [141.57780195, 43.16289917], [141.57763917, 43.16387417], [141.57744056, 43.16508833], [141.57743639, 43.16511417], [141.5772825, 43.16607223], [141.57718645, 43.16666667], [141.57711112, 43.16713277], [141.57700333, 43.16778528], [141.57678528, 43.16910695], [141.57628167, 43.17271472], [141.57602584, 43.17269528], [141.575, 43.17261678], [141.57444333, 43.17257417], [141.57434, 43.17256639], [141.57010555, 43.17224584], [141.56666667, 43.17197825], [141.56548584, 43.17188639], [141.5633075, 43.17170472], [141.5622075, 43.17161305], [141.56098639, 43.17151139], [141.55833333, 43.17130336], [141.55673167, 43.17117777], [141.55528306, 43.17105167], [141.55278445, 43.17083389], [141.55228111, 43.17079111], [141.55194528, 43.1707625], [141.55, 43.17059736], [141.54865667, 43.17048333], [141.54751361, 43.17038611], [141.54512501, 43.17018584], [141.54334778, 43.17003695], [141.54225667, 43.16995611], [141.54166667, 43.16991247], [141.54125416, 43.16988195], [141.54049555, 43.16982584], [141.54038973, 43.16981805], [141.53970973, 43.169755], [141.53926472, 43.16971389], [141.53733528, 43.16956833], [141.53493944, 43.16937778], [141.53481167, 43.1693675], [141.53449584, 43.16934167], [141.53333333, 43.16924747], [141.53290139, 43.1692125], [141.53217639, 43.16915361], [141.53170611, 43.16910556], [141.53127278, 43.16905], [141.53075694, 43.16898361], [141.53031027, 43.16895417], [141.52985667, 43.16894056], [141.52956472, 43.16889084], [141.52937611, 43.16887723], [141.52688222, 43.16869695], [141.525, 43.16855347], [141.52222889, 43.16834223], [141.52142112, 43.16829277], [141.5211975, 43.16827472], [141.52108611, 43.1682775], [141.52055416, 43.16829028], [141.51867667, 43.16814139], [141.5183375, 43.16811084], [141.51760195, 43.168045], [141.51716667, 43.16800584], [141.51666667, 43.16796897], [141.51502306, 43.16784777], [141.51427584, 43.16778361], [141.51414555, 43.16776861], [141.51390834, 43.16774167], [141.51337584, 43.16771695], [141.51249555, 43.16766056], [141.51200584, 43.16759944], [141.51065195, 43.16750695], [141.50923528, 43.16737584], [141.50833333, 43.16731936], [141.5081175, 43.16730584], [141.50789416, 43.16727667], [141.50730917, 43.16723805], [141.50426528, 43.16703723], [141.50373917, 43.16698305], [141.50243528, 43.16685361], [141.50225917, 43.16684028], [141.50028027, 43.16669222], [141.5000128, 43.16666667], [141.5, 43.16666544], [141.49963834, 43.16663084], [141.49947973, 43.16657889], [141.49678472, 43.16634333], [141.49629389, 43.16630056], [141.49352306, 43.16607028], [141.49336722, 43.16605723], [141.49166667, 43.16591572], [141.49104027, 43.16586361], [141.48649389, 43.16552277], [141.48631139, 43.16550917], [141.48333333, 43.16527903], [141.48249027, 43.16521389], [141.48159333, 43.16514444], [141.47955278, 43.16498305], [141.47684361, 43.16476944], [141.475, 43.1646228], [141.47206278, 43.16438917], [141.47179112, 43.16436751], [141.47145861, 43.16434111], [141.46666667, 43.16395869], [141.46571889, 43.16388305], [141.46324056, 43.16368556], [141.46180306, 43.16356833], [141.46042861, 43.16345639], [141.45833333, 43.16328556], [141.45506389, 43.16301917], [141.45290211, 43.16285933], [141.45, 43.16264528], [141.44998112, 43.16264389], [141.4493925, 43.16263333], [141.44934555, 43.16251361], [141.44913722, 43.16171167], [141.44877278, 43.16043056], [141.44862167, 43.15975861], [141.44854389, 43.15908167], [141.44847611, 43.15873805], [141.448313, 43.15833333], [141.44821584, 43.15809222], [141.44774167, 43.15738889], [141.44745306, 43.15695833], [141.44735112, 43.15680611], [141.44720027, 43.15651944], [141.44707027, 43.15616028], [141.44694, 43.15586833], [141.44691389, 43.15548305], [141.44694445, 43.15531028], [141.44697639, 43.15512889], [141.44710112, 43.15486861], [141.4475075, 43.15442084], [141.44782528, 43.154145], [141.44822639, 43.15373361], [141.44859611, 43.15325444], [141.44875222, 43.15282195], [141.44886694, 43.15234305], [141.44903888, 43.15197305], [141.44927889, 43.15125972], [141.44980519, 43.15], [141.44994027, 43.14967667], [141.45, 43.14953169], [141.45035083, 43.14868], [141.45066805, 43.14791111], [141.4508675, 43.14742695], [141.45115139, 43.14654361], [141.45157112, 43.14523972], [141.45232083, 43.14319833], [141.45288905, 43.14166667], [141.45312834, 43.14102167], [141.45345083, 43.14002639], [141.45421222, 43.13767833], [141.45443083, 43.13702223], [141.45469056, 43.13606556], [141.45482694, 43.13556417], [141.45500389, 43.13473084], [141.45520616, 43.13333333], [141.45524361, 43.13307472], [141.45534805, 43.13192917], [141.45535861, 43.13139751], [141.45536306, 43.13117723], [141.45538973, 43.12985667], [141.45536889, 43.12895028], [141.45534472, 43.12868251], [141.45517112, 43.12676305], [141.45494876, 43.125], [141.45489, 43.12453417], [141.45468195, 43.12336777], [141.45441111, 43.12225333], [141.45440056, 43.12221444], [141.45411944, 43.12119111], [141.45371861, 43.11995667], [141.45334722, 43.11905972], [141.45235569, 43.11666667], [141.45217167, 43.11622251], [141.45195472, 43.11562972], [141.45178639, 43.11517056], [141.45114501, 43.11360277], [141.45094278, 43.11310833], [141.45028667, 43.11160833], [141.45, 43.11086713], [141.44948501, 43.10953556], [141.44933222, 43.10919777], [141.44894061, 43.10833333], [141.44853694, 43.10744222], [141.44798584, 43.10630944], [141.44797445, 43.10628584], [141.44737027, 43.10518167], [141.44734222, 43.10514084], [141.44731056, 43.10509417], [141.44702361, 43.10467361], [141.44646083, 43.10384861], [141.4462975, 43.10360889], [141.44439167, 43.10104639], [141.44475722, 43.10083695], [141.44571139, 43.10029139], [141.44608528, 43.10007722], [141.44622025, 43.1], [141.44763112, 43.09919277], [141.45, 43.09781953], [141.45226611, 43.09650584], [141.45376888, 43.09558917], [141.45412834, 43.09537], [141.45659195, 43.0938675], [141.45685944, 43.09370417], [141.45721083, 43.09344944], [141.4572575, 43.09341584], [141.45764222, 43.09382389], [141.45797306, 43.09415722], [141.45818, 43.09438972], [141.45821973, 43.09443444], [141.45833333, 43.094562], [141.45838722, 43.0946225], [141.45847834, 43.094725], [141.45857195, 43.09491556], [141.45863195, 43.09503751], [141.45868667, 43.0952275], [141.45878306, 43.09554277], [141.45888445, 43.09604], [141.45890278, 43.09626389], [141.45887139, 43.09646195], [141.45878584, 43.09677444], [141.45877639, 43.09684139], [141.45873889, 43.09710251], [141.45880389, 43.09738111], [141.45887361, 43.09752917], [141.45888472, 43.09755305], [141.45900445, 43.09771972], [141.45914805, 43.09790251], [141.45916584, 43.09792528], [141.45917778, 43.09796417], [141.45919778, 43.09803056], [141.45922056, 43.09810472], [141.45921694, 43.09821472], [141.45921278, 43.09833389], [141.45918639, 43.09852417], [141.45906944, 43.09901139], [141.45903555, 43.09914944], [141.45905111, 43.09932389], [141.45907722, 43.09939944], [141.45919694, 43.09954], [141.45939973, 43.09968084], [141.45943667, 43.09970639], [141.45971778, 43.09982889], [141.46013167, 43.09994611], [141.46033361, 43.09997944], [141.4604592, 43.1], [141.46062112, 43.10002667], [141.46124889, 43.10009972], [141.46220195, 43.10011528], [141.46244139, 43.10009751], [141.4626525, 43.10008167], [141.46290528, 43.10008667], [141.46360027, 43.10009722], [141.46381389, 43.10009833], [141.46405083, 43.10009972], [141.46499611, 43.10011056], [141.46544917, 43.10004805], [141.46567436, 43.1], [141.46569389, 43.09999584], [141.46589195, 43.09988139], [141.46601694, 43.09975639], [141.4660525, 43.09970361], [141.46613667, 43.09957917], [141.46617306, 43.09940222], [141.46615222, 43.09924584], [141.46613639, 43.09891777], [141.46619389, 43.09875639], [141.46627195, 43.09859472], [141.46630222, 43.09856223], [141.46640722, 43.09844889], [141.46666667, 43.0982], [141.46693333, 43.09794417], [141.46734501, 43.09759056], [141.46737611, 43.09756389], [141.46741973, 43.09753361], [141.46791, 43.09719139], [141.46812083, 43.097035], [141.46830584, 43.09695167], [141.4687225, 43.09678778], [141.4691575, 43.09663139], [141.46929917, 43.09655528], [141.46949584, 43.09644944], [141.46983139, 43.09634695], [141.46996445, 43.09630611], [141.47014416, 43.09626722], [141.47037584, 43.09622805], [141.47076917, 43.0962125], [141.47175611, 43.09617611], [141.4719125, 43.09620472], [141.47238361, 43.09624361], [141.47247861, 43.09623], [141.47281973, 43.09618111], [141.47299667, 43.09615556], [141.47316195, 43.09613195], [141.47331167, 43.09612556], [141.47341306, 43.09612111], [141.47346222, 43.09611889], [141.47356472, 43.09611444], [141.47389639, 43.09610056], [141.47401501, 43.09602251], [141.47417778, 43.09591556], [141.47425056, 43.09574639], [141.47424278, 43.09561722], [141.47418805, 43.09548889], [141.47392501, 43.09517889], [141.47351889, 43.09481695], [141.47340167, 43.09459889], [141.47344861, 43.09436917], [141.47356555, 43.09424972], [141.47370222, 43.09417667], [141.47387027, 43.09412695], [141.47402888, 43.09415277], [141.47407056, 43.09425195], [141.47411195, 43.09443139], [141.47412584, 43.09460084], [141.47414584, 43.09482223], [141.47417445, 43.09493667], [141.47425778, 43.09500972], [141.47434778, 43.095015], [141.47441416, 43.09500195], [141.47446111, 43.09494861], [141.47449639, 43.09479222], [141.4745475, 43.09471528], [141.47465694, 43.09462667], [141.47477167, 43.09455917], [141.47480528, 43.09416333], [141.47483416, 43.09398584], [141.47487555, 43.09373084], [141.47495112, 43.09346639], [141.47495889, 43.09343944], [141.475, 43.09332823], [141.4750475, 43.09319972], [141.47508639, 43.0930775], [141.47510222, 43.09297333], [141.47515694, 43.09274195], [141.47517, 43.09245722], [141.47518778, 43.09207223], [141.47511389, 43.09200277], [141.47510167, 43.09199528], [141.47505639, 43.09196722], [141.475, 43.09193239], [141.47492778, 43.09188777], [141.47487263, 43.09166667], [141.47477389, 43.09127056], [141.4744875, 43.09009084], [141.47454472, 43.09001805], [141.47462445, 43.089995], [141.475, 43.08988675], [141.47522861, 43.08982084], [141.47543805, 43.08976028], [141.4754625, 43.08948056], [141.47550056, 43.08904417], [141.47563083, 43.08805972], [141.47561528, 43.08796584], [141.47552139, 43.08785639], [141.47526639, 43.08764805], [141.475, 43.0873665], [141.47467555, 43.08702361], [141.47429278, 43.08663833], [141.47377167, 43.08614333], [141.4734175, 43.08578], [141.47290333, 43.085185], [141.47273694, 43.08503917], [141.47252861, 43.08483084], [141.47220555, 43.08416417], [141.47174722, 43.08334139], [141.47174253, 43.08333333], [141.47145555, 43.08284139], [141.47126805, 43.08287277], [141.47077361, 43.08195111], [141.47073722, 43.08188305], [141.47161195, 43.08163305], [141.47165361, 43.08149778], [141.47087278, 43.08013333], [141.47087278, 43.07978972], [141.47144555, 43.07859167], [141.47151861, 43.0784875], [141.47157, 43.07839667], [141.47165472, 43.07824751], [141.47173722, 43.0781025], [141.47218528, 43.07759195], [141.47223722, 43.07743584], [141.47198722, 43.07724833], [141.47184667, 43.07709723], [141.47179445, 43.07697751], [141.47178416, 43.07687333], [141.47182584, 43.07676917], [141.47227889, 43.07614417], [141.47249778, 43.07579], [141.47299569, 43.075], [141.47306555, 43.07488917], [141.47340416, 43.07437361], [141.47372694, 43.07384777], [141.47375611, 43.07379833], [141.47379472, 43.07373305], [141.47361889, 43.07338111], [141.4733675, 43.07287917], [141.47302501, 43.07225751], [141.4726025, 43.07149], [141.47246667, 43.07124361], [141.47168027, 43.06981667], [141.47154472, 43.06953584], [141.47155416, 43.06952251], [141.47160861, 43.06944444], [141.47170112, 43.06931167], [141.47199834, 43.06909584], [141.47213861, 43.06899417], [141.47290944, 43.06843139], [141.47375222, 43.06780417], [141.47388861, 43.0677025], [141.475, 43.06684547], [141.47523186, 43.06666667], [141.47598222, 43.06608805], [141.47739861, 43.06501222], [141.47801861, 43.06454139], [141.47884667, 43.06393722], [141.47906333, 43.06376778], [141.47968501, 43.06328111], [141.48019056, 43.06288556], [141.4803725, 43.06278139], [141.48182056, 43.06166695], [141.48212278, 43.06144278], [141.48220639, 43.06137584], [141.48225472, 43.06133723], [141.48238611, 43.0612325], [141.48324222, 43.06054861], [141.48325555, 43.06053805], [141.48333333, 43.06047597], [141.48346611, 43.06037], [141.48344027, 43.06021389], [141.48333333, 43.05998587], [141.48312278, 43.05953695], [141.48326333, 43.05952139], [141.48333333, 43.05951247], [141.48383861, 43.05944805], [141.48386944, 43.05944417], [141.48526834, 43.05926611], [141.48604416, 43.05904222], [141.48666416, 43.05882861], [141.48729416, 43.05855777], [141.48758056, 43.05845361], [141.48766389, 43.05841528], [141.48784058, 43.05833333], [141.48794, 43.05828723], [141.48859611, 43.05787584], [141.48886167, 43.05773528], [141.48911167, 43.05761556], [141.48971083, 43.05728723], [141.49005973, 43.05714139], [141.49032, 43.05705805], [141.49074195, 43.05695389], [141.49105973, 43.05692805], [141.49166667, 43.05691869], [141.49172611, 43.05691778], [141.49199694, 43.05692805], [141.49211416, 43.05693833], [141.49252805, 43.056975], [141.49292917, 43.05707944], [141.4932, 43.05722], [141.49343973, 43.05730333], [141.49361667, 43.05738667], [141.49381973, 43.0575325], [141.49392389, 43.05764695], [141.49419501, 43.05778778], [141.49440306, 43.05786056], [141.49461639, 43.05790751], [141.49479888, 43.05793361], [141.49509555, 43.05795944], [141.49517367, 43.05797044], [141.49542888, 43.05800639], [141.49567888, 43.05799611], [141.49587694, 43.05798028], [141.4963, 43.05791277], [141.49739973, 43.05780333], [141.49741027, 43.05584528], [141.49741616, 43.05537708], [141.49745445, 43.05228556], [141.49746278, 43.05161639], [141.49749389, 43.0500125], [141.4974983, 43.05], [141.49755639, 43.04983528], [141.49765027, 43.04978333], [141.498282, 43.05], [141.5, 43.05058923], [141.50123333, 43.05101223], [141.50134706, 43.05], [141.50153528, 43.048325], [141.50162611, 43.047725], [141.5019, 43.04591917], [141.50206611, 43.04481944], [141.50225416, 43.04357556], [141.50240722, 43.04222], [141.5025045, 43.04166667], [141.50260834, 43.04107611], [141.50289361, 43.03876972], [141.50293167, 43.03846167], [141.50324416, 43.03587861], [141.50350528, 43.03396667], [141.50351056, 43.03373639], [141.50351333, 43.033605], [141.50351501, 43.03353528], [141.50354584, 43.03333333], [141.50391111, 43.03094167], [141.50404639, 43.02999528], [141.50407805, 43.02980778], [141.50432778, 43.02832751], [141.50453361, 43.02707333], [141.50468195, 43.02583805], [141.50481027, 43.025], [141.50505195, 43.02342167], [141.50521361, 43.02230695]]]}, "properties": {"id": "covered-jp-hokkaido-ebetsu", "status": "covered", "jurisdiction": "Ebetsu", "country_id": "jp", "state_id": "hokkaido", "area_type": "city", "note": "Covered by public tree inventory for Ebetsu; geometry from official jurisdiction boundary."}}]}