{"type": "FeatureCollection", "features": [{"type": "Feature", "geometry": {"type": "Polygon", "coordinates": [[[-89.59780800041779, 34.3599359997882], [-89.59780800041779, 34.35957800025108], [-89.5978030003949, 34.358841000337335], [-89.59779599982392, 34.35753299980143], [-89.59778699960307, 34.35592299969093], [-89.59777800028056, 34.354287000205886], [-89.5977759997324, 34.353862000075694], [-89.59776999988463, 34.352700000240276], [-89.59776300021193, 34.351367999991176], [-89.59775700036415, 34.35024500024826], [-89.59772399985388, 34.346589999899685], [-89.59769000041699, 34.34285600009347], [-89.59281499967696, 34.3428860003509], [-89.58884299983353, 34.3429109999391], [-89.58333600015511, 34.342945000257146], [-89.57998000025485, 34.342964999914244], [-89.57614399995555, 34.34298899964477], [-89.57519900012443, 34.342995000132625], [-89.56264099981345, 34.34307100009397], [-89.56263999998855, 34.34310200010721], [-89.56191500026546, 34.34309200029559], [-89.55802399971458, 34.343040999902776], [-89.55439599982775, 34.343018000020855], [-89.55334999971429, 34.343010999700795], [-89.55116700014909, 34.34297300007241], [-89.55102499985887, 34.3429709996621], [-89.55069900034394, 34.342964999914244], [-89.55077899981157, 34.342829000075184], [-89.55094000036836, 34.3427399997884], [-89.55106599986674, 34.34267000003819], [-89.55150000023501, 34.34209400019289], [-89.551640999802, 34.34191000036656], [-89.55226799961581, 34.34125699984469], [-89.54849999998689, 34.34074599981787], [-89.54731099975831, 34.340584999814624], [-89.54715199974964, 34.34056200000086], [-89.54722200006984, 34.34044600023129], [-89.54737100003275, 34.34023899985378], [-89.54754099991207, 34.340064999839946], [-89.54782899979216, 34.33979800028047], [-89.54804499970223, 34.33963199982861], [-89.54828099970379, 34.33946200028536], [-89.54854900039071, 34.33930199992056], [-89.54910599988429, 34.33903400027604], [-89.54873099996558, 34.338525999717895], [-89.54860999959176, 34.338465999781725], [-89.5486699998662, 34.33835399963768], [-89.5488449997684, 34.33792799969705], [-89.54517300039896, 34.33781299988892], [-89.5444379997318, 34.337761000098055], [-89.54411300004179, 34.337747999959866], [-89.54412899993532, 34.33896100001134], [-89.54413300013327, 34.339351999742846], [-89.54413599960802, 34.33950000002121], [-89.54419800043061, 34.34431300022217], [-89.54420400027838, 34.34482700020112], [-89.54397900014749, 34.34459799987816], [-89.54392800009386, 34.34455200022046], [-89.54353100043383, 34.3441999999082], [-89.54328000036365, 34.34398300019109], [-89.54308100017202, 34.343832000193274], [-89.54275099956082, 34.34361900031371], [-89.54232399976358, 34.343389999658584], [-89.5423100004182, 34.34338099971076], [-89.54220800031094, 34.343317000218704], [-89.54196399991346, 34.34316499993133], [-89.54190600018714, 34.34312199972687], [-89.54181099975258, 34.343049999887086], [-89.54168899955384, 34.342958000331485], [-89.54144400022977, 34.342828000239145], [-89.54078599955552, 34.34268599966836], [-89.54075799996642, 34.34267900006231], [-89.54008299957374, 34.34251700022177], [-89.53988500010533, 34.342470000323935], [-89.53909300043509, 34.34226299975019], [-89.53775199987054, 34.341785000117206], [-89.5373629997081, 34.34163800001282], [-89.53709599974442, 34.34156599964064], [-89.53649700041802, 34.341443000067095], [-89.53621200001265, 34.34140399987518], [-89.53590499986599, 34.34139399986108], [-89.53563999955215, 34.34140300002216], [-89.53550300018308, 34.34139399986108], [-89.53541699996937, 34.34138899985363], [-89.53538600000722, 34.337598999658596], [-89.53537500013658, 34.3362579998711], [-89.53327399968882, 34.336241999756396], [-89.52858100032027, 34.33620499994303], [-89.52676799975261, 34.336190999648515], [-89.52676600010278, 34.33096999977506], [-89.52680999958541, 34.33044099968416], [-89.52680899976049, 34.33032100007162], [-89.52680600028576, 34.32996200019364], [-89.52680600028576, 34.32984299988682], [-89.52680899976049, 34.329705000298375], [-89.52682100035437, 34.32929400016327], [-89.52682600037726, 34.32915799966978], [-89.52682899985199, 34.32890000027705], [-89.52683100040012, 34.328802000018015], [-89.52682600037726, 34.32840600003099], [-89.5268220001793, 34.32812600030602], [-89.52681899980624, 34.327868999979735], [-89.52680999958541, 34.327523000236965], [-89.52680399973762, 34.327334000242324], [-89.52680000043799, 34.32717699980927], [-89.52677500032362, 34.3262359999779], [-89.52676100007993, 34.32572899985131], [-89.52675000020926, 34.32529499997986], [-89.52674699983622, 34.325194999869055], [-89.52674900038434, 34.32475900010052], [-89.52675600005705, 34.32345099981474], [-89.5267590004301, 34.32301599995981], [-89.52678899966901, 34.32203599991248], [-89.52680299991272, 34.32157999975322], [-89.52680299991272, 34.321478000227785], [-89.52680700011068, 34.318339000171754], [-89.52676000025501, 34.318392999642526], [-89.5267590004301, 34.31541199985625], [-89.52676299972974, 34.31350299977917], [-89.52674199981335, 34.31275600031984], [-89.52673699979047, 34.31262099993189], [-89.52678399964616, 34.312585000286404], [-89.52737600019815, 34.312200000185946], [-89.52817500043942, 34.31168000012872], [-89.53097499977267, 34.30985899993555], [-89.5309549996812, 34.30924100012055], [-89.53088899955894, 34.307213999737286], [-89.53088699990913, 34.30713399963948], [-89.53001499987295, 34.307133000120096], [-89.52946599987693, 34.30713199985866], [-89.5273710001753, 34.307128000296906], [-89.5268230000042, 34.3071270000354], [-89.52681799998133, 34.306507000351615], [-89.52680899976049, 34.30549400013121], [-89.52680799993558, 34.305336000115936], [-89.52680700011068, 34.30521199983006], [-89.52680700011068, 34.305156999758275], [-89.5268020000878, 34.304565999938795], [-89.52679899971474, 34.30426400025852], [-89.52679700006493, 34.304024999766284], [-89.52679299986697, 34.30349899993851], [-89.52404700006207, 34.30347699991063], [-89.52068699996386, 34.303449999834804], [-89.52018499982351, 34.30344400022898], [-89.51995399984483, 34.30344100005492], [-89.51996600043871, 34.30280300017586], [-89.51998200033223, 34.301975999947125], [-89.52000999992131, 34.300743000224635], [-89.52001199957114, 34.30068800019447], [-89.52001999996706, 34.300056000028995], [-89.52001999996706, 34.30003100028751], [-89.52001999996706, 34.29995699988109], [-89.52002099979198, 34.29993299971517], [-89.52002800036298, 34.29944199998024], [-89.5200290001879, 34.29937700001329], [-89.52003199966263, 34.299290999968335], [-89.52005199975412, 34.298389999734745], [-89.52006799964765, 34.29771199998313], [-89.52008199989135, 34.29715700006018], [-89.5201699997549, 34.292558000036905], [-89.51972799988901, 34.29254699970407], [-89.51713699989483, 34.29252100026099], [-89.51704200035857, 34.29251999982552], [-89.51365499959785, 34.2924850001625], [-89.51350099961208, 34.2924839997266], [-89.5135020003353, 34.292659999816244], [-89.51350599963493, 34.29316900013829], [-89.51351300020595, 34.294019000208195], [-89.51352200042679, 34.29512699993589], [-89.51352599972644, 34.29561900005951], [-89.51352800027456, 34.29579100015904], [-89.51352800027456, 34.29590099991727], [-89.51352900009947, 34.29604899964808], [-89.51352999992439, 34.29613300000104], [-89.51353199957421, 34.29629399994811], [-89.5137070003747, 34.29629300029972], [-89.5141159997303, 34.296291000260744], [-89.51464499963481, 34.296287999831165], [-89.51490999994869, 34.2962870001827], [-89.51538600014975, 34.29628399975294], [-89.51561999960316, 34.296283000104474], [-89.51568800027354, 34.29628199971381], [-89.5157979998784, 34.29630800021934], [-89.51578000033504, 34.29669800015754], [-89.51574699982477, 34.297122999741106], [-89.51575199984765, 34.29760300000284], [-89.5157490003729, 34.298173000276165], [-89.51574699982477, 34.29824999964547], [-89.51573099993125, 34.29937100011656], [-89.51572099988549, 34.30003599979113], [-89.51571599986264, 34.30030600000307], [-89.51570400016706, 34.301119000140844], [-89.51570300034216, 34.301195999777846], [-89.5157069996418, 34.301390000169455], [-89.51571599986264, 34.301942999675745], [-89.51571800041077, 34.302000999851785], [-89.51574699982477, 34.30231500036535], [-89.51579399968044, 34.30261200028361], [-89.51586300017573, 34.302843999641524], [-89.51595000021435, 34.30305899976978], [-89.51584399990915, 34.30305600032399], [-89.51575199984765, 34.30305300013608], [-89.51458100006073, 34.30302599992388], [-89.51457900041089, 34.30351799978932], [-89.51514199975226, 34.30352599999858], [-89.5153829997767, 34.3041810001709], [-89.5157490003729, 34.30517799980344], [-89.51578000033504, 34.30539200035262], [-89.51578199998487, 34.30552000001129], [-89.51580299990125, 34.306579999913055], [-89.51576799974117, 34.30702300023084], [-89.51576400044152, 34.30708500017267], [-89.51644300013386, 34.30709499982387], [-89.51709800043507, 34.30710599973563], [-89.51741300007934, 34.307110000040474], [-89.51775700003593, 34.30711400034512], [-89.51814200000041, 34.3071069999974], [-89.51854700005636, 34.30780399995988], [-89.51855200007921, 34.3078140002675], [-89.51868099995066, 34.30804400033571], [-89.51860300013284, 34.30810000025053], [-89.5185150002693, 34.308135000085535], [-89.51882900008866, 34.308696999657556], [-89.51861900002636, 34.30877999973371], [-89.51864599979055, 34.30894099992464], [-89.51859899993488, 34.309170999873885], [-89.51879899995141, 34.30933900021939], [-89.51857700019357, 34.310423000284935], [-89.51844400012419, 34.31058599999195], [-89.51841300016204, 34.310708000066384], [-89.51839899991835, 34.3107649999066], [-89.51803900006824, 34.310760999775894], [-89.51804099971805, 34.31155900019147], [-89.5180159996037, 34.31217199974553], [-89.51796600027332, 34.3127609998079], [-89.51795799987738, 34.31284300012505], [-89.51793299976302, 34.313334000158456], [-89.51792799974015, 34.31343899975207], [-89.51791400039475, 34.314176000263096], [-89.51791299967155, 34.31422600022048], [-89.51791100002171, 34.31435200015898], [-89.51759700020236, 34.3141540000647], [-89.51717100023001, 34.31396900036025], [-89.51643999976082, 34.31436599964582], [-89.51633900037679, 34.31441299970795], [-89.51600600029087, 34.31429999992461], [-89.51487099959064, 34.313911999727445], [-89.51485899989505, 34.31394800028786], [-89.51420899961673, 34.31374999998262], [-89.5133330002809, 34.313474999773334], [-89.51285500043002, 34.31420199968076], [-89.51276599984324, 34.314471000174606], [-89.51275400014767, 34.314751000200566], [-89.51324799989207, 34.315903999860126], [-89.51325399973985, 34.316317999999896], [-89.51325499956477, 34.31642700017383], [-89.51316099985345, 34.31711000015853], [-89.51316400022648, 34.317433000325344], [-89.51315400018075, 34.31785600006295], [-89.51318900034084, 34.31809399963599], [-89.5131869997927, 34.31852799965134], [-89.51324299986922, 34.31879899988185], [-89.51338799963415, 34.31920799999384], [-89.51357299958208, 34.319904999654], [-89.51390800021616, 34.320256000172904], [-89.51247799996314, 34.32026400027118], [-89.51064000017944, 34.32027499994137], [-89.50942400018667, 34.320281999933115], [-89.50902199960544, 34.3202840001426], [-89.50907699985703, 34.3173709998637], [-89.50908500025294, 34.316935999656934], [-89.50904300042015, 34.316935999656934], [-89.50744400011276, 34.316945000216194], [-89.50626300028006, 34.31695100034116], [-89.50155999996745, 34.31697699964131], [-89.50024400041558, 34.316983999908075], [-89.49792500040795, 34.31699700029597], [-89.49783599982116, 34.31699500000814], [-89.4977250003914, 34.31709799993086], [-89.49757399988034, 34.317212999940125], [-89.49711500029605, 34.31756600012003], [-89.49675500044592, 34.317845000075756], [-89.4962619996281, 34.31837900008533], [-89.49596000040263, 34.318676000312756], [-89.49560100037742, 34.318970999990405], [-89.49535799980487, 34.319299000255626], [-89.49517399968187, 34.3195580003466], [-89.49503899996265, 34.319871999751626], [-89.49501399984828, 34.31999200021111], [-89.49494199987825, 34.32014300009418], [-89.49477199999893, 34.32037000020317], [-89.49468199958726, 34.320493000257414], [-89.49451300043118, 34.32062799985615], [-89.49412900029162, 34.32084299970299], [-89.49409400013151, 34.32088099971181], [-89.49399299984918, 34.32098899979919], [-89.49384200023644, 34.32124400023706], [-89.49375000017493, 34.32144600029289], [-89.49372199968754, 34.32161100028994], [-89.49371900021279, 34.32162700022743], [-89.4937259998855, 34.32173999979187], [-89.49377000026642, 34.321892000325114], [-89.49386099960469, 34.322033999744754], [-89.4940299996591, 34.32225799968877], [-89.49426599966066, 34.32264900011586], [-89.49433099995797, 34.32279399996299], [-89.49439299988227, 34.323032999701425], [-89.49442999969217, 34.323214999992466], [-89.49444800013384, 34.32332199997528], [-89.49440799995088, 34.323549999712355], [-89.49428699957704, 34.32387200025774], [-89.49424599956916, 34.32399300025156], [-89.49415500023088, 34.324155000258315], [-89.49403200020724, 34.32439399983007], [-89.49394099997063, 34.32455200033101], [-89.49354099993755, 34.325251000212866], [-89.49350099975459, 34.32547699981632], [-89.49348900005903, 34.326042999907436], [-89.49349800027986, 34.32635100007786], [-89.4935369997396, 34.326566000100065], [-89.49359500036424, 34.32668199977626], [-89.49365899993835, 34.32677600017651], [-89.49395699986417, 34.326988999801934], [-89.49421299995721, 34.32710100028318], [-89.49472299959514, 34.3273690002185], [-89.49504700035855, 34.32757199964401], [-89.4952130000399, 34.32768500010548], [-89.49530299955327, 34.32782700010849], [-89.49535799980487, 34.32795199964579], [-89.49538499956904, 34.32814599978748], [-89.49539399978988, 34.32832800011675], [-89.4953679998506, 34.32855400033479], [-89.49530400027652, 34.32882700009495], [-89.495240999629, 34.32900799968807], [-89.49516199998628, 34.32915999966775], [-89.49498100023632, 34.32936399994947], [-89.49468999998317, 34.32967199979872], [-89.49453400034757, 34.32987900029043], [-89.49434900039964, 34.33023099987871], [-89.4941979998886, 34.33060199987139], [-89.49406700036734, 34.33081400019042], [-89.49381499957393, 34.331088999967015], [-89.49356199985395, 34.33132499989814], [-89.49328700039266, 34.331536999873784], [-89.49302999957641, 34.33187800029231], [-89.49285499967422, 34.33218699977689], [-89.49282000041242, 34.33230399980324], [-89.49280399962058, 34.332359999853175], [-89.49275699976492, 34.33252100006674], [-89.49258500023579, 34.33295600034724], [-89.49246300003706, 34.3332159997789], [-89.49244299994555, 34.33339299975266], [-89.49245499964114, 34.333567000255535], [-89.49248700032649, 34.333787999994506], [-89.49256900034224, 34.33410300024402], [-89.49269599966556, 34.33438799973308], [-89.49289499985719, 34.33463300017264], [-89.49306999975936, 34.33480599965532], [-89.49316000017106, 34.33493900010417], [-89.49319899963079, 34.335036999870496], [-89.49322499957007, 34.33515600022762], [-89.49322299992025, 34.33524700025583], [-89.49322200009533, 34.33530900012077], [-89.49321100022466, 34.335426000243466], [-89.49311999998808, 34.335643999770475], [-89.49305999971361, 34.3357600002474], [-89.49273400019871, 34.33639699971942], [-89.49270300023655, 34.336506999686904], [-89.49266200022868, 34.336650000244866], [-89.49263499956619, 34.33681200029202], [-89.49272099977992, 34.33677599989651], [-89.49363200017416, 34.336757000155416], [-89.49363399982398, 34.336996000176676], [-89.49376000022068, 34.337130000024054], [-89.49378899963467, 34.337265000301514], [-89.49373299955818, 34.337425000101746], [-89.4937340002814, 34.33756799983644], [-89.49338100010398, 34.33779999975879], [-89.49342999960949, 34.337887000306], [-89.49402499963622, 34.338027000315016], [-89.49399799987205, 34.338131000276405], [-89.49545599971415, 34.3382740002909], [-89.49604099969515, 34.339403000153915], [-89.49550699976778, 34.339771000019326], [-89.4950089998254, 34.339885000238645], [-89.4947410000368, 34.33987900026996], [-89.49455899956362, 34.33991900030004], [-89.49412199972062, 34.33979900015263], [-89.49299299976647, 34.33949099965591], [-89.49299399959139, 34.33976300029745], [-89.49316799966866, 34.33978600033034], [-89.4931779997144, 34.33984699993549], [-89.49319799980587, 34.33998999999121], [-89.49308499982797, 34.34021400021074], [-89.4929309998422, 34.340205999789376], [-89.49257699983986, 34.34035099970579], [-89.4912620001129, 34.34157800007783], [-89.49123399962549, 34.34162499973385], [-89.4913190000143, 34.34170299989398], [-89.49151300018306, 34.34188600032723], [-89.49157799958208, 34.3419469998884], [-89.49170399997878, 34.342065000238996], [-89.49179299966723, 34.34201200027175], [-89.49212400010332, 34.34180400020277], [-89.49235599990693, 34.34165999968158], [-89.49282700008511, 34.34228599983919], [-89.49285100037457, 34.34231700014263], [-89.4940299996591, 34.342341999900434], [-89.49422899985072, 34.342014999809], [-89.49422800002583, 34.341831999657266], [-89.49489900022056, 34.341813000319846], [-89.49492199978678, 34.34236099985975], [-89.49809600011217, 34.342378999973434], [-89.49840200043391, 34.34238200023918], [-89.49836399990076, 34.34337999988131], [-89.49834499963418, 34.343883000105066], [-89.49832000041815, 34.34429600034218], [-89.4983170000451, 34.34447600011801], [-89.49831500039528, 34.344550999663305], [-89.49855800006952, 34.34456900004856], [-89.49856100044256, 34.34485000032858], [-89.49855999971935, 34.34489699963417], [-89.49828699990788, 34.34490399979679], [-89.49830199997649, 34.3449969999943], [-89.49829899960343, 34.34560900025285], [-89.49829199993074, 34.3457070001605], [-89.49828699990788, 34.345797999866214], [-89.49829899960343, 34.34589700009412], [-89.49836200025094, 34.346411999798484], [-89.498105000333, 34.34642000036948], [-89.4957050001345, 34.346489999956006], [-89.49526999994131, 34.34650300022245], [-89.49513900042005, 34.346219000161746], [-89.49483800012119, 34.34563299996836], [-89.49473900038699, 34.34543299990406], [-89.49465700037122, 34.34544700013917], [-89.49447499989803, 34.345473000251765], [-89.4944099996007, 34.345488000284526], [-89.49436500029317, 34.345303999746754], [-89.49435000022456, 34.345236000268144], [-89.49425200031527, 34.34523899969001], [-89.49416699992646, 34.345240000239016], [-89.49368599970252, 34.34524199985349], [-89.49262799989349, 34.34524800018013], [-89.4925230003115, 34.345248999987305], [-89.49235300043219, 34.34524999979442], [-89.49190999984309, 34.345252000150424], [-89.4911859999449, 34.34525600012048], [-89.49118699976982, 34.34532400032458], [-89.49122399957973, 34.3467489999206], [-89.49126899978559, 34.348515999812996], [-89.4916989999559, 34.34871500017411], [-89.49242899970186, 34.34870200025069], [-89.49247200025789, 34.34904699964701], [-89.4924880001514, 34.349181000263734], [-89.49253800038012, 34.349293999798185], [-89.492571999817, 34.349372999999204], [-89.49258100003783, 34.3495239996599], [-89.49155199964281, 34.3495310001779], [-89.49149599956631, 34.349553000000824], [-89.49093300022491, 34.349541999719214], [-89.48770799984591, 34.34947600022459], [-89.48245800008543, 34.34936999998354], [-89.48245800008543, 34.349446999857115], [-89.4824560004356, 34.34960100013372], [-89.48245499971239, 34.3497169998471], [-89.48244499966665, 34.35091499977395], [-89.48242299992533, 34.35352999964745], [-89.48241399970449, 34.354491999882235], [-89.48239600016116, 34.35666400021789], [-89.4823919999632, 34.35707600012303], [-89.48223200012963, 34.35706300001298], [-89.48197400038677, 34.356716000152], [-89.48165600036945, 34.356606999668394], [-89.48162700005714, 34.35676800005383], [-89.48147499972116, 34.35684800029622], [-89.4812510003135, 34.35696700010756], [-89.48088200024257, 34.35684400013762], [-89.48041699991214, 34.356689000147455], [-89.48023399961403, 34.35662899985902], [-89.48012900003206, 34.35703400004544], [-89.48009999971974, 34.357145999711264], [-89.48003799979547, 34.357385000205966], [-89.48002899957463, 34.35741899984554], [-89.48000000016063, 34.35752800001479], [-89.47998000006915, 34.35760600021216], [-89.47999099993979, 34.35762499967877], [-89.48001199985619, 34.35766900026148], [-89.48002199990194, 34.3577000000683], [-89.48004199999342, 34.35777100027637], [-89.4800479998412, 34.35786099983736], [-89.48004600019138, 34.35788800020593], [-89.48003799979547, 34.35793600001575], [-89.4800190004272, 34.3579790000383], [-89.47999900033572, 34.35803200029439], [-89.47998300044219, 34.35808400012135], [-89.47996699965036, 34.35814800020633], [-89.47996099980259, 34.358176999788405], [-89.47994599973396, 34.3582089998015], [-89.47991599959673, 34.35824200019618], [-89.47986799991615, 34.358270999745734], [-89.47983299975606, 34.358280999971655], [-89.47979699977104, 34.35828599971343], [-89.47973400002185, 34.358300999678384], [-89.47969300001395, 34.358317000033566], [-89.47964000031051, 34.35834600029878], [-89.47958300040911, 34.358387000068454], [-89.47953599965513, 34.35844000006655], [-89.47949800002029, 34.35845500000394], [-89.47945299981446, 34.35848400022143], [-89.47940900033184, 34.358520999845005], [-89.47936699960073, 34.35856499995731], [-89.47932999979079, 34.358615000158096], [-89.47930200020171, 34.35866800001201], [-89.47928100028533, 34.3587120000472], [-89.47927000041466, 34.358737999753714], [-89.47925799982079, 34.35876699987324], [-89.47924000027743, 34.35881400027577], [-89.47922600003373, 34.358854999816515], [-89.47921900036103, 34.358881000220265], [-89.47920099991939, 34.35894499969661], [-89.47918900022381, 34.35899600005544], [-89.47918000000298, 34.359058999801555], [-89.47917099978214, 34.35911600016662], [-89.47916699958418, 34.35917299975139], [-89.47916499993437, 34.359228999656935], [-89.47916400010945, 34.359263000031575], [-89.47916800030741, 34.35934799979545], [-89.47917199960706, 34.35938499977915], [-89.47917699962991, 34.35942599978214], [-89.47918400020093, 34.35947000016088], [-89.47921199979004, 34.359654000011425], [-89.47923600007948, 34.359868999945625], [-89.47925000032318, 34.36003600000708], [-89.47925699999587, 34.36018499974108], [-89.4792589996457, 34.36024200008186], [-89.47926100019383, 34.36032399997074], [-89.47926799986654, 34.36037799985376], [-89.47928100028533, 34.36042500009439], [-89.4792949996307, 34.36046200034417], [-89.47930600039967, 34.36048099990485], [-89.47931300007237, 34.36049899983604], [-89.47931700027034, 34.3605169997633], [-89.47931899992015, 34.36053099970409], [-89.47931899992015, 34.36054499964247], [-89.47931700027034, 34.36055900032015], [-89.47931399989729, 34.36057199988792], [-89.4793080000495, 34.36058999979951], [-89.47929999965359, 34.36063099995447], [-89.47929800000375, 34.36067200008944], [-89.4793010003768, 34.360713000204285], [-89.4793089998744, 34.360754000299075], [-89.47933900001163, 34.360886999636584], [-89.47936300030109, 34.36102099986519], [-89.4793790001946, 34.36115600023849], [-89.47938699969221, 34.36129200001017], [-89.47949299999743, 34.36131100012423], [-89.4794849996015, 34.36149099970361], [-89.47947700010388, 34.361658000240546], [-89.47947000043122, 34.361691999629684], [-89.47944100011888, 34.36179599990026], [-89.47890999966623, 34.36172999967224], [-89.4784700003485, 34.36167500030765], [-89.47727600009704, 34.3615269998697], [-89.4772099999748, 34.36151899999892], [-89.47703900027057, 34.36149700035031], [-89.47556100033698, 34.361313000097006], [-89.47501200034097, 34.3612450002558], [-89.47380499967073, 34.361094999822065], [-89.47381600043968, 34.361803000134856], [-89.47382399993731, 34.362295000223014], [-89.47382899996016, 34.362614000052346], [-89.47384400002878, 34.36361800034356], [-89.47384900005166, 34.36388499968268], [-89.4738520004247, 34.36420499971379], [-89.47386499994518, 34.36550299982089], [-89.4738659997701, 34.365640000258075], [-89.47386800031825, 34.365778000033465], [-89.47387199961788, 34.36615799969127], [-89.47388800040972, 34.36778999989548], [-89.47389199970937, 34.36815400011035], [-89.47390000010527, 34.36902299992427], [-89.47390400030325, 34.369323999834805], [-89.47390500012816, 34.369463999993755], [-89.47390799960289, 34.36975099992188], [-89.47391500017389, 34.37042800022317], [-89.47392000019677, 34.37093099978601], [-89.47392100002166, 34.37109999978386], [-89.47392199984658, 34.371151999657535], [-89.47395899965652, 34.374785999879016], [-89.47399499964153, 34.37842000035705], [-89.47522400005307, 34.37843699998857], [-89.47952200030974, 34.378497000230375], [-89.48099400039555, 34.378522999728666], [-89.48152199957684, 34.37852500003192], [-89.48269999993477, 34.378541999642124], [-89.48417399967042, 34.37856299985357], [-89.48469500007731, 34.37857000017003], [-89.4877770003412, 34.37861299998285], [-89.4883060002457, 34.37862000029514], [-89.49121100005927, 34.378660999782326], [-89.49161500029031, 34.37866599979071], [-89.49161600011523, 34.3789490002255], [-89.49161600011523, 34.37926000000109], [-89.49161799976505, 34.379615000283344], [-89.49161899958996, 34.38006999983346], [-89.49162000031318, 34.38036100026844], [-89.49162100013808, 34.38058799974512], [-89.49162199996302, 34.380992999778385], [-89.49162299978791, 34.38126000008541], [-89.49162500033604, 34.381930000000565], [-89.49162600016098, 34.382205999772054], [-89.4916289996357, 34.383299999935616], [-89.49163000035892, 34.383448999810845], [-89.49161699994013, 34.38364999969014], [-89.49157099990937, 34.38364999969014], [-89.49106200009636, 34.383635999905955], [-89.4908400003385, 34.383630000103665], [-89.49041000016818, 34.383559000309866], [-89.48944199987254, 34.383399999697055], [-89.48909000041836, 34.3833750003239], [-89.48860699964628, 34.383356000024314], [-89.48845100001066, 34.3833469999199], [-89.48811999957455, 34.38332800035533], [-89.48785000013615, 34.38334599982589], [-89.48779499988454, 34.38335299974253], [-89.4877210002647, 34.38336199984629], [-89.48750000033175, 34.383391000338754], [-89.4874269996385, 34.38340199988382], [-89.4872290001701, 34.38393699993912], [-89.48699800019143, 34.384456999813864], [-89.4869100003279, 34.38465700016034], [-89.48683199961177, 34.38492000034474], [-89.48644300034765, 34.3861969999477], [-89.48605099981216, 34.387066000118935], [-89.48582300020655, 34.38729700013889], [-89.48563599971048, 34.38749899972065], [-89.48560300009851, 34.3875159997329], [-89.48531799969315, 34.38767199981538], [-89.48456000035812, 34.3879710000875], [-89.4840110003621, 34.38819799969006], [-89.48357600016892, 34.38836400032581], [-89.48326800019734, 34.3884950002424], [-89.48298899963976, 34.38866100028926], [-89.48264200020846, 34.38892699983877], [-89.48237299969662, 34.389147999666115], [-89.48201299984652, 34.38944499981331], [-89.4814560003529, 34.389886999856024], [-89.48119799971174, 34.390144999855465], [-89.4811259997417, 34.390252999688094], [-89.48111999989393, 34.39040199979129], [-89.48113599978747, 34.39068999988081], [-89.48121100013053, 34.39092900030695], [-89.48138600003271, 34.39116600004951], [-89.48191699958704, 34.39163199978528], [-89.48261799991901, 34.39215100005945], [-89.48333400031959, 34.3926710000633], [-89.48361100032902, 34.39294500004877], [-89.48374699987315, 34.393201000306796], [-89.48376000029194, 34.393231000332115], [-89.4846859998565, 34.3932400001152], [-89.4857439996655, 34.393250999848824], [-89.48578999969625, 34.40057600028449], [-89.4921850002027, 34.40055899995983], [-89.4940799998878, 34.4005539997765], [-89.49448599976868, 34.40055199999955], [-89.49501399984828, 34.400574999655106], [-89.49503599958959, 34.40039299979092], [-89.49508599981831, 34.39996199997142], [-89.49510099988692, 34.39983399990359], [-89.49517200003203, 34.399110000142585], [-89.49543300014793, 34.39732499968178], [-89.49544499984351, 34.397221999720806], [-89.49551799963844, 34.396622999774316], [-89.49553799972992, 34.39639500010239], [-89.49560899987503, 34.39556100008762], [-89.49562599959346, 34.39536700029171], [-89.49563099961634, 34.39529999987943], [-89.49570000011163, 34.394834999766545], [-89.49572400040108, 34.39467899969032], [-89.49586300031824, 34.393605000140376], [-89.49658899986625, 34.393302000077355], [-89.49707299956494, 34.393308999902835], [-89.49809399956402, 34.39332500024296], [-89.49886799969092, 34.39333699994008], [-89.4999849999495, 34.39335400024932], [-89.5000700003383, 34.39335500022383], [-89.50092099955977, 34.39336799989095], [-89.50137099982157, 34.393374999710915], [-89.50255900022526, 34.39339299998649], [-89.50360199996567, 34.39340800033669], [-89.50433099988672, 34.39341900004824], [-89.50606099971539, 34.39344600007528], [-89.50625200040942, 34.393448000022026], [-89.50657700009943, 34.39274000032001], [-89.5080399999644, 34.39261300030849], [-89.50831699997383, 34.392588999963635], [-89.50847099995963, 34.392544999931275], [-89.50859099961023, 34.393156999854874], [-89.50862599977033, 34.39333200006646], [-89.50863599981606, 34.39336000009603], [-89.50868199984681, 34.39348399979662], [-89.5087999998476, 34.39379800034503], [-89.508828000335, 34.3938530001145], [-89.50885599992411, 34.39390499994414], [-89.50889100008419, 34.39397000005638], [-89.5092149999493, 34.3936820001333], [-89.50930399963777, 34.393605000140376], [-89.50934399982073, 34.39357700019277], [-89.51911199994586, 34.393580000108216], [-89.5207329999946, 34.393630000165125], [-89.52598399957998, 34.39356599976077], [-89.52681899980624, 34.39355000020799], [-89.52804099964679, 34.393529000049035], [-89.52986900028306, 34.39355400009648], [-89.53464700004044, 34.39368000019214], [-89.53740899973884, 34.393752000267504], [-89.53914899961326, 34.393734000069195], [-89.54027900029064, 34.39379299975772], [-89.54175200020136, 34.393814999819405], [-89.54470200022075, 34.39386099986231], [-89.54577500009839, 34.393880000001545], [-89.54649899999657, 34.39389500026452], [-89.54707899995472, 34.39390699987993], [-89.54747399996492, 34.393915000363855], [-89.54808999990807, 34.393927999944], [-89.54850199963673, 34.39393699965218], [-89.5491689996335, 34.3939499999702], [-89.55014199995203, 34.39397000005638], [-89.55109699982887, 34.39399000013779], [-89.55198099956064, 34.394008000281104], [-89.55272700009846, 34.39402399974633], [-89.55361099983018, 34.39404299984855], [-89.55405299969607, 34.394052000285654], [-89.55591200029448, 34.39409099969753], [-89.55698500017212, 34.394103000026114], [-89.55815900033211, 34.394115000352976], [-89.55884399987222, 34.39412300007574], [-89.5589550002003, 34.39412400004105], [-89.55893599993374, 34.39423699974847], [-89.5588980002989, 34.39447099987764], [-89.55870099975708, 34.395675999972184], [-89.55817900042359, 34.398858999713255], [-89.55799399957735, 34.39998399989389], [-89.55872800041958, 34.39998900011129], [-89.55941299995972, 34.39999299969203], [-89.5596389999155, 34.399997000013805], [-89.55999000044311, 34.40000300012544], [-89.56033799969934, 34.40000800034175], [-89.56078299993827, 34.400016000242445], [-89.56121700030653, 34.40002300024756], [-89.56138700018585, 34.400025999931884], [-89.56153799979859, 34.40002799972139], [-89.56186000001387, 34.40003299993621], [-89.5621930000998, 34.40003900004532], [-89.56254000042942, 34.40004500015394], [-89.56290100010445, 34.40005000036774], [-89.56290000027956, 34.40041700012146], [-89.5628979997314, 34.40129999996194], [-89.56534800015861, 34.40125299968059], [-89.56684399963555, 34.401224000187696], [-89.56685600022944, 34.40229600006348], [-89.56685899970417, 34.402602999631775], [-89.56686700010009, 34.40340699980499], [-89.56758699980031, 34.40343000015816], [-89.56796799956682, 34.40344299974267], [-89.56797599996273, 34.40428099988536], [-89.5679800001607, 34.404710999854096], [-89.56798600000849, 34.40530599964781], [-89.56799199985626, 34.40601600015476], [-89.568001999902, 34.40705600028117], [-89.56800399955183, 34.40733300002366], [-89.56800600009996, 34.40755400016379], [-89.56801000029792, 34.40794500000768], [-89.56801699997062, 34.40870799966796], [-89.56995100001379, 34.4086999998572], [-89.57059100024638, 34.4086969997427], [-89.57955799958214, 34.40866000005088], [-89.57974799955295, 34.40866000005088], [-89.57978799973591, 34.408606999962984], [-89.57984200016259, 34.408535000069485], [-89.57986999975166, 34.408448000239005], [-89.58004200017913, 34.40793199964038], [-89.58009999990544, 34.407759999721705], [-89.58022299992909, 34.40730799964576], [-89.5802940000742, 34.40705200029689], [-89.5803850003108, 34.406856999905315], [-89.58053799957337, 34.40660599973945], [-89.58065499974923, 34.40647099999431], [-89.58096500026895, 34.406348999905475], [-89.58106800020111, 34.40629599983575], [-89.58130400020265, 34.40617699969675], [-89.58148699960245, 34.406087000170494], [-89.58176600016002, 34.40595099976385], [-89.58208500000225, 34.405741999977835], [-89.582131000033, 34.40571299981734], [-89.58255100015758, 34.40545600020473], [-89.58277899976319, 34.405273000008016], [-89.58290799963461, 34.40516900036182], [-89.58339200023161, 34.404737000105406], [-89.5835310001488, 34.404633999632594], [-89.58373100016532, 34.40448299998391], [-89.58382800024971, 34.404411000246895], [-89.58427900033641, 34.404059999993116], [-89.58442400010136, 34.404146000094336], [-89.58462699959263, 34.404266000001684], [-89.58545699979604, 34.40475799967535], [-89.58563599989617, 34.404580000118386], [-89.58622599990005, 34.403878000297475], [-89.5863139997636, 34.40359799993564], [-89.58687299980535, 34.402463000028725], [-89.58709799993623, 34.40197999978532], [-89.58778000000163, 34.40059299986449], [-89.58784299975082, 34.40046500002073], [-89.58845700004414, 34.39920599993058], [-89.58864199999208, 34.39882699966343], [-89.58869399987061, 34.39872100033765], [-89.58901199988793, 34.39806799999133], [-89.58924600023967, 34.39758900001758], [-89.58926200013319, 34.397556000299126], [-89.58926200013319, 34.39748900015686], [-89.58925100026252, 34.39423499982057], [-89.58925000043763, 34.394033000185416], [-89.58506299961073, 34.3940829999717], [-89.58505400028822, 34.39401899991374], [-89.58498099959496, 34.39379399972698], [-89.584947999983, 34.3936290001939], [-89.5848350000051, 34.393321000343484], [-89.5848550000966, 34.39318399996643], [-89.5848280003324, 34.392716999993645], [-89.58476800005795, 34.392551999820014], [-89.58453000040657, 34.392135000236195], [-89.58442400010136, 34.39171700006341], [-89.58447000013213, 34.3916179998533], [-89.58293100009917, 34.38863200013957], [-89.58286400015201, 34.388449000215864], [-89.58278899980894, 34.38826899999777], [-89.58270799961808, 34.38809100020879], [-89.58252299967015, 34.38774199978638], [-89.5823279996765, 34.387428000242444], [-89.58204099962131, 34.38699899973393], [-89.58033000005922, 34.384444000245566], [-89.57707899974093, 34.3795899997802], [-89.57619099981122, 34.37826199977914], [-89.57612499968897, 34.3781270002786], [-89.57609100025212, 34.378033999771105], [-89.57572700020404, 34.377648999792356], [-89.57566100008181, 34.3775560002369], [-89.57507100007793, 34.37681399967824], [-89.57487899955898, 34.37652899983355], [-89.57467299969467, 34.37628099969727], [-89.57427600003463, 34.37576500020525], [-89.5741759995772, 34.375672000040616], [-89.57404400023103, 34.375467999724336], [-89.57390399959063, 34.375309000060035], [-89.5738450000394, 34.37520999972488], [-89.57380499985642, 34.37510599979347], [-89.57375200015298, 34.37503299980016], [-89.57370500029732, 34.37485200020239], [-89.57364500002288, 34.37455500019109], [-89.57355299996135, 34.37447799965929], [-89.57345300040224, 34.37436300031235], [-89.57343300031077, 34.374198000296595], [-89.57343300031077, 34.374148999959694], [-89.57649799995788, 34.37412999979113], [-89.57879699987404, 34.37411599989829], [-89.58012800039286, 34.374107999746585], [-89.58018199992122, 34.37222999972098], [-89.58159100025782, 34.37221999967683], [-89.58225999990442, 34.37221500002504], [-89.58388599997602, 34.37220300026636], [-89.58399200028123, 34.372202000039216], [-89.58399399993107, 34.37241399972688], [-89.58401599967235, 34.374852999656454], [-89.5874469999157, 34.37483199999757], [-89.58765399960494, 34.37483099980181], [-89.58766600019882, 34.374853999851894], [-89.5877280001231, 34.374830000347494], [-89.58810999971452, 34.37482799995598], [-89.58904600022312, 34.374822000264054], [-89.58904000037533, 34.374440000208466], [-89.5890179997357, 34.37218300017042], [-89.58907600036035, 34.37218300017042], [-89.58961399958739, 34.37217900000239], [-89.5902349995534, 34.37217700028903], [-89.59076699983096, 34.37217600006157], [-89.59125800010064, 34.372174000348146], [-89.59185800015027, 34.37217199989321], [-89.59243100043571, 34.37217099966575], [-89.59292799965486, 34.372168999952144], [-89.59347599982596, 34.372167000238555], [-89.59377499957668, 34.37216600001103], [-89.59376700007908, 34.37134599995661], [-89.59360499969736, 34.371347999689796], [-89.59359499965163, 34.37102700000649], [-89.59334100010673, 34.37103100022953], [-89.59333899955858, 34.37085199988506], [-89.59333699990877, 34.370677999643426], [-89.5935849996059, 34.370674999648855], [-89.5935860003291, 34.37044499999385], [-89.59357799993319, 34.36980400014724], [-89.5935720000854, 34.369430000050805], [-89.59332299966506, 34.36943100031105], [-89.59331699981726, 34.368924999840765], [-89.59356600023763, 34.36892300004968], [-89.59356100021475, 34.36881800020119], [-89.59354199994817, 34.368760000235525], [-89.59350599996316, 34.368656999980224], [-89.59346400013037, 34.36853200031373], [-89.59339700018322, 34.36831900016761], [-89.59339600035831, 34.36824300010971], [-89.59339299998526, 34.36808700016514], [-89.59338999961221, 34.36786199999014], [-89.59338700013748, 34.36758000019286], [-89.59272400033866, 34.367528999867865], [-89.59221600035055, 34.36748999994734], [-89.59124800005488, 34.367415999705976], [-89.59079199994532, 34.36738100013019], [-89.59064800000526, 34.36762500027939], [-89.59014699968985, 34.36781200011634], [-89.58968999975536, 34.36798399982387], [-89.58899099997153, 34.36824900027292], [-89.5888679999479, 34.36829500027386], [-89.5885659998241, 34.368409999795], [-89.58848299998341, 34.36844100007735], [-89.58821500019482, 34.36854200005663], [-89.5881649999661, 34.368211000220796], [-89.58811999976025, 34.36791399964921], [-89.58807799992746, 34.36763800023398], [-89.58803100007181, 34.36732999968405], [-89.58798800041409, 34.36704099978269], [-89.58795300025399, 34.366810999790246], [-89.5878829999338, 34.3663529999881], [-89.58755800024379, 34.366359999842], [-89.58716700043155, 34.36636900028894], [-89.58711300000485, 34.36627999978181], [-89.58685500026199, 34.365862000301384], [-89.58692200020914, 34.36563300034397], [-89.58694599960027, 34.36554199992487], [-89.5869969996539, 34.36534699996507], [-89.58706899962392, 34.36513500018984], [-89.58706500032429, 34.36505900020973], [-89.58706000030142, 34.364929999851526], [-89.58748700009868, 34.364926999651125], [-89.5878829999338, 34.36492499976467], [-89.58821099999686, 34.364922999878154], [-89.5886090003801, 34.364919999677504], [-89.58892200037455, 34.364919000104926], [-89.58898199975069, 34.36491799979087], [-89.58896300038245, 34.36286799967328], [-89.5908539998696, 34.3628709999474], [-89.59339499963508, 34.36287600015683], [-89.59339600035831, 34.361328999877145], [-89.59456200012237, 34.361320999987456], [-89.59551699999923, 34.36137299999831], [-89.59596300006307, 34.36139699965018], [-89.59659999992263, 34.36137100002696], [-89.5966340002578, 34.36136999967056], [-89.59660499994548, 34.35996999987601], [-89.59668399958821, 34.359965000234745], [-89.59704799963627, 34.359957999846614], [-89.59708000032164, 34.359957000214855], [-89.59711799995648, 34.35995500020977], [-89.59714399989574, 34.35995500020977], [-89.59766199992958, 34.3599439998101], [-89.59780800041779, 34.3599359997882]], [[-89.5492819996114, 34.36567299995097], [-89.54930500007593, 34.36581099967206], [-89.549232000281, 34.36614200009172], [-89.54919499957276, 34.366314000261674], [-89.54901299999788, 34.36653200030595], [-89.54899799992927, 34.36633100012564], [-89.54897199998999, 34.366004000174264], [-89.54842899984179, 34.366004000174264], [-89.54843499968958, 34.36670199983122], [-89.54877000032366, 34.36670100027992], [-89.54884899996635, 34.36670100027992], [-89.5488459995933, 34.366729000317285], [-89.54884899996635, 34.366851000317844], [-89.54882700022503, 34.367184999714475], [-89.54874900040726, 34.36717299997674], [-89.54826499981026, 34.36709400023948], [-89.54778299976141, 34.36701799981184], [-89.54775099997435, 34.367371000248696], [-89.54773500008083, 34.36756499966431], [-89.54649499979861, 34.368125000273444], [-89.54606800000136, 34.36831600008856], [-89.54553900009685, 34.368549999998365], [-89.54453999983905, 34.36899199985729], [-89.54417300031625, 34.36915499996155], [-89.5436000000308, 34.369439000167944], [-89.54318300027927, 34.36964600036968], [-89.54261099981875, 34.36990699973383], [-89.54149399956017, 34.37040199969491], [-89.54016299993968, 34.37098999997319], [-89.54053899968332, 34.37098299976464], [-89.54041300018494, 34.37103499971096], [-89.54003599971807, 34.37118999985852], [-89.5399110000446, 34.37124299991489], [-89.5397350003175, 34.37131500000777], [-89.53938799998788, 34.37142999983208], [-89.5390730003436, 34.37153600034913], [-89.53819000043676, 34.37180500012886], [-89.53778799985555, 34.371883999872516], [-89.53739799986822, 34.371962000053124], [-89.5372430000575, 34.371989999815064], [-89.53684200019951, 34.37206099977852], [-89.53636599999845, 34.372070999841654], [-89.53559000022172, 34.37204899999778], [-89.53541399959632, 34.37204400033578], [-89.5344129996887, 34.37191700007186], [-89.53403500029525, 34.371834999664834], [-89.53357900018567, 34.37170600010092], [-89.53243099996496, 34.3713419997486], [-89.53195999978676, 34.3710969998044], [-89.53171299991455, 34.37096900008724], [-89.53157800019534, 34.37089900018242], [-89.53119099968274, 34.37065900017045], [-89.53106299963622, 34.370578999766465], [-89.5307239997025, 34.37036599963459], [-89.53046900033269, 34.37020500016415], [-89.52950799970974, 34.36960099988576], [-89.52932000028707, 34.36948299973782], [-89.5288159995986, 34.36917800008717], [-89.52868099987938, 34.36909599996497], [-89.52808199965469, 34.368732999662505], [-89.5279849995703, 34.36867400011029], [-89.52778100025411, 34.368549999998365], [-89.52769099984242, 34.36850100006506], [-89.52759200010824, 34.36844700022637], [-89.52799999963891, 34.367852000166074], [-89.5288859999188, 34.3665670002364], [-89.52922700040065, 34.36607000000196], [-89.52963699958116, 34.365475999681266], [-89.52972399961979, 34.36535599977929], [-89.52998800010877, 34.36499500021203], [-89.53007599997231, 34.36487599993581], [-89.53013100022389, 34.36479299973654], [-89.53029799973015, 34.36454299980985], [-89.53035399980665, 34.36446100034185], [-89.5306309998161, 34.36400099964977], [-89.53065199973248, 34.36396800003985], [-89.53164099994453, 34.362745000206985], [-89.53178400005966, 34.36256900024064], [-89.53183199974025, 34.36251700023039], [-89.53199599977177, 34.362342000130035], [-89.53270999962422, 34.36172599974661], [-89.53310499963443, 34.36138699979604], [-89.53500100004275, 34.36007400005899], [-89.53506100031723, 34.36003299963151], [-89.53573800035974, 34.3594860002929], [-89.53589399999535, 34.35935700025399], [-89.53625100037071, 34.35906299985443], [-89.53630400007417, 34.35902599972856], [-89.53782499966546, 34.3580060003688], [-89.53812199976639, 34.35780600015834], [-89.53872900038701, 34.357400000332234], [-89.53887800034992, 34.35729900027091], [-89.53907699964324, 34.35716500002378], [-89.54136399986383, 34.35716799976046], [-89.541438000382, 34.35735000014819], [-89.54187400040009, 34.35841200022562], [-89.5422690004103, 34.359376000065204], [-89.54263199973515, 34.36026400005995], [-89.54273600039053, 34.3605169997633], [-89.54292999966097, 34.360991999784076], [-89.54328600021144, 34.361877999751655], [-89.54360099985571, 34.36266299972093], [-89.54380000004734, 34.36315899980791], [-89.54444299975468, 34.364694000320476], [-89.54446399967107, 34.364743000255764], [-89.5445630003036, 34.36474500014658], [-89.54668499976941, 34.36479299973654], [-89.54875199988197, 34.36483999972545], [-89.54875400043011, 34.36510200028499], [-89.54875600007993, 34.36528100030944], [-89.54871300042224, 34.36531900020737], [-89.54890699969268, 34.36572899996194], [-89.549007999975, 34.36565599995349], [-89.54925200037249, 34.3654850002231], [-89.54925999987009, 34.365531999823894], [-89.5492819996114, 34.36567299995097]]]}, "properties": {"id": "covered-us-ms-oxford", "status": "covered", "jurisdiction": "Oxford", "country_id": "us", "state_id": "ms", "area_type": "city", "note": "Covered by public tree inventory for Oxford; geometry from official jurisdiction boundary."}}]}