{"type": "FeatureCollection", "features": [{"type": "Feature", "geometry": {"type": "Polygon", "coordinates": [[[-97.14940830543969, 49.99387554671832], [-97.1550514173222, 49.99383735249981], [-97.15519512569925, 49.990389338742105], [-97.16031380211767, 49.99039824264102], [-97.16098412137049, 49.99038193117139], [-97.1609995056287, 49.989977336776214], [-97.16100433516725, 49.98985154413628], [-97.16102041066367, 49.98942903528193], [-97.16103244286752, 49.98801704919862], [-97.16106350610667, 49.98756773537781], [-97.16101560192823, 49.980775836735575], [-97.16104510821158, 49.97890543992617], [-97.16103840434516, 49.97542424056952], [-97.17363262452666, 49.97543445090888], [-97.17915463862333, 49.975467246690506], [-97.18388273330069, 49.97546944625207], [-97.1929058447945, 49.97549342679731], [-97.19820652687942, 49.97547693211719], [-97.2068112466688, 49.97550233683487], [-97.21837372101304, 49.97550062642737], [-97.22254363764155, 49.975510736304294], [-97.22377203484781, 49.975484536646995], [-97.2284577495357, 49.97550222375434], [-97.22939164602074, 49.97551653000752], [-97.22940052903229, 49.96463283062411], [-97.22940202860615, 49.960792122555475], [-97.22940165072097, 49.958903140926324], [-97.22939934321585, 49.95592582380948], [-97.22940422884983, 49.95427082911465], [-97.22941441418519, 49.95247201937636], [-97.22941173500689, 49.95064603402056], [-97.22942112252495, 49.949629738945255], [-97.22942173783478, 49.949234031747], [-97.22943281365006, 49.9485505324909], [-97.22941432041073, 49.94753382479194], [-97.22945323922042, 49.946473036577856], [-97.22945614933418, 49.94601434191661], [-97.22945975174369, 49.94591542178007], [-97.22946362668566, 49.94542982158808], [-97.22948001989697, 49.94346024142713], [-97.22945265149946, 49.942308422827594], [-97.22943042640902, 49.94101282481449], [-97.2293444172518, 49.94069672245375], [-97.22919232300596, 49.94042052114661], [-97.22952272032066, 49.940255323954936], [-97.2296525475661, 49.939998439038646], [-97.22963584640284, 49.9399725220691], [-97.2296512231195, 49.93673601986561], [-97.22965663403258, 49.93560132513316], [-97.22964374133166, 49.93443182936998], [-97.22962587921157, 49.9330159412504], [-97.22962590894137, 49.933013714962115], [-97.22965123896795, 49.93118482384928], [-97.22965214150152, 49.93078002036569], [-97.22964083781322, 49.92918772567431], [-97.2296381095552, 49.92888191786171], [-97.22964015959678, 49.92656824174723], [-97.22964121660551, 49.92532442518117], [-97.22957570902106, 49.916512929006785], [-97.23807225873452, 49.91620764472944], [-97.24551997415543, 49.91593890833131], [-97.24652833855141, 49.91594403660075], [-97.25000278296953, 49.91592098070526], [-97.25978479771037, 49.91600263690183], [-97.26121072945482, 49.91600536673691], [-97.26368073265674, 49.91602736585159], [-97.26382055807694, 49.91602861125701], [-97.26312184260547, 49.92430087402084], [-97.26311258280771, 49.92441096762313], [-97.26278830149673, 49.92826119262105], [-97.26253843949257, 49.931227179010534], [-97.26253834369295, 49.931228581415844], [-97.26258780704929, 49.931228634320185], [-97.27465802913666, 49.931242528095865], [-97.28088587214759, 49.93124974091193], [-97.28364345662763, 49.93125281201207], [-97.28409116957036, 49.93125331167957], [-97.29827634646003, 49.931267826260886], [-97.29816999671776, 49.92888969205322], [-97.2997931466601, 49.92890717213018], [-97.30192826472664, 49.92887484329311], [-97.3055446077631, 49.92881997177162], [-97.30994181133396, 49.92875820590786], [-97.31849852356731, 49.92874105481407], [-97.3187413579041, 49.92874344488993], [-97.31964267335417, 49.92875233180398], [-97.31982526332872, 49.928765202500664], [-97.32024014270777, 49.928784330509814], [-97.32023647060663, 49.92768423136426], [-97.32019935682344, 49.92726731339829], [-97.32040930329028, 49.92726596189066], [-97.32038956379809, 49.92688593164949], [-97.32010534751439, 49.92544261136287], [-97.31943597061087, 49.923058308273234], [-97.31932746921169, 49.92257102888755], [-97.31911325846919, 49.92111970702829], [-97.31910885843689, 49.91964451514469], [-97.31924036202929, 49.91866602571516], [-97.31959684954542, 49.91682722307122], [-97.32043044957244, 49.912881521216114], [-97.32068925079967, 49.91144611481761], [-97.32091606622035, 49.90932662869716], [-97.3219225675625, 49.89918600845243], [-97.32196225782053, 49.898844805748055], [-97.32226846667008, 49.898849219608], [-97.32357685184301, 49.89886812314294], [-97.32452516600839, 49.89882790577231], [-97.3254993674799, 49.89884191294307], [-97.33171374019433, 49.89873362052214], [-97.33535135129347, 49.898642022600065], [-97.33553359069855, 49.89865200396346], [-97.3355737369438, 49.89865421822293], [-97.33790153915814, 49.898588720774846], [-97.34158374226567, 49.89851670813701], [-97.34489576981507, 49.89845193157904], [-97.34496274005606, 49.89766514622823], [-97.34501891560363, 49.897160772388695], [-97.34511691836418, 49.89627361536717], [-97.3466157704349, 49.87802962405266], [-97.3458166497357, 49.878125908094944], [-97.34381975621592, 49.87836661533909], [-97.34237463935342, 49.87854081138537], [-97.34115675868755, 49.878687623177996], [-97.33983664139187, 49.878846818456445], [-97.33793073739587, 49.879076510114], [-97.33777756247248, 49.87909500473479], [-97.33776644898407, 49.87860911448707], [-97.33806205610617, 49.87563730370725], [-97.33837545409973, 49.872486323803706], [-97.33865896217763, 49.869636021051726], [-97.33879185808472, 49.868603501123026], [-97.33885664629155, 49.86792981413782], [-97.33890762723853, 49.86739710038879], [-97.33955848539554, 49.86584314184051], [-97.33960293360288, 49.86533143650171], [-97.33659197179804, 49.86594744649958], [-97.33161296522564, 49.86738491778556], [-97.32986488208435, 49.867731140788344], [-97.32752082246036, 49.86833245519704], [-97.3257982919151, 49.868938777082406], [-97.32566464870308, 49.86831572121429], [-97.3252557441131, 49.86645680949106], [-97.3248043349223, 49.86421961695295], [-97.32478782830447, 49.86415030686469], [-97.32476786000926, 49.86406610817313], [-97.32472593239234, 49.86386530822343], [-97.32469623365029, 49.86372332168138], [-97.32408244035645, 49.86095301864668], [-97.32308402240935, 49.85643211858122], [-97.32293053399923, 49.854837816368345], [-97.32377842104798, 49.8468175160923], [-97.32443403201344, 49.839523110555504], [-97.32449474798733, 49.83897531066776], [-97.32545573493915, 49.83893521707321], [-97.3260844512088, 49.83885439993066], [-97.32637882166901, 49.83878670281653], [-97.32729134502598, 49.83853900888509], [-97.32830122278146, 49.83829271465177], [-97.32867872471151, 49.83823520227775], [-97.32996072653823, 49.83815471364794], [-97.32996104470908, 49.83815469592944], [-97.33274705217602, 49.83802389756487], [-97.34681554848912, 49.837389010840106], [-97.34903966737716, 49.811299414598274], [-97.34913099391296, 49.80915279538883], [-97.3451674643535, 49.809134371721036], [-97.33406765130043, 49.809078453204485], [-97.32810474037065, 49.80908397092542], [-97.32779520961964, 49.809076927596514], [-97.32778502801432, 49.80907669273508], [-97.32766651944112, 49.80911290609483], [-97.32744434038287, 49.80910971207792], [-97.32664661417829, 49.80906382920861], [-97.3186184484608, 49.809076744452376], [-97.31281209591722, 49.809068593510446], [-97.31184243498686, 49.80906721066541], [-97.3109096466402, 49.80907538204558], [-97.31025778919204, 49.80907177453076], [-97.3055202728367, 49.80904548265557], [-97.3048058112618, 49.80904769138448], [-97.30170646486845, 49.8090572675882], [-97.2995642436036, 49.80904570659158], [-97.29961263156486, 49.81083640626565], [-97.29647192003424, 49.810817198861145], [-97.28642212131224, 49.810822012236365], [-97.27673469869788, 49.81079520305151], [-97.27675500098074, 49.81218071382503], [-97.27670181837969, 49.812503799657414], [-97.27654521026665, 49.812609416701925], [-97.27590491951167, 49.81263584355812], [-97.27590467391937, 49.81263580551451], [-97.27063802170962, 49.81259332052099], [-97.2659807294021, 49.81261371847921], [-97.26363271594789, 49.81257850834245], [-97.2628954141148, 49.81259441525544], [-97.25803090171978, 49.8125754132201], [-97.2573486209317, 49.81261010490887], [-97.25508531394877, 49.81254011481089], [-97.25469860234085, 49.812471320610015], [-97.254356124291, 49.81233120482094], [-97.25405919483332, 49.81208380283719], [-97.25392670929284, 49.812288699956895], [-97.25384941458086, 49.81289020093319], [-97.25390429819295, 49.81445622592754], [-97.25363450318832, 49.81461402568635], [-97.24105630871354, 49.81454970300856], [-97.23479469150276, 49.814496220910904], [-97.23467082790661, 49.81449516603226], [-97.2343025131548, 49.814492002159554], [-97.23107598455279, 49.81431922492776], [-97.2221744897054, 49.8140024274474], [-97.22071998871485, 49.81430180387568], [-97.21939964786131, 49.81471449133868], [-97.2194001857095, 49.81458710843186], [-97.21940039135546, 49.814562324118235], [-97.21940150490786, 49.81430631470062], [-97.21940241816395, 49.814112221909014], [-97.21946780533493, 49.811143721867474], [-97.21946029227348, 49.80945251155934], [-97.21945220777226, 49.80777931373562], [-97.21948981004134, 49.80750652751429], [-97.21948719116104, 49.80720410651195], [-97.21948529387754, 49.80384892599118], [-97.2195336890631, 49.80354770487164], [-97.21964299598493, 49.80333252330294], [-97.21984448430514, 49.803035304401135], [-97.22010408218549, 49.802768914595816], [-97.22016901331104, 49.802632305605364], [-97.22009040402345, 49.80251961848649], [-97.21976031991173, 49.80237792034836], [-97.21974039776205, 49.802356563765365], [-97.21972915871899, 49.80234450722891], [-97.21954761615392, 49.80214980852618], [-97.21947180803674, 49.801941812607964], [-97.21946701272039, 49.8005060049265], [-97.21946601678275, 49.80020562232097], [-97.21947201398076, 49.80004381641541], [-97.21949929394101, 49.79778281999791], [-97.21937931642209, 49.79768366723243], [-97.21937031670456, 49.79767622089344], [-97.21416339921555, 49.79763130696234], [-97.21390531441934, 49.79751351483902], [-97.21386608758661, 49.79731712483197], [-97.21381280592422, 49.7894367163272], [-97.21380657877053, 49.7885300242366], [-97.2137660939339, 49.782892200780246], [-97.21375510166867, 49.78139812033606], [-97.21373204077722, 49.77197753558587], [-97.21373155799854, 49.7717826707078], [-97.21372346282475, 49.76848005823763], [-97.21372280020258, 49.768202497933316], [-97.21372530608754, 49.768134312879454], [-97.21372808441448, 49.76805871815292], [-97.21373340554636, 49.76791491109103], [-97.21374330362173, 49.76764520315314], [-97.21377329325846, 49.75662662200716], [-97.21380339457363, 49.754675113808275], [-97.21376770263436, 49.75375700785915], [-97.21375868315647, 49.75362200512663], [-97.21380430301483, 49.75351470746175], [-97.21393190692535, 49.753444711674135], [-97.21437787938824, 49.75339761157255], [-97.21911247884407, 49.75338960178827], [-97.21911278507851, 49.753389508139925], [-97.21925260692414, 49.753355806980316], [-97.21935328990472, 49.75325839640459], [-97.21939548927477, 49.75286320163354], [-97.2193736989692, 49.7500383107922], [-97.21936989683716, 49.74067441883054], [-97.21940488319683, 49.73857910445471], [-97.21963438247772, 49.72396539621538], [-97.21964569542389, 49.72251739253075], [-97.21968288669076, 49.72187931390621], [-97.2197949951686, 49.71843590313885], [-97.21983546656915, 49.715432094578645], [-97.21987977082809, 49.713645795685856], [-97.17931281804707, 49.727879641651505], [-97.16994673751171, 49.73110607127008], [-97.1693134787947, 49.73132615211852], [-97.16860304766081, 49.73157470629332], [-97.1510951585959, 49.73769825034821], [-97.14796122914288, 49.73879385051444], [-97.14552822781535, 49.73964430161033], [-97.13794266982976, 49.74229525415362], [-97.13782931897306, 49.742334856718585], [-97.13776747574003, 49.74235465158299], [-97.13747887017092, 49.74245380789232], [-97.13689031879925, 49.74263962412477], [-97.13132445916237, 49.74439651366472], [-97.12894914244815, 49.745240951670795], [-97.1289468900194, 49.7452417449115], [-97.12850614498609, 49.74539671474043], [-97.12833695208445, 49.745496355290605], [-97.1276087958684, 49.7433792177786], [-97.12742964054101, 49.74127776019729], [-97.12857555023842, 49.73795398205836], [-97.12753375905751, 49.738470658418734], [-97.12715582130504, 49.7386580746795], [-97.12692572077522, 49.738740330421095], [-97.12207355773907, 49.7404741807151], [-97.0992030888587, 49.747811925251234], [-97.09808895413555, 49.748168700041404], [-97.09199036719797, 49.75012128250615], [-97.08292676779948, 49.7530221919385], [-97.0820754008618, 49.75328077592834], [-97.08354094431563, 49.753640890531265], [-97.08354158743687, 49.75368872741726], [-97.0836636345947, 49.762363990374844], [-97.08304685113589, 49.76258431655481], [-97.0797072649824, 49.763737052113335], [-97.06717242582664, 49.76806242037362], [-97.04983489875112, 49.77404549645784], [-97.04927808584367, 49.774237562560224], [-97.04913893197751, 49.77427767252792], [-97.04807594081139, 49.77458392002522], [-97.04330614519581, 49.77985951989648], [-97.04338686116097, 49.77992383549679], [-97.04343406041153, 49.78013152498943], [-97.04338993278597, 49.781228224969055], [-97.04341093234365, 49.781741317953546], [-97.0433626597906, 49.782595022700455], [-97.04337883073556, 49.78288311731746], [-97.0440871564291, 49.7828861341022], [-97.0440873660984, 49.782885580180476], [-97.04432019479907, 49.782781022829845], [-97.04432774968495, 49.782779512720595], [-97.04465206790431, 49.78273347995364], [-97.04466144042199, 49.78273277763584], [-97.04513476155519, 49.782712192437394], [-97.04560164099834, 49.78270828228838], [-97.04598368984831, 49.78271296279949], [-97.04682148190449, 49.782734011626175], [-97.04810166000826, 49.78278073108349], [-97.04820583115574, 49.78278463359004], [-97.04820824076906, 49.782784738727955], [-97.04821397573492, 49.78278495306895], [-97.04821968792794, 49.78278529708781], [-97.0482502196032, 49.78278712108848], [-97.04844250372156, 49.78279864448913], [-97.04859929393105, 49.78339744277571], [-97.0491071661592, 49.785348824323826], [-97.04922170536514, 49.78740358242315], [-97.04929076480762, 49.78861335275546], [-97.04929314335122, 49.78865500107921], [-97.04867255182832, 49.79252113134458], [-97.04858856248217, 49.7925599778372], [-97.0436627857429, 49.795065750254345], [-97.04166293526282, 49.79608293630918], [-97.04121173859463, 49.79631242148021], [-97.03906978337612, 49.79695264873385], [-97.03770896294405, 49.797359354652244], [-97.0376953807776, 49.797359320920165], [-97.03712476838217, 49.79760426071652], [-97.03185207122614, 49.79763232360793], [-97.03138437200347, 49.79763480673925], [-97.02920494564599, 49.797614851498494], [-97.02820515009101, 49.797605654068846], [-97.02650771215336, 49.79759006960416], [-97.02617282251519, 49.79758698718197], [-97.02634596552663, 49.79858718722443], [-97.0263641680887, 49.79869237290992], [-97.02659934390982, 49.80606713621339], [-97.02662894733481, 49.80944083063575], [-97.02671334523785, 49.8121498214201], [-97.0268069665113, 49.81736873937077], [-97.02683463897455, 49.821734331817055], [-97.02683506069032, 49.82180382730865], [-97.02683460162847, 49.82188761508361], [-97.0268328441507, 49.82219954384581], [-97.02684084254659, 49.82234364119358], [-97.02683796622685, 49.82275733458005], [-97.02683815045611, 49.82292032756636], [-97.02684215080357, 49.82679234020534], [-97.02684560014717, 49.83017955148156], [-97.02684580408106, 49.83038722229578], [-97.02685264995334, 49.837086924131945], [-97.02686173707298, 49.83811221391271], [-97.02686379373, 49.83834195049736], [-97.02687636990538, 49.839762271286446], [-97.026876470566, 49.839771341289975], [-97.02689245886913, 49.84157623157736], [-97.02691974984593, 49.84739664137732], [-97.02693394448394, 49.85251512860147], [-97.02689064287556, 49.85425943124323], [-97.02692475334815, 49.85444894494179], [-97.02708494323672, 49.8546135508962], [-97.02734474439231, 49.8547259402983], [-97.02734568373381, 49.85472609724475], [-97.02711594027653, 49.85490709183548], [-97.02677937186358, 49.85514083491224], [-97.02679287900311, 49.856859931228655], [-97.02679248065802, 49.856945173132814], [-97.02679184065097, 49.857070143754605], [-97.02678988631455, 49.857448623299284], [-97.02678935909829, 49.85755383289495], [-97.0267878777749, 49.857844481477706], [-97.02678746882013, 49.857926467270964], [-97.02678674132771, 49.85806250790742], [-97.02678598573819, 49.858216779678045], [-97.02678521388975, 49.858371879523894], [-97.02678409669115, 49.85859197409385], [-97.02678318467713, 49.85876471476578], [-97.02678266030773, 49.85887152829538], [-97.02678214148638, 49.858974256555214], [-97.02678210474856, 49.85898351448189], [-97.02677879813236, 49.859630145392735], [-97.02677462458041, 49.860450836531456], [-97.02690725393873, 49.86136574838517], [-97.02690735899161, 49.861365949197655], [-97.02690736716981, 49.86136633700167], [-97.02696986273492, 49.86358872800357], [-97.02692927665302, 49.871070188522246], [-97.02651044474965, 49.87106990867924], [-97.02610777639399, 49.87106963031464], [-97.02503610105929, 49.871066434068446], [-97.02436876974882, 49.871064433451366], [-97.01646204889961, 49.87110023503186], [-97.01646164777765, 49.87110022982296], [-97.01542665858345, 49.871098211395555], [-97.00993526933262, 49.87108733586027], [-97.00460406965121, 49.87110363627371], [-97.0041176569436, 49.87108624042709], [-97.00001155327982, 49.87109644613433], [-96.98564363593387, 49.87111543327069], [-96.98265522896158, 49.87111944340638], [-96.98130664646939, 49.871086939944455], [-96.98126572895221, 49.87840834160906], [-96.98127533345236, 49.88385054574346], [-96.98128383470646, 49.88598253295376], [-96.97382115416038, 49.88599634466381], [-96.96821125995247, 49.885979036418355], [-96.96693066121432, 49.88597455648273], [-96.96425733517093, 49.8859816577317], [-96.96407492372575, 49.88601444561065], [-96.96183175434413, 49.88605593890656], [-96.96124676229518, 49.886063654954214], [-96.9610797643783, 49.8860607581617], [-96.96063425515239, 49.886061857689846], [-96.95914678493415, 49.88604007880072], [-96.95874663228868, 49.886034215788364], [-96.95758715311379, 49.88601723359361], [-96.9571292288583, 49.885982140988915], [-96.9560061666745, 49.88596964044499], [-96.95675576189271, 49.891789362759475], [-96.95664577645074, 49.89314065460251], [-96.95604138154846, 49.90056541717214], [-96.9647790959635, 49.915586965112844], [-96.96683606043135, 49.91579615502251], [-96.96721266034328, 49.915708551906555], [-96.96758809532085, 49.915646996150684], [-96.96795607217082, 49.91558665413055], [-96.96795888363658, 49.91558640413586], [-96.96871115110558, 49.915518940239345], [-96.96924865588805, 49.91552364801841], [-96.9707700697794, 49.915536845777616], [-96.97380785311825, 49.91556314885899], [-96.97953436821234, 49.91553714898656], [-96.99059287126512, 49.915594451518416], [-96.99214386704433, 49.915607122535015], [-96.9964834737461, 49.91564244099985], [-97.00000865661923, 49.91562235267636], [-97.00084372583002, 49.91563674211318], [-97.00239094397416, 49.91561844274125], [-97.010662773922, 49.91568874821557], [-97.01374580445491, 49.915711557628725], [-97.019881969211, 49.9157566428633], [-97.0225276724533, 49.91578374390974], [-97.02335048019059, 49.91576183663905], [-97.02371457610404, 49.91571405449363], [-97.02523896631317, 49.91540464579879], [-97.0252298743228, 49.91567795865371], [-97.02522886536997, 49.915715122521135], [-97.02508625255389, 49.92100854317287], [-97.0251595820624, 49.92160344610487], [-97.02513637982109, 49.922169744705194], [-97.02510557340902, 49.92258305667715], [-97.02481004966991, 49.923989702545626], [-97.02469832060004, 49.9257513156366], [-97.02478638605284, 49.92810652358528], [-97.02479144362395, 49.92832520850481], [-97.02485364853021, 49.93065029418714], [-97.02314637255503, 49.930627243044356], [-97.0191066704654, 49.93059423687527], [-97.016723581069, 49.930598445582746], [-97.01558137768534, 49.93058794803048], [-97.01300366959154, 49.93056954174353], [-97.0110817759291, 49.93055583452711], [-97.00215257802948, 49.93048325073647], [-97.00000746108412, 49.93046425413411], [-96.9977144452989, 49.93044884345511], [-96.99996873078244, 49.93145078347476], [-97.02313250719912, 49.94183616209383], [-97.02334115984938, 49.94192955497697], [-97.02367744185885, 49.94208013843361], [-97.02369892008345, 49.94208966755271], [-97.03193047170228, 49.94574767126511], [-97.03241657669068, 49.94588725745342], [-97.03270518715868, 49.946017455644224], [-97.03305066820559, 49.946173348578625], [-97.04306622000354, 49.950970467551315], [-97.0438155460963, 49.950715211863354], [-97.04392095874022, 49.950737934295475], [-97.04414270021857, 49.95101525231089], [-97.04749839807808, 49.95249305377089], [-97.0517302973131, 49.95437223513876], [-97.05587777474784, 49.956209058759946], [-97.06019560599212, 49.95812114675651], [-97.06446889352037, 49.96003654579246], [-97.06681088282873, 49.96109203999044], [-97.06815378799755, 49.96168103859065], [-97.06832976163057, 49.96179421333902], [-97.06893594931915, 49.96234098413918], [-97.06898811635229, 49.96236116969461], [-97.07019783080679, 49.96282920015337], [-97.07302092391683, 49.959880390567776], [-97.07381816729712, 49.9603792002342], [-97.07415945340664, 49.960495384728944], [-97.08191660209327, 49.96409513708583], [-97.09196892973382, 49.968444754768186], [-97.09211441697147, 49.96850588941129], [-97.09223477636026, 49.96855648513648], [-97.10894429092167, 49.97616797640918], [-97.11267957931507, 49.97771284699013], [-97.1127836744784, 49.977755674681816], [-97.11343340958871, 49.97796985148011], [-97.11368109865174, 49.97805474400785], [-97.1151573992206, 49.97870994840639], [-97.11684610069713, 49.979518441097014], [-97.12019309463791, 49.980966934838435], [-97.1252376014512, 49.98325234536128], [-97.1264999028687, 49.98379443360845], [-97.12663610365237, 49.98387764986518], [-97.13860835337347, 49.98919924223835], [-97.14114093290476, 49.98939094577564], [-97.14108209791343, 49.98983073686675], [-97.14107550342963, 49.990001534225286], [-97.14106089896292, 49.99037914046267], [-97.14940830543969, 49.99387554671832]]]}, "properties": {"id": "covered-ca-mb-winnipeg", "status": "covered", "jurisdiction": "Winnipeg", "country_id": "ca", "state_id": "mb", "area_type": "city", "note": "Covered by public tree inventory for Winnipeg; geometry from official jurisdiction boundary."}}]}