{"type": "FeatureCollection", "features": [{"type": "Feature", "geometry": {"type": "Polygon", "coordinates": [[[-135.21787899976215, 58.97129699977284], [-135.22182499966627, 58.97133700005607], [-135.1845280000985, 58.85401900022924], [-135.14723099963243, 58.73630200010569], [-135.1099340000647, 58.61818499994208], [-135.07263699959861, 58.49966799983834], [-135.07135700003175, 58.49891299980334], [-135.07014600006184, 58.49819900001506], [-134.99052900004824, 58.4512530002179], [-134.98505800035485, 58.44802099985605], [-134.98354899956078, 58.447130999766514], [-134.8840289997741, 58.38844500017353], [-134.82991199962373, 58.35643500002353], [-134.82626799984337, 58.35428100004958], [-134.78606599956376, 58.33049900017498], [-134.72427199969022, 58.29394899982408], [-134.70371600016406, 58.28178999984099], [-134.69542099994962, 58.276869999792474], [-134.7008470003355, 58.258379000062455], [-134.70603099997373, 58.24070699981914], [-134.7088250003575, 58.23117700007711], [-134.70957900039295, 58.22861100003063], [-134.70970099969335, 58.228194000075966], [-134.7282419998838, 58.20678099993994], [-134.72980299965806, 58.204837999836634], [-134.7387590000215, 58.193693000151704], [-134.74030499972716, 58.19176999987682], [-134.7406250002926, 58.191616999960246], [-134.74103899967108, 58.19141500016], [-134.74105299991479, 58.1914060001211], [-134.7414970003288, 58.191082000043096], [-134.74183299988945, 58.1908259999091], [-134.74186700022463, 58.19076700005511], [-134.7419890004234, 58.1905430000064], [-134.74206300004323, 58.190407000099675], [-134.7425319996733, 58.189527999907774], [-134.7425440002672, 58.18950399994505], [-134.74295099997295, 58.18909800013253], [-134.74321499956358, 58.18906900000228], [-134.7438859997583, 58.18899299979356], [-134.74509099988043, 58.18893699995943], [-134.7451250002156, 58.18893400021106], [-134.74573299976288, 58.188814000123976], [-134.74643099972175, 58.188601000048784], [-134.74646699970677, 58.188590000076935], [-134.74671100010426, 58.188590000076935], [-134.74768500024769, 58.18907600001955], [-134.74780700044644, 58.18893400021106], [-134.74730399958287, 58.188693000024465], [-134.74719900000088, 58.18840699991657], [-134.7471789999094, 58.18839900015203], [-134.74648799962318, 58.18810199992306], [-134.7458569996114, 58.18810199992306], [-134.74590799966504, 58.1877539998309], [-134.7459110000381, 58.187734000048636], [-134.7465949997533, 58.187398000129804], [-134.74661499984478, 58.187390000138144], [-134.74751199999534, 58.18739700001255], [-134.7477000003163, 58.18735999991649], [-134.74797800015062, 58.187300999990825], [-134.74843799955988, 58.18730900000254], [-134.7484590003746, 58.18730900000254], [-134.7492340003264, 58.18748899979007], [-134.7493339998855, 58.18751200005241], [-134.74947799982556, 58.187555999833336], [-134.74964699987996, 58.187607999977786], [-134.74980099986576, 58.18765600008001], [-134.74987200001084, 58.18768399983346], [-134.74996599972218, 58.187722000173906], [-134.7501520003933, 58.18778899977792], [-134.75028899976238, 58.1875939998371], [-134.75020799957153, 58.18710699986573], [-134.7501850000053, 58.18709199987544], [-134.7500569999588, 58.18700900022505], [-134.74992399988938, 58.18692100020145], [-134.7500989997916, 58.186629999820376], [-134.75011300003527, 58.186615999768016], [-134.7505730003428, 58.18645500019014], [-134.750600000107, 58.186454000046375], [-134.75246399982996, 58.186332999962566], [-134.75371699963267, 58.18645299990256], [-134.75374500012006, 58.18645500019014], [-134.75457500032346, 58.18659699995875], [-134.7548099996018, 58.18665300016504], [-134.7549870000521, 58.18669499978833], [-134.7554309995678, 58.18680099994731], [-134.75565099967582, 58.18668100023509], [-134.75571599997315, 58.18615700013857], [-134.75555000029183, 58.186034999835286], [-134.75545200038252, 58.185967000082236], [-134.75488999996773, 58.18512500003649], [-134.75488300029502, 58.18511399993599], [-134.7548530001578, 58.185047000025115], [-134.75463800007265, 58.184564999764284], [-134.75463899989754, 58.18434099993189], [-134.75475699989835, 58.18394700007028], [-134.7547610000963, 58.18393499986412], [-134.7549019996633, 58.1837380001235], [-134.75496500031082, 58.183644999885836], [-134.7551059998778, 58.18307600019664], [-134.75495000024216, 58.18234400016025], [-134.75463300004978, 58.18130299995102], [-134.75404999971857, 58.18037699996128], [-134.75410699962, 58.179994000005806], [-134.75410999999303, 58.17997100008861], [-134.75448499991177, 58.1794659999074], [-134.7548120001499, 58.17900900006979], [-134.7549810002043, 58.178566999846836], [-134.75499000042518, 58.17854700010544], [-134.75536000032102, 58.178137000085805], [-134.75566699956934, 58.17754399987726], [-134.75591799963954, 58.17737799984352], [-134.75589900027126, 58.17698300007989], [-134.75589599989823, 58.176969000017344], [-134.75579999963873, 58.176626000078734], [-134.7557979999889, 58.17661700008414], [-134.75563599960722, 58.17648700011851], [-134.7553949995828, 58.176284000103486], [-134.75549400021532, 58.176087000121846], [-134.75566699956934, 58.17594400008632], [-134.7557390004377, 58.17588500015915], [-134.75623200035722, 58.17584500001634], [-134.7557269998438, 58.17557599986486], [-134.75535000027529, 58.17541699998246], [-134.7552890001759, 58.17511199984174], [-134.75541100037464, 58.174869000210194], [-134.7555939997744, 58.174707000006975], [-134.75600100037852, 58.174706000006374], [-134.75650900036663, 58.17472600001349], [-134.7569660003011, 58.174750000007144], [-134.7573019998618, 58.17476699999284], [-134.75833700010458, 58.17484699981653], [-134.75886299963605, 58.17474700000884], [-134.75906900039868, 58.17454400000801], [-134.75930600022514, 58.17422400022284], [-134.75970100023537, 58.173023999897275], [-134.75972499962648, 58.17295100011284], [-134.7600059998339, 58.172538999870035], [-134.76002500010046, 58.1725099999675], [-134.76027000032286, 58.171880000086574], [-134.76041199971476, 58.171656999999826], [-134.7606460000665, 58.17099500013932], [-134.76067600020372, 58.17090500005123], [-134.76078300033384, 58.17087500012917], [-134.76089999961138, 58.17084299996333], [-134.76104699992447, 58.170798000229226], [-134.7613709997896, 58.17046899976933], [-134.7617159995711, 58.17016099991714], [-134.76171300009634, 58.16978599999276], [-134.76162900043076, 58.16966699983591], [-134.76148899979034, 58.16946099976591], [-134.7613249997588, 58.16932299990259], [-134.76122600002464, 58.169238000146024], [-134.7615490000648, 58.16930200002067], [-134.76157699965393, 58.16931500010694], [-134.7619149997627, 58.169524000040454], [-134.7619780004102, 58.1695700001103], [-134.7622379998029, 58.169768999994716], [-134.76226200009233, 58.16978700013173], [-134.762525999683, 58.17017300003513], [-134.76337099995496, 58.169954999865645], [-134.76346100036668, 58.16992900015613], [-134.76348899995577, 58.169923999954705], [-134.76453900026718, 58.16974600009595], [-134.76456900040444, 58.169743000149225], [-134.76488999989647, 58.16970900010396], [-134.76562700021344, 58.169538999863775], [-134.76766900021164, 58.16875000009881], [-134.76795200006885, 58.16864100008416], [-134.76840200033067, 58.168461000085074], [-134.76864699965472, 58.16836300020794], [-134.76904699968784, 58.16820999997116], [-134.76949799977453, 58.16805899992519], [-134.76986400037075, 58.16808099978035], [-134.769882999739, 58.16808699995388], [-134.77040900016874, 58.16832099977186], [-134.77051499957568, 58.168416999883576], [-134.77065299966793, 58.168543000229214], [-134.77068899965292, 58.16841800006104], [-134.7707990001561, 58.16809899982406], [-134.7707990001561, 58.16783499984968], [-134.77095099959377, 58.167608000132006], [-134.77112499967103, 58.16754400005209], [-134.7714889997191, 58.16740900000185], [-134.77211499970798, 58.167105999834575], [-134.7724739997332, 58.166829000028535], [-134.7727280001764, 58.166495999833614], [-134.77266999955177, 58.16604599989352], [-134.77260900035068, 58.16561900015988], [-134.77261000017563, 58.16554399982171], [-134.77261600002342, 58.16532400012878], [-134.77262699989407, 58.16464100011099], [-134.7726150001985, 58.16439299997436], [-134.77260500015274, 58.16425199993967], [-134.7721859998531, 58.163666000169584], [-134.7720519999588, 58.16347799994805], [-134.77179500004084, 58.16310400002153], [-134.77177499994934, 58.162469000023215], [-134.7717699999265, 58.16243699987628], [-134.7717149996749, 58.16212600001474], [-134.77160400024513, 58.161600000220375], [-134.77104299965526, 58.16051699999518], [-134.77099499997468, 58.16043999994433], [-134.7708419998138, 58.160193999773114], [-134.77075999979803, 58.159509999882054], [-134.77075899997314, 58.1595009998208], [-134.770840000164, 58.15912299993091], [-134.77088100017187, 58.15893199996135], [-134.7709549997917, 58.158829000031126], [-134.7711079999526, 58.15861699987588], [-134.771241000022, 58.158216999818244], [-134.77124699986976, 58.158199999978045], [-134.7717990002388, 58.157962999937894], [-134.77219699972375, 58.15771600017199], [-134.77250700024345, 58.157379999936786], [-134.77246600023557, 58.15681800001823], [-134.7722789997395, 58.15642900009167], [-134.7719959998823, 58.15624500020089], [-134.7717349997664, 58.15584199984922], [-134.77169100028377, 58.15542699979805], [-134.77157199955977, 58.15513200009093], [-134.7717339999415, 58.15486800009677], [-134.77173899996436, 58.15485200016342], [-134.77185600014022, 58.15450099990511], [-134.77168000041314, 58.154140999981664], [-134.77144299968833, 58.15390399992432], [-134.7713880003351, 58.153768999774094], [-134.77124699986976, 58.1533619997892], [-134.77122599995337, 58.153138000068736], [-134.77094200027122, 58.1528129998848], [-134.77092200017972, 58.15245199979794], [-134.7711160003485, 58.15160899977443], [-134.77118599977038, 58.151309000203575], [-134.77145000025934, 58.150943000004816], [-134.77214099964726, 58.15065800023547], [-134.77268100032072, 58.15043499982254], [-134.77307600033095, 58.150231000202304], [-134.77293099966766, 58.1496970000104], [-134.77270800008492, 58.14929999995599], [-134.77248700015195, 58.14890499977028], [-134.7725180001141, 58.148672000011636], [-134.7725449998783, 58.14849399999445], [-134.77246500041065, 58.147934999954145], [-134.77245299981678, 58.14791099987968], [-134.7722419999296, 58.147528000097125], [-134.77222000018827, 58.14751099989119], [-134.771826000003, 58.14721000008755], [-134.771757000406, 58.14710300009854], [-134.77163500020728, 58.14689700020216], [-134.77155099964338, 58.14675600004382], [-134.77132499968758, 58.14658199977459], [-134.77087100012614, 58.14623499985633], [-134.77053999969002, 58.14582599979738], [-134.77051499957568, 58.1454429998646], [-134.77052700016955, 58.14525400018791], [-134.77053399984223, 58.14512200006696], [-134.77043400028313, 58.14468199992191], [-134.77041300036672, 58.14411400007247], [-134.77029700001577, 58.143769000122504], [-134.7702710000765, 58.143685999841736], [-134.76995100040938, 58.143207000033506], [-134.76962499999613, 58.142556999770406], [-134.7695589998739, 58.14242600004073], [-134.76944599989596, 58.14228600015514], [-134.76930299978085, 58.14210200015924], [-134.76920400004664, 58.1419859997659], [-134.76913299990156, 58.14189700022156], [-134.7687289996705, 58.14155400009406], [-134.76864800037796, 58.14116099976785], [-134.76866400027149, 58.14103300011503], [-134.76872600019576, 58.14067700008356], [-134.76872600019576, 58.14065199984769], [-134.768744999564, 58.140390000113364], [-134.76844099979039, 58.13982400013676], [-134.76897999974065, 58.139683999977805], [-134.76945699976662, 58.139498999770225], [-134.76980599974607, 58.13927199990676], [-134.76986400037075, 58.13923399993865], [-134.7704119996435, 58.13892100010598], [-134.77072399981304, 58.1387410000455], [-134.77085299968445, 58.138611000094514], [-134.7705790000481, 58.138040999959735], [-134.7703279999779, 58.13753900022169], [-134.77026400040378, 58.137411999978745], [-134.77007699990776, 58.13703499982334], [-134.76998700039437, 58.136855000188014], [-134.77002699967903, 58.13666400020183], [-134.77008199993062, 58.136452999962195], [-134.77055599958354, 58.13608300010631], [-134.77126699996123, 58.13594100013035], [-134.7714129995511, 58.13592899984595], [-134.77167000036738, 58.13590100011508], [-134.77180199971355, 58.135932999941204], [-134.77293400004072, 58.13620500014778], [-134.7733919998001, 58.13648400011395], [-134.7731580003467, 58.1361070000931], [-134.77307799998076, 58.13603999983274], [-134.77264799981046, 58.135675000228], [-134.77202900039256, 58.13457699976869], [-134.77201900034683, 58.134558999836756], [-134.77149299991703, 58.13382999992855], [-134.77149100026725, 58.13362999987866], [-134.77149100026725, 58.13323800005148], [-134.77078800028542, 58.133056999972325], [-134.7707020000717, 58.13282399987618], [-134.77079599978308, 58.132497999884585], [-134.7707990001561, 58.132485000098036], [-134.7708130003998, 58.13235700008555], [-134.77087000030122, 58.1318919999007], [-134.77143000016787, 58.13163199979293], [-134.7714469998863, 58.13162100021716], [-134.77209999963938, 58.13122499994719], [-134.7722849995873, 58.13060199990541], [-134.7722789997395, 58.13001800006849], [-134.7719029999959, 58.129264999868305], [-134.77144199986344, 58.128590999985455], [-134.77141599992416, 58.12854999990343], [-134.77088799984458, 58.127779999836946], [-134.77040800034385, 58.12690099990329], [-134.77010799986988, 58.12604199997071], [-134.7699050003786, 58.12510700003953], [-134.76980200044645, 58.124671000112905], [-134.769742000172, 58.12441499991998], [-134.7696800002477, 58.1243320000648], [-134.76949799977453, 58.12407599980801], [-134.76943800039837, 58.12290299985525], [-134.76957599959232, 58.122742000215155], [-134.7697079998368, 58.12260100022458], [-134.77008500030368, 58.12208300017271], [-134.77011299989275, 58.12195499978541], [-134.77012799996135, 58.12187700020601], [-134.7707000004219, 58.1216339998198], [-134.77092399982956, 58.12142200012654], [-134.77096900003542, 58.12138099985905], [-134.77120599986188, 58.12116099989759], [-134.77118599977038, 58.120637000151824], [-134.77094700029411, 58.120452999782174], [-134.77071200011747, 58.12027399994966], [-134.7706700002847, 58.12022599997158], [-134.77049500038248, 58.11980100000371], [-134.77059599976653, 58.119548999966646], [-134.77065699986588, 58.1193949998575], [-134.77071499959223, 58.11869300020218], [-134.77075899997314, 58.11819700013537], [-134.7707499997523, 58.11817199977518], [-134.7706860001782, 58.11799899995242], [-134.7705609996064, 58.11766100018475], [-134.7703570002902, 58.117110000142965], [-134.77035200026737, 58.11709699995989], [-134.7702850003202, 58.11699099982313], [-134.77020999997714, 58.11686899992001], [-134.77024000011434, 58.11656100007232], [-134.77027000025157, 58.116254999901734], [-134.77048100013877, 58.115514999949845], [-134.77065699986588, 58.11488200016133], [-134.77102299956377, 58.114738999860826], [-134.77197800033898, 58.11441400023632], [-134.77230200020404, 58.114091000108765], [-134.7723339999911, 58.11403200008221], [-134.77242299967955, 58.113692000069136], [-134.77242500022768, 58.11367699995199], [-134.77237800037202, 58.11333699987437], [-134.77227200006683, 58.113036999987706], [-134.772262999846, 58.1130119998041], [-134.77228200011257, 58.11274200012044], [-134.77230700022693, 58.11272400006881], [-134.77268999964326, 58.11266599999878], [-134.77364000039557, 58.11256500016711], [-134.77427200023223, 58.11224100003461], [-134.77434500002715, 58.111972000071574], [-134.7743969999057, 58.11176900011386], [-134.774390000233, 58.111751000045444], [-134.77382299979533, 58.109883999875485], [-134.77395000001695, 58.10937300009809], [-134.77413300031503, 58.10904799995449], [-134.77474300041044, 58.10886499997457], [-134.77506899992534, 58.10886499997457], [-134.77545399988983, 58.10904799995449], [-134.77573300044736, 58.1088489997709], [-134.77575799966343, 58.10871300012256], [-134.7757779997549, 58.108568999789846], [-134.77578000030306, 58.10856000013537], [-134.7760799998787, 58.10852000021966], [-134.77615699987157, 58.10844700000864], [-134.77640999959158, 58.10819399992145], [-134.7763629997359, 58.10799600016909], [-134.77623800006245, 58.10751500012615], [-134.77615299967363, 58.10720500012988], [-134.77614600000092, 58.10656799982426], [-134.77614600000092, 58.10654699992291], [-134.77608499990157, 58.10606599979076], [-134.77594400033456, 58.105498000049344], [-134.77598199996942, 58.10478799998893], [-134.7761650002675, 58.10427199985428], [-134.7762060002754, 58.10424899985934], [-134.77654600003405, 58.10405999987556], [-134.7768330000892, 58.10388300000703], [-134.7769179995797, 58.10382400017203], [-134.77708300033447, 58.10349499981718], [-134.77728099980288, 58.10321799989281], [-134.77727999997796, 58.103070999802746], [-134.77726400008444, 58.102542999838775], [-134.77718700009154, 58.10238000002994], [-134.77707499993855, 58.10216100015635], [-134.77673699982972, 58.10169099999241], [-134.77644800012473, 58.10157099977591], [-134.77634199981955, 58.10139099988077], [-134.77629400013893, 58.10130000013918], [-134.77671599991334, 58.101075999895556], [-134.7768370002872, 58.10063200019608], [-134.77703999977845, 58.10037999990905], [-134.77705999986992, 58.09974100020118], [-134.77702899990777, 58.09962899986879], [-134.77686200040154, 58.099044999795055], [-134.7778730003549, 58.09863999985517], [-134.77942800028134, 58.09786399984035], [-134.77973700007786, 58.097707000180776], [-134.78113200017077, 58.09694299993483], [-134.7821139998118, 58.09684700021058], [-134.7846810004149, 58.09659900000393], [-134.77918600043205, 58.092310999903354], [-134.77085199985953, 58.08580400006633], [-134.77018800023583, 58.08528599992607], [-134.76435599996907, 58.08073399997819], [-134.76402899973093, 58.08026400004827], [-134.76324999958118, 58.0791460002158], [-134.7615480002399, 58.078712000073544], [-134.75723200043993, 58.07761000005478], [-134.75334300043716, 58.07500300003731], [-134.75276400030393, 58.074612000237494], [-134.74810000034938, 58.07178899977408], [-134.74783099983756, 58.07162399994351], [-134.74637299999546, 58.06991099983203], [-134.74573100011304, 58.06915399993256], [-134.74452099996805, 58.06871199985063], [-134.74248800019066, 58.06804100016632], [-134.74046499956071, 58.067698000118185], [-134.73980299958683, 58.06758599990286], [-134.739364000094, 58.066533999960264], [-134.7383990001714, 58.06418500019644], [-134.7383659996611, 58.06410500008263], [-134.73731799989784, 58.063749000087796], [-134.73601700041456, 58.06330700010287], [-134.7357169999406, 58.06314299985024], [-134.73537899983177, 58.062965999830745], [-134.73252800044492, 58.06145199982287], [-134.73227700037472, 58.061349000142684], [-134.7318530000522, 58.061128000001894], [-134.72576700024055, 58.05868700010694], [-134.72544099982733, 58.05850899992665], [-134.72374799980858, 58.05735499986279], [-134.72341600044587, 58.057128999834], [-134.7214520002655, 58.05404700011652], [-134.72214500020152, 58.05373000018326], [-134.7184829999795, 58.050287000078384], [-134.71779699971617, 58.049649999995154], [-134.71746399963024, 58.04934500000675], [-134.7173220002383, 58.04933999997747], [-134.71288900026244, 58.04918000009687], [-134.71127400006148, 58.048047000199674], [-134.71060200004186, 58.047565999810715], [-134.70765100019753, 58.04512600007846], [-134.70752700034902, 58.04500499991108], [-134.70463900025388, 58.04218199981579], [-134.7034390001546, 58.039298000188495], [-134.70296499960338, 58.03903899977919], [-134.70136600019427, 58.03822399989891], [-134.69949800027334, 58.034494000079064], [-134.69776599989652, 58.032035999781904], [-134.6959389999835, 58.03204099985416], [-134.69451200010351, 58.03204399999231], [-134.69104599970007, 58.03171700009887], [-134.6909190003768, 58.03175900001259], [-134.68643000032444, 58.033210999920236], [-134.68220800023576, 58.03395899987749], [-134.67884700031263, 58.03388900017891], [-134.67652800030498, 58.03233700022341], [-134.67641899962672, 58.032049000063445], [-134.67552999987208, 58.02967700014367], [-134.67543000031299, 58.02947099990096], [-134.67417099976421, 58.02954100016271], [-134.67311700015313, 58.02959899986809], [-134.66603200008367, 58.03239899997753], [-134.6613210002735, 58.036777999988914], [-134.65745300018713, 58.03775600008239], [-134.65318000004484, 58.04048200010401], [-134.64964800041747, 58.04553999979615], [-134.64183899955157, 58.052532999934215], [-134.63732699993295, 58.05657000012338], [-134.63186899976, 58.05924599995786], [-134.63121799965677, 58.05956500019297], [-134.62988500038645, 58.06026299984349], [-134.62846199980612, 58.060991999893595], [-134.61847899959582, 58.06115699990911], [-134.6164269995519, 58.061212999925424], [-134.61547599987298, 58.06123099984416], [-134.60823799964268, 58.06008899996908], [-134.59733499971563, 58.059244000120216], [-134.58809300002025, 58.05969500011976], [-134.58539099969795, 58.05811399980816], [-134.58156699999256, 58.05554299990869], [-134.57777300042437, 58.05411600021057], [-134.57515899996562, 58.0542490001812], [-134.56801500034496, 58.055153999989386], [-134.56214500044337, 58.05514899982233], [-134.55961600037347, 58.055147999788836], [-134.5569729996024, 58.05559200002458], [-134.55503199988655, 58.05676499978904], [-134.55299699956103, 58.05995400008076], [-134.55133600022765, 58.063912000145436], [-134.55137100038775, 58.0652619999102], [-134.55137300003756, 58.06568300020188], [-134.55133600022765, 58.0665159998632], [-134.55203900020942, 58.067413000233095], [-134.55210399960842, 58.06744299995302], [-134.55313899985126, 58.067920999819115], [-134.55560199979894, 58.0680080000279], [-134.5556620000734, 58.06801699993908], [-134.55680500027123, 58.068275999895874], [-134.55697699980036, 58.0683150001522], [-134.55927900008956, 58.06883499981661], [-134.560217000248, 58.069367999999336], [-134.5634009997208, 58.07325400001126], [-134.56422300042658, 58.07478700009903], [-134.56438900010795, 58.07504100011998], [-134.56503600001324, 58.0760499997692], [-134.56595900010305, 58.077437999910735], [-134.566981999752, 58.078318999854986], [-134.5672799996778, 58.07857599995211], [-134.56576900013224, 58.079427000231654], [-134.56287500018934, 58.0808729997912], [-134.56016700001925, 58.08182100021414], [-134.5551979995679, 58.08236099996527], [-134.55219400002014, 58.08311400020172], [-134.54768999989915, 58.08533100000362], [-134.54544200003664, 58.08740000008141], [-134.5443549999153, 58.088849000106286], [-134.54444299977882, 58.0897470002229], [-134.54456400015266, 58.09097199981919], [-134.544180999838, 58.093051000115075], [-134.54248399962128, 58.09501600001856], [-134.54152299989667, 58.09634099977748], [-134.53982599967995, 58.09773999992772], [-134.53841300004368, 58.098171999840815], [-134.53474800034692, 58.09763900005931], [-134.53255300018785, 58.09744100008428], [-134.53066600000034, 58.09747900001606], [-134.52923599974733, 58.09750099983312], [-134.52771000013317, 58.097135000032445], [-134.52758799993444, 58.097025000157366], [-134.52692400031071, 58.096428999873055], [-134.52595799966488, 58.09583799976846], [-134.52428700028574, 58.09483099996325], [-134.52143400035072, 58.09382199994104], [-134.5191439997571, 58.093680999952454], [-134.51844400014835, 58.09363699986549], [-134.51821200034476, 58.093600000020096], [-134.51573099995542, 58.09320699993556], [-134.51546499981663, 58.093171000037536], [-134.51304100022702, 58.09284200015686], [-134.51219199975702, 58.092808000222746], [-134.51162199984464, 58.09278300009693], [-134.5105509996168, 58.09277700004514], [-134.50856700024326, 58.09357400006732], [-134.50570300043756, 58.09357800017086], [-134.5029440002139, 58.09370599992371], [-134.49648699978317, 58.09443299978177], [-134.49473799968794, 58.09462999996019], [-134.49253099983324, 58.09487800008876], [-134.48932600044404, 58.09522200000076], [-134.48676899988672, 58.095297999804416], [-134.48521399996025, 58.095255000147795], [-134.48406400008972, 58.095180000114766], [-134.4834089997885, 58.09513399977598], [-134.48262299996605, 58.09502300003518], [-134.48062299980063, 58.09472400020417], [-134.47991300014615, 58.09462000023284], [-134.4775580001535, 58.094158999881635], [-134.47493600019715, 58.094074999930875], [-134.47452100009545, 58.09406800020301], [-134.47227200040803, 58.094294999970366], [-134.4719819999798, 58.09432200023355], [-134.46898000008184, 58.09533900016849], [-134.46725500027605, 58.09617299998483], [-134.46551100020366, 58.09708099994626], [-134.46353899962736, 58.097678000047075], [-134.46093799958743, 58.098078000138116], [-134.45893999997014, 58.09826900004705], [-134.45741299963277, 58.09807299980862], [-134.45720699976843, 58.09804600001109], [-134.45424000003058, 58.09780900011988], [-134.45159999963258, 58.097818000114486], [-134.4512759997675, 58.09789299982282], [-134.45024800009568, 58.09814300008522], [-134.44759299962908, 58.09830000019925], [-134.44507699997794, 58.09888800011221], [-134.44184800029927, 58.099462999856584], [-134.4416950001384, 58.09951700013409], [-134.43641000021785, 58.10138300000148], [-134.43157700020888, 58.10335699994047], [-134.42839799986064, 58.10455799985237], [-134.42772699966588, 58.104810000043955], [-134.42763399977946, 58.10486000003222], [-134.4225670003171, 58.10757100005543], [-134.42146699977695, 58.108647999981805], [-134.42146699977695, 58.11001199996073], [-134.42057299999948, 58.11233300018415], [-134.41959200018334, 58.11343400011688], [-134.4177640004454, 58.11487499977175], [-134.33743199985614, 58.12990999979681], [-134.33461200043138, 58.13044099995608], [-134.3336690002501, 58.13061400008753], [-134.3299459999287, 58.13130999994026], [-134.3285440001631, 58.13157200008229], [-134.32783699998336, 58.13170400016602], [-134.18068300041628, 58.15924700010167], [-134.179988999757, 58.159376000103514], [-134.17842299995988, 58.15967000022272], [-134.17823399981398, 58.159501999775046], [-134.17811599981323, 58.15939700015876], [-134.17572999985845, 58.15727000013526], [-134.1103340000373, 58.09955400001327], [-134.10878699960847, 58.09818899986666], [-134.0921950004281, 58.083544000205556], [-133.99591199981768, 57.99836499994915], [-133.90465600028327, 57.91743899996016], [-133.81340099967548, 57.83633100003725], [-133.81258399989088, 57.836000000078876], [-133.81015100008042, 57.83502200017689], [-133.72982900043525, 57.802656999948745], [-133.71958400028413, 57.79851799991612], [-133.71815800022907, 57.79794200023536], [-133.70528600009874, 57.79273899994829], [-133.7037639997842, 57.79212499989458], [-133.70173000018193, 57.791330999999126], [-133.70104800011654, 57.791799000056265], [-133.7001629996616, 57.792407999889825], [-133.69990999994155, 57.79258099981594], [-133.6993840004101, 57.792940000013935], [-133.6964390004136, 57.79496799976181], [-133.69384000002344, 57.79675100005389], [-133.68918699993955, 57.79994600021977], [-133.65493900012538, 57.823470000171476], [-133.65092200007615, 57.82622899992573], [-133.63741300008627, 57.835510999859444], [-133.63400299975933, 57.8378460001359], [-133.6286979997473, 57.84149499996631], [-133.60219600015154, 57.85970400019334], [-133.56990300029693, 57.88187899983653], [-133.56936199979856, 57.88225300012542], [-133.5220610001041, 57.91466200018169], [-133.5058330000735, 57.92578100020454], [-133.4369950001384, 57.97294599985914], [-133.30462799957996, 58.06340999983886], [-133.1907600002775, 58.141066000069564], [-133.17686600032312, 58.15050700010647], [-133.17693699956993, 58.15056700015279], [-133.17231100014854, 58.1536759998256], [-133.18156000041492, 58.16064600013159], [-133.19081499963076, 58.16761599983777], [-133.20007300011798, 58.17458600020127], [-133.20708500039245, 58.179863000216734], [-133.20930599959252, 58.181534999873065], [-133.215079000308, 58.18587800016018], [-133.21824000021462, 58.18825400020044], [-133.21870600036993, 58.18860499990858], [-133.22085399977504, 58.19022000014759], [-133.22903500018663, 58.196368999946905], [-133.23709600004935, 58.20242499996304], [-133.24540499960915, 58.2086649998079], [-133.2535950002416, 58.214812000156776], [-133.26178699962554, 58.2209589999513], [-133.26998200028086, 58.22710500022578], [-133.27940200025145, 58.23326099997535], [-133.2890690000943, 58.2395750000207], [-133.2982510004135, 58.24557099986182], [-133.3034750002347, 58.248980000137436], [-133.30768100042985, 58.25172400008477], [-133.312761000311, 58.25503799982245], [-133.31698400022458, 58.257792000007086], [-133.32654999978507, 58.264029999862544], [-133.33598999984713, 58.2701819998027], [-133.3454330002823, 58.27633300013149], [-133.35314799964024, 58.28376199994363], [-133.36086600026957, 58.29119100002906], [-133.36858800019854, 58.29862000008076], [-133.3763129996023, 58.30604800018339], [-133.38404200010228, 58.31347500018713], [-133.39177300025207, 58.32090200007434], [-133.39950799970154, 58.32832900000871], [-133.4009470001754, 58.329710000039626], [-133.40724600042236, 58.335754999969815], [-133.4122059997546, 58.340512999854525], [-133.4149869997196, 58.343180999780785], [-133.42273200011314, 58.35060599984088], [-133.4232519997968, 58.351103999909164], [-133.42890199959035, 58.35651900008581], [-133.43047900015645, 58.3580299999998], [-133.43463099992493, 58.36200699994615], [-133.43823000039777, 58.36545500020597], [-133.4459849999387, 58.3728779997658], [-133.4537420000278, 58.38030200016562], [-133.46150400013974, 58.387722999964375], [-133.44948700032717, 58.39384599994172], [-133.4374670001415, 58.39996599978816], [-133.4254429997579, 58.40608499983502], [-133.41341500007468, 58.41220199979294], [-133.40138200036859, 58.418319000190046], [-133.3893449995662, 58.42443500009324], [-133.37730500018736, 58.43054900020494], [-133.38930799975628, 58.43672899977797], [-133.40131600024634, 58.44290800003213], [-133.41332899986097, 58.44908600010094], [-133.42534499984865, 58.455263000058416], [-133.43736599985917, 58.46143800006591], [-133.4493910000677, 58.46761300019876], [-133.46141999957584, 58.47378599994159], [-133.47345300018029, 58.4799580002212], [-133.48549099990925, 58.486129000172674], [-133.48662800025932, 58.48671199998477], [-133.49753299983618, 58.49229899987075], [-133.50595199989917, 58.49661099981641], [-133.5095789999611, 58.49846799985959], [-133.51633099994459, 58.501924000045925], [-133.52162900028395, 58.50463500012171], [-133.52731500006252, 58.50754400018891], [-133.53368399973138, 58.51080200015311], [-133.53488499965556, 58.51141599977044], [-133.54574199955186, 58.516967000020394], [-133.55250799977907, 58.52042500000957], [-133.5578050002935, 58.52313099989083], [-133.58097600010333, 58.53699800020789], [-133.61312300036803, 58.556200000012275], [-133.61594699999074, 58.55791799986875], [-133.6182230003407, 58.55927799992899], [-133.62378000024782, 58.56259799984053], [-133.63317699975389, 58.56821000002732], [-133.642576999633, 58.57382099978427], [-133.6497019998854, 58.578071999938096], [-133.65197999988516, 58.57943200002047], [-133.65599299973647, 58.58182500003039], [-133.6574110002939, 58.58266999984057], [-133.66106099992206, 58.584847000195644], [-133.6678720003551, 58.58890800016109], [-133.674685000438, 58.59296899977105], [-133.68549200010557, 58.59940500006563], [-133.69630299997112, 58.60584000012565], [-133.70711800003465, 58.612273999986364], [-133.71542900014262, 58.619601000134594], [-133.72374299972526, 58.626927999767915], [-133.732059999681, 58.634253999855595], [-133.7403809998347, 58.64158000018998], [-133.7464979996085, 58.646963000178175], [-133.74870500036147, 58.64890499982137], [-133.75703300018785, 58.65622900001681], [-133.76536400038728, 58.66355299993922], [-133.7736989998864, 58.67087700022506], [-133.78203799958342, 58.67819999982931], [-133.79037899982856, 58.68552200001755], [-133.79375599964527, 58.68848400000703], [-133.79872500009665, 58.692844000046705], [-133.80707399983942, 58.70016499996848], [-133.81542599995527, 58.70748600001981], [-133.82378200026906, 58.71480600020534], [-133.8321410000576, 58.72212499992277], [-133.84050400004404, 58.729444000177274], [-133.85514000033828, 58.733658000003395], [-133.8697799999321, 58.73787099997381], [-133.884422999899, 58.74208199999451], [-133.89907000006383, 58.74629100017964], [-133.9137199997034, 58.75049899977983], [-133.92837400043928, 58.75470400004873], [-133.94303199957648, 58.758909000011826], [-133.95769299998503, 58.76311099993997], [-133.97235699986828, 58.767311999945896], [-133.9866059996499, 58.772013000209206], [-134.00085899962946, 58.776713000232434], [-134.01511599980697, 58.78141100010729], [-134.02937700018242, 58.786107999951575], [-134.0436410000326, 58.79080300012762], [-134.05790999990572, 58.795495999846985], [-134.07218200015183, 58.800188000218526], [-134.08645799969761, 58.804878000148726], [-134.10073800033962, 58.80956700001058], [-134.11502200028133, 58.81425399991215], [-134.129310000421, 58.81893899999629], [-134.14360100003535, 58.82362300023086], [-134.1578959998477, 58.82830500019914], [-134.1721959996829, 58.832986000064096], [-134.1864989998912, 58.837665000144355], [-134.20080600029743, 58.8423429998681], [-134.21511600017837, 58.84701800020953], [-134.2294310000822, 58.851693000155954], [-134.243750000184, 58.85636599988733], [-134.251580000068, 58.85891899985003], [-134.2580719997605, 58.86103700001208], [-134.2664359995719, 58.86773600013496], [-134.26744599970036, 58.86854499997384], [-134.27449899998274, 58.87419299999149], [-134.27480299975633, 58.87443599998646], [-134.28317300031384, 58.88113400018168], [-134.2915460003461, 58.88783200001779], [-134.29992299967796, 58.894529999829345], [-134.3083030002812, 58.90122700004462], [-134.3176870002668, 58.90862300015088], [-134.32707399972713, 58.91601799994367], [-134.33646600010863, 58.92341299991927], [-134.331874999949, 58.93116700021725], [-134.3272820001396, 58.938921000060866], [-134.322686999782, 58.94667499991616], [-134.3180899997746, 58.95442899978486], [-134.3134900002925, 58.96218200013694], [-134.31358099963077, 58.96219900003434], [-134.3338929996578, 58.96237999981165], [-134.4855770001834, 58.963903999965844], [-134.54054299990543, 58.96446499979738], [-134.66937200009042, 58.96576399989083], [-134.7676370004246, 58.9667560000047], [-134.94534200032203, 58.968547999853776], [-134.94672700036918, 58.968561000154246], [-134.9553310003801, 58.96865700022639], [-134.97751899982566, 58.9688740001375], [-134.99473100004545, 58.96904600005896], [-135.0404009996454, 58.96950800001991], [-135.04184900034008, 58.96952299998399], [-135.17393999981573, 58.97088400006125], [-135.21787899976215, 58.97129699977284]]]}, "properties": {"id": "covered-us-ak-juneau", "status": "covered", "jurisdiction": "Juneau", "country_id": "us", "state_id": "ak", "area_type": "city", "note": "Covered by public tree inventory for Juneau; geometry from official jurisdiction boundary."}}]}