{"type": "FeatureCollection", "features": [{"type": "Feature", "geometry": {"type": "MultiPolygon", "coordinates": [[[[-176.04335399982034, 27.795896999977785], [-176.04292000035036, 27.778406000317823], [-176.0396270001993, 27.75824199975933], [-176.0344450002109, 27.749999999823395], [-176.02929199963648, 27.742683000216612], [-176.02492700033102, 27.738040000274953], [-176.02350100027596, 27.73674000036747], [-176.0054720002716, 27.7203109996865], [-175.99999999985494, 27.71609299994457], [-175.99999999985494, 27.714735000381744], [-175.99999999985494, 27.710662999792635], [-175.99999999985494, 27.709305999908207], [-175.97634699999625, 27.696932000073332], [-175.96959800038582, 27.69340199977273], [-175.93948800009645, 27.68823099979348], [-175.89880799996592, 27.69831600014633], [-175.89519199977462, 27.69921300038711], [-175.87500000029655, 27.71015700019188], [-175.87500000029655, 27.709807999960837], [-175.87500000029655, 27.708760999726135], [-175.87500000029655, 27.708411999800745], [-175.86494500011622, 27.714534000237304], [-175.8450499998407, 27.7284569996374], [-175.81752499969775, 27.722972000021706], [-175.80293899963226, 27.72348499987556], [-175.7791379996356, 27.725685000325324], [-175.74999999983984, 27.733253999783592], [-175.74999999983984, 27.73229200035875], [-175.74611500003502, 27.73271699976479], [-175.7341340002075, 27.73885500012013], [-175.72615899966019, 27.749999999823395], [-175.72484499975812, 27.752564000113104], [-175.6784269999705, 27.843241000391565], [-175.67662400034692, 27.846765000016557], [-175.6664920001737, 27.87499999993108], [-175.66631200024864, 27.87499999993108], [-175.66577300029834, 27.87499999993108], [-175.66559400019824, 27.87499999993108], [-175.66406199983797, 27.89406200018782], [-175.66449299983321, 27.906128000363093], [-175.6647899999341, 27.9144179999839], [-175.6701279995581, 27.94160100026148], [-175.68153299962552, 27.958558999907808], [-175.70435399963094, 27.982737000068976], [-175.70776099958488, 27.984659999730983], [-175.73492800042587, 28.00000000038887], [-175.73595000024986, 28.00000000038887], [-175.73901599972191, 28.00000000038887], [-175.74003800044423, 28.00000000038887], [-175.74114200028404, 28.000251999819934], [-175.74442600021428, 28.00100400023404], [-175.74445399980334, 28.0010120000246], [-175.74553900027487, 28.00134199998896], [-175.74574099994123, 28.00140299997023], [-175.74634699983864, 28.00158699987361], [-175.74655000022824, 28.001648999882352], [-175.74999999983984, 28.003037000282102], [-175.75437400026448, 28.004023000168637], [-175.76968400022812, 28.00747499980561], [-175.77857799976894, 28.008080000084504], [-175.78631399994163, 28.008607000175008], [-175.78676300037853, 28.008592000236664], [-175.79991400016812, 28.008170000110965], [-175.80595800014697, 28.00730300021901], [-175.80673300009877, 28.007192000233903], [-175.8100520001891, 28.00594200029398], [-175.81737800028296, 28.002150000268784], [-175.82307199955915, 28.00000000038887], [-175.8578680004427, 27.9821090002521], [-175.87500000029655, 27.9733009999254], [-175.87500000029655, 27.97382299975504], [-175.87500000029655, 27.975390000365284], [-175.87500000029655, 27.97591300001141], [-175.90442699979732, 27.960570000305683], [-175.90884399987965, 27.95826799989513], [-175.9356500001473, 27.94058100000542], [-175.9504629999935, 27.936198999792172], [-175.96633500037197, 27.929911000361905], [-175.981438999573, 27.913218000087817], [-175.9846709996247, 27.906522999766864], [-175.98757299996353, 27.90051399962779], [-175.99214400003166, 27.889498999819317], [-175.99375400020972, 27.87499999993108], [-175.9931340000686, 27.87499999993108], [-175.99127500036852, 27.87499999993108], [-175.9906560000523, 27.87499999993108], [-175.9888740003451, 27.861904000380516], [-175.9781570001909, 27.84797700015175], [-175.97349200041143, 27.844869000376146], [-175.95575899978473, 27.833055000107862], [-175.93950599963978, 27.82747599967536], [-175.925442999631, 27.8234319997461], [-175.9210280000968, 27.821439000052788], [-175.92430399963112, 27.8137100001803], [-175.93250400030934, 27.81445099996147], [-175.9388329997952, 27.818622999723278], [-175.9645150001316, 27.826977000147544], [-175.974561999916, 27.83024500020839], [-175.98324600029287, 27.831420999869387], [-175.99068500036464, 27.832581999746782], [-175.99999999985494, 27.830529999668812], [-175.99999999985494, 27.831492000384703], [-175.99999999985494, 27.834381000202455], [-175.99999999985494, 27.835344000261603], [-176.00619100014688, 27.832607000124796], [-176.0108299999871, 27.830285999769902], [-176.02501600001943, 27.82157900010222], [-176.02677599998538, 27.81953099963452], [-176.02871800042445, 27.81727299974714], [-176.036632999799, 27.80714200027089], [-176.04259200028733, 27.798067999724914], [-176.04335399982034, 27.795896999977785]]], [[[-178.4435930001603, 28.41898599975667], [-178.44048599978208, 28.405172000329806], [-178.43322699963534, 28.3977709999647], [-178.41588200024447, 28.380085999739613], [-178.41373399994106, 28.375000000272703], [-178.4141309996011, 28.375000000272703], [-178.4153220003778, 28.375000000272703], [-178.41571900003788, 28.375000000272703], [-178.4122500001597, 28.363272000104605], [-178.4114779996826, 28.360660999811657], [-178.39561000040044, 28.341900999827644], [-178.38665599968687, 28.3390580002558], [-178.37500000044759, 28.335357000307425], [-178.37500000044759, 28.335793000372455], [-178.37500000044759, 28.337102999716727], [-178.37500000044759, 28.33753999992677], [-178.3489320003218, 28.334652000223443], [-178.3417440003202, 28.333856000008677], [-178.3014020002985, 28.328336000338645], [-178.28889500004115, 28.328810000169085], [-178.2718679997693, 28.335277999946374], [-178.2702629996141, 28.335887999748447], [-178.25752600010128, 28.34283199961637], [-178.2499999999909, 28.349421000097074], [-178.2499999999909, 28.34896699986567], [-178.2499999999909, 28.347605000175097], [-178.2499999999909, 28.347151000085926], [-178.2460569995615, 28.352397999964715], [-178.23885900041245, 28.36198100034672], [-178.23570400035365, 28.369010999654108], [-178.23301799992487, 28.375000000272703], [-178.23382800003677, 28.375000000272703], [-178.23626000002233, 28.375000000272703], [-178.23707099995917, 28.375000000272703], [-178.23249300021834, 28.383632999762252], [-178.23106600033836, 28.393722000110124], [-178.23050399992354, 28.397701000026913], [-178.2322229998816, 28.42733499996515], [-178.23776999974297, 28.452925000313247], [-178.2384690004251, 28.45614999984585], [-178.2499999999909, 28.46817800000082], [-178.2499999999909, 28.46787700026905], [-178.2499999999909, 28.46697399987768], [-178.2499999999909, 28.46667399964037], [-178.25600899980964, 28.475089999889722], [-178.25704099967942, 28.47653500010081], [-178.27116599961244, 28.488565000132166], [-178.28014500044037, 28.4943790003544], [-178.2888270002691, 28.49999999985444], [-178.28727399999244, 28.49999999985444], [-178.28261699971057, 28.49999999985444], [-178.28106500015713, 28.49999999985444], [-178.29151600017258, 28.50720699961632], [-178.2978970004353, 28.51021800015434], [-178.30434800011997, 28.513262999914033], [-178.31512100035067, 28.51633399999818], [-178.3337110000466, 28.517202000243746], [-178.34054000002303, 28.51726899980199], [-178.35579599956003, 28.514647999681934], [-178.36062699991913, 28.513819000010173], [-178.37500000044759, 28.51008399993014], [-178.37500000044759, 28.509631000173847], [-178.37500000044759, 28.508273999816485], [-178.37500000044759, 28.507822000346398], [-178.37730000018868, 28.50627800010333], [-178.3813149996898, 28.503585999656732], [-178.38416299960193, 28.50158900023272], [-178.3864330001041, 28.49999999985444], [-178.38830000020013, 28.49999999985444], [-178.39390099958987, 28.49999999985444], [-178.3957690004091, 28.49999999985444], [-178.411794999875, 28.48374199996268], [-178.41677199982402, 28.478179000009323], [-178.4275779996667, 28.46610199967079], [-178.4383359998288, 28.444087999845966], [-178.4435930001603, 28.41898599975667]]], [[[-157.9630029996735, 21.261265000175353], [-157.96355500004253, 21.25773799964421], [-157.9613549998606, 21.257038999650987], [-157.95875499964555, 21.256038999711397], [-157.95655500036193, 21.255638999676368], [-157.95335500009725, 21.25463900027823], [-157.95272300026056, 21.254558000135244], [-157.9470550000254, 21.253838999890363], [-157.94195500005273, 21.253039000181097], [-157.93945500029514, 21.2513389999789], [-157.93677700026228, 21.249999999671335], [-157.93665500006358, 21.249939000251608], [-157.93365499981545, 21.248839000343082], [-157.9314549996335, 21.24833900018166], [-157.92785500023405, 21.24803900027506], [-157.92505500000252, 21.24783899999802], [-157.92245599961237, 21.24783899999802], [-157.92006100033507, 21.247286000054498], [-157.91985600029568, 21.247239000049895], [-157.91735599963974, 21.24753899991073], [-157.9155560003892, 21.24753899991073], [-157.91345599976634, 21.24753899991073], [-157.9117560000749, 21.24783899999802], [-157.90995599992604, 21.24783899999802], [-157.9087919998118, 21.24783899999802], [-157.90785600020152, 21.24783899999802], [-157.90525599998648, 21.24803900027506], [-157.90355600029503, 21.24833900018166], [-157.90185599970528, 21.248839000343082], [-157.90015600001382, 21.249639000253783], [-157.89865600033895, 21.249939000251608], [-157.89795599983188, 21.248839000343082], [-157.89595599966648, 21.246839000401764], [-157.89480900016898, 21.246839000401764], [-157.88955500021055, 21.24463400035082], [-157.8860510001723, 21.2432279997995], [-157.88132899959308, 21.23934999980792], [-157.87488899977913, 21.23048100010387], [-157.87365299969488, 21.228778999693567], [-157.87225699977702, 21.228278000347164], [-157.86974600014878, 21.224941999619595], [-157.86896000032633, 21.2238980000746], [-157.8666050003337, 21.220769000236725], [-157.86582100016102, 21.21972600033966], [-157.86557199974067, 21.219394999892753], [-157.8641359996399, 21.218013000295], [-157.85906699962936, 21.21313500017911], [-157.85890299959786, 21.213052999934188], [-157.85675299964464, 21.211975000281722], [-157.85451599965276, 21.21085400012242], [-157.85095999973595, 21.209072000207115], [-157.8476540000644, 21.207841999773972], [-157.8453099999424, 21.206971000130377], [-157.83867299958663, 21.20450300032458], [-157.82909299978243, 21.200940999891845], [-157.8280890004001, 21.200849999629664], [-157.82133499986844, 21.20024000036374], [-157.81201500035527, 21.19939900039218], [-157.81022899955178, 21.19923799969125], [-157.8078760001073, 21.199533000004266], [-157.79548299965276, 21.201091999651013], [-157.79135199980067, 21.20161299977026], [-157.79085200020847, 21.201675999890007], [-157.78826000038936, 21.202495999821828], [-157.77904499955986, 21.205413999654198], [-157.77597400006493, 21.206386999892057], [-157.77458999984268, 21.2068250002873], [-157.77140700019478, 21.20783300025392], [-157.7705269997627, 21.208340999942326], [-157.76927099958692, 21.20906799961632], [-157.76830400001452, 21.209627000101413], [-157.7654040002238, 21.211304999667973], [-157.76443799957798, 21.211864999977113], [-157.7635660004401, 21.21236900036521], [-157.76095299980628, 21.21388100041704], [-157.76008199959503, 21.214385999686478], [-157.75798400041862, 21.21560000005147], [-157.75551600044807, 21.217616999605045], [-157.75333700018254, 21.21940000007198], [-157.75082700037916, 21.219989000071813], [-157.74725700021864, 21.22091600038257], [-157.74531099958162, 21.22167100016276], [-157.7411000002619, 21.217882000340865], [-157.73995799988896, 21.216854999982605], [-157.7362940000171, 21.21507299965155], [-157.73378099984075, 21.21385099989199], [-157.73090899963913, 21.212454999814284], [-157.72589200040548, 21.211124999984847], [-157.72319199973302, 21.210410000378978], [-157.7203510003919, 21.20965699980995], [-157.71970100011353, 21.209485000114313], [-157.7116090002887, 21.208572000055106], [-157.70868900040654, 21.20824299960765], [-157.7083239996352, 21.208202000226002], [-157.69259000024738, 21.209017000239772], [-157.68937800028712, 21.209183999955442], [-157.67577700023577, 21.213801000399116], [-157.66507000012726, 21.219940000010794], [-157.65347599991398, 21.229114000068748], [-157.6512599998385, 21.232026999771115], [-157.6480970002821, 21.23618999962435], [-157.64586299976494, 21.24057299990684], [-157.64053900038462, 21.24328400011605], [-157.63893099985637, 21.244103000221155], [-157.63407100008325, 21.246832999795934], [-157.63198499970414, 21.248456000289433], [-157.62423299963788, 21.254035999819795], [-157.62225199973906, 21.255331000056117], [-157.61613099976734, 21.260429000308683], [-157.61469800003957, 21.261906000291166], [-157.6076930003361, 21.26913399984354], [-157.600922000086, 21.282919000354482], [-157.6000209997375, 21.28657100040135], [-157.5979090003174, 21.295133999779416], [-157.5972880003514, 21.31066199989762], [-157.59758000042945, 21.313817000138293], [-157.60763499971145, 21.313820000330676], [-157.6222540002872, 21.313825999878386], [-157.63780100007736, 21.313887999653552], [-157.6442400000664, 21.31391499969596], [-157.64785700008255, 21.313928999746967], [-157.64896699977012, 21.31100400032729], [-157.6490499996108, 21.311026999730505], [-157.64908399994601, 21.311036999724653], [-157.6491490002433, 21.311142000040224], [-157.64924999962733, 21.311156000355624], [-157.649336999666, 21.31116899975058], [-157.649592999759, 21.31106300020829], [-157.64963100029215, 21.31104799980107], [-157.64999799981499, 21.31084699971992], [-157.65014500012805, 21.310670999831054], [-157.6501750002653, 21.3105829998075], [-157.65021100025032, 21.310548000135366], [-157.65023899983942, 21.31052200039744], [-157.65039200000027, 21.31041200003894], [-157.65042799998525, 21.31037700032607], [-157.65033300044905, 21.31024699976523], [-157.65005100041674, 21.30985900008521], [-157.64995699980707, 21.309729999994783], [-157.65018699996085, 21.309552000254858], [-157.65087999989692, 21.30901999993451], [-157.6511109998756, 21.308843000269114], [-157.65140499960344, 21.308664000192], [-157.65144499978643, 21.308640000319368], [-157.65150099986292, 21.30864299978059], [-157.65242999980052, 21.30869700011507], [-157.65277499958202, 21.308716999583005], [-157.6528159995899, 21.30873000003074], [-157.6527920001988, 21.30878100003799], [-157.65276999955913, 21.30884400036712], [-157.65278399980286, 21.308913000417594], [-157.6527880000008, 21.308947000382055], [-157.65280800009228, 21.308996000120043], [-157.65284499990224, 21.309050999584453], [-157.65291900042038, 21.309105999865157], [-157.65300300008596, 21.30911000024997], [-157.6530829995536, 21.309093000287586], [-157.653151000224, 21.309075000226816], [-157.65323999991242, 21.309054999970765], [-157.65331600008042, 21.309041000292023], [-157.65340499976887, 21.30903399961525], [-157.6534700000662, 21.309035999808646], [-157.65352899961744, 21.309053999874198], [-157.65359399991473, 21.309083000161124], [-157.65367900030355, 21.309160000029422], [-157.65374799990056, 21.3092119999829], [-157.6538089999999, 21.309255999993493], [-157.6539060000843, 21.30931200029228], [-157.65400099962054, 21.309360999908492], [-157.65408000016157, 21.309389000040532], [-157.65416700020018, 21.309421999800747], [-157.65426199973643, 21.30945799983501], [-157.65434100027747, 21.309484999854924], [-157.65442599976797, 21.30949700014116], [-157.65449699991308, 21.309496000047595], [-157.65457300008106, 21.309498000234708], [-157.6546540002719, 21.309491999673316], [-157.65474200013549, 21.309476999942536], [-157.65480200040992, 21.309466999842222], [-157.65489500029636, 21.309454000296594], [-157.6549680000913, 21.309423999988866], [-157.65502300034288, 21.30939300041762], [-157.65511500040438, 21.30933700014975], [-157.65522800038227, 21.3092660001082], [-157.6552879997584, 21.3092269997407], [-157.65536999977417, 21.309174999792567], [-157.65545199978996, 21.309134000045795], [-157.6555060002166, 21.30911299970159], [-157.65555899992006, 21.30911000024997], [-157.65563599991296, 21.30911000024997], [-157.655671999898, 21.30911399979775], [-157.65573700019527, 21.309120999633823], [-157.65584299960219, 21.309156999741862], [-157.6559410004098, 21.309178000079786], [-157.656040000144, 21.309172000342233], [-157.6561189997867, 21.30917000015068], [-157.65619499995472, 21.30918499991277], [-157.65628399964314, 21.309204000055626], [-157.65635499978828, 21.30921400017388], [-157.65639400014632, 21.30921400017388], [-157.65645500024567, 21.30920299996008], [-157.65650700012424, 21.309204000055626], [-157.65658800031508, 21.30918499991277], [-157.65663400034586, 21.309173999696817], [-157.656693999722, 21.309162000221118], [-157.6567640000422, 21.309151000003435], [-157.6568000000272, 21.309135000141826], [-157.65685899957842, 21.309095999739586], [-157.65691300000512, 21.30905800026041], [-157.6569699999065, 21.309010999899932], [-157.65702299960995, 21.308967999913094], [-157.65706600016597, 21.308936000148254], [-157.6571039998008, 21.308926000011105], [-157.65712800009027, 21.308915999873246], [-157.65719599986232, 21.308887999651045], [-157.65728000042623, 21.308873999956425], [-157.65733399995457, 21.308843000269114], [-157.65729999961937, 21.308696000016063], [-157.6572979999696, 21.308634999822342], [-157.6586100002218, 21.308935000050873], [-157.66042600026418, 21.30813400020878], [-157.66078699993923, 21.3084120000784], [-157.66224599960626, 21.309534000250334], [-157.66305200041853, 21.30933399986579], [-157.66568199987245, 21.311531999837904], [-157.66800199970498, 21.3125309999002], [-157.66994800034206, 21.31445300021859], [-157.6712410003277, 21.315729999902924], [-157.67234900036544, 21.317241999933763], [-157.67240299989385, 21.3172389998113], [-157.67245399994746, 21.317234999647955], [-157.67251300039698, 21.31723000028042], [-157.67257399959803, 21.3172310003213], [-157.67261600032916, 21.31724500005616], [-157.67265499978888, 21.317249000219277], [-157.6727100000405, 21.317255999667605], [-157.6727400001777, 21.31725699970831], [-157.67276600011698, 21.31725899978971], [-157.6728239998433, 21.317273000358767], [-157.67286499985116, 21.31727400039937], [-157.67290500003415, 21.31727400039937], [-157.672978999654, 21.31728900017062], [-157.67303100043083, 21.31729999977873], [-157.67307900011141, 21.317307000061472], [-157.6731200001193, 21.317310000182534], [-157.67315100008142, 21.317316999627977], [-157.67317700002073, 21.317316999627977], [-157.6732049996098, 21.317327000030623], [-157.67326999990715, 21.317324999950134], [-157.67333400037955, 21.317344999916816], [-157.67340899982432, 21.317363999840776], [-157.67345300020523, 21.31737400024023], [-157.6735360000459, 21.317414000157527], [-157.67361600041184, 21.3174439996699], [-157.67366999994022, 21.317460000299967], [-157.673719000344, 21.317472999973784], [-157.67378499956794, 21.317482000326645], [-157.6738520004134, 21.317493999959403], [-157.6738950000711, 21.317511999825115], [-157.67397100023908, 21.317551999704804], [-157.67400300002615, 21.317568000323117], [-157.67407499999618, 21.317592999612007], [-157.674184999601, 21.31764499992691], [-157.67429000008133, 21.317689999959235], [-157.67434699998276, 21.317709999876215], [-157.67441800012784, 21.317742000239775], [-157.67452400043308, 21.31780199996123], [-157.67457299993856, 21.317831000194392], [-157.67462300016726, 21.317867999877574], [-157.6746769996956, 21.317905000388265], [-157.6747329997721, 21.31794500016086], [-157.67476299990932, 21.317961999935413], [-157.67481700033602, 21.31800399976374], [-157.6748790002603, 21.318049999721367], [-157.6749079996743, 21.31807199965961], [-157.6750149998044, 21.318147999801305], [-157.67509599999528, 21.31819499974811], [-157.6752039999503, 21.3182649996232], [-157.67525699965373, 21.318302000033842], [-157.67530600005756, 21.31833400026841], [-157.6753450004156, 21.31836100033012], [-157.67536700015694, 21.318381000155675], [-157.67538800007333, 21.318388000386868], [-157.67541499983747, 21.318407000175867], [-157.67545900021844, 21.31843200015878], [-157.6754990004014, 21.318450999942094], [-157.67558700026495, 21.318500999888617], [-157.6756409997933, 21.318539000271794], [-157.67566400025785, 21.318557000009392], [-157.67574399972546, 21.318611000045827], [-157.67584599983272, 21.318679999691568], [-157.6759069999321, 21.31873000039697], [-157.67600300019157, 21.318788999684404], [-157.6760409998264, 21.31881100034877], [-157.67608100000936, 21.318833000172972], [-157.67613600026093, 21.31886900041073], [-157.6761870003146, 21.318895000344547], [-157.67626000010952, 21.318950000285835], [-157.67628900042183, 21.318962999827697], [-157.67634799997305, 21.319000000062452], [-157.67642400014103, 21.31905099985051], [-157.67649699993598, 21.319098000345097], [-157.67658499979953, 21.319155000265948], [-157.67665199974667, 21.31919499969798], [-157.6767019999754, 21.31922499968328], [-157.67676700027272, 21.319265999960173], [-157.676829000197, 21.319301000064993], [-157.676905000365, 21.319352999774914], [-157.67696899993908, 21.319388999885167], [-157.67699099968038, 21.319408000381472], [-157.67707199987123, 21.319462000104927], [-157.67715899990986, 21.319513999757827], [-157.67723400025295, 21.319566000229177], [-157.67731200007074, 21.31962199994372], [-157.67736899997215, 21.319656999963655], [-157.67742000002576, 21.319684999806224], [-157.67746500023162, 21.319710000408353], [-157.67752399978286, 21.31973900026462], [-157.6775740000116, 21.319768000115157], [-157.6776040001488, 21.319794999913185], [-157.6776469998065, 21.31984100014646], [-157.6776819999666, 21.31987900018277], [-157.67771299992876, 21.319910000050935], [-157.67777499985303, 21.319955000225853], [-157.67781900023394, 21.319981999989455], [-157.6778719999374, 21.320018999967402], [-157.67792399981593, 21.320053999892682], [-157.6779830002655, 21.32008899980963], [-157.67808100017479, 21.320134999950785], [-157.6781599998175, 21.32016599976491], [-157.67822000009195, 21.32018500016066], [-157.6782719999705, 21.320200999655153], [-157.6783489999634, 21.320219000025837], [-157.6784279996061, 21.32023400033306], [-157.67850200012427, 21.320247999781557], [-157.67857400009427, 21.320262000065572], [-157.67867299982845, 21.320286999732616], [-157.67872399988212, 21.320302000032857], [-157.67878099978353, 21.320322999613833], [-157.67884100005796, 21.32032599967328], [-157.67888000041603, 21.320337999910432], [-157.67893099957135, 21.32034300000896], [-157.67899300039394, 21.32034800010731], [-157.67904600009734, 21.320358000303475], [-157.67908799993015, 21.320361000362187], [-157.67916300027326, 21.32036899968167], [-157.6792100001289, 21.32037199974018], [-157.67927500042623, 21.32037999989588], [-157.6793430001983, 21.320389000070527], [-157.67939599990174, 21.320401000302525], [-157.6794190003663, 21.320404000360373], [-157.67950200020695, 21.32042699996498], [-157.6795830003978, 21.320441000231938], [-157.67965600019278, 21.320453999641753], [-157.67970999972113, 21.320445000307956], [-157.6797519995539, 21.320456999698532], [-157.67981299965328, 21.32046599986846], [-157.6799139999356, 21.320487000262805], [-157.67997300038513, 21.320497999631318], [-157.68008299999002, 21.320516999984076], [-157.6801819997242, 21.320534000297645], [-157.68026000044034, 21.32054799971753], [-157.68036599984723, 21.320564000009313], [-157.68044600021318, 21.320568000081998], [-157.68051300016032, 21.32057000011829], [-157.680560000016, 21.320577000245105], [-157.6806410002068, 21.32058500038965], [-157.68071800019973, 21.3205919996789], [-157.6807929996445, 21.32059799978672], [-157.68086799998756, 21.320610000001633], [-157.68092200041423, 21.320604999912213], [-157.68097799959241, 21.32059499973284], [-157.6812079997462, 21.320629000339917], [-157.68127600041655, 21.3206150000909], [-157.68135599988418, 21.320617000126553], [-157.6814329998771, 21.320604999912213], [-157.6815269995884, 21.320587999606875], [-157.6815910000608, 21.320568000081998], [-157.6816799997493, 21.320560999954736], [-157.68170499986363, 21.3205499997541], [-157.68174199967356, 21.320542999625985], [-157.6817709999859, 21.320531000242443], [-157.68180799979578, 21.320524000113426], [-157.68183999958288, 21.320510999872937], [-157.68185999967434, 21.320505999780146], [-157.6820100003605, 21.32046599986846], [-157.6820470001704, 21.320441000231938], [-157.6820689999117, 21.32042699996498], [-157.68209200037623, 21.320413999715893], [-157.6821230003384, 21.320400000283236], [-157.68215400030053, 21.32038700003177], [-157.68218199988962, 21.320372999759673], [-157.6822310002934, 21.320367999662164], [-157.6822439998139, 21.320363000401315], [-157.68236699983754, 21.320323999633658], [-157.68242200008913, 21.320307000132605], [-157.6824570002492, 21.320292999852878], [-157.6824820003636, 21.320283999672377], [-157.68257799972474, 21.320241999659437], [-157.68262600030363, 21.320219000025837], [-157.68266499976338, 21.320206999778964], [-157.68269900009855, 21.32019799959316], [-157.68272699968765, 21.320182000098335], [-157.68281899974914, 21.320142000098354], [-157.68287300017585, 21.32012199967586], [-157.68287400000074, 21.32013599997191], [-157.6829059997878, 21.320125999760577], [-157.68296400041245, 21.32010600017275], [-157.68301399974283, 21.32009199987385], [-157.68305300010087, 21.320076000367486], [-157.68310599980433, 21.320063000087316], [-157.68312000004806, 21.32006400010891], [-157.6831619998808, 21.320052999871024], [-157.6832210003304, 21.32004099961058], [-157.6832699998359, 21.320035000316818], [-157.68333900033113, 21.320026000120464], [-157.68351500005824, 21.31999600029884], [-157.6836020000969, 21.319983000011597], [-157.68367999991472, 21.31996699965648], [-157.683709000227, 21.31996200038201], [-157.6837600002806, 21.319947000046998], [-157.68380899978612, 21.31993499977789], [-157.683849999794, 21.319929999665455], [-157.68390000002273, 21.31992300034464], [-157.68395799974903, 21.319914000141434], [-157.68400600032794, 21.31990800000565], [-157.68404999981053, 21.319901999869625], [-157.6841019996891, 21.319900999846926], [-157.6841660001615, 21.319887000365327], [-157.6842349997585, 21.319883000274103], [-157.68428499998717, 21.31988100022845], [-157.68435500030736, 21.319885000319722], [-157.6844199997064, 21.319889000410917], [-157.68446599973717, 21.319886000342525], [-157.6845040002703, 21.31989099961959], [-157.6845739996922, 21.319898999801513], [-157.68463599961646, 21.319910000050935], [-157.68472600002815, 21.31991700020923], [-157.68479100032548, 21.319921000299523], [-157.6848349998081, 21.319918000231826], [-157.68489500008255, 21.319930999687966], [-157.6849810002963, 21.319985000055865], [-157.68504200039567, 21.320021000011135], [-157.68507800038066, 21.320039000403902], [-157.68511799966532, 21.320071000259862], [-157.6851789997647, 21.320110000257905], [-157.68522499979542, 21.320146000182525], [-157.68527699967396, 21.32018800022291], [-157.68532699990268, 21.320236000373907], [-157.6853479998191, 21.32026800018689], [-157.68535700003991, 21.32028599971255], [-157.68539200020004, 21.320333999831487], [-157.6854180001393, 21.320374999798624], [-157.6854340000328, 21.32041099965826], [-157.6854409997055, 21.320445000307956], [-157.68544499990347, 21.320473000000238], [-157.6854490001014, 21.320495999594034], [-157.68545199957617, 21.320523000094962], [-157.6854530002994, 21.320542999625985], [-157.68544800027652, 21.320581000317425], [-157.6854459997284, 21.320600999840547], [-157.6854409997055, 21.320628000322163], [-157.685428000185, 21.320674000294446], [-157.68540300007066, 21.32073599968849], [-157.68539899987272, 21.320764000162107], [-157.68537999960614, 21.320819000240046], [-157.68536700008562, 21.32086200010404], [-157.68535100019213, 21.32090599997129], [-157.68535000036724, 21.320920000192558], [-157.6853479998191, 21.32095099984094], [-157.68533399957536, 21.320986000380827], [-157.68532899955252, 21.3210250001358], [-157.68533399957536, 21.321048999658025], [-157.68535100019213, 21.321086000203827], [-157.68537100028362, 21.321106999672654], [-157.68539200020004, 21.321115999802725], [-157.68542200033727, 21.321135000075476], [-157.685460999797, 21.321155000359973], [-157.68553299976702, 21.32118199990288], [-157.68561200030805, 21.32120200018094], [-157.68562800020158, 21.32120600023622], [-157.68568900030093, 21.321230999742507], [-157.68574899967712, 21.32124799997334], [-157.68580300010373, 21.32126400018883], [-157.68582499984507, 21.321268000242434], [-157.68586699967784, 21.321281000415876], [-157.6858969998151, 21.321289999698465], [-157.68595000041682, 21.32130799993559], [-157.68602499986162, 21.321334000274245], [-157.6861150002733, 21.321363999822445], [-157.68617100034976, 21.321388000126053], [-157.68622200040343, 21.321408000376074], [-157.68626099986318, 21.321420999700283], [-157.68631600011472, 21.321436999896903], [-157.68635700012263, 21.321448000031076], [-157.6863899997346, 21.321453000091807], [-157.68645199965886, 21.321458000152347], [-157.6864950002149, 21.321460000176515], [-157.6865310001999, 21.321464000224772], [-157.68660599964466, 21.32147000029696], [-157.68667000011703, 21.321479000404775], [-157.6867119999499, 21.321485999651404], [-157.68675299995772, 21.321491999722685], [-157.68679700033866, 21.32149899980555], [-157.68681900007996, 21.321501999840955], [-157.68684300036944, 21.321501999840955], [-157.68687599998137, 21.321505999888068], [-157.6869160001644, 21.321517000017064], [-157.68693500043096, 21.321521000063782], [-157.68695200014938, 21.321526000122006], [-157.6869809995634, 21.32153200019166], [-157.68702800031735, 21.321537000249513], [-157.68706400030237, 21.32154300031871], [-157.68710699996006, 21.32155299959666], [-157.6871300004246, 21.32155499961953], [-157.6871589998386, 21.321557999653802], [-157.68718399995296, 21.32155499961953], [-157.68720499986935, 21.321557999653802], [-157.68724500005234, 21.321560999687986], [-157.68729100008306, 21.321567999767566], [-157.68733000044116, 21.32157199981287], [-157.6873499996343, 21.32157599985809], [-157.68736499970294, 21.321577999880642], [-157.6874130002818, 21.321581999925694], [-157.6874390002211, 21.321581999925694], [-157.68746500016036, 21.321579999903182], [-157.68748299970372, 21.32157899989192], [-157.68750399962013, 21.321579999903182], [-157.68752899973447, 21.321582999936933], [-157.6875470001761, 21.321581999925694], [-157.68756999974232, 21.32157599985809], [-157.68759999987955, 21.321574999846803], [-157.68762099979597, 21.321572999824188], [-157.68766199980388, 21.321564999733496], [-157.68770100016192, 21.321562999710768], [-157.6877630000862, 21.32156399972213], [-157.68783500005622, 21.321560999687986], [-157.68789399960744, 21.321557999653802], [-157.68795800007987, 21.32154300031871], [-157.68799800026284, 21.321541000295674], [-157.68808399957825, 21.32152400009873], [-157.68818300021076, 21.32151600000538], [-157.68828500031802, 21.321504999876296], [-157.68837999985428, 21.321477000380863], [-157.68846199987001, 21.321464000224772], [-157.6885599997793, 21.32145500011604], [-157.68864099997015, 21.321443999982385], [-157.6887270001839, 21.32142899979881], [-157.68876200034398, 21.32143099982337], [-157.6888180004205, 21.32141799966321], [-157.6889320002233, 21.321409000388506], [-157.68902099991178, 21.32139300018882], [-157.68908899968383, 21.321374999962075], [-157.6891909997911, 21.32134200037753], [-157.68928000037783, 21.321314000014148], [-157.68936300021852, 21.321280000402577], [-157.6894250001428, 21.321251000013874], [-157.6895039997855, 21.32121300033272], [-157.6895509996412, 21.32118099988892], [-157.6896290003573, 21.321122999903512], [-157.6897149996727, 21.32106199985087], [-157.68977300029735, 21.32102800018089], [-157.68983100002367, 21.320987000396137], [-157.6898970001459, 21.320931000365473], [-157.6899540000473, 21.32088399962091], [-157.69003900043612, 21.320823000305772], [-157.69010999968293, 21.320771000279677], [-157.69018199965296, 21.320727000371967], [-157.69022799968369, 21.320699999908545], [-157.6902810002855, 21.320666000154763], [-157.69034200038487, 21.320614000073057], [-157.69042000020264, 21.320555999863636], [-157.6904889997996, 21.320502999724386], [-157.69052200030987, 21.320477000075392], [-157.6906000001277, 21.320414999735107], [-157.690657999854, 21.32037999989588], [-157.69073999986978, 21.320330999772203], [-157.69079400029645, 21.320281999632194], [-157.6908839998098, 21.320221000066898], [-157.690986999742, 21.320164999744016], [-157.69103299977272, 21.32014900024559], [-157.69111200031375, 21.32011700040667], [-157.69117199968989, 21.320108000215342], [-157.6912000001773, 21.320096999980763], [-157.6912599995535, 21.320082999681], [-157.69128600039105, 21.320081999659543], [-157.69135699963783, 21.32005499991434], [-157.69144100020173, 21.320039000403902], [-157.69151200034688, 21.32003400029502], [-157.69155400017965, 21.320028000164147], [-157.69163899967015, 21.3200270001423], [-157.6917049997924, 21.320026000120464], [-157.69173699957943, 21.3200270001423], [-157.69180400042492, 21.320023000054896], [-157.69187200019698, 21.320023000054896], [-157.69191400002975, 21.320023000054896], [-157.69197199975608, 21.320028000164147], [-157.69204000042643, 21.3200360003386], [-157.69209999980256, 21.320046999740928], [-157.6921719997726, 21.320069000216762], [-157.6922539997884, 21.320086999766787], [-157.69233099978126, 21.320104000130122], [-157.69237599998712, 21.320108000215342], [-157.69240799977416, 21.32011200030044], [-157.69249599963774, 21.320122999697045], [-157.69254900023947, 21.320129999845186], [-157.6926150003617, 21.32013800001408], [-157.69267399991296, 21.32014400014046], [-157.6927330003625, 21.32014400014046], [-157.69274800043112, 21.320142000098354], [-157.69278699989084, 21.32013800001408], [-157.69283600029465, 21.320134999950785], [-157.69290499989162, 21.320125999760577], [-157.69294699972446, 21.320126999781742], [-157.6930239997173, 21.320127999802903], [-157.69307700031908, 21.320126999781742], [-157.69311099975593, 21.320122999697045], [-157.69315599996182, 21.320122999697045], [-157.69321200003827, 21.320124999739406], [-157.6932749997875, 21.320117999591037], [-157.69332300036638, 21.32011600038543], [-157.693366999849, 21.320122999697045], [-157.69341899972753, 21.320122999697045], [-157.69346399993336, 21.320134999950785], [-157.69351599981192, 21.32015700041344], [-157.6935800002843, 21.320197000409337], [-157.69364800005638, 21.32023899959827], [-157.69371500000355, 21.320281999632194], [-157.6937819999507, 21.32033699989071], [-157.6938320001794, 21.32036899968167], [-157.69502700025578, 21.320429000003205], [-157.69505800021793, 21.32043100004138], [-157.69519799996002, 21.32032599967328], [-157.69569400025253, 21.319955000225853], [-157.6958599999339, 21.319831999938216], [-157.69696100029896, 21.31904599970799], [-157.69784900022864, 21.318802000077383], [-157.69986399956437, 21.318248999917706], [-157.70126299985523, 21.317851000092134], [-157.7020649995712, 21.317260999871092], [-157.70346600041023, 21.317348000037104], [-157.70418000026268, 21.316836999584247], [-157.7045660000521, 21.316561999898237], [-157.70636399965278, 21.316647999596732], [-157.70715700004624, 21.317730999827912], [-157.70732699992558, 21.317764000224177], [-157.70773199998155, 21.31784099972517], [-157.7097570002613, 21.318231000142347], [-157.71075700034402, 21.31703100037664], [-157.7127569996111, 21.31743099999353], [-157.7128620000914, 21.3173720001604], [-157.7136570001347, 21.316931000302166], [-157.71467300011096, 21.31700900028242], [-157.71472900018742, 21.317012999615095], [-157.71489999989166, 21.317026000165317], [-157.71495699979306, 21.31703100037664], [-157.71611000003662, 21.317091999593615], [-157.71685700039936, 21.31713199958774], [-157.71895700012388, 21.31843100012608], [-157.7192039999961, 21.318447999844324], [-157.72035700023966, 21.318531000015764], [-157.72096499978687, 21.318592000283235], [-157.72135700032237, 21.31863199986869], [-157.72240900028362, 21.31961399974671], [-157.72285699999728, 21.3200310002296], [-157.72355699960602, 21.321331000235404], [-157.72445700012958, 21.32233099974421], [-157.72585700024538, 21.324130999767444], [-157.72645700029503, 21.32383099962288], [-157.72765700039426, 21.323231000004604], [-157.73036600038927, 21.32273800000708], [-157.73073999958476, 21.322669999762077], [-157.73095700021804, 21.32263099960731], [-157.7318769999348, 21.32270099987769], [-157.7322569998764, 21.322730999983314], [-157.73305699994256, 21.322730999983314], [-157.7334839997398, 21.322873000400186], [-157.7348570000914, 21.32333099997182], [-157.73705700027338, 21.323031999867105], [-157.7371379995659, 21.323049999890635], [-157.7383569999317, 21.323331999971163], [-157.7383689996273, 21.32355499965119], [-157.73838799989386, 21.323557999644585], [-157.73847099973452, 21.323579999594216], [-157.73856500034418, 21.32360800036214], [-157.73865300020776, 21.323635000290658], [-157.7387410000713, 21.323663000211294], [-157.7388120002164, 21.323668000196555], [-157.7389050001028, 21.323690000129698], [-157.73900499966194, 21.32373399998606], [-157.73908800040093, 21.323750999927046], [-157.73917600026448, 21.323777999829268], [-157.73928699969423, 21.32379999974591], [-157.73937600028103, 21.323805999722612], [-157.73942899998445, 21.32381699967925], [-157.73946999999234, 21.32382199965927], [-157.7395460001603, 21.323810999703003], [-157.739593000016, 21.32381699967925], [-157.73962800017608, 21.32381699967925], [-157.73968699972733, 21.323838999590063], [-157.73974000032908, 21.323844000406122], [-157.73979899988032, 21.323855000359924], [-157.73985800032986, 21.323866000312893], [-157.73991600005616, 21.3238720002869], [-157.7399870002013, 21.32387700026504], [-157.7400509997754, 21.323888000216357], [-157.74011000022494, 21.323888000216357], [-157.74018700021784, 21.323899000166847], [-157.74027500008137, 21.323905000139504], [-157.7404099998006, 21.323953999906934], [-157.74046900025013, 21.323964999852475], [-157.740574999657, 21.323986999741113], [-157.7406569996728, 21.324026000372367], [-157.74071600012235, 21.32405400021841], [-157.74082099970434, 21.3240870000301], [-157.74089799969724, 21.32411399987048], [-157.74099800015463, 21.324130999767444], [-157.74110299973663, 21.32416900036685], [-157.74114499956943, 21.324175000328466], [-157.7412330003313, 21.32418600025743], [-157.7412910000576, 21.324191000224868], [-157.74135600035495, 21.32418600025743], [-157.7414740003557, 21.324175000328466], [-157.74153799992982, 21.324175000328466], [-157.74159099963327, 21.32418600025743], [-157.74164400023503, 21.32419700018558], [-157.74170899963403, 21.32420800011293], [-157.74181499993924, 21.32425699977923], [-157.74206699983435, 21.324406000337625], [-157.74213200013165, 21.324454999937792], [-157.74226100000308, 21.324482999701996], [-157.7423909996994, 21.324532000113283], [-157.74266699988394, 21.324604000295178], [-157.74280800034927, 21.324642999925686], [-157.74294300006846, 21.32466999966383], [-157.74306699991703, 21.324681000392502], [-157.74333700025377, 21.324703000173816], [-157.7434429996607, 21.324692000283566], [-157.74361300043827, 21.324714000063228], [-157.74381299955652, 21.324740999788293], [-157.7439299997324, 21.32479100010284], [-157.7440360000376, 21.324878999979113], [-157.74422400035857, 21.325011000112962], [-157.74436499992555, 21.325077000135384], [-157.74445899963692, 21.325104999780926], [-157.74455300024655, 21.325115999640186], [-157.7446770000951, 21.325104999780926], [-157.74486500041607, 21.325143000128126], [-157.7451349998545, 21.325215000010274], [-157.7452810003427, 21.32526200020484], [-157.74547600033637, 21.325325000157168], [-157.7458050002243, 21.32546799972281], [-157.74610499979997, 21.32555100010899], [-157.74646399982518, 21.325694000291243], [-157.74665200014618, 21.32573800038365], [-157.74682200002547, 21.325764999920352], [-157.74703399973754, 21.325808999991466], [-157.74714500006567, 21.32579800018411], [-157.7472549996705, 21.325788000358546], [-157.74739199993786, 21.325775999730162], [-157.74752099980927, 21.32576000000651], [-157.7476680001224, 21.32581999979799], [-157.7477740004276, 21.3258920001848], [-157.7479560000025, 21.326068000237864], [-157.74809699956947, 21.326260999730092], [-157.7485910002122, 21.326788999602044], [-157.74870300036517, 21.326909999967615], [-157.7488790000923, 21.327004000092852], [-157.74907900010882, 21.32714199982935], [-157.74919100026182, 21.327219000268673], [-157.74932599998104, 21.327262999903883], [-157.74946700044634, 21.327289999996786], [-157.74966099971678, 21.32729599983081], [-157.74979600033433, 21.327312000223788], [-157.75004300020652, 21.327333999610687], [-157.75024300022304, 21.327367000358464], [-157.75041899995014, 21.327388999737124], [-157.75059499967722, 21.327438999986335], [-157.75115399971898, 21.327531999801987], [-157.7513949997434, 21.327598000364276], [-157.75158899991217, 21.327637000035942], [-157.7516940003925, 21.327653000391734], [-157.7519770002497, 21.327708000398605], [-157.75225900028198, 21.32774100022546], [-157.75246500014632, 21.327774000044894], [-157.7526729996605, 21.32782600010034], [-157.7528169996005, 21.327861999806064], [-157.75284699973773, 21.32787300029552], [-157.7528939995934, 21.327901000244385], [-157.75294700019518, 21.327923000379773], [-157.75302300036316, 21.327971999642536], [-157.75309899963284, 21.328038000006906], [-157.75315800008235, 21.328110000142328], [-157.7531759996257, 21.32816499997788], [-157.75319900009026, 21.328209000166243], [-157.75323400025033, 21.328274999587222], [-157.75327000023535, 21.328340999815314], [-157.75329899964936, 21.32839099974013], [-157.75333999965724, 21.32844600030719], [-157.7533990001068, 21.328511999621554], [-157.75345199981024, 21.328561000361226], [-157.75359900012333, 21.328639000019145], [-157.75367000026841, 21.328660000080852], [-157.75373399984252, 21.32867700028801], [-157.75379900013985, 21.328699000307093], [-157.75386899956175, 21.328727000098343], [-157.75394599955465, 21.328749000109905], [-157.7539869995625, 21.328771000118174], [-157.7540679997534, 21.32883900004679], [-157.75408700001995, 21.328876000302362], [-157.75413399987562, 21.328930999850826], [-157.75415899998998, 21.328964000239452], [-157.7542119996934, 21.329033999999574], [-157.75422299956406, 21.329056999925456], [-157.75423400033307, 21.32907899988753], [-157.75427500034095, 21.329134000196692], [-157.7543160003488, 21.329172000337422], [-157.75439800036457, 21.329205999794343], [-157.7544629997636, 21.329221999979083], [-157.7545349997336, 21.32924999967055], [-157.75456599969579, 21.329259000138055], [-157.75482000013898, 21.329473000399656], [-157.75489799995677, 21.329635000116397], [-157.755068999661, 21.329887999739817], [-157.75519800043074, 21.33009200038854], [-157.75532200027934, 21.330284999609074], [-157.75549800000638, 21.33043899965911], [-157.75562699987782, 21.330549000074072], [-157.7557859998865, 21.330631000147182], [-157.75594400007026, 21.330669999849533], [-157.75610899992668, 21.33069700015234], [-157.75626200008756, 21.33075299980378], [-157.75651499980756, 21.330818999754058], [-157.75673200044085, 21.330867999723285], [-157.7569140000157, 21.33087899998739], [-157.75707899987216, 21.330900999676267], [-157.75733199959214, 21.330923000198652], [-157.75754300037767, 21.330949999618117], [-157.75766100037845, 21.330993999808094], [-157.75775500008976, 21.331054999916564], [-157.7579350000148, 21.331166999761578], [-157.7581030002443, 21.33128599997391], [-157.75824299998638, 21.331385000365334], [-157.75842499956124, 21.33155000031137], [-157.75853099986648, 21.3316550001804], [-157.75863100032393, 21.33173800041422], [-157.7587250000352, 21.331782000367895], [-157.75883100034045, 21.331819999822823], [-157.7589069996101, 21.331847999855285], [-157.75904800007544, 21.33185300039843], [-157.7593900003822, 21.3316720000406], [-157.76017399965653, 21.331715000071853], [-157.76025599967227, 21.331731999925054], [-157.76115600019588, 21.331731999925054], [-157.76265599987076, 21.331731999925054], [-157.76296700021538, 21.3318349997811], [-157.76385599997002, 21.332131999643554], [-157.76585600013544, 21.332131999643554], [-157.7670560002347, 21.332232000239564], [-157.76708299999885, 21.332232000239564], [-157.76815599987648, 21.332232000239564], [-157.76925600041665, 21.33253199994506], [-157.77155600015772, 21.333132000025916], [-157.7729560002735, 21.33413200028602], [-157.77425599993182, 21.334931999769836], [-157.7755559995902, 21.335632000027633], [-157.7759360004301, 21.335632000027633], [-157.7774560001965, 21.335632000027633], [-157.77915599988793, 21.335831999726818], [-157.78075600002026, 21.33623199998057], [-157.781940000226, 21.336941999794615], [-157.78225599969517, 21.337132000328644], [-157.78265599972826, 21.33763199980929], [-157.7838559998275, 21.33853199993422], [-157.78465599989366, 21.338932000355353], [-157.78515600038418, 21.339731999598147], [-157.78615599956856, 21.340532000334097], [-157.78715599965128, 21.34113200032306], [-157.78743100001088, 21.34179200032034], [-157.78765600014177, 21.342331999629916], [-157.7880560001749, 21.3430309998458], [-157.7880560001749, 21.34322600017702], [-157.7880560001749, 21.34373099993662], [-157.7880560001749, 21.344530999773262], [-157.7883559997505, 21.346230999993132], [-157.7884799995991, 21.346628999812307], [-157.788628999562, 21.347629000076722], [-157.78864399963058, 21.347724000144503], [-157.78860299962273, 21.348720000327862], [-157.78918299958085, 21.35001399988205], [-157.78897800043976, 21.351606999924112], [-157.7889869997623, 21.351774000155377], [-157.78907100032617, 21.35320000022193], [-157.78853900004862, 21.354272999628737], [-157.78828999962826, 21.355152000059803], [-157.78825500036646, 21.3560940003596], [-157.78825100016854, 21.35622900017024], [-157.78852599962983, 21.357596999768834], [-157.78849300001787, 21.358771000267073], [-157.78862600008725, 21.35935700016294], [-157.788636000133, 21.359551999689952], [-157.78938000012266, 21.362093999857578], [-157.79060199996323, 21.364042999998297], [-157.7911300000428, 21.364520000331673], [-157.79167400001597, 21.365013000409967], [-157.79368800042505, 21.36616600033001], [-157.79379200018215, 21.366223000361956], [-157.79384499988558, 21.366252999929582], [-157.7941040003517, 21.36639700027823], [-157.79420800010874, 21.366454999925548], [-157.79731899978663, 21.367250000189635], [-157.79741199967305, 21.367273999675916], [-157.80118699987298, 21.367509000015005], [-157.80534000036468, 21.367857999626942], [-157.80628299964764, 21.367991999777136], [-157.8069200004055, 21.368013999752606], [-157.80732200008842, 21.368029000190297], [-157.8079599997729, 21.368867000284233], [-157.80965500033977, 21.36933000018314], [-157.81037400021506, 21.37035499977793], [-157.81034599972764, 21.37124800034867], [-157.81030700026793, 21.372497000097127], [-157.81054300026946, 21.37350700023286], [-157.810735999715, 21.37433599971781], [-157.81075499998158, 21.375559999613927], [-157.81198000019518, 21.376692000266164], [-157.81226700025036, 21.376980999998743], [-157.81279699997978, 21.377514999829778], [-157.81341399974784, 21.3783619999632], [-157.81361799996236, 21.37864199980042], [-157.8152900000647, 21.379904999644197], [-157.81554799980754, 21.38006100031713], [-157.81863599991922, 21.381936000075672], [-157.82196300040547, 21.383262999666954], [-157.82198799962154, 21.383272999753718], [-157.82267200023506, 21.384250999918383], [-157.82355500014188, 21.385029999788287], [-157.8236749997925, 21.38543000040458], [-157.8240349996426, 21.386629000306765], [-157.82415500019152, 21.387030000298417], [-157.82425499975062, 21.387130000233597], [-157.82481899981522, 21.387946000228123], [-157.82515399955102, 21.388429999862108], [-157.8245540003997, 21.38992999994123], [-157.82495400043277, 21.390429999895282], [-157.82503200025056, 21.390982000040985], [-157.82505399999187, 21.391130000138045], [-157.825454000025, 21.392030000307308], [-157.82514600005337, 21.392644999719263], [-157.82485399997532, 21.393230000003694], [-157.82475400041622, 21.393629999944945], [-157.82425399992573, 21.394329999928072], [-157.82421999959053, 21.39446200023288], [-157.82405399990918, 21.395130000227088], [-157.82495400043277, 21.39562999996892], [-157.82660200024566, 21.395812999778304], [-157.82675399968332, 21.395829999721567], [-157.82845400027307, 21.396230000079], [-157.82925400033926, 21.39693000016268], [-157.82985400038885, 21.3984300000505], [-157.8309540000307, 21.398930000217916], [-157.83312300025048, 21.39962399970411], [-157.8334539997883, 21.39972999960558], [-157.83572500011533, 21.400297000251157], [-157.83635199992918, 21.400649000374646], [-157.83731799967666, 21.401192000190832], [-157.83825900020813, 21.40166400004835], [-157.83890299974038, 21.4019869999249], [-157.83889900044073, 21.401377000336073], [-157.84148500041206, 21.401233000116633], [-157.84217900017302, 21.400313999673088], [-157.84506300007018, 21.400066000284568], [-157.84655400042257, 21.39933799964964], [-157.84667800027114, 21.399300000144255], [-157.84903999993645, 21.398596000081586], [-157.85231999966877, 21.39693399982375], [-157.8542999997427, 21.393975000259772], [-157.85479699986016, 21.39376599979288], [-157.85518500019765, 21.391730000308602], [-157.85667700037493, 21.39180500036596], [-157.85776799979595, 21.3906790001098], [-157.85816299980618, 21.389863000304352], [-157.8601520001009, 21.389429000402657], [-157.861938999831, 21.387990000032882], [-157.86412700031738, 21.387352999876324], [-157.86571800022887, 21.38682499988309], [-157.8667130002887, 21.386507999895258], [-157.86792500008352, 21.385635000265204], [-157.87386399958206, 21.38136100001573], [-157.87495400007646, 21.38003199984534], [-157.87605399971827, 21.379832000242754], [-157.87674900020247, 21.379539000147428], [-157.88192699999288, 21.37735800015837], [-157.88365400034687, 21.376632000383328], [-157.88415599958887, 21.376419999652224], [-157.88566200000986, 21.375785999918868], [-157.88616499997508, 21.375575000115038], [-157.8863340000295, 21.37550700011744], [-157.8868410001927, 21.3753059997061], [-157.88701100007202, 21.375239000065314], [-157.8881579995695, 21.374756999598347], [-157.89159999968348, 21.373312999703842], [-157.89274799990423, 21.372832999747857], [-157.89337800009108, 21.372566999983388], [-157.89390199997268, 21.37235900039063], [-157.89520099980612, 21.371845999886634], [-157.89615900005606, 21.37144099976005], [-157.89736900020102, 21.370946999896386], [-157.89852499991935, 21.370476999837077], [-157.8988859995944, 21.37032899976592], [-157.89991900018737, 21.369909000219028], [-157.8999719998908, 21.369894999655685], [-157.90011199963288, 21.369859999914556], [-157.9002249996108, 21.369848000383808], [-157.9003579996802, 21.369851000266582], [-157.90038399961946, 21.36985499983136], [-157.90042499962738, 21.36986200011509], [-157.90061999962103, 21.36989300029213], [-157.90076600010917, 21.369906000337423], [-157.90113900037812, 21.369915999663643], [-157.90121999967064, 21.369912000100534], [-157.90129400018878, 21.369901000255776], [-157.9015140002968, 21.369857000031946], [-157.9016599998867, 21.369820999762943], [-157.90170099989456, 21.369807999710083], [-157.9018919996903, 21.369751999919703], [-157.90194500029205, 21.369741000062938], [-157.90205200042215, 21.369725999800607], [-157.90211400034647, 21.369725999800607], [-157.90224300021788, 21.369740000380123], [-157.90230900034013, 21.369754999804464], [-157.90241700029515, 21.369786999686642], [-157.90246400015081, 21.369796000175086], [-157.90257999960343, 21.369807999710083], [-157.90300300010108, 21.369815999678412], [-157.9033200002935, 21.369848000383808], [-157.90341499982975, 21.369846000183067], [-157.90347199973112, 21.3698300002493], [-157.9035970003029, 21.369775000149914], [-157.90376700018223, 21.36968200036076], [-157.90391100012226, 21.369616000339633], [-157.90398700029024, 21.369590999880213], [-157.90406500010806, 21.369571000346188], [-157.90407500015382, 21.369572000030157], [-157.90416200019243, 21.369567999621122], [-157.904245999858, 21.369574999918584], [-157.90437300007963, 21.369604999636078], [-157.90447000016403, 21.369624000318407], [-157.9046259997996, 21.369672000182025], [-157.90493600031934, 21.369804999826442], [-157.90504199972622, 21.36983399981465], [-157.9053560004439, 21.369902999619217], [-157.9054409999344, 21.3699179998634], [-157.9056240002325, 21.36995100022791], [-157.90577999986812, 21.369969000347556], [-157.90587000027978, 21.369975000108084], [-157.90594600044776, 21.369972999909077], [-157.90602300044068, 21.369965999630647], [-157.9061160003271, 21.369949000028594], [-157.90616099963464, 21.369936999668585], [-157.9062779998105, 21.369894999655685], [-157.90634700030577, 21.36986200011509], [-157.90640599985701, 21.369828000048294], [-157.90654899997213, 21.369728999685904], [-157.90663199981282, 21.369664000205834], [-157.9066460000565, 21.369657999595997], [-157.9066870000644, 21.369627999889392], [-157.9068839997079, 21.369518000354756], [-157.90741699981038, 21.369224000006657], [-157.90760199975827, 21.3691060001619], [-157.9078350002851, 21.36895800037815], [-157.90799299957055, 21.368573999993007], [-157.90807799995935, 21.368376000015314], [-157.90777500001067, 21.36836099961317], [-157.9074129996124, 21.36834300013243], [-157.90724000025835, 21.368329999948365], [-157.90699400021106, 21.36829799974779], [-157.90681199973787, 21.36826299962497], [-157.90657300026157, 21.368202999633954], [-157.90633899990985, 21.368127000335097], [-157.90622400028212, 21.36808400010893], [-157.90600099980102, 21.367985999935353], [-157.90578400006603, 21.367873000080614], [-157.90563500010316, 21.36778200014904], [-157.9055759996536, 21.36774699990288], [-157.9054760000945, 21.367678999615855], [-157.9053499996978, 21.36757899977613], [-157.90523400024517, 21.36747699963503], [-157.9051160002444, 21.367351999652296], [-157.9050679996655, 21.367298999694324], [-157.90491899970257, 21.367131999590804], [-157.90455600037774, 21.366725000404486], [-157.9044769998367, 21.366630000106817], [-157.90433600026972, 21.366457999877824], [-157.904358000011, 21.366426999810198], [-157.90442499995817, 21.3663370003593], [-157.90444800042272, 21.366306999972327], [-157.9045320000883, 21.366241000103244], [-157.90478399998335, 21.366046999986334], [-157.9048690003722, 21.36598199970857], [-157.90494200016713, 21.36592600012826], [-157.90516200027514, 21.36576100038883], [-157.905235999895, 21.365705999597836], [-157.90531200006296, 21.36564799965389], [-157.90554399986655, 21.365473999684347], [-157.90562099985945, 21.365417000197475], [-157.90570399970014, 21.365361000401126], [-157.90578999991385, 21.365309000272312], [-157.90586000023404, 21.365286999890458], [-157.90599400012835, 21.365249999621124], [-157.90614300009128, 21.365228000067], [-157.90634899995558, 21.365228000067], [-157.90636300019932, 21.365228000067], [-157.9065409995762, 21.3652429999535], [-157.90664199985858, 21.36525100017116], [-157.9069480001803, 21.365274999985], [-157.90705000028754, 21.365283000200964], [-157.90720400027337, 21.365287999603666], [-157.9072229996416, 21.36528900015347], [-157.90745299979537, 21.365304000033714], [-157.9076660002307, 21.36531200024805], [-157.9078210000414, 21.36531899991239], [-157.90794999991283, 21.365307000009555], [-157.9080319999286, 21.365301000057773], [-157.90817000002085, 21.36528499962743], [-157.90831099958785, 21.36525100017116], [-157.90833400005238, 21.3652429999535], [-157.90845899972587, 21.36520599967302], [-157.90862799978026, 21.36515500003984], [-157.90876800042065, 21.36509499961211], [-157.9088629999569, 21.36505599986466], [-157.90904000040723, 21.364988999716587], [-157.90954800039532, 21.364817000070172], [-157.90970400003093, 21.364778999965406], [-157.9098899998038, 21.364734999875793], [-157.91002500042134, 21.36470499999726], [-157.91004399978956, 21.364701000291866], [-157.91022600026275, 21.364672000123768], [-157.91050800029507, 21.364636999970976], [-157.91051999999064, 21.364636000253306], [-157.9108689999701, 21.364615000324772], [-157.91118899963723, 21.364613000052582], [-157.9114609996238, 21.364624000294526], [-157.9116709996861, 21.364642999949957], [-157.91196500031228, 21.36468300036127], [-157.91201399981776, 21.36469300004412], [-157.91250500008744, 21.36479199962808], [-157.9126850000125, 21.364828000296786], [-157.91276299983028, 21.364843999940486], [-157.91291299961816, 21.36487900004383], [-157.9132130000921, 21.364926999789496], [-157.9132280001607, 21.36492800034177], [-157.9134120002837, 21.364946000242213], [-157.9135600004217, 21.364949000225394], [-157.91369400031604, 21.36495200020855], [-157.9139479998609, 21.36493599974008], [-157.9139599995565, 21.365043999940283], [-157.91396499957935, 21.365096999877746], [-157.9140299998767, 21.36509900014333], [-157.91414600022765, 21.365111000063205], [-157.914199999756, 21.36511700002277], [-157.91428699979463, 21.365125999961663], [-157.91546699980242, 21.364890000265795], [-157.9167110002826, 21.36476799973509], [-157.91732800005062, 21.36457499989488], [-157.91847299989828, 21.36424600025288], [-157.91902500026734, 21.364088000017187], [-157.91931899999526, 21.363750999818727], [-157.92026200017654, 21.36277800022451], [-157.92086899989883, 21.362194999830194], [-157.9209009996859, 21.362165000268064], [-157.92104200015117, 21.362030000070792], [-157.92104299997612, 21.36199800016692], [-157.92105300002186, 21.361789999784776], [-157.92105899986964, 21.36165299976589], [-157.92149400006284, 21.36079999988657], [-157.9216050003909, 21.360580000023127], [-157.9216630001172, 21.36051499982915], [-157.9219440003246, 21.360201999585158], [-157.92203399983796, 21.360100999911694], [-157.92210400015819, 21.359930999881556], [-157.9221409999681, 21.359840000035366], [-157.92222700018183, 21.359628000091725], [-157.92223200020473, 21.359615999722685], [-157.92244700028988, 21.35929600011605], [-157.92273500016995, 21.35886800015615], [-157.9231960003024, 21.35865100001354], [-157.92338700009813, 21.35866400022005], [-157.9234990002511, 21.358671999960432], [-157.9236209995515, 21.358564999841107], [-157.9237689996895, 21.358435999906078], [-157.92369500006967, 21.358453999767654], [-157.92359700016038, 21.358460999759693], [-157.92370400029054, 21.358370999597497], [-157.92376500038986, 21.358320999855295], [-157.92427599985274, 21.357937000028503], [-157.92581099968774, 21.356783999758253], [-157.9263229998738, 21.356400999860323], [-157.9263510003612, 21.35649399971568], [-157.92643800039986, 21.356775000143497], [-157.92646699981387, 21.356869000368746], [-157.92682400018924, 21.356182999635205], [-157.92711799991707, 21.355624000327513], [-157.92719300026016, 21.35554200000724], [-157.9280469998547, 21.354624000227634], [-157.92898500001314, 21.354116999929367], [-157.93024799986154, 21.353408000249047], [-157.930813999576, 21.352872999731236], [-157.93123299987565, 21.35247800037103], [-157.93178299969657, 21.351714999910048], [-157.93182399970442, 21.351749999803182], [-157.93185999968944, 21.35178099962985], [-157.93195699977383, 21.35185000040802], [-157.93200299980458, 21.35188200001825], [-157.93214799956954, 21.351951999716427], [-157.93228900003487, 21.352021000414105], [-157.9325319997091, 21.352121999800428], [-157.93254599995282, 21.352126999652285], [-157.9327450001444, 21.352210000012523], [-157.93302200015387, 21.35082900026143], [-157.93309599977368, 21.350477999776892], [-157.93310099979655, 21.35045400004918], [-157.9331150000403, 21.35038399963557], [-157.93312099988808, 21.3503609997075], [-157.9331739995915, 21.350110999711028], [-157.93326800020117, 21.349699000158633], [-157.9333279995773, 21.349321000098975], [-157.93341499961596, 21.34893299998013], [-157.9334759997153, 21.348538000041923], [-157.93355699990616, 21.34789099977969], [-157.9335739996246, 21.34769099979325], [-157.93359000041644, 21.347516000417997], [-157.93362100037857, 21.347016000334698], [-157.9338990002129, 21.347393999644638], [-157.93403999977988, 21.34758499985717], [-157.93415299975783, 21.347750999817826], [-157.9342239999029, 21.347871999625347], [-157.93428099980434, 21.347982000352513], [-157.93433199985796, 21.348093999821522], [-157.9343760002389, 21.348211000027053], [-157.93445700042975, 21.34847000004262], [-157.93449400023968, 21.34861099998149], [-157.93450299956217, 21.3486530002397], [-157.93454799976803, 21.348856000062987], [-157.93459499962367, 21.349113999952028], [-157.93475000033274, 21.34908800035349], [-157.93478799996757, 21.349081999737532], [-157.93495000034923, 21.349048999691995], [-157.93521700031292, 21.349004000074338], [-157.93537299994856, 21.348979000280757], [-157.93535799987993, 21.348923000058367], [-157.9353550004052, 21.348905999687815], [-157.93534500035943, 21.34884799978677], [-157.9353329997656, 21.348682000231673], [-157.93532799974273, 21.348607999663763], [-157.93541599960622, 21.348515999651898], [-157.93544999994145, 21.34848099982318], [-157.93565499998087, 21.34828999994143], [-157.93569400033894, 21.348255000058742], [-157.93579100042328, 21.348171999968912], [-157.9358259996851, 21.34814100021565], [-157.9359310001654, 21.34804999974153], [-157.9359670001504, 21.348019999793507], [-157.93609299964876, 21.34790900009975], [-157.93623699958883, 21.34778499998821], [-157.93647199976547, 21.347578000182295], [-157.93659800016215, 21.347467999988673], [-157.93671799981274, 21.347361999891337], [-157.93686799960057, 21.347232000298785], [-157.9370810000359, 21.347045999651506], [-157.93720300023463, 21.346941999762493], [-157.93721900012818, 21.346928000351042], [-157.9372679996337, 21.346887000274076], [-157.93728500025043, 21.34687399985956], [-157.93732500043336, 21.3468400003146], [-157.93744599990887, 21.346737999959007], [-157.93748699991679, 21.346705000222492], [-157.9375580000619, 21.346641000408123], [-157.9377709995989, 21.34645300016427], [-157.93784299956894, 21.346390999924175], [-157.9378529996147, 21.346380999829023], [-157.93788699994985, 21.34635100037614], [-157.9378979998205, 21.346342000120742], [-157.93795899991989, 21.34628700040722], [-157.9381430000429, 21.346122000306163], [-157.93820499996718, 21.346068000354474], [-157.93831899977, 21.34596799998853], [-157.93866199990165, 21.345669999849036], [-157.9387770004277, 21.345570999896072], [-157.93884799967452, 21.345517999589525], [-157.93893300006334, 21.345456999639218], [-157.9390719999805, 21.345377999871623], [-157.93914899997338, 21.3453349996625], [-157.93920400022495, 21.345303000296475], [-157.93932100040084, 21.345237000170048], [-157.9393730002794, 21.345214000271138], [-157.93943199983062, 21.345188999831233], [-157.93948100023442, 21.345172999714823], [-157.93962099997648, 21.34512899959482], [-157.93963100002222, 21.34512600004254], [-157.93968200007586, 21.345113000308547], [-157.9398679998487, 21.345007000181848], [-157.939973000329, 21.34494900041161], [-157.94015200042915, 21.344847000413804], [-157.94042699989043, 21.344690000032408], [-157.94061400038652, 21.344583999599916], [-157.94063000028, 21.34457599992725], [-157.94071899996848, 21.34455000036057], [-157.9407640001743, 21.344531999628092], [-157.94086200008363, 21.34448700029732], [-157.94092099963484, 21.344454000054156], [-157.94094099972634, 21.34444800008519], [-157.9410300003131, 21.344394000353642], [-157.94106700012304, 21.34437300003431], [-157.94114499994083, 21.34431400015697], [-157.94127399981227, 21.344196000331053], [-157.94133900010962, 21.34412799999118], [-157.94143399964585, 21.344003000170016], [-157.9414870002476, 21.343919000324057], [-157.9416269999897, 21.343668000358125], [-157.9418270000062, 21.34328899994542], [-157.94190499982403, 21.343142999750217], [-157.94200299973332, 21.34298000002534], [-157.94206100035797, 21.342893999861342], [-157.94213599980273, 21.342794999707394], [-157.94220799977276, 21.342709000271626], [-157.94235900028377, 21.342545000195916], [-157.94252599979004, 21.342387999859785], [-157.94271099973798, 21.34222699987341], [-157.94287800014254, 21.342083999908837], [-157.9428890000132, 21.342075000228192], [-157.94317500024346, 21.34181900024938], [-157.94383899986718, 21.341228000294308], [-157.9439789996093, 21.341112000251407], [-157.94415699988454, 21.3409639998038], [-157.94433599998467, 21.34081899968402], [-157.94505300021018, 21.340068999805286], [-157.9449929999357, 21.339962000329937], [-157.9450349997685, 21.339916999596717], [-157.9451489995713, 21.339795000030925], [-157.9452130000437, 21.3397270001603], [-157.9456480002369, 21.339296000284147], [-157.94575500036703, 21.339197000211367], [-157.94590799962958, 21.339101999639166], [-157.94607500003417, 21.339027000200925], [-157.94621300012642, 21.33897400003922], [-157.94641099959483, 21.338883999626105], [-157.94671600009167, 21.33877800001696], [-157.94689900038978, 21.338697000208768], [-157.94706699972096, 21.338628999829044], [-157.9472049998132, 21.338557999731197], [-157.94735700014917, 21.338462999581832], [-157.94749500024145, 21.3383619999897], [-157.94763199961048, 21.33822800035724], [-157.94773899974058, 21.33807899961058], [-157.9478450000458, 21.3379150002142], [-157.94815100036752, 21.337317000259837], [-157.94848899957802, 21.33665900002256], [-157.9483999998896, 21.336185999864664], [-157.94802199959784, 21.334160999802766], [-157.94789699992435, 21.33348599998533], [-157.94780900006077, 21.3330239997406], [-157.94754499957182, 21.331638000318293], [-157.9474569997083, 21.331177000057398], [-157.94738300008842, 21.330788999628204], [-157.94716200015552, 21.329627999584797], [-157.9470890003606, 21.329241000039257], [-157.94695499956794, 21.328538000357614], [-157.94698999972806, 21.32786099983761], [-157.94703199956083, 21.327067000134207], [-157.94704499997962, 21.32683600012935], [-157.9471610003306, 21.32462500009752], [-157.94720999983608, 21.3236860001421], [-157.9472249999047, 21.32339399991622], [-157.94728400035422, 21.32229500035543], [-157.9472969998747, 21.322023000039064], [-157.94734000043073, 21.32120900027762], [-157.94735499960103, 21.32093799963826], [-157.94738999976116, 21.320653999944415], [-157.94749699989126, 21.319803000100322], [-157.94753299987627, 21.31951999990972], [-157.94758300010497, 21.31910299964902], [-157.94773600026585, 21.317853000165446], [-157.94774799996142, 21.317756999963215], [-157.9477870003195, 21.31743700023054], [-157.94779700036523, 21.31732800007084], [-157.9478299999772, 21.317004000070348], [-157.94784099984784, 21.316895999632365], [-157.9478860000537, 21.31662200010189], [-157.94791100016803, 21.31646699973484], [-157.94822199961433, 21.31537399968791], [-157.95137000000048, 21.309551000161676], [-157.95141699985615, 21.30946300030401], [-157.95311999992063, 21.30631600035604], [-157.9548690000159, 21.303080000314583], [-157.95705499995412, 21.29933699970745], [-157.95726800038946, 21.297971000418347], [-157.95991600028506, 21.281026000246833], [-157.9607990001919, 21.27537800031067], [-157.9613499998377, 21.271850000194522], [-157.9630029996735, 21.261265000175353]]], [[[-161.98755499957423, 23.06992400018331], [-161.98724099975487, 23.056732999960293], [-161.98544499980397, 23.041131000028393], [-161.97606099981837, 23.025563999672425], [-161.95517100038137, 23.009168999991388], [-161.93189699974107, 23.0053129999315], [-161.93114100005585, 23.00539499987951], [-161.8942190004068, 23.00942999990811], [-161.87500000034893, 23.020058000163257], [-161.87500000034893, 23.019893999853586], [-161.87500000034893, 23.019404999783067], [-161.87500000034893, 23.01924199991668], [-161.871445000257, 23.023476000338675], [-161.86857999972813, 23.0277039996473], [-161.86645599971413, 23.032816000193716], [-161.8654730002482, 23.03401000036721], [-161.86334199966322, 23.0366020001665], [-161.8607659997376, 23.04437799962108], [-161.85892499958086, 23.05259400038474], [-161.85805900029078, 23.060806000279236], [-161.858883999573, 23.0681219999195], [-161.85995599962573, 23.07565900006846], [-161.8629879996609, 23.085138999755024], [-161.8630019999046, 23.08518300040926], [-161.8677060000421, 23.091150000277466], [-161.87043900032654, 23.095352000295023], [-161.8736250003475, 23.096888999727657], [-161.87500000034893, 23.097547000244276], [-161.87500000034893, 23.09836400001862], [-161.87500000034893, 23.10081900014574], [-161.87500000034893, 23.101636999649145], [-161.88757500037832, 23.110384000256357], [-161.91943999971244, 23.11398800013971], [-161.9311179995913, 23.113019000226142], [-161.94466199974127, 23.111896999589206], [-161.96544900014447, 23.10498699960084], [-161.98252400009687, 23.091274999644508], [-161.98755499957423, 23.06992400018331]]], [[[-164.76481000044492, 23.581721000093935], [-164.76491099982894, 23.57495099969892], [-164.764730000079, 23.566379999711543], [-164.76261000026298, 23.558509000306866], [-164.75907799973731, 23.552720999999817], [-164.75755299994808, 23.550222000359618], [-164.7530560003981, 23.545314000049533], [-164.75000000007347, 23.5410690000149], [-164.75000000007347, 23.540083999997112], [-164.75000000007347, 23.537129999977466], [-164.75000000007347, 23.536145999939215], [-164.73936499993502, 23.530162999985695], [-164.72304099964495, 23.52175700015151], [-164.70130000008814, 23.517001999949585], [-164.69631499974324, 23.517046999646936], [-164.6852179996474, 23.517149000331717], [-164.67332200020863, 23.521084999876138], [-164.66388299997146, 23.52702500016725], [-164.65402399960973, 23.53522100021523], [-164.64534799962877, 23.55151399968555], [-164.64001900022564, 23.576110999661488], [-164.64460899966198, 23.594540000245736], [-164.65408300005927, 23.607069000296246], [-164.66876299983608, 23.616623999941762], [-164.68263000002625, 23.622805999883496], [-164.68889400011312, 23.623424999791787], [-164.69738099994817, 23.62334699986734], [-164.7023460002016, 23.623302000364667], [-164.70979299977097, 23.623234000263754], [-164.72462999990663, 23.62106999987177], [-164.74006000041922, 23.614394000211917], [-164.75000000007347, 23.605134999622756], [-164.75379199999185, 23.6035170002536], [-164.75546300026926, 23.60169200023869], [-164.75809199989828, 23.59895199990154], [-164.76025400044543, 23.595095999771043], [-164.76115099969766, 23.593498999636463], [-164.76344999961384, 23.586702000202163], [-164.76481000044492, 23.581721000093935]]], [[[-166.3865320000115, 23.84636299976974], [-166.38447599976962, 23.83199199966405], [-166.38290099975163, 23.829656999635162], [-166.37883900039486, 23.823634999611734], [-166.3749999997225, 23.82164099980926], [-166.3749999997225, 23.822236999853118], [-166.3749999997225, 23.824027000185083], [-166.3749999997225, 23.824624000043034], [-166.36922899955513, 23.815535999981147], [-166.3572710001921, 23.806636000082516], [-166.3563420002545, 23.805944999947908], [-166.33682199989772, 23.799639999747818], [-166.32257200029125, 23.799052000182538], [-166.313574000095, 23.803736000183363], [-166.31915199991855, 23.791047000100022], [-166.3229580000806, 23.774398999830932], [-166.32374200025325, 23.770974000085104], [-166.3201629998719, 23.758483999776782], [-166.31669599964354, 23.749999999703903], [-166.3172970004164, 23.749999999703903], [-166.31910000004, 23.749999999703903], [-166.31970099991452, 23.749999999703903], [-166.31582299978248, 23.74012000020395], [-166.31108900040604, 23.73601699981619], [-166.3026069996955, 23.72866599972289], [-166.28599000040083, 23.718120000330124], [-166.26682300022145, 23.713440999860865], [-166.26558899978704, 23.713139999720173], [-166.2500000001641, 23.713897999834135], [-166.2500000001641, 23.714751999772183], [-166.2500000001641, 23.717315999942024], [-166.2500000001641, 23.718170999791692], [-166.2412220000759, 23.719672000169904], [-166.23149599978356, 23.723608999621828], [-166.2267819996003, 23.727443999604066], [-166.2261730002282, 23.723460000338008], [-166.22490700000668, 23.715168999844337], [-166.22282700037366, 23.70487800009234], [-166.2148109998185, 23.696685999962916], [-166.20541500013732, 23.69160099984303], [-166.21200100043947, 23.685529999629832], [-166.2239639998254, 23.67253299976837], [-166.22987100043522, 23.65438200034368], [-166.23019899959993, 23.652637999594393], [-166.2322849999791, 23.641580000006392], [-166.2287809999408, 23.63175700009204], [-166.22484000005954, 23.62499999969317], [-166.22564400032365, 23.62499999969317], [-166.22805600021772, 23.62499999969317], [-166.22886100030675, 23.62499999969317], [-166.2242380003601, 23.614791000059075], [-166.2148950003824, 23.60417099969416], [-166.21105800025816, 23.599809999814237], [-166.1944090002781, 23.589531000148188], [-166.17221799956118, 23.58708999999896], [-166.1511549998718, 23.590463999821914], [-166.14521899984803, 23.594216999990106], [-166.1313130001981, 23.60301100000642], [-166.1249999997074, 23.609281000279278], [-166.1249999997074, 23.60884699982384], [-166.1249999997074, 23.607545999823476], [-166.1249999997074, 23.607113000321863], [-166.12143399974482, 23.60883799975178], [-166.12058400034826, 23.609279000087014], [-166.11678099966093, 23.611253999751284], [-166.11262600041775, 23.616624999981852], [-166.11179399966622, 23.62020799995826], [-166.11068200032884, 23.62499999969317], [-166.11197199994143, 23.62499999969317], [-166.11584500005065, 23.62499999969317], [-166.1171360003865, 23.62499999969317], [-166.11394299979455, 23.634559999790053], [-166.11313500023078, 23.63698199961414], [-166.11384200041053, 23.652336000257517], [-166.1175289998486, 23.66408500023783], [-166.1176900004054, 23.66459599984575], [-166.1249999997074, 23.67073199993603], [-166.1249999997074, 23.671401999879073], [-166.1249999997074, 23.67341199966858], [-166.1249999997074, 23.67408300028288], [-166.12792899981042, 23.67761299983801], [-166.13074599976042, 23.68100799965503], [-166.1329540003383, 23.684703000354542], [-166.1287869996029, 23.687549999994182], [-166.1249999997074, 23.690139000051655], [-166.1249999997074, 23.689330000116673], [-166.1249999997074, 23.68690400018227], [-166.1249999997074, 23.686096000282596], [-166.11445199960758, 23.696227000069253], [-166.11349400025597, 23.69714799980677], [-166.10588100010693, 23.71353599992774], [-166.104626999581, 23.728929000082847], [-166.1060400001156, 23.737849999703172], [-166.1067799999073, 23.74252199971326], [-166.11325999990427, 23.749999999703903], [-166.11352299966995, 23.749999999703903], [-166.1143129996904, 23.749999999703903], [-166.11457700017937, 23.749999999703903], [-166.1166619998353, 23.754221999899023], [-166.1166340002462, 23.75480000023607], [-166.11651200004744, 23.75740099959387], [-166.1168839995931, 23.76170500007307], [-166.11849899979404, 23.766668999806082], [-166.12118400039793, 23.769244999808723], [-166.1249999997074, 23.772906999793253], [-166.1249999997074, 23.771547999662502], [-166.1249999997074, 23.767472000115813], [-166.1249999997074, 23.766113999653548], [-166.1293580002385, 23.770173000211233], [-166.13678700026455, 23.778514000254265], [-166.14259199986878, 23.78437099969253], [-166.143030000435, 23.784457999911456], [-166.14817100041552, 23.785478999688607], [-166.1502460000257, 23.79972400040778], [-166.1534780000774, 23.81894100031933], [-166.1648560003806, 23.83540699964397], [-166.16973899971998, 23.837421999671847], [-166.16834000032745, 23.840143000102298], [-166.165282000353, 23.84964000037082], [-166.16483899976387, 23.851018000341995], [-166.16552199965417, 23.864816000113255], [-166.16830299961916, 23.875000000152582], [-166.16782899996625, 23.875000000152582], [-166.16640899975897, 23.875000000152582], [-166.16593599993098, 23.875000000152582], [-166.17044699972465, 23.88845200011753], [-166.17517799962633, 23.893968000246115], [-166.18234700025968, 23.902325000345403], [-166.20427600013744, 23.917214000249842], [-166.22927600040845, 23.927006999788286], [-166.23306400012888, 23.928491000328755], [-166.2500000001641, 23.932430000158202], [-166.2500000001641, 23.92885999964025], [-166.26473000016964, 23.92852100029881], [-166.27854399975806, 23.92594000026184], [-166.2880099997594, 23.924172000171797], [-166.28836600030988, 23.92897699964235], [-166.30707200035675, 23.92488299985407], [-166.32474300016085, 23.91795400022998], [-166.33005200037087, 23.908292000407087], [-166.3513710001533, 23.90285800002026], [-166.35202100043162, 23.902462999684687], [-166.36561999993486, 23.89420700032024], [-166.3749999997225, 23.8853819997225], [-166.3749999997225, 23.8859589997872], [-166.3749999997225, 23.887690000147593], [-166.3749999997225, 23.888266999775333], [-166.37757300017338, 23.88624600025472], [-166.38046299991834, 23.883977999591764], [-166.38219699994494, 23.878195999956063], [-166.3822299995569, 23.878096000247286], [-166.3832870004393, 23.875000000152582], [-166.38192800033144, 23.875000000152582], [-166.38402899988085, 23.86562299969716], [-166.38428400014897, 23.863656999738136], [-166.3865320000115, 23.84636299976974]]], [[[-168.05821499976204, 25.000000000388827], [-168.05838700018947, 24.98788499982982], [-168.05034499969503, 24.974487000398796], [-168.03775100029736, 24.95971500026683], [-168.02359000037933, 24.954477000150355], [-168.00000000026984, 24.95070499993942], [-168.00000000026984, 24.950184999599255], [-168.00000000026984, 24.94862600025957], [-168.00000000026984, 24.948107000298712], [-167.9835370000626, 24.94926500038517], [-167.9825219999113, 24.949604000390597], [-167.96676699970868, 24.954887000062847], [-167.95858700002032, 24.961381000040546], [-167.95368500041442, 24.964386000387773], [-167.94897000040623, 24.97363999975033], [-167.94728700043325, 24.981406000326235], [-167.946744000285, 24.98288499999596], [-167.94420400034443, 24.98980700007614], [-167.94459299960855, 25.000000000388827], [-167.944941999588, 25.000000000388827], [-167.9459890004247, 25.000000000388827], [-167.94633800040415, 25.000000000388827], [-167.94788199956164, 25.00948600001397], [-167.9499119998643, 25.015733999956208], [-167.95244900033015, 25.023537999731143], [-167.9620080002179, 25.033215999874802], [-167.9725270000054, 25.04122399975076], [-167.98472399974307, 25.047039000036413], [-167.98893999998396, 25.04904900028406], [-168.00000000026984, 25.052240000123962], [-168.00000000026984, 25.050253000204016], [-168.0016870004408, 25.050249999661247], [-168.00644199973362, 25.050033000084955], [-168.00845399959462, 25.049928999758066], [-168.0096970002499, 25.04981899986408], [-168.01320399976288, 25.049189000049545], [-168.01595999961356, 25.04856099982843], [-168.02222600024854, 25.04668000002656], [-168.0269899997622, 25.044801999714437], [-168.030000999881, 25.043136000321887], [-168.03552299962803, 25.040012000210847], [-168.04205200002878, 25.035432000083635], [-168.04657700006612, 25.031271999974795], [-168.05060699963587, 25.02586799992353], [-168.05263100009074, 25.021298999799974], [-168.0546630000432, 25.01527700027663], [-168.05618700000753, 25.010502000334743], [-168.05721100037968, 25.005935000137736], [-168.05797700011064, 25.0026129996809], [-168.05821499976204, 25.000000000388827]]], [[[-170.6846310003791, 25.506313000089975], [-170.6846310003791, 25.504339000039348], [-170.6844179999438, 25.502269999650046], [-170.6841280004139, 25.499938999600833], [-170.6837009997183, 25.497739999900077], [-170.6832429999589, 25.495635999648396], [-170.68260199990138, 25.4933070001694], [-170.68196099984388, 25.491235999922097], [-170.68127399975563, 25.489456000365756], [-170.68049600032907, 25.487644000264126], [-170.67956499984336, 25.485540000011746], [-170.67846699985134, 25.483468999722078], [-170.6770330002987, 25.48107500004905], [-170.67546099975547, 25.478809000019048], [-170.67414900040154, 25.477029999630474], [-170.67218000019827, 25.474698999823847], [-170.67036400015584, 25.472693000218293], [-170.66822800044633, 25.470653999840675], [-170.66659599962864, 25.469198000181333], [-170.66441399988835, 25.46744900020711], [-170.66220100018595, 25.465832000286976], [-170.65945399965779, 25.46411699999527], [-170.6569980002811, 25.462724999650067], [-170.65446500001323, 25.461462000365227], [-170.65203899987546, 25.46039400001155], [-170.6495509998134, 25.45935800027766], [-170.64691200013866, 25.45848499977667], [-170.64469900043622, 25.4578380002845], [-170.64209000000037, 25.457189999667392], [-170.63952599977034, 25.456704999635043], [-170.6366729998353, 25.456218999993542], [-170.6341859995982, 25.455992000066065], [-170.63157700006062, 25.45579700021174], [-170.6297300000561, 25.455731999919735], [-170.62773099971562, 25.45576499971047], [-170.62551899983805, 25.4558299999847], [-170.62373399975783, 25.455926999879363], [-170.62127699965794, 25.456218999993542], [-170.61935400038374, 25.456511000210416], [-170.6167909999786, 25.456962999949067], [-170.6140440003488, 25.457546000042743], [-170.61108400028365, 25.458354999627648], [-170.60865800014588, 25.459164000263026], [-170.6058350003481, 25.460232000177953], [-170.60295099955263, 25.461494000162727], [-170.60076899981232, 25.46259500002622], [-170.59849599983542, 25.46389000036671], [-170.59614599986566, 25.4653129997905], [-170.5937199997279, 25.467062000000258], [-170.59164400029283, 25.468614999771344], [-170.58969099998308, 25.470361999882524], [-170.58787499994068, 25.472013999849388], [-170.58612099982258, 25.473826000346737], [-170.58438099994817, 25.475799999667657], [-170.58277900016603, 25.477839000382605], [-170.58113100035308, 25.480136999745735], [-170.5794979997105, 25.482758000384713], [-170.57817100028794, 25.485118999951037], [-170.5771329996721, 25.487319999992806], [-170.57617199994746, 25.48964900036336], [-170.57518000026067, 25.492561000037522], [-170.57446300003517, 25.495181999770132], [-170.57385299993982, 25.49803000036804], [-170.57350200031053, 25.500552999953705], [-170.57325700008815, 25.503498000142216], [-170.57315099978294, 25.505115999860404], [-170.5731809999202, 25.50757399994713], [-170.57331900001245, 25.510357000261585], [-170.57371499984757, 25.513236999988592], [-170.57424899977494, 25.51630999966424], [-170.57515000012344, 25.519577000228843], [-170.57632500010834, 25.522974000347222], [-170.57734699993236, 25.52543299990598], [-170.57856799994798, 25.527987999945598], [-170.58027699986025, 25.530996000340686], [-170.58201599990977, 25.53368200037003], [-170.58438099994817, 25.536721999855914], [-170.5864870004188, 25.539148000097775], [-170.58851599999818, 25.5412179996175], [-170.59136999975811, 25.543709000234035], [-170.59411599956303, 25.545939999865375], [-170.59652699963218, 25.54762299962068], [-170.59913600006803, 25.54923799973098], [-170.6024929997932, 25.55101800030721], [-170.60530100042072, 25.552343000236956], [-170.60865800014588, 25.553636999824885], [-170.6115720001803, 25.554606999829126], [-170.6149599998676, 25.555480999675208], [-170.6183169995928, 25.556192000283165], [-170.6217799996232, 25.556709000206368], [-170.62533600043827, 25.557033999643156], [-170.62818900037334, 25.55709800017643], [-170.63082899987302, 25.55713099967826], [-170.63375899980093, 25.55693600027986], [-170.63600199964057, 25.556741999815344], [-170.63925200013395, 25.55625699971109], [-170.64312699989298, 25.555480999675208], [-170.64744600006605, 25.554284999729155], [-170.65048200029918, 25.55321700038664], [-170.6536409996576, 25.551923999607304], [-170.65675399988362, 25.55043600002606], [-170.65992700038413, 25.548656999850714], [-170.6634520003388, 25.546359999679346], [-170.66653399970437, 25.54394700003759], [-170.6675570002516, 25.543095000186952], [-170.66937300029403, 25.541444999852246], [-170.67132599970546, 25.53943800022907], [-170.67289700042375, 25.537661000207095], [-170.6745000000308, 25.535653999663847], [-170.67607099985082, 25.53358500000259], [-170.67742900013383, 25.531546000371115], [-170.67874200021097, 25.529248999889045], [-170.67985500027157, 25.527147000352958], [-170.68084699995836, 25.524980999846523], [-170.6817020002761, 25.522877000238775], [-170.6824489997405, 25.520645000061318], [-170.68316699979093, 25.51844600013744], [-170.6835939995882, 25.516244999660014], [-170.68409699955342, 25.51372199978769], [-170.68438699998165, 25.511425000244166], [-170.6846010002419, 25.50883699964599], [-170.6846310003791, 25.506313000089975]]], [[[-171.8096290003481, 25.781350000316635], [-171.808087999767, 25.772864999654253], [-171.80704699967643, 25.767133000360825], [-171.80044600020398, 25.750000000238543], [-171.80062699995395, 25.750000000238543], [-171.80117000010216, 25.750000000238543], [-171.80135199967702, 25.750000000238543], [-171.79702699965623, 25.74053900017673], [-171.79474100015884, 25.738569000148296], [-171.78286699956305, 25.728337999911016], [-171.77015000014174, 25.718199000145816], [-171.76257299997772, 25.714761000163403], [-171.75528000039415, 25.711453000386054], [-171.74999999959812, 25.710269000227903], [-171.74999999959812, 25.710052999601064], [-171.74999999959812, 25.709405999817776], [-171.74999999959812, 25.709190999647785], [-171.73749099969095, 25.70653299960347], [-171.73140300022948, 25.707478999796646], [-171.71843200036494, 25.709495000011632], [-171.69984500014374, 25.716858000077423], [-171.68686000003547, 25.72787899975007], [-171.68294799956823, 25.7333140003205], [-171.68047499957478, 25.736751999650387], [-171.67407099974582, 25.750000000238543], [-171.67479200016928, 25.750000000238543], [-171.67695800001604, 25.750000000238543], [-171.67768000026442, 25.750000000238543], [-171.66902500019987, 25.7776870002153], [-171.667922000185, 25.78121699972463], [-171.66936199958545, 25.793907999602308], [-171.67662800030317, 25.810906999901157], [-171.68827600004482, 25.823767999747982], [-171.71062300039733, 25.833211000083363], [-171.7210540003213, 25.83392899976418], [-171.7315229998801, 25.834649999599463], [-171.74999999959812, 25.833466999994037], [-171.74999999959812, 25.834361999609012], [-171.74999999959812, 25.83704800001939], [-171.74999999959812, 25.837944000168044], [-171.76811999983912, 25.833680999740768], [-171.7719069997346, 25.831396000391393], [-171.7728909999238, 25.830800999697882], [-171.78697800022198, 25.822300999733635], [-171.80014800027814, 25.805822000013336], [-171.80646400024355, 25.793360000114884], [-171.8096290003481, 25.781350000316635]]], [[[-174.06737399997928, 26.059614000001012], [-174.06745699981994, 26.052483999893994], [-174.06594399972627, 26.03942800039758], [-174.0598839998539, 26.022658999992572], [-174.05918300042023, 26.02071899994017], [-174.0460929998317, 26.00230599962011], [-174.0431090003754, 26.00000000023705], [-174.04199399976665, 26.00000000023705], [-174.0386520001101, 26.00000000023705], [-174.03753800022457, 26.00000000023705], [-174.03087400010463, 25.995665000273114], [-174.02720500020993, 25.99327799993916], [-174.00793300044856, 25.990507999847814], [-174.00640399956305, 25.9902889996158], [-173.9999999997341, 25.990212000329528], [-173.9999999997341, 25.99074499966124], [-173.9999999997341, 25.99234400010883], [-173.9999999997341, 25.992877999890172], [-173.99594199967694, 25.994002000376295], [-173.99183000009148, 25.99514300032008], [-173.98452999993685, 25.99762200024064], [-173.98395900019955, 25.997940999677922], [-173.9802869999318, 26.00000000023705], [-173.97963800037667, 26.00000000023705], [-173.97769299956454, 26.00000000023705], [-173.9770449998343, 26.00000000023705], [-173.96492199971652, 26.006639000135774], [-173.94307499985453, 26.010655000011532], [-173.94276000021023, 26.01071400027458], [-173.92596800011503, 26.01962700004632], [-173.9131450003885, 26.035997999613674], [-173.90335799999676, 26.06005599983943], [-173.90382900017497, 26.06676000040227], [-173.90850800019814, 26.08188200036092], [-173.91342400004777, 26.09939899988206], [-173.91398399991442, 26.100526000157956], [-173.91857000005115, 26.109741000399108], [-173.92604900030588, 26.117236000175314], [-173.92908800001373, 26.120139000311408], [-173.93890100034477, 26.124999999746283], [-173.93610500031113, 26.124999999746283], [-173.95025199998545, 26.13315199999151], [-173.95791600018816, 26.135689999703974], [-173.9695510004093, 26.135382999634558], [-173.98142799958148, 26.133224000360322], [-173.99188000032018, 26.136607999879963], [-173.9999999997341, 26.13687999971098], [-173.9999999997341, 26.13549600021894], [-174.00069199984523, 26.13569299975582], [-174.0027690000035, 26.136284999610492], [-174.00346199993956, 26.136483000246187], [-174.00711400011585, 26.137053000006212], [-174.01085400015566, 26.136599999804197], [-174.0109780000042, 26.136585999670253], [-174.01889999994972, 26.133996000046768], [-174.03111400030411, 26.129069999972867], [-174.03177700010295, 26.128691999622248], [-174.0382639997726, 26.124999999746283], [-174.03793599970953, 26.124999999746283], [-174.03695200041867, 26.124999999746283], [-174.0366240003556, 26.124999999746283], [-174.04072500007047, 26.122601999674767], [-174.04962000033447, 26.11657799994029], [-174.05246900007154, 26.112987000064127], [-174.05479099955394, 26.10773700031373], [-174.05558300012248, 26.105252000214072], [-174.05912300014577, 26.094150999878625], [-174.0615350000398, 26.08200799996624], [-174.06737399997928, 26.059614000001012]]]]}, "properties": {"id": "covered-us-hi-honolulu", "status": "covered", "jurisdiction": "Honolulu", "country_id": "us", "state_id": "hi", "area_type": "city", "note": "Covered by public tree inventory for Honolulu; geometry from official jurisdiction boundary."}}]}