{"type": "FeatureCollection", "features": [{"type": "Feature", "geometry": {"type": "Polygon", "coordinates": [[[-63.8828829032849, 44.6884817716383], [-63.8819479169743, 44.6887915436968], [-63.8817634587105, 44.6888610251063], [-63.8817774859036, 44.6888653449], [-63.8818378850301, 44.6888839479818], [-63.8821264984595, 44.6889834480879], [-63.8822030178537, 44.6890071902942], [-63.8822040805607, 44.6890074904566], [-63.8854104777285, 44.6896246049457], [-63.8870839861022, 44.6900613188649], [-63.8878131567032, 44.690230959613], [-63.8884460611433, 44.6903937224801], [-63.888660436001, 44.6904377865154], [-63.8886931858814, 44.6904832644375], [-63.8903450268904, 44.6908972324586], [-63.8908470243358, 44.6895480259992], [-63.8918791248169, 44.6871771329814], [-63.8938981737579, 44.6850729031375], [-63.8957905323961, 44.6830763394398], [-63.8991222256814, 44.6788275333665], [-63.9012743896761, 44.6729415753474], [-63.9046933749525, 44.6702468144386], [-63.9056427073583, 44.6694770818769], [-63.9062303286233, 44.6688016773173], [-63.9072968336814, 44.6673297701439], [-63.9080580202391, 44.6640919568683], [-63.9093246232301, 44.6617647641305], [-63.9128922455501, 44.6604405455173], [-63.9210193596211, 44.6597655225575], [-63.9251616620761, 44.6585281761347], [-63.9277637257213, 44.6550652423982], [-63.9332145869827, 44.6514545258492], [-63.9413480853804, 44.6464737790266], [-63.9488050499612, 44.6419060558251], [-63.9514238222707, 44.6354859550191], [-63.9475193811265, 44.6249840894333], [-63.9993850558512, 44.624842492048], [-63.9828199603153, 44.631590206698], [-63.9621980558883, 44.6399213031775], [-63.9617223215886, 44.6445760280968], [-63.9609822831693, 44.6520427979986], [-63.9612326759783, 44.6568578552728], [-63.9612661184597, 44.657589295273], [-63.9612724156499, 44.6579703458666], [-63.9624185177304, 44.6614058773698], [-63.9636874931721, 44.6632244774787], [-63.9654473152716, 44.6675846880621], [-63.9661924147991, 44.6700022071746], [-63.9663865380371, 44.6714263688158], [-63.9668445440847, 44.6729952720072], [-63.9668453885011, 44.6731597403965], [-63.9668525337009, 44.6731797558374], [-63.9668445072538, 44.6732281679809], [-63.9669233595728, 44.6731949628918], [-63.9670459302017, 44.6733423200316], [-63.9669678612136, 44.6733777353382], [-63.9669881891902, 44.6734089817152], [-63.9671070111495, 44.6736020882057], [-63.9671217093842, 44.6736829484708], [-63.9672087552369, 44.6738989636893], [-63.9672234920991, 44.673982204381], [-63.9672444686593, 44.6740391924945], [-63.9672828878074, 44.6741412892971], [-63.9673136784621, 44.6741862842994], [-63.9671485779943, 44.6742948679125], [-63.9674511000393, 44.6746210072003], [-63.9674521699328, 44.674685309598], [-63.9674435443094, 44.6747687491047], [-63.9674081758401, 44.6748500331823], [-63.9673629142245, 44.6749385470661], [-63.9673246055692, 44.6750436740158], [-63.9673228520577, 44.6751389652313], [-63.9673248337412, 44.675258043737], [-63.9673863000663, 44.6753408896182], [-63.9674309589123, 44.6754167316542], [-63.9679692141592, 44.6752644923705], [-63.967977436439, 44.6753573168403], [-63.9679821220515, 44.675438262171], [-63.9678554074941, 44.6754464815179], [-63.9678602898377, 44.6755393338031], [-63.9678718493588, 44.6756321297259], [-63.9678735148353, 44.6757321553213], [-63.967878756505, 44.6758464423345], [-63.9678871692277, 44.6761512534451], [-63.9678892236747, 44.6764751746566], [-63.9678728761332, 44.6768969087485], [-63.9678608261319, 44.6771756919766], [-63.9678389207137, 44.6774640873605], [-63.9677860153334, 44.6778956589137], [-63.9677230551101, 44.6783249334617], [-63.9676835876281, 44.6785610752656], [-63.9676445154048, 44.6788210333903], [-63.9675987669023, 44.6790810471977], [-63.9675604869931, 44.6793886358216], [-63.9675477605605, 44.6796269335317], [-63.9675619377723, 44.6798769122503], [-63.9676175955907, 44.6802122882427], [-63.9676816849963, 44.680452316099], [-63.9678039484014, 44.6807775999583], [-63.9679662694817, 44.6811025434644], [-63.9681205686064, 44.6813465705392], [-63.9682639406241, 44.6815359070079], [-63.9683832737248, 44.6816849540793], [-63.9685294700457, 44.6818433012024], [-63.9686414944532, 44.6819543001623], [-63.9688346636803, 44.6821265399691], [-63.9690918953636, 44.6823363454047], [-63.969325165385, 44.6825106254084], [-63.9695442914323, 44.6826373878181], [-63.9698273577648, 44.6827945711601], [-63.9700932986148, 44.6829256985335], [-63.9703757729576, 44.6830471568347], [-63.9707520341109, 44.6831868729744], [-63.9709936575662, 44.6832610396329], [-63.9712887703067, 44.6833395142667], [-63.9717345421984, 44.6834429065822], [-63.9729477538206, 44.6837184047692], [-63.9731890619671, 44.6837735138299], [-63.9733635264734, 44.6838244278542], [-63.973638578037, 44.6839006860762], [-63.9737931718092, 44.683961296716], [-63.9740485942855, 44.6840615397805], [-63.9741697285083, 44.6841176723463], [-63.9730390379248, 44.685182490163], [-63.9729465626545, 44.6852428261046], [-63.9728208631934, 44.6853129708927], [-63.9726716745843, 44.685376171193], [-63.9725290050492, 44.6854297879913], [-63.9702522007071, 44.6862447068881], [-63.9686325714875, 44.6866276499076], [-63.965243451601, 44.6874209332909], [-63.9634108039798, 44.6878484754819], [-63.9632182788447, 44.6879167931154], [-63.9635596278729, 44.6883664730184], [-63.9636107312328, 44.6884279705406], [-63.963756498159, 44.6885601267979], [-63.9637990100315, 44.6887074442249], [-63.9637479623671, 44.6888507889056], [-63.9636757692593, 44.689074831516], [-63.963635437598, 44.689313825737], [-63.9636525037918, 44.6895375798081], [-63.9640354511058, 44.6898773390189], [-63.9641242585548, 44.6901047745377], [-63.9640166331973, 44.6903800775534], [-63.9637493224165, 44.6906910260241], [-63.963736140538, 44.6908626338019], [-63.9639684610401, 44.6913408619509], [-63.9639411513572, 44.6916269191055], [-63.9641389585861, 44.6919568084656], [-63.9642406146386, 44.692287509532], [-63.9644380472701, 44.6925945350373], [-63.9647819942261, 44.6930375193156], [-63.965169656797, 44.6932171722087], [-63.9655884253313, 44.6933393969585], [-63.9656712149662, 44.6934987595188], [-63.9655788582736, 44.6937282013193], [-63.9657453897576, 44.6941040850938], [-63.9658293220495, 44.6943320359555], [-63.9659605739974, 44.6945138553748], [-63.9661876052191, 44.6946719975683], [-63.9664316154981, 44.694887160579], [-63.9667689337856, 44.6949300385493], [-63.9670566506963, 44.694881869318], [-63.9673622961836, 44.6949478791371], [-63.9673323364705, 44.6950738972093], [-63.9674477592047, 44.695267281434], [-63.9677295660993, 44.6954684658091], [-63.9681279249103, 44.6956845409307], [-63.9683402731687, 44.6959228348274], [-63.9685049253772, 44.69618439894], [-63.9686537411855, 44.6964575294066], [-63.9688962422947, 44.6965812358002], [-63.9691875892976, 44.6967502603991], [-63.9697512066799, 44.6969055376694], [-63.9703106271332, 44.6968093218635], [-63.9706485320205, 44.6968864812349], [-63.9710516923268, 44.6970316843008], [-63.9714262403929, 44.6973829234772], [-63.9715748828264, 44.6976446189209], [-63.9718376292672, 44.6980196746247], [-63.9726325403773, 44.6985845590657], [-63.9728483642175, 44.6990286111248], [-63.9730618937606, 44.6993354834015], [-63.9732914528415, 44.6996422199614], [-63.9736318685201, 44.6998679793198], [-63.9740360151766, 44.7000703283363], [-63.9744393991633, 44.7002269497263], [-63.9749068950136, 44.7003830228443], [-63.9751341651872, 44.7005525778071], [-63.9755238310013, 44.7008465089336], [-63.9756236482024, 44.7010628838805], [-63.9756595439828, 44.7012912389802], [-63.9756958251405, 44.7015424554946], [-63.9756830609786, 44.7017369265576], [-63.9755891951163, 44.7018749253811], [-63.9755604005182, 44.7020695326047], [-63.9755802694556, 44.7022980248418], [-63.9756959257518, 44.702502831231], [-63.9757795256671, 44.7027079114474], [-63.9758803067605, 44.7029814433997], [-63.9760287910905, 44.7032317018737], [-63.9763099269435, 44.7037437861255], [-63.9766331973766, 44.703901083943], [-63.9769873725504, 44.7039895196029], [-63.9775172914314, 44.7040421499616], [-63.9778394111226, 44.70413085612], [-63.9782070556358, 44.7040694608282], [-63.9787358812672, 44.7040545785624], [-63.9789942708788, 44.7041666937934], [-63.9791128341233, 44.7045429675932], [-63.979021669495, 44.7048410087146], [-63.9788352915314, 44.7051970311421], [-63.9791921760241, 44.7054454980911], [-63.9805824761315, 44.7061309838389], [-63.9812665333389, 44.7067653588837], [-63.9821839180599, 44.7079236415829], [-63.9835100371334, 44.7095471536385], [-63.9837941751561, 44.7102306883547], [-63.9842874975708, 44.7109581510605], [-63.9846470195172, 44.7123041493748], [-63.9845705450387, 44.7125220366008], [-63.984428201592, 44.7126375941892], [-63.9843181139523, 44.7127643059834], [-63.9840158425373, 44.712904108116], [-63.9838750459896, 44.713111115133], [-63.9838800828433, 44.7134083301301], [-63.9841736882108, 44.7137030596997], [-63.9848798565506, 44.7137427031569], [-63.9853273837504, 44.7136588116427], [-63.9858228118161, 44.7135630718156], [-63.9862309802301, 44.7139940022481], [-63.9865104065891, 44.7153406864052], [-63.9865486864983, 44.7157062118253], [-63.9868286177105, 44.7161382485076], [-63.9870448107584, 44.7165937007121], [-63.9873411703605, 44.7170484599312], [-63.9874580654335, 44.7173218417745], [-63.9876263657003, 44.7177891402897], [-63.9873768406638, 44.718202886286], [-63.9873009527852, 44.7184550692291], [-63.9872893914675, 44.7187181286098], [-63.9873098964122, 44.7189809104051], [-63.9874432162818, 44.7192770165122], [-63.9875765379481, 44.7195731217423], [-63.9877579617029, 44.7198688111985], [-63.9878910902313, 44.7201534846443], [-63.9883132139732, 44.720458524092], [-63.9886076574689, 44.7207989654804], [-63.9888712052069, 44.7212082723626], [-63.9890823703841, 44.7213665056806], [-63.9900836766173, 44.7217808503358], [-63.9905030910403, 44.7219258428819], [-63.9908908317647, 44.722093973935], [-63.991102786561, 44.7222979283938], [-63.991364992216, 44.7226272096167], [-63.9915466396513, 44.7229343238002], [-63.991873182647, 44.7232744787193], [-63.9919734912265, 44.7235137000602], [-63.9920773167105, 44.723958686142], [-63.9921166153092, 44.7243813656894], [-63.9934613753232, 44.725181418065], [-63.9950316421179, 44.7260366552266], [-63.9968113942403, 44.7269472068386], [-63.9973265591911, 44.7279945446458], [-63.9981472977639, 44.730022448213], [-63.9983519097312, 44.7325930825403], [-63.997703525522, 44.7340621713546], [-63.9959059840621, 44.733997830859], [-63.9950571893063, 44.7340738277333], [-63.9947542459515, 44.7341793642465], [-63.9943877405021, 44.7343197521428], [-63.9941577340601, 44.7340016310241], [-63.9942124809868, 44.7334523715143], [-63.994155947311, 44.7329612456018], [-63.9939728832325, 44.7325741163481], [-63.9938893704538, 44.7323804827849], [-63.9936943848332, 44.7322335502514], [-63.9932299073223, 44.7322718906409], [-63.9930198641409, 44.7321822531329], [-63.992857541264, 44.7320693351124], [-63.9926770310958, 44.7318308109358], [-63.9923394792463, 44.731788012627], [-63.9920852389529, 44.7319274184416], [-63.9919117688817, 44.732100419642], [-63.9916440278079, 44.7323885696091], [-63.9915669694245, 44.732572166761], [-63.9915605051477, 44.733132439003], [-63.9916612206641, 44.7333945229156], [-63.9919238718835, 44.7337466658712], [-63.9919608312693, 44.7340321688998], [-63.9917889161817, 44.7342966213533], [-63.9914574072992, 44.7346081897018], [-63.9912037392326, 44.7347818873877], [-63.9908045602597, 44.73488824772], [-63.9903431810382, 44.7351094773249], [-63.9901384001877, 44.7353284796398], [-63.9900930181979, 44.7354889345933], [-63.9901784749309, 44.7357968847186], [-63.9902647114015, 44.7361505592181], [-63.9902887485219, 44.7366191024907], [-63.9901981794766, 44.736951444268], [-63.9900596889042, 44.7372956351264], [-63.9900002186358, 44.7375705420875], [-63.9900847024933, 44.7378213350429], [-63.9903475594269, 44.7381849113329], [-63.9907078206868, 44.7386162396881], [-63.990761794164, 44.7389587609589], [-63.9907834947663, 44.7392901289657], [-63.9907879854444, 44.7395530476631], [-63.9907621552867, 44.7399191277442], [-63.9905751538923, 44.7402408731349], [-63.9904051674878, 44.7406196356859], [-63.9900747850926, 44.7409997886618], [-63.9898066065392, 44.7412650719172], [-63.989586152782, 44.741507075467], [-63.9893989456734, 44.7418173875455], [-63.9892434248398, 44.7421045594452], [-63.9890732291278, 44.742471888631], [-63.988964070346, 44.7426557613105], [-63.9886475642271, 44.7429100274395], [-63.987865708333, 44.7431568860137], [-63.9875957574036, 44.7433192825059], [-63.9871360499468, 44.7436433799337], [-63.9867725772098, 44.7439666448203], [-63.9866632145105, 44.7441390836248], [-63.9862854459841, 44.7445653673179], [-63.9856300198814, 44.7456457257397], [-63.9851722258362, 44.7460841276005], [-63.9850062638841, 44.7467029400583], [-63.9850609874546, 44.7470911882036], [-63.9851300059162, 44.7473764173564], [-63.9853594338431, 44.747660261926], [-63.9858439680394, 44.7478504406252], [-63.9859756008729, 44.7480436644725], [-63.9859636416015, 44.7482838602946], [-63.9859370002651, 44.748604212346], [-63.9856241404079, 44.7490756640541], [-63.9855969142683, 44.7493617236306], [-63.9853514038028, 44.750964456361], [-63.9843643709012, 44.7514188535149], [-63.9838417705948, 44.7518235112404], [-63.983264059544, 44.7518170532696], [-63.9829436035327, 44.7518426778145], [-63.9825960992482, 44.752165791588], [-63.9821813237253, 44.7523065555813], [-63.9818475322236, 44.7524923522742], [-63.9814499729132, 44.753650498512], [-63.9811399508339, 44.75429340789], [-63.981034432924, 44.7556434017423], [-63.981969614169, 44.7568586893405], [-63.9828133765626, 44.7574116450491], [-63.9842974212597, 44.7588165475486], [-63.9855899774776, 44.7602802480122], [-63.9870853418457, 44.761399193169], [-63.9873165897594, 44.7617859138309], [-63.988850163968, 44.7632589259275], [-63.9903321632012, 44.7645265719301], [-63.9904788922231, 44.7655999942966], [-63.9911512425857, 44.7664401966974], [-63.9924699712195, 44.7675377367541], [-63.9960979791911, 44.7694611782318], [-63.9978566451588, 44.770932103727], [-63.9987074620223, 44.7718735982163], [-63.9993471990485, 44.7717422386699], [-63.9998561871834, 44.7714748268769], [-64.0004344893257, 44.7715040605638], [-64.0007118387798, 44.7717645872877], [-64.0016116488605, 44.7727513622301], [-64.0026230350895, 44.7736914183637], [-64.0027103971491, 44.7741022359381], [-64.0027836915915, 44.7746275061025], [-64.0029511007295, 44.7750261880778], [-64.0031977664285, 44.7753670077742], [-64.003995439858, 44.7760116733741], [-64.0043275119843, 44.776648995951], [-64.0047378552195, 44.7771713001014], [-64.0054331243, 44.777462436074], [-64.0062665237284, 44.7783125632307], [-64.0069160496963, 44.7787412876641], [-64.0078296785611, 44.7786646308761], [-64.0083086432026, 44.779437839716], [-64.0090834104907, 44.7796825209387], [-64.0115244080021, 44.7815816509738], [-64.0125379744423, 44.7817098631621], [-64.0137415462431, 44.7816877517621], [-64.0149142195914, 44.7817345001664], [-64.0180430445394, 44.7825641168856], [-64.0191232560922, 44.782828871425], [-63.9252481994823, 44.7915053106154], [-63.9134389162146, 44.7925911339212], [-63.9100572146157, 44.7943605775255], [-63.8667792175132, 44.797068266767], [-63.8636304697288, 44.7980282696226], [-63.8593202218416, 44.7975852139606], [-63.8588878231694, 44.8012136326612], [-63.8606453887009, 44.8019217646844], [-63.8578916157739, 44.8026044848646], [-63.8564922696316, 44.8049706765221], [-63.8525989613088, 44.8022953565205], [-63.8479010131213, 44.8014307234141], [-63.8480610264296, 44.8046436291783], [-63.8442836456942, 44.8090907754044], [-63.8378294057863, 44.8073777652782], [-63.8370990763587, 44.8026254862063], [-63.832139215367, 44.8074842380159], [-63.8329061610239, 44.8090249021992], [-63.8319044864815, 44.8108344403461], [-63.8307435469275, 44.8094312200077], [-63.8285695763292, 44.8108149415569], [-63.8301179287226, 44.8126394607714], [-63.8297061203351, 44.8143128319197], [-63.8269450665627, 44.8155534722133], [-63.8241756189322, 44.8174921572415], [-63.8263175376412, 44.8189013394455], [-63.8259104382224, 44.8201557126247], [-63.8227532651389, 44.8216732483482], [-63.8193996915882, 44.8231894379466], [-63.8170501299963, 44.8227564943015], [-63.8164384383732, 44.8247078801192], [-63.815033547829, 44.8273527729739], [-63.8108961636503, 44.8287244030131], [-63.8105187580432, 44.8274652684329], [-63.8033436192215, 44.8366384541769], [-63.8029392551728, 44.8376135942259], [-63.7656206789702, 44.8070448323587], [-63.7674313376299, 44.8285324066272], [-63.7008571173637, 44.8488133126938], [-63.6858552485256, 44.8525298037236], [-63.6858027015731, 44.8525596669433], [-63.6856136645963, 44.8526327427045], [-63.6855129454866, 44.852678370748], [-63.6854243760912, 44.8526789088744], [-63.6852102842027, 44.8527612555301], [-63.6849960665502, 44.8528435103639], [-63.6848828195356, 44.8528982284035], [-63.6848198081083, 44.8529165870386], [-63.6845841395851, 44.8530035478422], [-63.6844161698983, 44.8530360957002], [-63.6842643357507, 44.853036991086], [-63.6841252792397, 44.8530467970248], [-63.6840367098442, 44.8530473338741], [-63.6836318157895, 44.8530497493775], [-63.6833659782458, 44.8530513580148], [-63.6832646294171, 44.8530429836751], [-63.683138100811, 44.8530436988374], [-63.6830747102947, 44.8530350557535], [-63.6829603331994, 44.8529907710724], [-63.6828331775693, 44.8529374847216], [-63.6827819385638, 44.8528838423315], [-63.6826921151202, 44.8527762873834], [-63.6826410000822, 44.8527406437222], [-63.6825270002794, 44.8527322680637], [-63.6824636115597, 44.8527236249329], [-63.6823373326853, 44.8527424294084], [-63.6821222346838, 44.8527436788792], [-63.6820335395242, 44.852735214701], [-63.6819448434663, 44.8527267492478], [-63.6818054114595, 44.8527095515036], [-63.6816663549484, 44.8527194447446], [-63.6816030901962, 44.8527288004948], [-63.6814017714528, 44.8528200500252], [-63.6813388821964, 44.8528564075281], [-63.6812385349893, 44.852929031398], [-63.6811755199688, 44.8529563878364], [-63.6810750478958, 44.8530200131416], [-63.6809995058686, 44.8530474586932], [-63.6809367405797, 44.853092905548], [-63.6808816424118, 44.8531863725818], [-63.6808624472108, 44.8532373514678], [-63.6808249883617, 44.8532826198606], [-63.6807623506336, 44.853327976737], [-63.68066099911, 44.8533285995556], [-63.6805596520779, 44.8533111332493], [-63.6804570527944, 44.8531947558162], [-63.680382253674, 44.8531164644845], [-63.6802906901937, 44.8530427327633], [-63.6801635363602, 44.8529894439133], [-63.6801121760821, 44.8529267101409], [-63.6800097025627, 44.8528283314195], [-63.6798950802274, 44.8527569530722], [-63.6797423684257, 44.8526949310289], [-63.6796411480561, 44.8526954640605], [-63.6795782570031, 44.8527229097667], [-63.6794653800944, 44.8528135320244], [-63.6792758364678, 44.852832688003], [-63.6791999198431, 44.8528331318765], [-63.6790983212828, 44.8528067541944], [-63.6789965996533, 44.852762375723], [-63.678869198783, 44.8526910851773], [-63.6788055603317, 44.8526644399589], [-63.6785898397977, 44.8526116812439], [-63.6784378789876, 44.852603659011], [-63.6782480874259, 44.8526047231653], [-63.6779189896216, 44.8525976746551], [-63.6777165425942, 44.852607916265], [-63.6776534036061, 44.8526172713964], [-63.6776031653239, 44.8526446267092], [-63.6775528021758, 44.852671892215], [-63.6773752887875, 44.8526459551498], [-63.677295546238, 44.8526839876412], [-63.6772626562205, 44.8527546655603], [-63.677213041369, 44.8528359320368], [-63.6771754540609, 44.8528721984625], [-63.6769733834276, 44.8529003503329], [-63.6768468530249, 44.8529011482853], [-63.6767709364003, 44.8529015908846], [-63.6766441589608, 44.8528842983045], [-63.6765678677387, 44.8528577397849], [-63.676491703179, 44.8528311825267], [-63.676428313561, 44.8528226260204], [-63.6763645511421, 44.8527869785669], [-63.6762753601125, 44.8527335092559], [-63.6761991937562, 44.8527159510647], [-63.6760477315111, 44.8527528346592], [-63.6759847173889, 44.8527711888828], [-63.675667576161, 44.8528127264288], [-63.6756179083089, 44.8527824009982], [-63.6755919811332, 44.8527374862927], [-63.675577591919, 44.8525845742819], [-63.6755516665399, 44.852530751338], [-63.675425013068, 44.8525224571641], [-63.6753360708717, 44.8524959869982], [-63.6751714608841, 44.8524879583808], [-63.6750321555397, 44.8524797527213], [-63.6748927262278, 44.8524625459876], [-63.6747665704226, 44.8524903427027], [-63.6747031826012, 44.8524816950778], [-63.6746521978189, 44.8524550484888], [-63.6746262742365, 44.8524011349928], [-63.674615958882, 44.8523085474345], [-63.6746112687779, 44.8521942217888], [-63.6745977491329, 44.852122219824], [-63.6745594189181, 44.8520864853263], [-63.674533493539, 44.8520415707149], [-63.6744825105533, 44.8520059253254], [-63.6744062220261, 44.8519793651271], [-63.6743043836156, 44.8519258931557], [-63.6741394035221, 44.8518818629964], [-63.6740507110575, 44.8518733916863], [-63.673936712153, 44.8518650980545], [-63.6738481436559, 44.8518656272728], [-63.6734293149344, 44.851869885855], [-63.6733164820432, 44.8518597097089], [-63.6729875126979, 44.8518616463546], [-63.6727590226122, 44.8518000564023], [-63.6726956356891, 44.8517914074], [-63.6726320026276, 44.8517557593083], [-63.6725168943037, 44.8516573722182], [-63.6724267187206, 44.8515228985725], [-63.6723628395207, 44.85146924977], [-63.6722482234736, 44.8514069537681], [-63.6721847134813, 44.8513893047398], [-63.6720455365961, 44.851390095071], [-63.6719570920664, 44.8513996236235], [-63.6718309344646, 44.8514364157178], [-63.6717171870883, 44.8514460296005], [-63.6715019687126, 44.8514383479199], [-63.6714264239904, 44.8514657884935], [-63.6713637754825, 44.8515291390532], [-63.6712261993951, 44.8516650207536], [-63.6711641689281, 44.851773371924], [-63.6711270738967, 44.8518456373421], [-63.6710902232072, 44.8519449023185], [-63.6710154177985, 44.8520353430266], [-63.6709397473122, 44.8520627807684], [-63.6707122426783, 44.8520910973399], [-63.6705352287533, 44.8521011498977], [-63.6704466602561, 44.8521016765664], [-63.6702824194761, 44.8521296415819], [-63.6341143767434, 44.8595110124757], [-63.6339988722624, 44.8595263342033], [-63.6318881250939, 44.8598316771345], [-63.6299228744586, 44.8600963432545], [-63.6294918951246, 44.8601554269877], [-63.6270071855915, 44.8604878087094], [-63.6241674941974, 44.8608886934222], [-63.6225159640054, 44.8611219817461], [-63.6222263471578, 44.8611621449096], [-63.6215458068547, 44.8612642801745], [-63.6210346933059, 44.861341525726], [-63.6204628886781, 44.8614904768932], [-63.6198279378757, 44.8616478491566], [-63.6192048376485, 44.8618493161497], [-63.6190517162151, 44.8619081618557], [-63.6186060979352, 44.8620794054599], [-63.6174660657711, 44.8622323285523], [-63.5903740437136, 44.8659798460011], [-63.5904414865302, 44.8655781976886], [-63.5916744089863, 44.8582354532107], [-63.5991941990431, 44.8134166951548], [-63.5996046815173, 44.8117054385941], [-63.6004653753573, 44.8082922304326], [-63.6006649154364, 44.8076547479674], [-63.6009293030992, 44.8069277789386], [-63.6010208522065, 44.8067391509814], [-63.6010997593227, 44.8065424121807], [-63.6011533923385, 44.8063450258006], [-63.6011942719721, 44.8061467279715], [-63.6012098640305, 44.8059404925092], [-63.6012001846833, 44.8057416171207], [-63.6011905062344, 44.8055346421506], [-63.6011201933005, 44.8052190156826], [-63.6010108018551, 44.8049126216175], [-63.6008634871316, 44.8046144779195], [-63.6007400442385, 44.8044153372753], [-63.6005913191601, 44.8042162666921], [-63.6004301766695, 44.8040352777153], [-63.6002436415008, 44.8038534583076], [-63.6000686945992, 44.8036905384839], [-63.5923193346816, 44.7999576210589], [-63.5901294369533, 44.8003716861271], [-63.58969908644, 44.8004569650633], [-63.5897076132487, 44.8004758790217], [-63.5897000314677, 44.8004773718429], [-63.588824360017, 44.8006302952967], [-63.5802479364887, 44.8023293371996], [-63.5728147934325, 44.8038012833494], [-63.5714650163277, 44.8040750612904], [-63.569745817842, 44.8092417889337], [-63.5671893248328, 44.8093111996288], [-63.5644706499822, 44.8050479682456], [-63.5632802663481, 44.8050371311705], [-63.5454859386352, 44.8050100394301], [-63.5395079073376, 44.8049983572046], [-63.5378784101246, 44.8052328247352], [-63.5359441603498, 44.8055111115594], [-63.5125533023657, 44.8083823770261], [-63.5119104760333, 44.8089659451069], [-63.5100966148796, 44.8106125134515], [-63.4989697359191, 44.8085291229767], [-63.4894999638918, 44.809084418159], [-63.4890804156199, 44.809109001416], [-63.488915702326, 44.8090647065513], [-63.4888018184059, 44.8090562283082], [-63.4886752906981, 44.8090477290323], [-63.4885867895746, 44.8090481152472], [-63.4885615981191, 44.8090572518412], [-63.4885237341299, 44.809075365058], [-63.4884987340155, 44.8091025020507], [-63.4884234174655, 44.8091658220756], [-63.4884137444065, 44.809172014247], [-63.4883101399081, 44.8092383436025], [-63.4882468940206, 44.8092475936086], [-63.4881837065235, 44.8092389337573], [-63.4881203959572, 44.8092301834058], [-63.4880445368247, 44.8092305014266], [-63.4879813187849, 44.8092308417534], [-63.4878423727666, 44.809231320378], [-63.48777899842, 44.8092406583348], [-63.4877033297303, 44.8092589760724], [-63.4875898931712, 44.8093044083959], [-63.4874764539171, 44.8093499299077], [-63.4873881117954, 44.809377315324], [-63.487299607977, 44.8093777008993], [-63.4871733659335, 44.8093962907267], [-63.4870849294887, 44.8094145848343], [-63.4869838780024, 44.8094240381154], [-63.4868704055107, 44.8094425610098], [-63.4868073491676, 44.8094698106343], [-63.4867946748373, 44.809478877057], [-63.4866808843419, 44.8094793977421], [-63.4865290708556, 44.8094710304525], [-63.4864404403747, 44.8094714147526], [-63.4863898688174, 44.809471596387], [-63.4863392981585, 44.8094716868855], [-63.486288723008, 44.8094720482423], [-63.4862381505525, 44.8094722292394], [-63.4861368134019, 44.8094546814445], [-63.4860735028356, 44.8094459298511], [-63.4860355723711, 44.8094461325169], [-63.4859975466851, 44.8094373356728], [-63.485959426676, 44.8094194488162], [-63.4858768193991, 44.8093779685715], [-63.4858705752096, 44.8093748323461], [-63.4858324857432, 44.809348036445], [-63.4857814389772, 44.8093031254799], [-63.4857177789663, 44.8092493736324], [-63.4856796886016, 44.8092225770357], [-63.4856160932694, 44.8091868235778], [-63.4856159980479, 44.8091778240275], [-63.4855525293782, 44.8091420724539], [-63.4854889636904, 44.8090973212952], [-63.4854381037739, 44.8090706807708], [-63.4853746988845, 44.8090528384127], [-63.4853366749952, 44.8090439510095], [-63.4853239368845, 44.8090350189926], [-63.4852480148699, 44.8090173353159], [-63.4851847043036, 44.8090085830187], [-63.4850202182835, 44.8090091916581], [-63.4849822869207, 44.8090094848247], [-63.4849443564561, 44.809009687492], [-63.4848179257664, 44.809010183326], [-63.4846787569659, 44.8090017477752], [-63.4846155407228, 44.8090019956922], [-63.4845776111565, 44.8090021983596], [-63.4845728635602, 44.8090022142926], [-63.4844522566485, 44.8089674593772], [-63.4844507995811, 44.8089666933196], [-63.4843872347916, 44.8089220312496], [-63.4843364108078, 44.8088862113241], [-63.4842730041218, 44.8088684581339], [-63.4841717648876, 44.8088599091193], [-63.4841337418965, 44.8088510210491], [-63.4841082656751, 44.8088331550422], [-63.4840450494319, 44.8088334029599], [-63.4839943808566, 44.8088246735784], [-63.4839571573662, 44.8088247838349], [-63.483956453087, 44.8088247857469], [-63.483893143419, 44.8088160334205], [-63.4838074171915, 44.8087816321063], [-63.4838043880724, 44.8087804160974], [-63.4837154126384, 44.8087357965837], [-63.4836646820794, 44.8087089774421], [-63.483613919181, 44.8086912465036], [-63.4835884447561, 44.8086732905848], [-63.483550327442, 44.8086554022166], [-63.4835121436525, 44.8086196050692], [-63.483461223549, 44.8085748745368], [-63.4834229148937, 44.8085390760648], [-63.4833974710116, 44.8085121210817], [-63.4833719965867, 44.8084941651071], [-63.4833463631601, 44.8084493006392], [-63.4832951591889, 44.8083774791785], [-63.4815868123519, 44.8075593250174], [-63.4805315209634, 44.8078375209516], [-63.4804958057443, 44.8078469356139], [-63.4803957549813, 44.8079576368098], [-63.4803832055168, 44.8079667041076], [-63.4803707189343, 44.8079937708782], [-63.4803581721647, 44.8080027483068], [-63.4803330417947, 44.8080298826175], [-63.4802827514101, 44.8080571520292], [-63.4802322103956, 44.8080843296527], [-63.480156573147, 44.8080936435768], [-63.4801061893376, 44.8081119126044], [-63.4800555836444, 44.808121179999], [-63.4799798224283, 44.8081304027791], [-63.4799039632958, 44.8081307150701], [-63.4798786775172, 44.808130848909], [-63.4798406554245, 44.8081219600891], [-63.4797642644894, 44.8080592717862], [-63.4796496610187, 44.8079697824124], [-63.4795734587297, 44.8079250947146], [-63.4795351869054, 44.8078802049481], [-63.479509522936, 44.8078443378505], [-63.4794837062531, 44.807781380929], [-63.4794199582073, 44.8077186246986], [-63.4793946104449, 44.8077007589783], [-63.4793691360201, 44.8076828926152], [-63.479331113029, 44.8076740030889], [-63.4792676174098, 44.8076472478243], [-63.479115275714, 44.8075758695871], [-63.4790773793855, 44.8075670711831], [-63.4790013962855, 44.8075673822024], [-63.4789255380513, 44.8075676944964], [-63.4788749682907, 44.8075678723127], [-63.4788243958351, 44.8075681399933], [-63.47873589561, 44.80756851857], [-63.4786475516917, 44.807595897184], [-63.4785844953486, 44.8075871433966], [-63.4785210293738, 44.8075873855837], [-63.4784830369255, 44.8075695880175], [-63.4784449223063, 44.8075516980324], [-63.4783687209157, 44.8075070080986], [-63.478343340814, 44.8074981414893], [-63.4782925842038, 44.8074802285378], [-63.4782291802127, 44.8074625628672], [-63.4781956757476, 44.8074556037973], [-63.4781024692486, 44.8074361408313], [-63.4780518042666, 44.8074273175499], [-63.4779885296329, 44.807409562636], [-63.4779758867436, 44.807409628919], [-63.4779504123188, 44.807391763103], [-63.4779248462658, 44.8073648056717], [-63.4778986855281, 44.8072569369432], [-63.4778733988512, 44.8072570707841], [-63.4778353767585, 44.8072482710569], [-63.4776452043111, 44.8071860024481], [-63.4775817095902, 44.8071592456825], [-63.4774547533861, 44.8070966430115], [-63.477251842828, 44.8070256203663], [-63.4770868052423, 44.8069361268395], [-63.4769852857337, 44.806900660043], [-63.4769345291236, 44.8068828367713], [-63.4768075702245, 44.8068204122563], [-63.4766425919276, 44.8067490986423], [-63.4765791304443, 44.8067133417392], [-63.4764901038064, 44.8066506276863], [-63.4764391567534, 44.8066148930292], [-63.4764009469128, 44.8065880920219], [-63.476375321571, 44.806543134931], [-63.476349507583, 44.806480177864], [-63.476336335586, 44.8064172430353], [-63.4763231626906, 44.8063543081381], [-63.4763101173561, 44.8062913744469], [-63.4762860083705, 44.8062244151879], [-63.476284209045, 44.8062194170932], [-63.4762455662164, 44.8061385246348], [-63.4761945589763, 44.8060847915081], [-63.4761687746327, 44.8060488321528], [-63.4761429310003, 44.8059589648969], [-63.4760913982457, 44.8058421399954], [-63.4760397702697, 44.8057163134921], [-63.476001033118, 44.8056264221359], [-63.4759755937274, 44.805599555659], [-63.4759374773116, 44.8055817542928], [-63.4758613432947, 44.8055550630682], [-63.4757727864756, 44.8055373509182], [-63.4757095738257, 44.8055376836186], [-63.4756712732553, 44.8055017921195], [-63.4756074389712, 44.8054300332739], [-63.4755562808141, 44.8053492091808], [-63.475517978447, 44.8053134074321], [-63.475467128412, 44.8052865828752], [-63.4754165918891, 44.8052778497701], [-63.475340611484, 44.8052781588897], [-63.4752521148521, 44.805278534932], [-63.4751129550348, 44.8052700860883], [-63.475024552726, 44.8052794622907], [-63.4749738895406, 44.8052706386795], [-63.4749232281519, 44.8052618144295], [-63.474796554917, 44.8052263893067], [-63.4747078723339, 44.8052087637368], [-63.4746130210197, 44.8051181877006], [-63.4740092678088, 44.805045600444], [-63.4730929682527, 44.8049354315945], [-63.471204779594, 44.8030749840891], [-63.4704880219137, 44.8011060959921], [-63.4684826085004, 44.8011474903989], [-63.4674762564303, 44.8013762548011], [-63.4661548346473, 44.8005317597158], [-63.4654011085981, 44.8006438192501], [-63.4630467895284, 44.8015145016167], [-63.4590391642975, 44.8014185655989], [-63.4536236876752, 44.8006555074567], [-63.4508758966296, 44.8001120176861], [-63.4503030122268, 44.7999670816265], [-63.4498345219415, 44.7998370512724], [-63.4492972512482, 44.7995341344519], [-63.4491319917786, 44.7993978009025], [-63.4490429157334, 44.7993261549378], [-63.4489413432242, 44.7992814822164], [-63.4488782114227, 44.7992638019238], [-63.448726177849, 44.7992553827957], [-63.4486124987448, 44.7992647752739], [-63.4485873063909, 44.7992739025812], [-63.4485241539281, 44.7992921304197], [-63.4484610895003, 44.7993194479443], [-63.4483730501108, 44.7993648039562], [-63.4482972026564, 44.7993650952595], [-63.4481704746244, 44.7993205506909], [-63.4479805033997, 44.7992853214341], [-63.4478916240855, 44.7992585839513], [-63.4478282236876, 44.7992139022536], [-63.4477262801743, 44.7991062292723], [-63.4476878583312, 44.7990434183469], [-63.4476621323781, 44.798998453464], [-63.4476239782331, 44.7989626445869], [-63.4474566625198, 44.7989119644417], [-63.4464905810256, 44.7989749590899], [-63.4461228062567, 44.7994095684022], [-63.4460723820232, 44.7994368214914], [-63.4460473684341, 44.799463858481], [-63.4460220862488, 44.7994639853284], [-63.4458202869067, 44.7995368173669], [-63.4457192488951, 44.7995461441447], [-63.4456434912723, 44.7995555231896], [-63.4455677839551, 44.7995828131804], [-63.4455173094159, 44.7995919761331], [-63.4454922050969, 44.7996101025209], [-63.4454416928285, 44.799628265236], [-63.4453447673043, 44.7996755166977], [-63.4426437479423, 44.7992367361563], [-63.4420126589973, 44.797208983821], [-63.4407622095117, 44.7970785112351], [-63.4398392417613, 44.797307806191], [-63.4396209502489, 44.7972943509375], [-63.439430659224, 44.7972840351135], [-63.4392029057567, 44.7972488925813], [-63.4391269370298, 44.7972491768833], [-63.43886148666, 44.7972502216616], [-63.4386593279918, 44.7972599529513], [-63.438406303119, 44.7972519319362], [-63.4382421036614, 44.7972525661976], [-63.4382293359063, 44.7972526280301], [-63.4381406793743, 44.7972348840084], [-63.4380141858025, 44.7972264193254], [-63.4377801108906, 44.797212093935], [-63.4376654005204, 44.7972916621813], [-63.4376608999608, 44.7972958502155], [-63.4376302781894, 44.797545661765], [-63.4376776921684, 44.7978066376763], [-63.4378515341422, 44.7981209858366], [-63.4379339078572, 44.7983160501264], [-63.4379476987934, 44.79845998956], [-63.4379356326225, 44.7985320528449], [-63.437923527824, 44.7986131159651], [-63.4379113745166, 44.798676179145], [-63.4378360184406, 44.7987394653571], [-63.4376100804686, 44.798956411799], [-63.4375470124474, 44.7989836345056], [-63.4372574710583, 44.7991468015574], [-63.4371313341177, 44.7992013353805], [-63.4370055385369, 44.7992647810107], [-63.4369551098118, 44.7992920309812], [-63.4369176752173, 44.7993551284774], [-63.4368928772238, 44.7994183444657], [-63.4368945597684, 44.7996433472841], [-63.4369079123267, 44.7997422859575], [-63.4369335915675, 44.7997962519136], [-63.4369590498226, 44.7998141270936], [-63.4370228284112, 44.7998859063105], [-63.4371499481087, 44.7999844633917], [-63.4372827038363, 44.800079022423], [-63.4379454215641, 44.800382527903], [-63.4383531704649, 44.800921516937], [-63.4381934634821, 44.8010350468492], [-63.4379301520009, 44.80121492978], [-63.4372543260565, 44.8016248726811], [-63.437704505083, 44.8027449978382], [-63.4377413440945, 44.802934869648], [-63.4377548727227, 44.8030518993012], [-63.437780556455, 44.8031057742026], [-63.4377936853329, 44.8031687132814], [-63.4377941335922, 44.8032407133209], [-63.4378072606734, 44.8033037421232], [-63.4378461128095, 44.8034115570556], [-63.4378464254232, 44.8034565580168], [-63.4378819277415, 44.8035196146281], [-63.4378811012915, 44.8035646046696], [-63.4378697968919, 44.8036020277196], [-63.4378369607734, 44.8036692182037], [-63.4378354471121, 44.8037517292375], [-63.4378653924521, 44.8038420027536], [-63.4379684606562, 44.8039705740549], [-63.4380711120421, 44.8040805121059], [-63.4380537916251, 44.8041219285987], [-63.438079474459, 44.8041758942825], [-63.4381306182431, 44.8042477362716], [-63.438257838552, 44.8043552027105], [-63.4382833462145, 44.8043911682205], [-63.4383088943011, 44.8044180441834], [-63.4383096075635, 44.8045170447794], [-63.4383097809383, 44.804535135202], [-63.4382974039503, 44.804562108615], [-63.4382723436489, 44.8045982339753], [-63.4382471953125, 44.8046253584149], [-63.4382098442613, 44.8046975478463], [-63.4382102440116, 44.8047515486841], [-63.4381726306523, 44.8047966461169], [-63.4381476979116, 44.8048326827366], [-63.4381605635831, 44.8048687104106], [-63.4382563239924, 44.8049409658233], [-63.4383613514222, 44.8050248281592], [-63.4383515364294, 44.8055599362986], [-63.4384165457098, 44.8065714553912], [-63.4376474144518, 44.8075158205331], [-63.4376789345385, 44.807692592828], [-63.4376078795961, 44.8078307046893], [-63.4374011188588, 44.8078962771634], [-63.4371840005462, 44.8079543736785], [-63.4370124564629, 44.8080572603752], [-63.4368703384933, 44.8081685213788], [-63.4368072120817, 44.8081777428767], [-63.4367569908674, 44.8082139035749], [-63.436618451786, 44.8082954992807], [-63.4365431675753, 44.8083677829048], [-63.4364927307653, 44.8083950317623], [-63.4364548910306, 44.8084041289456], [-63.4363415892188, 44.8084676001458], [-63.4362789092699, 44.8085488213836], [-63.4362541966164, 44.8086209459968], [-63.4362425724166, 44.808765009492], [-63.4362303292776, 44.8088190721662], [-63.4361927096301, 44.8088642588306], [-63.4361299317648, 44.8089094811494], [-63.436079669228, 44.8089547308375], [-63.4360420495806, 44.8089999167583], [-63.4360169883808, 44.8090359513895], [-63.4360045197646, 44.8090540142648], [-63.4359793687333, 44.8090811385212], [-63.4359430354733, 44.8091182367845], [-63.4353278799465, 44.8098392098033], [-63.4352984439513, 44.8097905148736], [-63.4352621187762, 44.8097304228761], [-63.4311842506799, 44.8097821425306], [-63.4292037358713, 44.8115228919961], [-63.4245974131479, 44.8133094673681], [-63.4198775972715, 44.8132859189186], [-63.418336963203, 44.8095991704938], [-63.4084750406217, 44.8116591057601], [-63.4045653173836, 44.8007839545532], [-63.4043719810699, 44.8003332952986], [-63.4039817214694, 44.7995681919733], [-63.4035002110024, 44.7983090364084], [-63.4035976458714, 44.7980296375689], [-63.4034345809861, 44.797416014159], [-63.4022618196029, 44.796258388988], [-63.4021635744535, 44.7960602649378], [-63.4021806622068, 44.7959256162828], [-63.4023014550698, 44.7958676504455], [-63.4023268998502, 44.7958588955158], [-63.4023523437323, 44.7958501405848], [-63.4023776178329, 44.7958503834586], [-63.4024414853546, 44.7958149990916], [-63.4024538003588, 44.7958053982384], [-63.4024481445658, 44.795797064026], [-63.4019978855892, 44.7948792841825], [-63.4016389179034, 44.7941468713419], [-63.4015719745501, 44.7940112352213], [-63.4015808588882, 44.7939293349929], [-63.401573059715, 44.7937741077508], [-63.4015447915296, 44.7937184888944], [-63.4015332921956, 44.7937183779716], [-63.4014958935337, 44.7936910195459], [-63.4014332234662, 44.7936634194992], [-63.4014082907255, 44.7936451803204], [-63.4012950733553, 44.7936170925729], [-63.4010320951492, 44.7934885689604], [-63.4009956972105, 44.7934417816254], [-63.4010215067069, 44.7933804728385], [-63.4010734185505, 44.7933089762253], [-63.40109634176, 44.7932665389946], [-63.4011160651703, 44.7932261410729], [-63.4011389901764, 44.7931836132571], [-63.4011444663064, 44.7931481182435], [-63.4005133935311, 44.7915440904621], [-63.4010705699928, 44.7914136496937], [-63.4010590571841, 44.7914009402314], [-63.4010376691955, 44.7913624866955], [-63.4010196103634, 44.7913218145851], [-63.400998094814, 44.791283360359], [-63.4009908175619, 44.7911673772242], [-63.4009887029277, 44.7911122798941], [-63.4009779438055, 44.7910131823444], [-63.4009543800973, 44.7909229607954], [-63.4009174961701, 44.7908686084917], [-63.4008558528769, 44.7907870200134], [-63.4008066746067, 44.7907145511556], [-63.4007571540784, 44.7906600781641], [-63.4006700686998, 44.7905872438468], [-63.4006203783898, 44.7905417687316], [-63.4004957263644, 44.7904505735845], [-63.4004335719299, 44.7903959792142], [-63.4003840540965, 44.790341504647], [-63.4003779060267, 44.7903324460545], [-63.4003343637865, 44.7902960293382], [-63.4003095181824, 44.7902732913515], [-63.4002595736492, 44.7902413117792], [-63.4002411312365, 44.7902141365879], [-63.4001977605745, 44.7901687211062], [-63.4001735339096, 44.7901134118011], [-63.4001738555065, 44.7900964956452], [-63.4001617327417, 44.7900693803132], [-63.4001434610089, 44.7900332069667], [-63.4001002619252, 44.7899787938974], [-63.4000505725135, 44.7899333183028], [-63.4000382781706, 44.7899152003507], [-63.4000133481248, 44.7898969612623], [-63.3999632347084, 44.7898672300505], [-63.3999555271632, 44.7898604059271], [-63.399876019074, 44.7898146433504], [-63.3998508779242, 44.7898009020109], [-63.3998007618128, 44.7897779209298], [-63.3997379677778, 44.7897570672819], [-63.3996752177603, 44.7897339637773], [-63.399612422827, 44.789713110751], [-63.3995999578041, 44.7897039908569], [-63.3995622222739, 44.789694627424], [-63.3994485018472, 44.7896935315064], [-63.3993477575847, 44.7896745623734], [-63.3992880825004, 44.7896558979748], [-63.3992314365352, 44.7896374433184], [-63.3991718845201, 44.7896188707126], [-63.3988686285515, 44.7896159482616], [-63.398805878534, 44.789592844063], [-63.3987806933667, 44.7895881014533], [-63.3986681694959, 44.7895240204002], [-63.3986557907112, 44.7895104013981], [-63.398618140521, 44.7894965388547], [-63.3985307173759, 44.7894416994062], [-63.3985183385913, 44.7894280810222], [-63.3984933241039, 44.7894143402282], [-63.3984563997525, 44.789375557038], [-63.3984313430442, 44.7893507466972], [-63.3983785427668, 44.7892962405417], [-63.3983228337445, 44.7892417968134], [-63.3982701601294, 44.7891872012998], [-63.3982210106053, 44.7891135618253], [-63.3982211588273, 44.7891057334896], [-63.3981684411949, 44.7890534782536], [-63.3981125237634, 44.789003442246], [-63.3980598061309, 44.7889511862799], [-63.39803504946, 44.7889239492772], [-63.397985361845, 44.7888784722139], [-63.3978986259111, 44.7887876403879], [-63.3978678927486, 44.788742347467], [-63.3978245238833, 44.7886969308272], [-63.3978059134856, 44.7886787531955], [-63.3977873902244, 44.7886559852448], [-63.3977126890203, 44.7885968581506], [-63.3976384163126, 44.7885151459649], [-63.3976200628331, 44.7884834708027], [-63.397576780206, 44.7884335560723], [-63.3975274384424, 44.7883700838696], [-63.3973899908141, 44.7882877618674], [-63.3973150335901, 44.788242041397], [-63.3972274873758, 44.7881871994815], [-63.3971407083227, 44.7881053662189], [-63.3971160369918, 44.7880736296271], [-63.3970664374117, 44.7880236539749], [-63.3970539732871, 44.7880145338138], [-63.3969419695408, 44.7879234577211], [-63.3967053263455, 44.7877411833318], [-63.3966248247197, 44.787654910782], [-63.3965720244422, 44.7876071534592], [-63.3965223395222, 44.7875616766336], [-63.396469540143, 44.7875139198712], [-63.3964080783096, 44.7874233313574], [-63.3963963202609, 44.7873771396848], [-63.3963973488319, 44.7873231531883], [-63.3963951982651, 44.7872702154256], [-63.3963899287476, 44.7872150882352], [-63.3963876515183, 44.7871621497358], [-63.396401440658, 44.7871082854499], [-63.3964277397362, 44.7870545435254], [-63.3964796515799, 44.786983048639], [-63.3965319047833, 44.7868935590883], [-63.3965845002449, 44.7867860735144], [-63.3966236057058, 44.7867234544746], [-63.3966758589093, 44.7866339645214], [-63.39668751994, 44.7865193338871], [-63.3966918866506, 44.7864624998482], [-63.396680485233, 44.7863910239932], [-63.3966560708202, 44.7863457903983], [-63.3966449775248, 44.7862646883682], [-63.3966207364868, 44.7862104579169], [-63.3965961531907, 44.7861742222202], [-63.3965466407472, 44.7861197468564], [-63.3964841512411, 44.7860831457741], [-63.3963844436345, 44.7860101870926], [-63.396297369934, 44.7859373500954], [-63.3962441034309, 44.7859075875156], [-63.3961879722004, 44.78587554623], [-63.3961348323597, 44.7858457848934], [-63.3960349082591, 44.7857908227498], [-63.3959226107638, 44.7857087425359], [-63.3958725862805, 44.785681260449], [-63.395797162831, 44.7856602829062], [-63.3957217833988, 44.785637055347], [-63.3956463599493, 44.7856160777883], [-63.3955210413739, 44.7855608693209], [-63.395432940899, 44.7855420186945], [-63.3953318624632, 44.7855410412875], [-63.3951051240923, 44.7855028509929], [-63.3949533348604, 44.7855103827058], [-63.3948898634957, 44.7855187681349], [-63.394750491676, 44.7855444179003], [-63.3946778395291, 44.7855504653265], [-63.3946081356529, 44.7855542901559], [-63.3945353577419, 44.7855603356683], [-63.3944088390172, 44.7855681109284], [-63.3943456640966, 44.7855674994914], [-63.3942071968804, 44.7855391610701], [-63.3940690728206, 44.7854928263472], [-63.394003256853, 44.7854651911387], [-63.3939342797139, 44.7854375253131], [-63.393868462848, 44.7854098894405], [-63.3937935137089, 44.7853641666906], [-63.3937812220608, 44.785346049217], [-63.3937568319026, 44.7852997353794], [-63.3937576700307, 44.7852558264605], [-63.3937585288201, 44.7852108380826], [-63.3937593885078, 44.7851658483945], [-63.3937725371487, 44.7851389768531], [-63.3938628923949, 44.785039687974], [-63.3938637287264, 44.7849958693943], [-63.393861428141, 44.7849508495722], [-63.3938559699773, 44.7849057997484], [-63.3938535436277, 44.7848607785809], [-63.3937288700427, 44.7847785765407], [-63.3936038955221, 44.7847054612767], [-63.3935156279606, 44.7846955161909], [-63.3934399916103, 44.7846857846952], [-63.3934273568058, 44.7846856622785], [-63.3933146784248, 44.7846304841631], [-63.3932518484572, 44.7846119666915], [-63.393214631255, 44.7845756075744], [-63.3931902671478, 44.7845213755363], [-63.3931880941231, 44.7844763572569], [-63.3931826350612, 44.7844313064253], [-63.3931803362723, 44.7843862874381], [-63.3931686033764, 44.7843389271808], [-63.3931569153963, 44.7842893161857], [-63.3931451825003, 44.7842419558489], [-63.3931334936218, 44.7841923460456], [-63.3931100287283, 44.7840976238988], [-63.3930987899058, 44.7840244395497], [-63.3930989426194, 44.7840164313597], [-63.3930776893781, 44.7839713183224], [-63.3930595982066, 44.7839261453159], [-63.3930383476602, 44.7838808524059], [-63.3930261422505, 44.7838583261245], [-63.3930014754111, 44.7838265884728], [-63.392989183763, 44.7838084705168], [-63.3929396767094, 44.7837539941956], [-63.3929277309128, 44.783717880651], [-63.3929163124272, 44.7836540544964], [-63.3929427714056, 44.783592033953], [-63.3929818777648, 44.7835294171868], [-63.3929986124803, 44.783486831218], [-63.3930182119231, 44.7834465240041], [-63.393034822671, 44.7834038474346], [-63.3930482713492, 44.7833613206702], [-63.3930616787048, 44.7833209527964], [-63.3930751300778, 44.7832783354312], [-63.3931145804918, 44.7831977213217], [-63.3932049105853, 44.7830996010216], [-63.3932181283963, 44.7830625612647], [-63.393218794048, 44.7830277390768], [-63.3932144309306, 44.7829320324671], [-63.3932152672622, 44.7828882129251], [-63.3932107568211, 44.7827935836421], [-63.393199496439, 44.7827215682902], [-63.3931747433614, 44.7826943302608], [-63.393140816688, 44.7826512539916], [-63.3931100053721, 44.7826104571472], [-63.3930760769021, 44.782567381453], [-63.3930139386373, 44.7825127815393], [-63.3929386490367, 44.7824850537257], [-63.3928791536155, 44.782457478288], [-63.3928228148741, 44.7824299347177], [-63.3927633194528, 44.7824023586161], [-63.3925379698773, 44.782292180963], [-63.3924382730504, 44.7822192181279], [-63.3923787767308, 44.7821916425633], [-63.3923224406844, 44.782164097591], [-63.3922629443648, 44.7821365226376], [-63.3921502704754, 44.7820814332648], [-63.3920842865228, 44.7820627938285], [-63.3920151431954, 44.7820441244182], [-63.3919491592428, 44.7820254849698], [-63.3918987942981, 44.7820159978689], [-63.391810356955, 44.7820151396366], [-63.391643876675, 44.7821305188492], [-63.3915547521207, 44.7821655621932], [-63.391542031078, 44.7821700286877], [-63.3915163778884, 44.7821832789674], [-63.3913501482383, 44.7821930944125], [-63.391066954345, 44.7821673966122], [-63.3903136936231, 44.7816268576958], [-63.3890003243384, 44.7804320012546], [-63.3885457220074, 44.7796328287873], [-63.3873831196717, 44.7774669322651], [-63.3852861230152, 44.7757939927901], [-63.3841339725779, 44.7749983437968], [-63.3835797039627, 44.7740463564357], [-63.3831814448647, 44.7737325193201], [-63.3816818404485, 44.7725479084025], [-63.3804177365706, 44.7715492668856], [-63.3802878222142, 44.7714464783495], [-63.3799082893965, 44.7711459519823], [-63.3797778818651, 44.771042708659], [-63.3792665751784, 44.7706379342521], [-63.3787575142799, 44.7702350696117], [-63.3782947543478, 44.7698685648232], [-63.3780906858614, 44.769706999302], [-63.3776815445719, 44.7696515026631], [-63.3769649773344, 44.7688157826119], [-63.3766225161919, 44.7685466595372], [-63.3739235369039, 44.7664105082549], [-63.3635008356166, 44.7686967147524], [-63.3632160759597, 44.7686903728271], [-63.363137674595, 44.7685845676759], [-63.363442199883, 44.7676049858106], [-63.3634932448524, 44.7661634498703], [-63.3629825445285, 44.7648792644836], [-63.3625729998956, 44.7644311911907], [-63.3577702497555, 44.7610186506733], [-63.3802155087321, 44.7560661074358], [-63.3749881123808, 44.7443159594354], [-63.3642555668806, 44.7467455952611], [-63.3632787514171, 44.7445508770085], [-63.365135086714, 44.7441779112357], [-63.3616301084104, 44.7358651655576], [-63.3643224033344, 44.735460231475], [-63.3638502209733, 44.7343789482116], [-63.3637569632704, 44.7341691296763], [-63.36411864836, 44.7340630047737], [-63.3641137947625, 44.7340543776737], [-63.3641079179839, 44.7340437742328], [-63.3641022927336, 44.7340329889182], [-63.364096795044, 44.7340222042397], [-63.3640915497811, 44.7340115082617], [-63.364086429384, 44.734000631686], [-63.3640815623118, 44.7339896638533], [-63.3640769476661, 44.7339787859973], [-63.3640724587847, 44.7339677269053], [-63.3640682214315, 44.7339567571519], [-63.3640642365049, 44.7339456074388], [-63.3640603782408, 44.7339344564473], [-63.364056646639, 44.7339233954324], [-63.3640531656673, 44.7339121538196], [-63.3640500646829, 44.7339010002691], [-63.3640469628003, 44.7338897580137], [-63.3640441133442, 44.7338784238629], [-63.3640416438755, 44.7338671790505], [-63.3640391726101, 44.733855843619], [-63.3640369546697, 44.7338445081852], [-63.3640351158183, 44.7338331701965], [-63.3640332769669, 44.7338217428648], [-63.3640316896438, 44.7338104055099], [-63.3640304814098, 44.7337989756211], [-63.3640292731757, 44.7337875463682], [-63.3640277415481, 44.7337646859412], [-63.3640272905939, 44.7337532534907], [-63.364026966302, 44.7337418216762], [-63.3640268944368, 44.733730298604], [-63.3640270749982, 44.7337188655086], [-63.364027382222, 44.7337074311346], [-63.3640561938881, 44.7330028975488], [-63.3640700854357, 44.7330027628975], [-63.3640861239568, 44.7330027118449], [-63.3641021642745, 44.7330027501344], [-63.3641182045922, 44.733002789062], [-63.3641342440116, 44.7330029179699], [-63.3641502852276, 44.7330031368581], [-63.364166324647, 44.7330032644896], [-63.3641823667614, 44.7330034833779], [-63.3641984079774, 44.7330038828647], [-63.3642144491934, 44.7330041917332], [-63.3642304913078, 44.7330045905819], [-63.364246407658, 44.7330050794109], [-63.3642624497723, 44.7330055682398], [-63.364278492785, 44.7330060570688], [-63.364294536696, 44.7330067258583], [-63.3643105797086, 44.7330073046676], [-63.3642816512615, 44.7337127392676], [-63.3647701937406, 44.733757177473], [-63.365135932927, 44.7338304733797], [-63.3653233116138, 44.7338680245972], [-63.3658116870062, 44.733965932435], [-63.3660627813995, 44.7340486675398], [-63.3663228625389, 44.7341345243339], [-63.3665763644171, 44.7342181506853], [-63.3668734022473, 44.7343161313169], [-63.3673643899406, 44.7347671010825], [-63.3677993065904, 44.7350380208696], [-63.3682304233666, 44.7353064308884], [-63.3687089675966, 44.7356044833254], [-63.3693915066511, 44.7347113035019], [-63.3695917788572, 44.7345265555529], [-63.3696259615504, 44.7345394976921], [-63.3697625584742, 44.7345902783786], [-63.3697644575127, 44.7345908125021], [-63.3697845761818, 44.7344973918569], [-63.3697950981487, 44.7344438836698], [-63.3698049850067, 44.7343900167971], [-63.369814875458, 44.7343366004032], [-63.3698216891795, 44.7342759021003], [-63.369822309017, 44.7342146836459], [-63.3698158609099, 44.7341538480138], [-63.3697951295898, 44.734051558343], [-63.3697886742961, 44.7340294338034], [-63.3697655570506, 44.7339691914534], [-63.3694129745898, 44.7333386359454], [-63.3683918200805, 44.7336291198431], [-63.3667004406225, 44.7306959858084], [-63.3663195729083, 44.7308002004285], [-63.3559425985639, 44.7320824226656], [-63.3403706705246, 44.7353886733521], [-63.3382957885937, 44.7320234444143], [-63.33528047207, 44.7266340878077], [-63.3394231455292, 44.7256650877579], [-63.3339924496494, 44.7131522540746], [-63.3292290852446, 44.7019681886448], [-63.3277052397905, 44.7011899223908], [-63.3265651977449, 44.6986044239683], [-63.3251417776513, 44.6956384278843], [-63.3236829926817, 44.6913480278776], [-63.3263505048835, 44.6904373777939], [-63.3268275076045, 44.6902152659232], [-63.3274171473839, 44.6900128977947], [-63.3287939035917, 44.6897079226734], [-63.3305081101394, 44.6893818868252], [-63.3313784698519, 44.6890783453269], [-63.3322225241979, 44.6890959616381], [-63.3326733158755, 44.6892150568037], [-63.3329554335871, 44.6893547101697], [-63.3336028035982, 44.6894130249443], [-63.3331269632973, 44.6860786629818], [-63.3331172659838, 44.6843865919681], [-63.3339991977938, 44.6816858035822], [-63.3361218889624, 44.6829600841311], [-63.3386829984138, 44.6824494614007], [-63.3413172909165, 44.6834934645002], [-63.3530672494429, 44.6760948199581], [-63.3572203909701, 44.6739782105476], [-63.3621103827956, 44.6770268875377], [-63.363337319777, 44.6784864292698], [-63.3815132167882, 44.6742655039351], [-63.3822903403573, 44.6755944781118], [-63.3831020553531, 44.6774436569209], [-63.3910651047139, 44.6754421786098], [-63.3952084492146, 44.6744007542906], [-63.3953775112527, 44.6743264402245], [-63.3955607981134, 44.6742848450542], [-63.3962394061403, 44.6741499802676], [-63.3967951668571, 44.6740397533682], [-63.3978034350337, 44.6726307749906], [-63.3981898076239, 44.6727091995016], [-63.3985786577677, 44.6727811245304], [-63.3989697680727, 44.6728465098555], [-63.3993629238416, 44.6729053216414], [-63.3997579076822, 44.6729575254121], [-63.4001545031003, 44.673003093716], [-63.4005524900089, 44.6730420003773], [-63.4009516465239, 44.6730742236894], [-63.4013517543548, 44.6730997470543], [-63.4017525934144, 44.6731185557879], [-63.4021539400221, 44.673130639037], [-63.402555574989, 44.6731359904175], [-63.4029572746346, 44.673134607376], [-63.403358817075, 44.6731264899121], [-63.4037599831213, 44.6731116437723], [-63.4041605472964, 44.6730900759783], [-63.4045602931063, 44.6730617980216], [-63.4049589950737, 44.6730268271402], [-63.4054353510077, 44.6728886330854], [-63.4059149426732, 44.6727562583734], [-63.40639762634, 44.6726297432902], [-63.4068832663624, 44.6725091223705], [-63.4090298643957, 44.671769649453], [-63.4095273585865, 44.6716336436037], [-63.4128977800403, 44.67047643267], [-63.4131832888921, 44.670387380449], [-63.4134720792897, 44.6703038848037], [-63.4137639338407, 44.6702260083657], [-63.4140586405427, 44.6701538092931], [-63.4143559829017, 44.6700873387151], [-63.4146557408306, 44.6700266471209], [-63.4149576960386, 44.6699717779705], [-63.415261623947, 44.6699227728061], [-63.4155673026719, 44.6698796667794], [-63.4158745067361, 44.6698424918465], [-63.4202179743225, 44.6695688991944], [-63.4204310340467, 44.6695293615654], [-63.4206415569285, 44.6694834225477], [-63.4208491656754, 44.6694311651778], [-63.4210534865885, 44.6693726820734], [-63.4212541558499, 44.6693080792664], [-63.4214508114387, 44.6692374710924], [-63.4216431012151, 44.6691609846631], [-63.4218306811246, 44.6690787579495], [-63.4220132134004, 44.6689909372272], [-63.4221903728525, 44.6688976809091], [-63.4223618396807, 44.6687991569909], [-63.4225273075594, 44.6686955398563], [-63.4226864800446, 44.6685870173055], [-63.4228390696754, 44.6684737828882], [-63.4229848051606, 44.6683560397379], [-63.4303607354145, 44.6622262348043], [-63.4306552346057, 44.6619830479233], [-63.4307896908442, 44.6618469667164], [-63.4309314827253, 44.6617147322727], [-63.4310803946533, 44.6615865465254], [-63.4312361993545, 44.661462603741], [-63.4313986605719, 44.6613430937144], [-63.4315675294723, 44.6612281985737], [-63.4317425500357, 44.6611180915019], [-63.4319234563609, 44.6610129424875], [-63.4321099699701, 44.6609129093789], [-63.4323018114872, 44.6608181455514], [-63.4324986844682, 44.6607287954349], [-63.4327002933674, 44.6606449945128], [-63.4336373808376, 44.6603518325], [-63.4338251071724, 44.6600945601484], [-63.4300138770187, 44.6551615013411], [-63.4157442420367, 44.6576729344745], [-63.4128728580794, 44.6534337511919], [-63.4124080194458, 44.6459233942077], [-63.4123243710214, 44.6455018572102], [-63.4122596141676, 44.6451758966566], [-63.412167568292, 44.6447114403998], [-63.3999459511223, 44.6241893108086], [-63.4001301928921, 44.6239625775628], [-63.4065769013246, 44.6160288179433], [-63.4369659156463, 44.5785945382696], [-63.549066940463, 44.5646897264127], [-63.557652620232, 44.5636199357156], [-63.5578705407402, 44.5635961728904], [-63.5729497841686, 44.5619553547535], [-63.592374442731, 44.5817283799809], [-63.5955977731419, 44.5821126799966], [-63.5955978980077, 44.582112771491], [-63.599453557937, 44.5826033961397], [-63.6067868334864, 44.5866880367503], [-63.6077753360318, 44.5872386301545], [-63.6104404021211, 44.5888115264682], [-63.6184828706378, 44.5933521168439], [-63.6224877901431, 44.5956127648431], [-63.6256749112616, 44.5974099069053], [-63.6279387574057, 44.5987366031028], [-63.6295630533732, 44.5973634706817], [-63.6333780438746, 44.5942651371318], [-63.6372609928256, 44.5912023699954], [-63.6373224178281, 44.5911538753061], [-63.637606564834, 44.5913408789628], [-63.6385408423738, 44.5919556004416], [-63.6384387156042, 44.592900174231], [-63.6385495120147, 44.5936103766864], [-63.6385688042337, 44.5941884923424], [-63.6387736668309, 44.5950540213048], [-63.6388168236938, 44.5952361438357], [-63.6392083382407, 44.5963423850589], [-63.6546887450205, 44.6195090416715], [-63.6627943426437, 44.6316306888375], [-63.6629957988294, 44.6315045449275], [-63.6630830791424, 44.6314386737924], [-63.6631602282556, 44.6313763301207], [-63.6632564270427, 44.6312862250431], [-63.6633579663143, 44.6311840994358], [-63.6634165661152, 44.6311143302393], [-63.6634613650984, 44.6310577787527], [-63.6636885131011, 44.6306954889099], [-63.6637527138979, 44.6305515126036], [-63.6637811347968, 44.6304856621227], [-63.6638007845454, 44.6304249674318], [-63.6638331768962, 44.630275537946], [-63.6638736388132, 44.6300818888607], [-63.6639709425282, 44.6293344537938], [-63.6640168985415, 44.6289509500053], [-63.6640673101986, 44.6285643308858], [-63.6641123930494, 44.6282416603346], [-63.66416155515, 44.6278364918149], [-63.664226785416, 44.627400661781], [-63.6642844060533, 44.6264140827669], [-63.6648733137058, 44.6224550007534], [-63.665405495443, 44.6197767053652], [-63.6657760720573, 44.6191173920631], [-63.6664870122479, 44.6184650614203], [-63.6679452923644, 44.6170341196644], [-63.668818615619, 44.6161864894713], [-63.6696529519902, 44.6153766342068], [-63.6698029221337, 44.6150649804738], [-63.6698744675561, 44.614916193751], [-63.6698558841079, 44.614088977741], [-63.6698229913954, 44.6126298707556], [-63.6697444480969, 44.6112799582365], [-63.6698010347732, 44.6107214817518], [-63.6699851004733, 44.6102972179598], [-63.6700658419493, 44.610218875951], [-63.6716925049776, 44.6086396969], [-63.6722828616126, 44.6076914355647], [-63.6723222329749, 44.607651401676], [-63.6725129542929, 44.6074574871771], [-63.6728942828428, 44.605328551091], [-63.6730165300782, 44.6048190564953], [-63.673040098278, 44.6047206789067], [-63.6741816216455, 44.6049846225986], [-63.6741700405649, 44.6058019924296], [-63.6744931466063, 44.6060711723786], [-63.6773028109137, 44.607647693625], [-63.6795072658411, 44.6057960873718], [-63.679607908594, 44.6058598092647], [-63.6827766843177, 44.6078637476351], [-63.6828348529273, 44.6078214147269], [-63.6835420570246, 44.6073230220838], [-63.6917556734675, 44.6012347372924], [-63.6919898957032, 44.6013679724397], [-63.6925317073802, 44.6016762688294], [-63.6999990924184, 44.6058312996198], [-63.7022908240655, 44.6054704141575], [-63.7021649844673, 44.6040790619411], [-63.7034090945419, 44.6015362910133], [-63.7042976002231, 44.5995641247604], [-63.7053531125971, 44.5972812752254], [-63.7102413625893, 44.5915368009535], [-63.7096353249627, 44.590595990912], [-63.7098628242067, 44.5905597369093], [-63.7101416442029, 44.5904627265862], [-63.710659633457, 44.5902975336448], [-63.7111380878554, 44.590170694104], [-63.7118567535574, 44.5900614117689], [-63.7121497139345, 44.5900310020394], [-63.712416476743, 44.5900388662842], [-63.7127225363535, 44.5899893182615], [-63.7129484860037, 44.5899307416211], [-63.7131205232621, 44.5898248628696], [-63.7140079509649, 44.5893429305564], [-63.7143262878505, 44.5892075522066], [-63.7146035762191, 44.5889866793472], [-63.7148028575834, 44.5889282654713], [-63.7150429494111, 44.5889362904415], [-63.7152305329138, 44.5890113376776], [-63.7154450137727, 44.5891052719762], [-63.7156598476696, 44.5892277866243], [-63.7159140924545, 44.589302415093], [-63.7162215498436, 44.5893671818603], [-63.7169383209987, 44.5891054351109], [-63.7175103097812, 44.5889970380991], [-63.7178163595103, 44.5889474757536], [-63.7181226454963, 44.5889169675602], [-63.7187759129473, 44.5889128571928], [-63.7191225449677, 44.5889106756591], [-63.7194820390663, 44.5888702999989], [-63.7198021240734, 44.5888778119005], [-63.7201223276581, 44.5888948483422], [-63.7204165717277, 44.5889692143031], [-63.720697015878, 44.5890055556634], [-63.7209236608241, 44.5890041258335], [-63.7212292353444, 44.588916446807], [-63.7217463532327, 44.5886845141511], [-63.7222764463869, 44.5884239146002], [-63.7235666831547, 44.5881775535276], [-63.7238067740841, 44.5881855600485], [-63.7241135236008, 44.5881931436911], [-63.7245128876267, 44.5881429716139], [-63.7250449750408, 44.5880443169238], [-63.7254586159915, 44.5880702737173], [-63.7258061903446, 44.5881442869489], [-63.7260609184232, 44.588257000686], [-63.7268108257342, 44.5885190077961], [-63.7277333407337, 44.5887227435858], [-63.7282956618471, 44.5889097141209], [-63.7290722509186, 44.5891715353223], [-63.7293534146194, 44.5892650177041], [-63.7294615008127, 44.5893786600908], [-63.7296492244526, 44.5894632100922], [-63.7299691944753, 44.5894611661233], [-63.7308464846902, 44.5892459450714], [-63.7313380985092, 44.5891094091992], [-63.7316578268851, 44.589088305968], [-63.7320843317107, 44.5890760459128], [-63.7325382189827, 44.5891207736062], [-63.7329119935994, 44.5891564872837], [-63.7333263639821, 44.5892395764368], [-63.7336597844795, 44.5892469629013], [-63.7339923668489, 44.5891876594045], [-63.7343780351599, 44.5891089588196], [-63.7347238272555, 44.5890400404624], [-63.7349639235747, 44.5890480225543], [-63.7352716396787, 44.5891317919098], [-63.7354862723529, 44.5892352153132], [-63.7358214975658, 44.5893854989195], [-63.7362371965568, 44.5895733744722], [-63.7364245671587, 44.5896293336647], [-63.7366386033516, 44.5896851200743], [-63.7369056069085, 44.5897119807233], [-63.7372922391119, 44.589709484469], [-63.7376377895606, 44.5896215039104], [-63.7380492763512, 44.5894759287591], [-63.7384737312213, 44.589301687067], [-63.7388193993494, 44.5892232290988], [-63.7391525782001, 44.5892115454802], [-63.7395382402229, 44.5891328263751], [-63.739910568552, 44.5890541935288], [-63.7402821719406, 44.5889183967525], [-63.7407204312216, 44.5887821671896], [-63.7413978148448, 44.5885776888589], [-63.7420229569426, 44.588459296675], [-63.7425964683694, 44.5884746238255], [-63.7429967882027, 44.5885006034578], [-63.7434777057817, 44.5885736955417], [-63.7437043462363, 44.588572220279], [-63.7465775618584, 44.5880485041233], [-63.7472171183233, 44.5880157383996], [-63.7478702492304, 44.5880019356667], [-63.7486834841756, 44.5879966071391], [-63.7492964972205, 44.5879735317751], [-63.749857163637, 44.5880270185728], [-63.7504449843281, 44.5881184338288], [-63.7509133129166, 44.5882487440314], [-63.7514347238536, 44.5883596470678], [-63.7520769833491, 44.5885364467458], [-63.7527596113369, 44.5887415598514], [-63.7531074704559, 44.5888345439223], [-63.7536016112358, 44.5888979779802], [-63.7539895918104, 44.5890002227496], [-63.7544311470102, 44.5891211670486], [-63.7550458956002, 44.5892314376344], [-63.7554607914973, 44.5893525541823], [-63.755836309744, 44.589521568413], [-63.756440205787, 44.5898224574626], [-63.7568416521077, 44.5899341309356], [-63.7573234644086, 44.5900738526607], [-63.7577239243791, 44.5901093073005], [-63.7583657257339, 44.590247963452], [-63.7589801221842, 44.590329632123], [-63.7593293656071, 44.5905273929027], [-63.759678361095, 44.5907060987682], [-63.7601066095505, 44.5908271098872], [-63.761402455399, 44.5910185600289], [-63.7640980866659, 44.5911911109096], [-63.765045060994, 44.591213354639], [-63.7658593388833, 44.5912841192095], [-63.7661931483513, 44.5913199914875], [-63.7660609513758, 44.5914066279854], [-63.7662077333983, 44.5914151701456], [-63.7661555296022, 44.5915012704184], [-63.7666761212756, 44.5915454153825], [-63.7669840206359, 44.5916386252656], [-63.767305630084, 44.5917603253347], [-63.7675877451007, 44.591920400894], [-63.7678164058663, 44.5920713076729], [-63.7680056970664, 44.5922701167667], [-63.7683690664971, 44.5925249218867], [-63.7685176092176, 44.5926668379674], [-63.7687589802462, 44.5927700183901], [-63.7690930520223, 44.5928249356275], [-63.7695181914086, 44.5927077387462], [-63.7698635846522, 44.592610133884], [-63.7700770324485, 44.592618222956], [-63.7703581521318, 44.5927020760848], [-63.770946429167, 44.5928219674061], [-63.7712679263257, 44.5929341289654], [-63.771601371976, 44.5929414049317], [-63.7719733023515, 44.5928340859365], [-63.7721976871364, 44.5926610703904], [-63.7720287400826, 44.5919857436836], [-63.7719701124339, 44.5915859747023], [-63.7719919855127, 44.5912237737675], [-63.7720401423985, 44.5908328117546], [-63.7721939492465, 44.5903649126002], [-63.7722832363958, 44.5900594209189], [-63.77251993349, 44.5898100990429], [-63.7727709694928, 44.5896369017652], [-63.7731701718219, 44.5895770331375], [-63.773621816899, 44.5894501146157], [-63.7741671625484, 44.589351141634], [-63.7746330207699, 44.5892908159362], [-63.7751261751997, 44.5892779424113], [-63.7755929182617, 44.5892843014455], [-63.7760205540662, 44.5893576183725], [-63.7763415346936, 44.5894316587532], [-63.7766759756773, 44.5895151339155], [-63.7771027248446, 44.5895217590553], [-63.7775282055907, 44.5894331135224], [-63.7782199406988, 44.5893140699049], [-63.7787257892218, 44.5892534543655], [-63.779618645444, 44.5892187803293], [-63.7806717368583, 44.5892020587359], [-63.7812451341991, 44.589207665441], [-63.7820051798964, 44.5892119913809], [-63.7824194909902, 44.589285375572], [-63.7828336745233, 44.589349231367], [-63.7831663323511, 44.589299312346], [-63.7835775721051, 44.589144047475], [-63.7840293186918, 44.5890266141425], [-63.7843364634672, 44.5890626157628], [-63.7848729427448, 44.5892971231499], [-63.7852479022393, 44.5894184065332], [-63.7857022144145, 44.5894915038604], [-63.7862224171174, 44.5895069797979], [-63.7867418481675, 44.589465291166], [-63.7875143274466, 44.5894028013445], [-63.7882603998497, 44.5893595433532], [-63.7888466152512, 44.5893269120745], [-63.789406296216, 44.5893039888574], [-63.790139678119, 44.5893084452973], [-63.7908860047452, 44.5892842240367], [-63.7914452976377, 44.589232710082], [-63.792178549285, 44.5892276273284], [-63.79271117479, 44.5891762924516], [-63.7932027697444, 44.5890490186364], [-63.7936555314274, 44.5890077621435], [-63.7939494799513, 44.5890533573829], [-63.7945903147188, 44.589115595521], [-63.795110256012, 44.5891119764909], [-63.795497137947, 44.5891283379345], [-63.7961106612349, 44.5891431172881], [-63.7965644640653, 44.5891780645398], [-63.7969909527212, 44.5891655607614], [-63.7973777044004, 44.5891723893793], [-63.7975783332377, 44.589218626791], [-63.7978989491491, 44.5892640261039], [-63.7982063643174, 44.5893190445347], [-63.7986057975135, 44.589278141371], [-63.7990986842453, 44.5892461101248], [-63.799631043849, 44.5891756898137], [-63.7999378059421, 44.589183069249], [-63.8002440452157, 44.5891523404679], [-63.800484802695, 44.5892078202587], [-63.8005930254323, 44.5893213943049], [-63.8006481846856, 44.5894543951159], [-63.8006650478602, 44.5897115258702], [-63.8006964206231, 44.5900543043317], [-63.8007519724403, 44.5902158866797], [-63.8008339275403, 44.5903582280617], [-63.8009688185634, 44.5904716143386], [-63.8012627787654, 44.5905171911569], [-63.8016219611486, 44.5904575044792], [-63.8018736987356, 44.5903414044393], [-63.8022703839853, 44.5901004252503], [-63.802746534205, 44.5898207749572], [-63.8031698751641, 44.5895796048866], [-63.8035542687658, 44.589414930184], [-63.8039267731646, 44.5893551412952], [-63.8043130020244, 44.5893238387569], [-63.8046065660694, 44.5893408264475], [-63.8049131979068, 44.5893386660414], [-63.8052996890746, 44.5893264130762], [-63.8056600437592, 44.5893524550224], [-63.8061009162394, 44.5894160388541], [-63.8063820691604, 44.5894998025613], [-63.8066366939328, 44.5895932824959], [-63.8069453038604, 44.5897340183837], [-63.8072541796894, 44.5898938065253], [-63.8076438419102, 44.590110189492], [-63.8079532486435, 44.5903080828028], [-63.8081677501637, 44.5903923154258], [-63.8083965079474, 44.5905431404488], [-63.8085458025577, 44.5907326378029], [-63.8086285697348, 44.5909321340613], [-63.8086320048924, 44.5911798307108], [-63.8086757007444, 44.5914462975542], [-63.808705667644, 44.5916842785743], [-63.8088024305731, 44.5919313143937], [-63.8088735861268, 44.5922547528744], [-63.8089589997406, 44.5926447847867], [-63.8089900266522, 44.59295898073], [-63.8089967676101, 44.5934448466161], [-63.8089736701276, 44.5937022590927], [-63.8088490639162, 44.5943319715922], [-63.8088122365828, 44.5945608975874], [-63.8087890070479, 44.5948087834692], [-63.8088189775407, 44.595046763514], [-63.8089014877995, 44.5952272056377], [-63.8090914572276, 44.5954640530257], [-63.8093342314247, 44.5956624155366], [-63.809656479575, 44.595822102303], [-63.8099264529623, 44.5960583805211], [-63.8101159004692, 44.5962571196849], [-63.8102650827901, 44.5964370885376], [-63.8103341335911, 44.5966080964593], [-63.8104966514024, 44.5967879708347], [-63.810711974881, 44.5969293577427], [-63.8108198355972, 44.5970143419606], [-63.8112141978036, 44.5975641486407], [-63.8112829871947, 44.5977161038611], [-63.8111783056164, 44.597859763097], [-63.8110197592569, 44.5979656943735], [-63.810927746619, 44.5980616246047], [-63.8108493344745, 44.5981765137274], [-63.8108647881923, 44.5983288472939], [-63.8109201109391, 44.5984713709319], [-63.811042236902, 44.5986229470324], [-63.8112446327254, 44.5987930082545], [-63.8114610260975, 44.5990106085735], [-63.8116640866742, 44.5992283033828], [-63.8118138124759, 44.599446376677], [-63.8120314059973, 44.5997497159232], [-63.8121817983489, 44.6000154226161], [-63.8123181940501, 44.6002335895388], [-63.812480463028, 44.6003944067433], [-63.8126555347954, 44.6005170216794], [-63.8128434120472, 44.6006014339492], [-63.8130855565253, 44.6007521538041], [-63.8139066714923, 44.6012989119155], [-63.8141894916864, 44.6014969781974], [-63.8142578930054, 44.6016203506585], [-63.8145135149077, 44.6017804994757], [-63.8147952732932, 44.6019023497194], [-63.815183043662, 44.6019758042327], [-63.8156245548444, 44.60207745611], [-63.8158909834795, 44.6020564976603], [-63.8161568767188, 44.6019974310954], [-63.8165031781591, 44.6019663732985], [-63.8167428010662, 44.6019360759725], [-63.8171160393887, 44.6019238793898], [-63.8174760760697, 44.6019213030701], [-63.8177701063403, 44.6019668357309], [-63.818037736023, 44.6020316133291], [-63.8182648274319, 44.6020585699683], [-63.8185977924835, 44.6020276004691], [-63.8188648876687, 44.6020542680104], [-63.8190794484776, 44.602138479131], [-63.8193476153529, 44.602241360673], [-63.8196284493719, 44.602296512007], [-63.8200014199964, 44.6022652509776], [-63.8203213190523, 44.6022534260711], [-63.8208677750194, 44.6022304439927], [-63.8214546363097, 44.6022357520273], [-63.8220941667234, 44.6021930395726], [-63.82249407423, 44.602180631976], [-63.8230794550967, 44.6020811376533], [-63.8235988349428, 44.6020297552867], [-63.8239971245836, 44.6019030213025], [-63.8245033027883, 44.601861257135], [-63.8248502725752, 44.6018778075099], [-63.825184987545, 44.6019706663085], [-63.8254933028253, 44.6020827711941], [-63.8259225771568, 44.6022606938349], [-63.8263378449565, 44.6023910778619], [-63.8268465923429, 44.602530310408], [-63.827341736541, 44.6026505850365], [-63.8277698026385, 44.6027427601535], [-63.8282909440809, 44.602815203687], [-63.8288378069848, 44.6028207643073], [-63.8293556974242, 44.602664560179], [-63.8296731557574, 44.6024812277884], [-63.8298590288678, 44.6024227117088], [-63.8300461227887, 44.6024499348784], [-63.830367106111, 44.6025142955609], [-63.8306868686229, 44.6024929151352], [-63.8310311272943, 44.6023189113852], [-63.8313231327623, 44.6022215087895], [-63.8317103821082, 44.6022568005957], [-63.8322568326854, 44.6022337641527], [-63.8329238398687, 44.6022479568592], [-63.8339243501945, 44.6022692382372], [-63.8345238660522, 44.6022267483877], [-63.8350841964989, 44.6022417079753], [-63.8359098533479, 44.6021594458659], [-63.8366291047515, 44.6020970125471], [-63.8374154378489, 44.6020626659744], [-63.8379089560963, 44.6020685739701], [-63.8384691482024, 44.6020739907516], [-63.8390422625739, 44.6020507265381], [-63.8395612157203, 44.6019706906134], [-63.8399310152918, 44.6017202512798], [-63.840383153544, 44.6016311747105], [-63.8407433222774, 44.6016380523926], [-63.8413153326194, 44.6015385628972], [-63.8417805269859, 44.6014303297889], [-63.8425262939617, 44.6013581365344], [-63.8431124581594, 44.6013156991061], [-63.8437658459846, 44.6013108738926], [-63.8443658954416, 44.6013064394802], [-63.8449652549924, 44.6012543675684], [-63.8454712715004, 44.6012029838311], [-63.8461504975682, 44.6011407867803], [-63.8465624793305, 44.6010424573298], [-63.847158789101, 44.600780786829], [-63.8475961886943, 44.6005965152922], [-63.8482079018769, 44.6004776403742], [-63.849085463383, 44.6002996208071], [-63.8498969043926, 44.6001601974247], [-63.8507230651965, 44.6001159349178], [-63.8514144930808, 44.5999773944156], [-63.8521075882382, 44.5999531699259], [-63.8528524865432, 44.5998237488212], [-63.8533320934801, 44.5997915826694], [-63.8536530875823, 44.5998558778569], [-63.8540278377694, 44.5999483541936], [-63.8544157824113, 44.6000312014912], [-63.8549351146468, 44.5999796759548], [-63.8554161211589, 44.6000427684421], [-63.8561104739577, 44.600104258606], [-63.8571668100869, 44.6002964169475], [-63.8565997054446, 44.6016345524693], [-63.8527553732711, 44.6105050316443], [-63.8506400689491, 44.6145319661154], [-63.8467594753807, 44.6219447593373], [-63.8452907209081, 44.624613861836], [-63.843201082352, 44.6286404585138], [-63.8508279767436, 44.6310515559825], [-63.8508931746703, 44.6318609215588], [-63.8510899802777, 44.632545447249], [-63.8523292080087, 44.6351658389838], [-63.852453471962, 44.6354507409354], [-63.8527321769738, 44.6362585103825], [-63.8530154948346, 44.6373806576624], [-63.8532554456268, 44.6382744650741], [-63.8534441250741, 44.6393115687034], [-63.8536413331268, 44.6409297948339], [-63.8545255188098, 44.6475258373982], [-63.8571916934202, 44.6482204293485], [-63.8583468370441, 44.6523372168508], [-63.8595941199683, 44.6545477727572], [-63.8602928269014, 44.6557620470511], [-63.8622772628561, 44.6572619725805], [-63.8603500971957, 44.6614400751084], [-63.8647608620716, 44.6635981108352], [-63.8624849596381, 44.6685696771377], [-63.8614622196023, 44.6707306333814], [-63.8751211798541, 44.6742853784568], [-63.8737200802004, 44.6770014112555], [-63.8653600796886, 44.6748016204773], [-63.8629267636712, 44.6796275876082], [-63.8626400888062, 44.6803946272091], [-63.8623487355151, 44.6811708492533], [-63.8626251147887, 44.6812213542233], [-63.8643126871865, 44.6815538737181], [-63.8660628200573, 44.6818893243148], [-63.8679528718218, 44.6822568404378], [-63.8695504815372, 44.6825705304459], [-63.8710339450243, 44.6828587725133], [-63.8719275172038, 44.6830291663165], [-63.8719065837627, 44.6830224656183], [-63.8719075862825, 44.6829824421677], [-63.87276932127, 44.6831667920096], [-63.8746182239063, 44.6835630953343], [-63.8763803816255, 44.6839440269342], [-63.8780798602941, 44.6843116948061], [-63.8795976987139, 44.6846418634244], [-63.8814347489783, 44.6849901280139], [-63.882617740376, 44.6852187994178], [-63.8824717937867, 44.6856338052385], [-63.8822527854188, 44.6861980057703], [-63.8829971168868, 44.6863500285577], [-63.8828651570665, 44.686736344327], [-63.8824930057055, 44.6876641571434], [-63.8826345119223, 44.6876950764877], [-63.8831939683083, 44.6878085115672], [-63.8824195594479, 44.6882100833114], [-63.8825165945666, 44.6882676417978], [-63.8828829032849, 44.6884817716383]]]}, "properties": {"id": "covered-ca-ns-halifax", "status": "covered", "jurisdiction": "Halifax", "country_id": "ca", "state_id": "ns", "area_type": "city", "note": "Covered by public tree inventory for Halifax; geometry from official jurisdiction boundary."}}]}