{"type": "FeatureCollection", "features": [{"type": "Feature", "geometry": {"type": "Polygon", "coordinates": [[[-106.6712752748285, 52.231221336979296], [-106.67167135826594, 52.23124265867165], [-106.67184663904756, 52.23123123717057], [-106.69406107707589, 52.23122914334935], [-106.70651135295616, 52.23122431219007], [-106.70661405529442, 52.22429478739257], [-106.71780624170562, 52.224470837595305], [-106.71782038300705, 52.21283043457528], [-106.71779865643165, 52.21188663378525], [-106.71772867232077, 52.211590934511605], [-106.7174006578747, 52.21105623692597], [-106.71679476716749, 52.210525540247886], [-106.70962517357816, 52.20601694519974], [-106.70484177328213, 52.20302003348356], [-106.70350495048179, 52.2021221335293], [-106.70404645460428, 52.20212334124429], [-106.69419203775074, 52.19593015759022], [-106.69175397688777, 52.194397493007564], [-106.68883015745884, 52.192559250219794], [-106.68877035288568, 52.19252415168594], [-106.68307433517643, 52.189141330444215], [-106.6800077692625, 52.18751426301254], [-106.67649821991228, 52.18565181778513], [-106.67639532508313, 52.185597243844185], [-106.67233412931067, 52.18340704622425], [-106.67157364476518, 52.1829667492661], [-106.67133095508339, 52.182795832915616], [-106.6710909653255, 52.18262684489316], [-106.67085222040217, 52.18242573174272], [-106.67073272290665, 52.18225274247713], [-106.67060654175563, 52.18204035252771], [-106.67046859075737, 52.181732701337474], [-106.67042112774512, 52.18162695160339], [-106.67035101929085, 52.181232135437284], [-106.67028431028692, 52.18061320061963], [-106.67037662906127, 52.18059988222136], [-106.67081599882, 52.18054138311737], [-106.6709239733555, 52.18052701012873], [-106.67194306092068, 52.180391340662425], [-106.678452944132, 52.18041583702268], [-106.69414150602556, 52.180240058549344], [-106.69414863120961, 52.18047229618447], [-106.69429969785106, 52.18540446479121], [-106.6958540574405, 52.18536183688869], [-106.69580002449592, 52.18730369661942], [-106.70295541495199, 52.18761965226088], [-106.70433666493619, 52.18752574734762], [-106.71785427343525, 52.18752743890082], [-106.71790223082073, 52.18504252975056], [-106.72853764313497, 52.18496511428788], [-106.7299162689229, 52.184954988189446], [-106.72990993322519, 52.18446652395315], [-106.72976925387458, 52.173611437359384], [-106.72976242706322, 52.173083586593215], [-106.72976116394028, 52.172989046138404], [-106.7183064446285, 52.172996225443626], [-106.71809566411743, 52.172990428966095], [-106.71797825993097, 52.172964439346785], [-106.71793014249694, 52.17293835369153], [-106.71784089876624, 52.17294027390979], [-106.71768983157753, 52.17294351988596], [-106.71753876326756, 52.172946766735954], [-106.71738769602867, 52.17295001227096], [-106.71723663902385, 52.17295328410931], [-106.7170855717347, 52.1729565292032], [-106.7169345546014, 52.17295979382919], [-106.71678344733996, 52.17296304525324], [-106.71663242023939, 52.17296628379848], [-106.71648131148986, 52.17296953499153], [-106.71633028611915, 52.1729727737696], [-106.71617917697746, 52.17297602363728], [-106.7160281515567, 52.17297926197436], [-106.71587704236484, 52.17298251140075], [-106.71572601545599, 52.17298574950709], [-106.71557494791602, 52.17298899239541], [-106.71542389060916, 52.17299226158722], [-106.71527282301898, 52.17299550403443], [-106.71512176531967, 52.17299877190101], [-106.71497069802133, 52.17300201479123], [-106.7148196289179, 52.17300525678698], [-106.71466856156947, 52.17300849923607], [-106.71451749419587, 52.17301174146457], [-106.71436642645541, 52.173014982588384], [-106.71421539929614, 52.17301821848974], [-106.71406429124109, 52.173021465058454], [-106.71391327360499, 52.1730247252747], [-106.71383340563068, 52.1730264194437], [-106.71368235581926, 52.173030378070735], [-106.7135313267539, 52.17303428019539], [-106.71338026552881, 52.173038212951525], [-106.71322923640307, 52.173042114635244], [-106.7130782072471, 52.17304601609859], [-106.7129271459311, 52.17304994819322], [-106.71277611671483, 52.173053849215584], [-106.71262505677618, 52.17305778065897], [-106.71247402749952, 52.17306168124045], [-106.71232300810682, 52.17306560724166], [-106.71217198834195, 52.173069532138314], [-106.71190589582567, 52.17307503695846], [-106.71158476076397, 52.17298791592241], [-106.7118485917539, 52.169290031628606], [-106.7120041461043, 52.16710925757973], [-106.71173242179685, 52.165900629699884], [-106.71184146407492, 52.15861200660045], [-106.71380404222764, 52.15879693692203], [-106.71412445628138, 52.15882982719828], [-106.7144774560387, 52.158859338523754], [-106.7148301695469, 52.15887733504405], [-106.71525754619124, 52.158888441158446], [-106.71786045594574, 52.158893822742584], [-106.7416653206625, 52.1590076539729], [-106.75404912313357, 52.15898626501599], [-106.75446095708656, 52.15865929986822], [-106.75422878039356, 52.158507970503], [-106.75448461121138, 52.158497092998275], [-106.75501138943417, 52.15850806003616], [-106.75921119656026, 52.158528946314355], [-106.75945244694405, 52.158530152291945], [-106.76193744432737, 52.15854242987588], [-106.76549184000652, 52.15855990032757], [-106.76550305058137, 52.15120982482962], [-106.76550418927411, 52.150472330041715], [-106.78925747839321, 52.15065288991289], [-106.81305120896324, 52.1508090146643], [-106.824404236182, 52.1508976945166], [-106.82430373192392, 52.14389562292526], [-106.82407338085596, 52.12918436590305], [-106.82397334702864, 52.12211558126098], [-106.8130849478857, 52.122053188507195], [-106.78928132838638, 52.12189161055345], [-106.78928734064897, 52.12003412800937], [-106.78928157641263, 52.114782933082054], [-106.8022853827813, 52.114786167348115], [-106.80247890721567, 52.107836847994], [-106.80248117965861, 52.107754325635135], [-106.80159070879338, 52.10773288965885], [-106.79640869993979, 52.10758918681037], [-106.79489016882556, 52.10754699345512], [-106.79226396870826, 52.10748339363653], [-106.79129497764599, 52.10745800033208], [-106.79126785885711, 52.10745737416125], [-106.7904252766712, 52.10743778965092], [-106.79039847769855, 52.107436982593846], [-106.78954401188699, 52.102733300112675], [-106.78931867440079, 52.10258043000779], [-106.78930179890787, 52.09999327915614], [-106.77769076680876, 52.10000921328388], [-106.76674929888385, 52.10001719710496], [-106.76557774282463, 52.10002501815313], [-106.76402303086958, 52.10021912423792], [-106.76309134903721, 52.10028702735831], [-106.73529263318716, 52.100321921553046], [-106.73488092556123, 52.100247131454815], [-106.73474024442753, 52.10000632388423], [-106.7307929471386, 52.099919026119], [-106.73074333897043, 52.099929020067904], [-106.73069313915168, 52.099937926717395], [-106.73064254915685, 52.09994582393891], [-106.73059154016546, 52.09995252729462], [-106.73054015181201, 52.09995813931534], [-106.73048841725026, 52.099962628055565], [-106.73043651923409, 52.099966019027654], [-106.7303844153938, 52.09996832031096], [-106.73033232287368, 52.0999694188187], [-106.73028015897036, 52.099969434081956], [-106.72949734467448, 52.09995943180884], [-106.72619649665778, 52.09991678806698], [-106.726006720205, 52.099914339206265], [-106.72578462071796, 52.099929835729334], [-106.7256166337442, 52.09994161783181], [-106.72542025293691, 52.099939121426466], [-106.72536751889706, 52.09993844351357], [-106.72564569020376, 52.099795451715515], [-106.72623288963327, 52.099493574951616], [-106.73636780636959, 52.09981378954735], [-106.73740009413073, 52.09981447705749], [-106.73844582071594, 52.09955611914475], [-106.73935113786519, 52.099183127590436], [-106.74013595027274, 52.09871292202055], [-106.74077924396549, 52.09815122864003], [-106.74078543596438, 52.09814583702817], [-106.74082390914589, 52.098089703376935], [-106.74122754332086, 52.097500932955874], [-106.7414781370802, 52.09681383496374], [-106.7415471400926, 52.0963362288758], [-106.74163606617057, 52.09298179299165], [-106.7306481862379, 52.09279163538303], [-106.73051860093513, 52.08778659002722], [-106.72963137011419, 52.08776020891007], [-106.72950838417374, 52.08562048336295], [-106.72869783653937, 52.08561968142094], [-106.72874840033954, 52.086988185033384], [-106.72803002572081, 52.086994059423056], [-106.72795259585168, 52.08561895779314], [-106.72631483057057, 52.08561733780313], [-106.72344134676251, 52.085668337395646], [-106.72173516772087, 52.08578156296128], [-106.72162260808635, 52.085831171902264], [-106.72093822287185, 52.08604846987898], [-106.71943551368157, 52.086387271169414], [-106.71854173116446, 52.08665628364394], [-106.71790115159763, 52.087005622523435], [-106.71783342347298, 52.087042574789876], [-106.71723471452613, 52.087443967450795], [-106.71621181268776, 52.08793108301618], [-106.71571679381445, 52.088080280561584], [-106.7149107187568, 52.08844086886022], [-106.71444440165484, 52.088734583646726], [-106.71310320725067, 52.089359877887965], [-106.71243859931046, 52.089593180378394], [-106.71223091001862, 52.0897001728715], [-106.71123178910403, 52.09001817866116], [-106.71065352570463, 52.09013999330433], [-106.71006679270938, 52.090382872611855], [-106.70908211245701, 52.090699086217555], [-106.70853010075975, 52.09080858441613], [-106.70826712679583, 52.09093118455696], [-106.70696240213914, 52.09133037997693], [-106.70622791799897, 52.09158088003516], [-106.70540742762496, 52.09179518619133], [-106.70519702702039, 52.09189319278634], [-106.70444899492675, 52.09209907279285], [-106.7042059006827, 52.092237881546716], [-106.70341339933817, 52.092892483543956], [-106.70319465852157, 52.09312948866046], [-106.70029324652302, 52.09327843284718], [-106.69748980102233, 52.093422246413624], [-106.69808142517873, 52.09262558510731], [-106.6986543908626, 52.092485976316866], [-106.69929278924414, 52.09226499165758], [-106.69989210938846, 52.09211308834272], [-106.70008173060988, 52.09204519015281], [-106.70103640471083, 52.091778692443064], [-106.70133751115131, 52.0916332718187], [-106.70129710480307, 52.091499293737215], [-106.70090219464109, 52.091433595413854], [-106.70052609393673, 52.09143048667205], [-106.70010491431562, 52.09137708795205], [-106.69935289864323, 52.091370889533316], [-106.69918630658566, 52.09131607261169], [-106.69917311560887, 52.09112346969027], [-106.69929589216079, 52.090933788154665], [-106.69957379445097, 52.090661697126095], [-106.69973021702884, 52.09044684091669], [-106.69410908514789, 52.08970889677377], [-106.69410228792506, 52.0933425946287], [-106.69410218890185, 52.0934013338075], [-106.6940236688519, 52.093397661630334], [-106.6934355974615, 52.09337013404737], [-106.68805426928444, 52.09311807232259], [-106.68793552844232, 52.09311894172738], [-106.68699144249952, 52.09312575729987], [-106.68523768840082, 52.09305629918385], [-106.68507893771894, 52.0930204317819], [-106.6846961064843, 52.092942929981625], [-106.684309200802, 52.092873626327574], [-106.68391871519647, 52.09281234108074], [-106.6835251350958, 52.09275932351461], [-106.68312870499997, 52.092714646145396], [-106.68273022272442, 52.092678243676175], [-106.6823298188607, 52.09265023142684], [-106.68218030525202, 52.09264294480141], [-106.67043106388739, 52.08944203486095], [-106.67042950437653, 52.08803213986927], [-106.67042571937705, 52.08558643515666], [-106.67041416036884, 52.0828823899392], [-106.67036178052919, 52.07063721820969], [-106.65906757673977, 52.07090277181489], [-106.6526339154527, 52.070982927884636], [-106.65240151401022, 52.07101312469776], [-106.64652101191263, 52.07100552691059], [-106.64653553072341, 52.07937814398287], [-106.64654034188078, 52.08015640536678], [-106.64654392271699, 52.08073769297014], [-106.64654851956152, 52.08147706955826], [-106.64654855096143, 52.08148053247871], [-106.64563639426599, 52.08123683804123], [-106.64441320290666, 52.080898516100596], [-106.64346471966077, 52.080637134431996], [-106.64216521521442, 52.080281027087715], [-106.64136968606975, 52.08006103716504], [-106.64041640421279, 52.07980281496021], [-106.64041490946948, 52.079802418489905], [-106.63951987806931, 52.07955063830074], [-106.6389597116194, 52.079401324471235], [-106.63779498699334, 52.079086031290956], [-106.63696969792056, 52.07885861470758], [-106.63643319586546, 52.078711790171205], [-106.63570070091649, 52.078511336195085], [-106.63510098608769, 52.07834482818669], [-106.63434847965422, 52.078140241227565], [-106.63343678034299, 52.07789316983233], [-106.63338387153816, 52.07787881777831], [-106.63155929410729, 52.07738453331286], [-106.63059332283827, 52.077118193905974], [-106.6285363850077, 52.07655101857165], [-106.62700350175719, 52.076130433854544], [-106.62241823649035, 52.07486737443188], [-106.62013680216573, 52.07423883796143], [-106.61926628215346, 52.074001039788115], [-106.61723176806765, 52.073445336670595], [-106.61702828557225, 52.07339053260938], [-106.61625919472043, 52.073183722826215], [-106.61578376964877, 52.07305582713399], [-106.61499669178407, 52.07284122631277], [-106.61486317244393, 52.072803736306106], [-106.61447436719997, 52.072694038154346], [-106.61308147301386, 52.07230312296788], [-106.60990386847325, 52.07143072525244], [-106.60940731455449, 52.07129419783233], [-106.60649776128554, 52.0704942425248], [-106.6054951711548, 52.07023072785944], [-106.60341076740423, 52.069682124195786], [-106.60339931292216, 52.06967888246229], [-106.60296045129655, 52.06955442579515], [-106.60289687930351, 52.069537131505676], [-106.60288527542329, 52.06953372476072], [-106.60293587946894, 52.06973623297574], [-106.60431008702703, 52.0751035405231], [-106.604420489916, 52.0761450540557], [-106.60442949949584, 52.07802423401342], [-106.60441290089517, 52.07959792710971], [-106.60441910722837, 52.08099164349123], [-106.60443461063517, 52.08502904213759], [-106.60434439526938, 52.085464840892556], [-106.6004672945388, 52.085568145151996], [-106.5988897936522, 52.085535639541305], [-106.5985243393384, 52.08553627602019], [-106.59903419522307, 52.08917833074135], [-106.5988814128494, 52.08926781866615], [-106.59835132642853, 52.08957825346833], [-106.596742087268, 52.0895660369426], [-106.59619660010638, 52.08956019337667], [-106.58905899955, 52.089483552537025], [-106.58840779880927, 52.089477252493126], [-106.58555868776885, 52.08940245054448], [-106.58418111254144, 52.0893012367171], [-106.58324810235841, 52.08921123066304], [-106.58228608020721, 52.089087342986275], [-106.58032150735679, 52.08879384691115], [-106.57820387919415, 52.08837914933069], [-106.57496968086814, 52.0876740465403], [-106.57129198754926, 52.0868599349275], [-106.57020477859456, 52.08665855142462], [-106.56927967610052, 52.0865104575527], [-106.56831269282205, 52.08639605705512], [-106.5670291877561, 52.08630873298122], [-106.56571790253236, 52.08626923452657], [-106.56518398144394, 52.08624883721636], [-106.53612406886025, 52.08626246271446], [-106.52764348582998, 52.086257356711876], [-106.52687009317741, 52.08625685048848], [-106.52494089857261, 52.08618294890253], [-106.52381357492996, 52.08608066081336], [-106.52233239947482, 52.08587495723467], [-106.52089227236056, 52.085587847185366], [-106.52082401999797, 52.08557000626618], [-106.52077976374981, 52.085630420669204], [-106.52073554866783, 52.08569082816294], [-106.52069133378629, 52.08575123653327], [-106.52064707712897, 52.08581165091217], [-106.52063469625662, 52.085828583934536], [-106.5205667688228, 52.085875594697995], [-106.52049889052282, 52.08592262349693], [-106.5204309721927, 52.08596965895155], [-106.52036303450357, 52.08601664394902], [-106.52029511551063, 52.08606367844297], [-106.52025387195775, 52.08609222125316], [-106.52022146387019, 52.08610418285262], [-106.52016834999812, 52.08612382926346], [-106.52008277649443, 52.086155417570446], [-106.51999724449263, 52.08618699979313], [-106.519924766995, 52.086213762687215], [-106.5198275903573, 52.08622863002136], [-106.5197303122693, 52.086243457786054], [-106.51963312715405, 52.086258299079184], [-106.51953585902152, 52.08627315319844], [-106.51943866255716, 52.08628796886534], [-106.51933516303059, 52.086283271946904], [-106.51865969731826, 52.08627242204351], [-106.51865342300997, 52.08627231504877], [-106.51857989212719, 52.08626504778055], [-106.51742324952008, 52.08615101016267], [-106.52764974696971, 52.092632241203745], [-106.53179368821276, 52.09548121810229], [-106.53177080240978, 52.09550023286195], [-106.5297824839798, 52.0971528576786], [-106.5287928773905, 52.098100856203644], [-106.5281255678766, 52.09908054906915], [-106.52788049102912, 52.09959625608004], [-106.52765746856635, 52.10033643893996], [-106.52757948932084, 52.101470461597984], [-106.52757225323144, 52.11154704067582], [-106.51478935291267, 52.111738111631375], [-106.51477569160048, 52.11235675415564], [-106.51478375461404, 52.11469781497134], [-106.50792568955801, 52.11469258999274], [-106.50769339566327, 52.122700298662615], [-106.50371783619698, 52.12266352160205], [-106.50371940235628, 52.12570376001042], [-106.50373777196502, 52.143605554987154], [-106.50374510022894, 52.143821266395356], [-106.50374899310313, 52.143938142761066], [-106.50375658630624, 52.14416285626222], [-106.50374047975953, 52.15739962415665], [-106.50373108659934, 52.165095369983824], [-106.5037222966251, 52.16526626960028], [-106.50372351546542, 52.16530225460954], [-106.5037320060335, 52.17292685423593], [-106.51587120396832, 52.172918735426336], [-106.51579469409448, 52.18013540514596], [-106.52745290938519, 52.18014786418537], [-106.52744133591045, 52.186305331864475], [-106.53916081358108, 52.186492770352906], [-106.53895384674513, 52.19455540509074], [-106.55122620596705, 52.19455078610477], [-106.57512396781003, 52.19447134714577], [-106.57510443483179, 52.202071962253505], [-106.58703312185932, 52.202031789187835], [-106.58717770025413, 52.20518098290358], [-106.59507908206659, 52.205167914558885], [-106.59496712465847, 52.204143059672326], [-106.59883855870581, 52.2040944794492], [-106.59885200375142, 52.20786624687476], [-106.60573721063571, 52.207813791496115], [-106.60723526567153, 52.207778129174926], [-106.60701439041856, 52.20817749855907], [-106.60701702365755, 52.20878721233454], [-106.606905700488, 52.20906781658551], [-106.60670871178925, 52.20941361501004], [-106.60643902937568, 52.20976770970546], [-106.60590009799634, 52.21032780527072], [-106.60546181866071, 52.210571595311954], [-106.60495192537044, 52.210777309559575], [-106.6045346092018, 52.21099089411134], [-106.60422992038829, 52.211228814051886], [-106.60402370805355, 52.21159411214986], [-106.6040127364315, 52.21180800529921], [-106.60391700165661, 52.21204061295891], [-106.60372652364433, 52.212358005044635], [-106.60359860033172, 52.212483402677556], [-106.60339389664558, 52.212904004079334], [-106.6030491105405, 52.21335899261134], [-106.6027816122199, 52.21362030594934], [-106.60236082113046, 52.21397299063578], [-106.6021456965864, 52.214108300615706], [-106.60130963187657, 52.21483150961596], [-106.60109712698267, 52.21497569603288], [-106.60080381618855, 52.21510141267079], [-106.60046913400154, 52.21513931143495], [-106.60020611463649, 52.215215306668675], [-106.59986459177436, 52.21553119753691], [-106.59952422083092, 52.215800895572734], [-106.59907642158421, 52.21608020558767], [-106.60405411179269, 52.21617045571955], [-106.603948233503, 52.218046687607114], [-106.59884382992142, 52.2181188312156], [-106.59961124346898, 52.23118921826843], [-106.61079574130429, 52.231181159228626], [-106.61127415561674, 52.23115595173224], [-106.61121171037153, 52.22311505363437], [-106.6228218893375, 52.222977364643604], [-106.63386392317393, 52.222993948624044], [-106.63386764625687, 52.22951419382947], [-106.63386798114584, 52.23006248240123], [-106.64661895051263, 52.22341164902333], [-106.66313433535365, 52.21479183467413], [-106.66616184800297, 52.213157654340016], [-106.66693203947062, 52.212633056752864], [-106.66713244391086, 52.212496546029705], [-106.66778625630434, 52.2119747367454], [-106.66870345364201, 52.21106264412894], [-106.66930426092866, 52.21029884897351], [-106.66977194640278, 52.20950095088343], [-106.67018766971016, 52.20848804167927], [-106.67037814278997, 52.20771203876705], [-106.6705123639221, 52.20621752939882], [-106.67068373464872, 52.20337374909954], [-106.67187972904183, 52.202098038068186], [-106.67293376331803, 52.20834125270041], [-106.67330796100006, 52.21089854304703], [-106.67334714931543, 52.21194103891905], [-106.67326995856536, 52.21300315504276], [-106.67288866686096, 52.214932735434886], [-106.67245091382512, 52.21648558665903], [-106.67151937604253, 52.21978955232062], [-106.67128666366095, 52.221780032658366], [-106.67128085143892, 52.22396503953885], [-106.6712752748285, 52.231221336979296]]]}, "properties": {"id": "covered-ca-sk-saskatoon", "status": "covered", "jurisdiction": "Saskatoon", "country_id": "ca", "state_id": "sk", "area_type": "city", "note": "Covered by public tree inventory for Saskatoon; geometry from official jurisdiction boundary."}}]}