{"type": "FeatureCollection", "features": [{"type": "Feature", "geometry": {"type": "Polygon", "coordinates": [[[-71.51276700037714, 43.0496150003151], [-71.51245400038269, 43.04831700021334], [-71.51231399974228, 43.04773599978201], [-71.51136399988829, 43.04379400002993], [-71.51052000033951, 43.04022500014522], [-71.50992899961241, 43.03772800016489], [-71.50873199988621, 43.03270300023927], [-71.50847999999112, 43.031655000227836], [-71.50772799960554, 43.02852199992674], [-71.5074570003422, 43.027391000042456], [-71.50742600038006, 43.02726799996048], [-71.50719899970102, 43.026329999829976], [-71.507014999578, 43.02557500029763], [-71.50558000020044, 43.019509000261294], [-71.50372999982287, 43.011734000177235], [-71.5037189999522, 43.011658999773786], [-71.50302299964311, 43.00874000002586], [-71.50269600030329, 43.007370000110825], [-71.50268100023467, 43.0073060002174], [-71.50139699957153, 43.00197399999635], [-71.50132999962437, 43.001697999797216], [-71.50125799965434, 43.00135399985081], [-71.50124699978369, 43.00129100017141], [-71.50099800026166, 43.00037700022548], [-71.50099300023878, 43.00035800029795], [-71.50050500034216, 42.99858500001904], [-71.50028799970886, 42.99777300012976], [-71.50009899956297, 42.99706600006262], [-71.4995239996277, 42.995008999962], [-71.49950699990927, 42.994950999766296], [-71.4992419995954, 42.993907000023896], [-71.49898600040069, 42.99289699997701], [-71.49890799968456, 42.992586999899245], [-71.4986850001018, 42.99171099988774], [-71.49858499964436, 42.99132199984199], [-71.49838600035106, 42.99054099998859], [-71.49820499970278, 42.98982999977445], [-71.49805900011292, 42.989260000123004], [-71.49750799956877, 42.987115999752355], [-71.49748199962951, 42.98701199994132], [-71.49660999959332, 42.98358000012618], [-71.4964049995539, 42.98277399974906], [-71.49639500040648, 42.982731999976274], [-71.49637899961463, 42.982668000048214], [-71.49539500032378, 42.98276799978331], [-71.4944250003783, 42.98288100013593], [-71.49424499955494, 42.981952000295394], [-71.49422199998872, 42.98183600017832], [-71.49421199994296, 42.98178599990174], [-71.4942000002474, 42.981722999876546], [-71.49411400003368, 42.9812839996819], [-71.49386399978842, 42.980004999977616], [-71.49384600024507, 42.979912999799446], [-71.49367800001559, 42.97908900032334], [-71.49364799987835, 42.97890599999318], [-71.49343399961812, 42.97778500017992], [-71.49322100008109, 42.97668599995012], [-71.49300699982086, 42.97567099987295], [-71.49282400042105, 42.97455000023703], [-71.49265600019157, 42.97372599987749], [-71.49256499995496, 42.97342100024785], [-71.49247600026652, 42.97291900008946], [-71.49244199993133, 42.97273000016999], [-71.49242699986272, 42.972643000199625], [-71.49236599976334, 42.97231500018692], [-71.4923349998012, 42.9722380001909], [-71.49229700016637, 42.972042000064796], [-71.49116099964122, 42.96621500029029], [-71.49110700011286, 42.96593300026074], [-71.49097200039365, 42.96524200019679], [-71.49080900018703, 42.964413000100215], [-71.49080300033926, 42.96438199999806], [-71.49079400011841, 42.96433399970306], [-71.49002099981644, 42.96443699989289], [-71.48946699979757, 42.96450999972518], [-71.48812399958318, 42.96468500005095], [-71.4869000000928, 42.9648320002028], [-71.48678100026711, 42.96484600004242], [-71.48543800005274, 42.96502100006974], [-71.4841109997319, 42.96520400030584], [-71.48390900006552, 42.96523000012994], [-71.4827669996926, 42.96537899997207], [-71.48198900026605, 42.96546300018721], [-71.48136300027718, 42.96554400012175], [-71.48128399973614, 42.965552999961794], [-71.48121099994121, 42.965563000293834], [-71.48072399986948, 42.96561500028499], [-71.48056999988368, 42.96563100027344], [-71.48057800027962, 42.965652999922064], [-71.48064699987658, 42.965860000145014], [-71.47990200006201, 42.96594100021412], [-71.47980800035069, 42.96595200031267], [-71.47971000044139, 42.965961999922484], [-71.4789379999643, 42.966061999875244], [-71.47831500034847, 42.966153999740804], [-71.4772819997555, 42.96628700016057], [-71.47695399969244, 42.966329999814675], [-71.47675700004893, 42.9663510000476], [-71.47661899995668, 42.966369000147644], [-71.47645400010023, 42.96639100018969], [-71.47585499987552, 42.96647200021692], [-71.47580999966968, 42.966181000303955], [-71.4757689996618, 42.96608400002709], [-71.47552199978958, 42.965443000146415], [-71.4750940001674, 42.96469200031654], [-71.47461200011857, 42.96349300011238], [-71.4746060002708, 42.963469999821406], [-71.4743469998047, 42.96256600032217], [-71.47413099989463, 42.961809000174064], [-71.47405499972666, 42.96159199980688], [-71.4737350000595, 42.96075599977525], [-71.47370400009737, 42.96066500029888], [-71.47362799992939, 42.960511999886116], [-71.47313400018498, 42.95922599985472], [-71.47298699987188, 42.95876499999576], [-71.47282100019054, 42.95788500011363], [-71.47265100031123, 42.95698000010016], [-71.47251400004386, 42.95648399978148], [-71.47229999978363, 42.95588900016899], [-71.47199099998713, 42.95535700020741], [-71.47161400041858, 42.954720999734484], [-71.47130800009684, 42.95431700008921], [-71.4710450003311, 42.95406700017158], [-71.47037699961112, 42.95353100011274], [-71.47030100034144, 42.95350800004257], [-71.46953800008521, 42.95301999967199], [-71.46926400044882, 42.952828999672384], [-71.46840900013106, 42.95227999999441], [-71.46834800003171, 42.95226499987338], [-71.46832899976512, 42.952248999696444], [-71.46825799962001, 42.95219099992421], [-71.4681799998022, 42.952127999826295], [-71.46810399963422, 42.95211200027121], [-71.46720400000895, 42.95163900028602], [-71.46691399958071, 42.95152500032284], [-71.46590799965024, 42.951199000277846], [-71.46578499962658, 42.95115900012113], [-71.46565800030329, 42.95108999985545], [-71.4656170002954, 42.95106700018806], [-71.46558799998309, 42.95105900027312], [-71.46547900020315, 42.95102900008976], [-71.46448699961805, 42.95064700029023], [-71.46433500018038, 42.95054099978788], [-71.46415199988229, 42.950480000135606], [-71.46361200010712, 42.95019700022504], [-71.46349499993127, 42.950136000231836], [-71.46312900023337, 42.94988400024434], [-71.46275699978939, 42.94959300011801], [-71.4626100003746, 42.94947999975006], [-71.46239699993926, 42.949259000211384], [-71.46212199957965, 42.94897399973603], [-71.46091800018075, 42.94770799978753], [-71.46064899966893, 42.94732800002518], [-71.46059599996549, 42.947251999791206], [-71.46050599955379, 42.94709300006238], [-71.46047399976675, 42.947038999924565], [-71.46042799973601, 42.9469320003031], [-71.46036699963663, 42.946588999783465], [-71.4603220003291, 42.9460010002702], [-71.46029899986456, 42.94585600015542], [-71.46016900016822, 42.94504000015126], [-71.46004699996948, 42.94443700025285], [-71.45943699987411, 42.942171000269475], [-71.45894700032768, 42.940455999804506], [-71.45888899970303, 42.940251999692855], [-71.45881099988522, 42.939982000091845], [-71.4584140002252, 42.938951999995986], [-71.4582309999271, 42.93861599967774], [-71.4582309999271, 42.93853999986821], [-71.45786500022919, 42.93785299979111], [-71.45780099975678, 42.93776199998811], [-71.45733100030182, 42.936975999713056], [-71.45727000020246, 42.936860999913364], [-71.45704099987358, 42.936579000175996], [-71.45659900000771, 42.936097999983176], [-71.45648199983184, 42.935930000158585], [-71.45642800030348, 42.935853000003554], [-71.45621700041629, 42.935556999672876], [-71.4560340001182, 42.935182999886706], [-71.45591199991945, 42.93397699972203], [-71.45572100012375, 42.933522000318916], [-71.45557600035879, 42.933176000293464], [-71.4554850001222, 42.93276400032427], [-71.45537799999208, 42.93184100023762], [-71.4553160000678, 42.93168099978426], [-71.45513299976967, 42.9309260000319], [-71.45505999997475, 42.930680000120724], [-71.45496600026343, 42.93036899972506], [-71.45472199986595, 42.92986500000453], [-71.45456899970507, 42.92968999997741], [-71.45445499990224, 42.929523000194486], [-71.45409599987705, 42.92902599984735], [-71.45369900021703, 42.92819399991445], [-71.45345499981956, 42.92756099969216], [-71.45346999988817, 42.927042000327276], [-71.45354600005615, 42.92579899986622], [-71.45382200024068, 42.92277000012656], [-71.45398899974694, 42.92080900020735], [-71.45409599987705, 42.919558000225805], [-71.45406599973984, 42.91913799983423], [-71.45401999970908, 42.918977999934405], [-71.45392799964758, 42.918245999831036], [-71.45372900035426, 42.917344999762555], [-71.45339399972018, 42.916178000221834], [-71.45316500028963, 42.91552999969606], [-71.45318000035826, 42.9151629999912], [-71.45325700035116, 42.914697999726876], [-71.4531760001603, 42.91437000006166], [-71.45313500015243, 42.91420200018287], [-71.4531200000838, 42.91415600025365], [-71.4529519998543, 42.91357799981896], [-71.45290099980069, 42.91341799995624], [-71.45281399976206, 42.9131110000352], [-71.4525850003315, 42.9121420001005], [-71.45254000012565, 42.91183000014829], [-71.45257000026288, 42.91157000018778], [-71.45255400036937, 42.91153200005617], [-71.45257000026288, 42.91106700002792], [-71.45260100022503, 42.91062400001903], [-71.45267700039301, 42.910174000229915], [-71.45307400005305, 42.90738200020557], [-71.4532409995593, 42.90643600024087], [-71.45325700035116, 42.90549699999414], [-71.45333299962081, 42.90496299986464], [-71.4534089997888, 42.90458200002039], [-71.45331900027543, 42.90446899996094], [-71.45288499990716, 42.90392000008444], [-71.45253900030075, 42.90348299983669], [-71.45181299985444, 42.90254500021486], [-71.45176000015098, 42.90247600008955], [-71.45156199978426, 42.9022009996812], [-71.45141000034661, 42.90203300019212], [-71.45083200003829, 42.901292999719445], [-71.45002100010149, 42.90025500024189], [-71.44994499993349, 42.900148999857066], [-71.44916599978373, 42.899186999964805], [-71.44861699978773, 42.89847799995709], [-71.44855599968837, 42.898371000196505], [-71.44841900031932, 42.898234000010554], [-71.44765600006309, 42.897264999818724], [-71.44758200044323, 42.897168999814205], [-71.44719599975555, 42.89667100010662], [-71.44718300023509, 42.89665400032312], [-71.44712799998348, 42.89658399988779], [-71.44611100018233, 42.895301000085965], [-71.44602300031879, 42.895190000110354], [-71.44597800011296, 42.895112999707514], [-71.44492399960357, 42.89377800014911], [-71.4448330002653, 42.893618000224706], [-71.44468099992932, 42.89348100000888], [-71.44405499994043, 42.892641000285195], [-71.44399399984106, 42.89257999988008], [-71.44271199972604, 42.89093199996851], [-71.44230099982232, 42.8903989997956], [-71.44237000031761, 42.89069499990468], [-71.44351799964, 42.895586999849584], [-71.44365099970939, 42.89616800011733], [-71.44379100034978, 42.89687900029123], [-71.44386599979454, 42.89723799995597], [-71.44518200024474, 42.903086999800884], [-71.44532199998685, 42.90371199996283], [-71.44661900017044, 42.909784999681406], [-71.44666199982817, 42.909982000135756], [-71.4476850003754, 42.91457799974698], [-71.44769700007097, 42.914701999744075], [-71.44771499961432, 42.91476199997148], [-71.44782799959222, 42.915286000132184], [-71.44806799979173, 42.91639200024496], [-71.44811800002046, 42.916546999751546], [-71.44818300031777, 42.91685400031853], [-71.44877499997149, 42.91955700030031], [-71.44882000017732, 42.91975199993501], [-71.4488400002688, 42.919837999773456], [-71.44886200001011, 42.91993699976013], [-71.44906799987444, 42.920831000090715], [-71.44925399964727, 42.921644000228326], [-71.44929899985311, 42.92183700005928], [-71.44930800007396, 42.92187700019056], [-71.44941500020407, 42.92234200022256], [-71.44950300006762, 42.92272599976327], [-71.44961000019775, 42.92319400022274], [-71.44969600041148, 42.92356799979677], [-71.44979599997058, 42.92400200017103], [-71.44981299968903, 42.924075999799406], [-71.44988499965905, 42.92438699973695], [-71.44989800007782, 42.92448300011336], [-71.4499099997734, 42.92456700023774], [-71.44992999986488, 42.924682999814024], [-71.44999099996424, 42.92500500015838], [-71.45005200006362, 42.92518100017449], [-71.4501569996456, 42.925704999876494], [-71.45023100016377, 42.92607500005679], [-71.45024500040746, 42.92613900032475], [-71.45024600023238, 42.926150000302464], [-71.45025100025524, 42.92617399988817], [-71.45026499960065, 42.92623499994423], [-71.450297000286, 42.926373000204045], [-71.45038799962428, 42.92675999969814], [-71.45041399956357, 42.926844000006525], [-71.45044899972365, 42.92695800028884], [-71.45044899972365, 42.92701200027971], [-71.45045499957143, 42.92704099986547], [-71.45048100040901, 42.92715399998105], [-71.45052800026468, 42.927358000072175], [-71.45056099987664, 42.92750499993185], [-71.45062799982381, 42.927799999706046], [-71.45067200020473, 42.92799200019588], [-71.45067999970233, 42.928027000021956], [-71.45070800018974, 42.928147999906535], [-71.4507900002055, 42.92851000032711], [-71.45081199994682, 42.92860699997662], [-71.45084600028201, 42.92875599969682], [-71.45086399982534, 42.92883399994957], [-71.45087600041921, 42.92888699983728], [-71.45089399996257, 42.92896400015132], [-71.45091300022915, 42.929048999856604], [-71.45105899981903, 42.929690999738405], [-71.45106899986476, 42.92973399997088], [-71.45111800026856, 42.9299490000251], [-71.45116699977406, 42.93016300023321], [-71.45122100020073, 42.93039900011084], [-71.45123100024647, 42.93043800019584], [-71.45101199996336, 42.93035799984307], [-71.45103899972753, 42.930493000172554], [-71.4510849997583, 42.930716000137004], [-71.45115400025358, 42.930900000184025], [-71.45043600020317, 42.93101999994711], [-71.450149000148, 42.93105000001579], [-71.44979400032076, 42.931090999822906], [-71.44963100011414, 42.93110799997554], [-71.44949300002189, 42.93112399972802], [-71.44805699992108, 42.931290000039084], [-71.44801300043846, 42.931289000304], [-71.44692999961676, 42.93140999970005], [-71.44583199962476, 42.93152999978495], [-71.445024000061, 42.931602999848266], [-71.44492799980152, 42.931614000165645], [-71.44451100005001, 42.93166300006074], [-71.44424300026142, 42.931694999930926], [-71.44314699991924, 42.9318209997926], [-71.44280499961248, 42.93186000029264], [-71.4392079996878, 42.93224200025875], [-71.43862899955457, 42.932303999943706], [-71.43595499971968, 42.93258899998389], [-71.43425199965519, 42.93277299969692], [-71.43335700005277, 42.932869000158256], [-71.43112699973359, 42.93312199978717], [-71.4302749997889, 42.93321600029693], [-71.43012400017615, 42.93323000009471], [-71.4294580000043, 42.93330100005362], [-71.42894900019127, 42.933360000225875], [-71.42856099985374, 42.93340600028748], [-71.42833800027101, 42.933527000128265], [-71.42722500021038, 42.933657000290154], [-71.42695800024669, 42.933658999683445], [-71.42632899988476, 42.93366299978511], [-71.42615599963239, 42.933664999835855], [-71.42569399967505, 42.933722000268226], [-71.42563299957567, 42.93372999980547], [-71.42529500036518, 42.93377299984887], [-71.42528000029657, 42.93377299984887], [-71.42526600005287, 42.93377600024842], [-71.42517499981626, 42.93378700017769], [-71.42493499961674, 42.93381700021396], [-71.4248750002406, 42.93380200019762], [-71.42459800023117, 42.9338329999204], [-71.4242629995971, 42.93387100011081], [-71.42373600024072, 42.933931000086865], [-71.42335999959877, 42.933973000298394], [-71.42322200040483, 42.93398800027308], [-71.4230440001296, 42.93400800001437], [-71.42242700036154, 42.93407699969676], [-71.42131299957771, 42.93419099974607], [-71.42086099966609, 42.93423600015748], [-71.41841799980989, 42.93451299971481], [-71.41785799994325, 42.93457000001999], [-71.41759199980446, 42.93459699997308], [-71.41731800016807, 42.93462500025292], [-71.41688799999775, 42.93467199970754], [-71.41604199990084, 42.934765000145894], [-71.41519599980393, 42.93486500015639], [-71.41449399964705, 42.93494800025884], [-71.4137089996495, 42.93502500023009], [-71.4134340001882, 42.93505199998369], [-71.4130819998357, 42.9350880000752], [-71.41278399990986, 42.935122000142265], [-71.41274700009996, 42.93512600014891], [-71.41266199971113, 42.9351349998341], [-71.41253000036497, 42.93514899985333], [-71.41225500000535, 42.93518000021334], [-71.41208599995096, 42.93519899989595], [-71.41169199976564, 42.935242999899884], [-71.41152299971125, 42.93526099989244], [-71.41123800020421, 42.935290999868315], [-71.41092299966162, 42.93532600015055], [-71.41084400001891, 42.935334999806514], [-71.41067300031469, 42.93535400009893], [-71.41020999963409, 42.93540399997511], [-71.40998600022644, 42.93542900022679], [-71.40962999967594, 42.935467999757385], [-71.40938299980375, 42.9354949999744], [-71.40920799990157, 42.93551400021745], [-71.40907099963422, 42.93553099980694], [-71.40899799983927, 42.935540000090626], [-71.40864300001205, 42.93558300018553], [-71.40840299981254, 42.93561199968199], [-71.40807800012252, 42.93565200007625], [-71.40792099976369, 42.935671000270865], [-71.40782299985439, 42.935681000197896], [-71.4073450000035, 42.9357280001619], [-71.40696300041208, 42.935765999840726], [-71.40660900040976, 42.935800999852994], [-71.40645899972363, 42.935818999682404], [-71.40605799986564, 42.93586600019876], [-71.4058310000849, 42.935891999923314], [-71.40572399995479, 42.93590900006608], [-71.4054799995573, 42.93594599997373], [-71.40541900035625, 42.93595199990333], [-71.4049010003224, 42.93600799987578], [-71.40426699993759, 42.93607600029059], [-71.40376599962217, 42.93613000017966], [-71.40357900002442, 42.93614900022684], [-71.40312100026503, 42.936197999802125], [-71.40267900039915, 42.93624500002921], [-71.40226599994726, 42.936288000289515], [-71.4018109996626, 42.93633600010108], [-71.40166199969968, 42.93635399977416], [-71.40138999971312, 42.936385999837604], [-71.40111100005387, 42.9364199998457], [-71.4008599999837, 42.936449999914615], [-71.40056999955546, 42.9364850001958], [-71.40030199976687, 42.93651399992511], [-71.39964099961787, 42.936588000306514], [-71.39947300028669, 42.936607000212334], [-71.39900700013138, 42.936661000293434], [-71.39757699987835, 42.936838000190725], [-71.39661600015371, 42.936954999977274], [-71.39551599961358, 42.93709000031478], [-71.3953480002824, 42.93708300019736], [-71.39526999956628, 42.937092999895064], [-71.39474900005769, 42.93716000012967], [-71.39409299993157, 42.937240000196475], [-71.3936650003094, 42.93728700028592], [-71.39320500000187, 42.937333999681876], [-71.39097300003286, 42.93758100026923], [-71.38998100034607, 42.93769099991112], [-71.38898499956301, 42.9378130001689], [-71.38688400001357, 42.93803099983363], [-71.38512400004768, 42.93823300016745], [-71.38449700023388, 42.9383029999983], [-71.38433499985216, 42.938318999854495], [-71.38406000039089, 42.938349000313565], [-71.38388999961325, 42.93836799967601], [-71.38276599968198, 42.938491999801734], [-71.38225699986896, 42.938546000202706], [-71.38158200037459, 42.93861699995153], [-71.38129199994636, 42.938647999881006], [-71.38077899993536, 42.938707999806226], [-71.38048100000952, 42.938745000004985], [-71.3803660003818, 42.9387580002473], [-71.37997700021938, 42.93880400022264], [-71.37954600022415, 42.93885099977597], [-71.37905999997736, 42.93890100010093], [-71.37866400014222, 42.938941999942486], [-71.37810000007761, 42.93899499968121], [-71.3771209999113, 42.93911699998596], [-71.37596600001788, 42.93925599992531], [-71.37544899980895, 42.93931599991573], [-71.37543499956524, 42.939317999782865], [-71.37546100040284, 42.939435000118344], [-71.37547800012128, 42.93951400025846], [-71.37549999986257, 42.93961300019104], [-71.37552400015203, 42.939721000294675], [-71.37554800044148, 42.939829000208874], [-71.3755710000077, 42.93993599968128], [-71.37558899955103, 42.94001400024278], [-71.3756069999927, 42.94009699998139], [-71.37562799990909, 42.94019399979559], [-71.37565499967327, 42.94031699994362], [-71.37567499976477, 42.940406000084664], [-71.37568399998561, 42.94044599999528], [-71.37569499985624, 42.9404969999259], [-71.37601100022374, 42.94192699968402], [-71.3762189997379, 42.9428800000731], [-71.3763540003554, 42.943504999774234], [-71.37650300031832, 42.94419300009964], [-71.37652300040982, 42.944267999982884], [-71.37660200005253, 42.94456799991731], [-71.37670699963452, 42.94498200016152], [-71.37684399990188, 42.94561199970832], [-71.37701799997915, 42.94640700022116], [-71.3770930003222, 42.94675099992391], [-71.37718600020864, 42.947144999882426], [-71.37724999978273, 42.94761099997601], [-71.3772969996384, 42.94771799973231], [-71.37731500008006, 42.94780500010373], [-71.37739999957056, 42.94820700017801], [-71.3774520003474, 42.94845000008816], [-71.37766700043258, 42.949465000261696], [-71.37775500029612, 42.94988400024434], [-71.37778299988521, 42.950016999672286], [-71.37779100028112, 42.95005300021945], [-71.37784900000744, 42.950327000041206], [-71.37790699973377, 42.95060200003723], [-71.37795299976452, 42.95075400002901], [-71.37796399963518, 42.95080600004386], [-71.37799499959732, 42.950941000256606], [-71.37813000021484, 42.95153899990287], [-71.37819499961385, 42.95182699985637], [-71.37828099982758, 42.95220900022213], [-71.37834799977473, 42.95251000029628], [-71.37844499985911, 42.95293800030242], [-71.37849900028579, 42.95317899987011], [-71.37854799979128, 42.9533940002539], [-71.3785989998449, 42.953618000157526], [-71.37868800043167, 42.95399199973523], [-71.37870799962484, 42.954075999718114], [-71.37876200005152, 42.95429999976934], [-71.37881399993006, 42.95451700021257], [-71.37884900009016, 42.95466599970116], [-71.37886599980858, 42.95473599991439], [-71.37888000005229, 42.95478499981902], [-71.37890500016664, 42.954866000005204], [-71.37892899955777, 42.954943000050875], [-71.37893100010591, 42.95495400014347], [-71.3789860003575, 42.955194999706066], [-71.37904499990873, 42.95545400030351], [-71.3791699995822, 42.95600599991185], [-71.37939700026124, 42.95700600011263], [-71.37946300038348, 42.95729500009306], [-71.37954100020129, 42.95764000005089], [-71.37956700014054, 42.95775299990048], [-71.37965199963104, 42.95812899990157], [-71.3797549995632, 42.95858099972229], [-71.37988500015786, 42.95915500020699], [-71.38000300015864, 42.95967499971126], [-71.38009500022015, 42.96008100018836], [-71.38020999984786, 42.960588000181666], [-71.38028699984076, 42.96092400022495], [-71.38033299987153, 42.96109200021591], [-71.38033299987153, 42.961229999935746], [-71.38037700025247, 42.961429000039494], [-71.38046799959073, 42.961812999761655], [-71.38051899964437, 42.96202800022006], [-71.38054499958363, 42.96213699967624], [-71.38059200033761, 42.96233600013333], [-71.38061800027688, 42.962419000014805], [-71.38066900033051, 42.96258000002011], [-71.38071799983598, 42.96285200018654], [-71.38074499960017, 42.962999000116696], [-71.38077999976028, 42.96314300006996], [-71.38085699975316, 42.963460999676585], [-71.38093799994401, 42.96379400021296], [-71.38100999991404, 42.96409100005893], [-71.38106799964036, 42.96433199999124], [-71.3810989996025, 42.964458999968514], [-71.3811270000899, 42.96457300029419], [-71.38121300030363, 42.96493000032804], [-71.38129000029653, 42.96524600021852], [-71.38140199955119, 42.96571000031969], [-71.38147699989428, 42.966019999862276], [-71.38150799985642, 42.96605099979637], [-71.38160999996367, 42.96647900027921], [-71.38169799982721, 42.96684500007784], [-71.38176300012454, 42.967115999982155], [-71.38181699965291, 42.96732200007605], [-71.38188899962293, 42.967602000048565], [-71.38194700024756, 42.96782499970409], [-71.38196099959295, 42.967873999702846], [-71.38202300041553, 42.96811100009817], [-71.38203099991314, 42.96814300008715], [-71.38208299979169, 42.96834099973082], [-71.3821549997617, 42.96861800030735], [-71.38217200037845, 42.96869800024644], [-71.38223099992969, 42.968992999862124], [-71.38227100011265, 42.969194000044325], [-71.38230700009767, 42.96934000016379], [-71.38235899997619, 42.96954600004005], [-71.38239800033426, 42.96970300006638], [-71.38246199990836, 42.969953000214815], [-71.38249899971828, 42.97009899984728], [-71.38253399987839, 42.97023999967662], [-71.3825770004344, 42.970402000004476], [-71.38263699981056, 42.97064900002399], [-71.38271299997852, 42.97087300021387], [-71.38272399984919, 42.9709990000854], [-71.38291999966778, 42.97177900002424], [-71.38315599966933, 42.97278800030094], [-71.38320199970006, 42.972872000257624], [-71.38327500039333, 42.973284999690456], [-71.38328100024111, 42.973317999983834], [-71.38329600030973, 42.97337699992647], [-71.38338499999819, 42.973727000237965], [-71.38353200031128, 42.97430500015479], [-71.38382600003915, 42.975469000151], [-71.38404500032227, 42.97636900001886], [-71.38417800039164, 42.97690700022914], [-71.3842389995927, 42.977014000310824], [-71.38424000031594, 42.97714399999371], [-71.3843929995785, 42.977765000202304], [-71.38478000009108, 42.97931999991938], [-71.38483399961946, 42.979547000213245], [-71.38489499971881, 42.979676999798635], [-71.38497199971172, 42.9801269998302], [-71.3850689997961, 42.980478000092106], [-71.38587700025818, 42.9837190001951], [-71.38723200016813, 42.989158000215696], [-71.38783499969247, 42.99156899993847], [-71.38820600031156, 42.99305100004051], [-71.38841999967349, 42.99390599999174], [-71.38855100009306, 42.99426099987722], [-71.38950900034297, 42.99828400003163], [-71.38962300014578, 42.99862600017385], [-71.38972000023017, 42.99900499982911], [-71.38990400035318, 42.99972599970723], [-71.38999200021672, 43.000070000227886], [-71.3901090003926, 43.00048400019151], [-71.3904969998318, 43.00189100028344], [-71.39079899995559, 43.00300899971903], [-71.39100800019295, 43.00376800030282], [-71.3912440001945, 43.00464399990354], [-71.39136899986799, 43.00508499982593], [-71.39183300037348, 43.007053999906724], [-71.39195899987187, 43.00758399980394], [-71.39196899991761, 43.007649999681654], [-71.39198499981113, 43.007702000212184], [-71.39200699955244, 43.007792999720834], [-71.39203699968967, 43.00789399976844], [-71.3920600001542, 43.00801999997223], [-71.39188899955167, 43.00818199994825], [-71.39227699988918, 43.00901099987349], [-71.39229600015575, 43.009102999855344], [-71.39238800021725, 43.0093089998576], [-71.39298499989384, 43.00940700004344], [-71.39453200032271, 43.00971300024747], [-71.3952920002059, 43.00985900005663], [-71.39692400012528, 43.01016700017144], [-71.39787900000216, 43.01035699971938], [-71.39819000034677, 43.01042200013854], [-71.39867499987037, 43.01052200004273], [-71.39958700008953, 43.01069299979063], [-71.40194899975486, 43.01112600031143], [-71.4028740003928, 43.011303000156616], [-71.4036619998651, 43.0114529997708], [-71.40555400007547, 43.01181399984978], [-71.40664200002172, 43.01202400021865], [-71.4085479995775, 43.01238800007669], [-71.40926499980297, 43.012526000292574], [-71.41054699991798, 43.01276599984378], [-71.4109980000047, 43.01285100007573], [-71.41177999962919, 43.01299599992938], [-71.41374700018264, 43.01336200002604], [-71.41524100000977, 43.013643999948], [-71.4172289995813, 43.014005999990204], [-71.41850700039664, 43.01424400026692], [-71.41956600003058, 43.01444300024844], [-71.42069300033491, 43.01465700025816], [-71.42106599970549, 43.01472299976083], [-71.42173699990023, 43.014841000247344], [-71.42280999977787, 43.01504000026477], [-71.42408500022019, 43.01527999984378], [-71.42553300001654, 43.01555600010489], [-71.42701699979793, 43.01582700009197], [-71.42785700004707, 43.0159900001674], [-71.42896400025988, 43.01620400004073], [-71.42990999991592, 43.01637600005514], [-71.43030800029918, 43.016464000196954], [-71.43282200030048, 43.01691899979191], [-71.43313799976967, 43.016979999894154], [-71.43366300037454, 43.01708299990771], [-71.43473200005421, 43.01728100023285], [-71.43578400001546, 43.01748000022489], [-71.43597499981118, 43.017514999734324], [-71.43660400017312, 43.01763300011024], [-71.43685199987024, 43.01767799992667], [-71.43731899985046, 43.01776299992788], [-71.43814999987876, 43.0179139998253], [-71.43944700006239, 43.018159000151975], [-71.4398410002477, 43.01823599977126], [-71.44062200004728, 43.01838699981906], [-71.44068800016952, 43.01840000031038], [-71.44150800032716, 43.01855000032383], [-71.44164700024433, 43.01857599992108], [-71.44184499971274, 43.01861199974947], [-71.44197399958416, 43.01863600006116], [-71.44215400040754, 43.01866900031028], [-71.44242700021901, 43.01872100004982], [-71.44249499999108, 43.01873399981363], [-71.44296899964401, 43.018823999770156], [-71.4434759998072, 43.018918999690655], [-71.44394299978745, 43.01900300032063], [-71.44436299991202, 43.01907800029339], [-71.44467699973137, 43.019136000043126], [-71.44480399995298, 43.019158999872104], [-71.44520499981097, 43.01923699982765], [-71.44580999988347, 43.01935200001074], [-71.44617399993152, 43.019417000104596], [-71.4466219996452, 43.01949400011665], [-71.44691799992121, 43.01954500019945], [-71.44737200038095, 43.01962599981885], [-71.44749899970425, 43.019649999734234], [-71.44777499988876, 43.0197030002256], [-71.44803500017976, 43.019749999718485], [-71.44837300028857, 43.01981500004779], [-71.44857599977985, 43.019850999806536], [-71.44877499997149, 43.0198840000594], [-71.44909899983658, 43.01993600008349], [-71.44996199965193, 43.020068999755374], [-71.45004000036805, 43.02048899980053], [-71.45009499972133, 43.020786000321905], [-71.4502060000494, 43.021383999991784], [-71.45025899975285, 43.02159899969391], [-71.4502269999658, 43.02238999976652], [-71.45031400000444, 43.02289000004514], [-71.45035300036251, 43.0230539999747], [-71.45043500037826, 43.02343400017821], [-71.45068300007537, 43.02453800019435], [-71.45072800028122, 43.02480300014101], [-71.45085399977961, 43.02541799979745], [-71.45103999955245, 43.02631600019976], [-71.4513609999428, 43.027817000071096], [-71.45145600037736, 43.02826100013612], [-71.45202899976451, 43.030890000315885], [-71.45273500011933, 43.03433499976099], [-71.452894000128, 43.03506500007802], [-71.45325300015318, 43.03672900021817], [-71.45349699965234, 43.037884000064686], [-71.45356199994967, 43.038249000225115], [-71.45378000040787, 43.03926300028885], [-71.45445300025243, 43.042420000030404], [-71.45448000001663, 43.04255099977822], [-71.45459700019248, 43.04310999992888], [-71.45457899975081, 43.043343000229456], [-71.45478299996532, 43.04399999985031], [-71.45508599991403, 43.0437539997041], [-71.45571399955273, 43.04324399982945], [-71.45647699980898, 43.042787999804034], [-71.45717800014094, 43.04238999977314], [-71.45791700010773, 43.04203299985326], [-71.45852300000514, 43.041760000173525], [-71.45925199992618, 43.04143900010002], [-71.45973499979996, 43.04124000029924], [-71.46014800025183, 43.041079000136506], [-71.46052900001833, 43.040929000020704], [-71.4610260001358, 43.040725000246404], [-71.4613929996586, 43.04055599995501], [-71.46182200000399, 43.040375999944715], [-71.46245800003864, 43.04011599994593], [-71.46360200006139, 43.03958200003858], [-71.46480899983332, 43.03903799988371], [-71.46548699970074, 43.03876500000885], [-71.46697600040332, 43.03823000019475], [-71.46745000005625, 43.03805499977697], [-71.46794899982353, 43.03786999978686], [-71.4686719998968, 43.03761100030809], [-71.47004299970027, 43.03711599970807], [-71.47051899990133, 43.03693900007625], [-71.47152900002979, 43.036548000148365], [-71.47226999964639, 43.036255999715706], [-71.47275800044135, 43.03604200013531], [-71.4735509999365, 43.035569000246824], [-71.47379199996092, 43.03540300023929], [-71.47398100010682, 43.035273999705836], [-71.47404899987889, 43.0353450000992], [-71.47472400027156, 43.036081000234105], [-71.47528800033618, 43.03669199985916], [-71.47532299959796, 43.036725000251415], [-71.47537399965158, 43.036784999725306], [-71.47541999968234, 43.0368279999688], [-71.47542899990319, 43.03684399980736], [-71.47545900004039, 43.03689899987732], [-71.4755159999418, 43.03704200009103], [-71.47566999992759, 43.03742500031218], [-71.47567499995047, 43.03743600009466], [-71.47569599986687, 43.0374900003113], [-71.47574899957031, 43.03755300028514], [-71.47575600014132, 43.03756100011045], [-71.47579100030141, 43.03760299983275], [-71.4759369998913, 43.03769800023971], [-71.47603300015075, 43.03772700018951], [-71.47621200025091, 43.037782000124565], [-71.47637299990939, 43.03786100002864], [-71.47639700019882, 43.037862999975026], [-71.47640600041966, 43.037876000281486], [-71.47726500003705, 43.03819799992306], [-71.47740099958118, 43.03821799993069], [-71.47795200012531, 43.03829799989605], [-71.4791270001102, 43.03863899985894], [-71.4795480000597, 43.0388189997125], [-71.47973100035779, 43.03921599997766], [-71.47988000032069, 43.03930300025994], [-71.48002500008565, 43.039405000297876], [-71.481400999912, 43.04046499975685], [-71.48203600012172, 43.040851999976375], [-71.48239000012404, 43.041079000136506], [-71.48293900012004, 43.04145200030538], [-71.48314800035743, 43.04155799970546], [-71.48319600003799, 43.04158200023793], [-71.48328499972645, 43.041634000265134], [-71.48341600014602, 43.04171099998459], [-71.4835759999796, 43.04171000007412], [-71.48379000023985, 43.04215300017949], [-71.48384299994328, 43.04225699987845], [-71.4842170000371, 43.04299199994069], [-71.4843240001672, 43.04348800028817], [-71.48435400030445, 43.0439460001109], [-71.48441500040383, 43.04413600017494], [-71.48510999998969, 43.04525999975274], [-71.48552199971833, 43.04594599985556], [-71.48556799974908, 43.04600200014156], [-71.48617000034683, 43.047012999958916], [-71.48717700010224, 43.048591999852235], [-71.48818399985764, 43.05017899994816], [-71.48878200025743, 43.051135000115735], [-71.48897700025111, 43.051453000089154], [-71.48910899959728, 43.05177900032377], [-71.49020999996233, 43.051663999844806], [-71.49112200018148, 43.051563999995075], [-71.49232599958037, 43.05145199968102], [-71.49436900030182, 43.05126499987888], [-71.50039200036426, 43.0506979997807], [-71.50217499989637, 43.05054200029648], [-71.505006999915, 43.0502889997634], [-71.51276700037714, 43.0496150003151]]]}, "properties": {"id": "covered-us-nh-manchester", "status": "covered", "jurisdiction": "Manchester", "country_id": "us", "state_id": "nh", "area_type": "city", "note": "Covered by public tree inventory for Manchester; geometry from official jurisdiction boundary."}}]}