{"type": "FeatureCollection", "features": [{"type": "Feature", "geometry": {"type": "Polygon", "coordinates": [[[-105.69738000015147, 41.2989800000977], [-105.69714199960178, 41.298794999665006], [-105.69552800012407, 41.297542999922214], [-105.6928280003499, 41.29544099988297], [-105.6910469995693, 41.29720100012798], [-105.68606799997049, 41.30084200027932], [-105.68600699987111, 41.30079500007989], [-105.68585399971025, 41.3009090000025], [-105.68529200019378, 41.30131699976202], [-105.6833849999148, 41.30271200021414], [-105.6832230004314, 41.302861000198014], [-105.6824640003731, 41.303433000221425], [-105.68103800031805, 41.304256000013766], [-105.67985699958707, 41.30510899998484], [-105.67885400002963, 41.30583500016179], [-105.67833799964559, 41.30601800005743], [-105.67733900028611, 41.306060000204376], [-105.67434300023596, 41.30618699987362], [-105.67334499980308, 41.30622999997654], [-105.67337599976521, 41.30602100026164], [-105.6734529997581, 41.305523000239646], [-105.6734660001769, 41.305393999796706], [-105.67348899974311, 41.30518400002054], [-105.67367899971393, 41.303137000052324], [-105.67370999967606, 41.30277900004067], [-105.67402400039373, 41.299275000066984], [-105.67429399983216, 41.296179000310545], [-105.67435900012947, 41.29556300019319], [-105.67456800036686, 41.29361100024511], [-105.67459599995594, 41.293160999872036], [-105.67472700037551, 41.29200200004267], [-105.67471399995672, 41.290752999735915], [-105.6746439996365, 41.2839130001454], [-105.67456699964362, 41.28391500028443], [-105.67337999996317, 41.283940000329494], [-105.67170500038608, 41.283974999701414], [-105.67120400007066, 41.283986000117295], [-105.67068900040985, 41.28399600012561], [-105.66845599971764, 41.28404199987394], [-105.66845300024289, 41.283764999813044], [-105.66842399993058, 41.28376600022234], [-105.66840300001418, 41.28262499981369], [-105.66838100027287, 41.28140699987979], [-105.66498900038759, 41.283983000249535], [-105.66436000002565, 41.28440700022035], [-105.65986500012552, 41.28791600008083], [-105.6581240004262, 41.28927599972767], [-105.65798200013596, 41.28938699991463], [-105.6568230000446, 41.29018299982097], [-105.65618500036014, 41.290619000279435], [-105.65592000004628, 41.290802999976336], [-105.65552300038622, 41.29108399969692], [-105.65541799990594, 41.29098499990703], [-105.65533500006526, 41.29090700019177], [-105.65539199996665, 41.29100299987999], [-105.65541600025612, 41.292447999881695], [-105.6535290000686, 41.29234400009802], [-105.6527259996294, 41.29293500027754], [-105.65095599961775, 41.29423799993558], [-105.64977899998306, 41.295104999929144], [-105.64906900032858, 41.295628000160185], [-105.64885199969525, 41.295786999681816], [-105.64873100021977, 41.29587700029623], [-105.648092999637, 41.296346000220865], [-105.64635799978545, 41.29762399971739], [-105.64495500019493, 41.29865799998769], [-105.644762999676, 41.29879899970543], [-105.64466499976672, 41.29887000021375], [-105.64448300019183, 41.29900499976937], [-105.64404999964847, 41.29932399967871], [-105.643748000423, 41.29954700025639], [-105.6428970003032, 41.300174000252184], [-105.64204100016053, 41.30080400006326], [-105.64097499995559, 41.3015890002082], [-105.64075700039571, 41.30174800004533], [-105.64058699961808, 41.30187500001454], [-105.63989399968203, 41.30238400024125], [-105.6397149995819, 41.30251699970282], [-105.6396319997412, 41.30257600011284], [-105.63957499983982, 41.30252799969183], [-105.63952200013637, 41.302483999724714], [-105.6395120000906, 41.30247399985077], [-105.63950100021995, 41.30246199973004], [-105.63948500032643, 41.3024449996677], [-105.63947600010559, 41.30243599991079], [-105.63944500014345, 41.302405000138755], [-105.63917700035485, 41.30259400026163], [-105.63691199987557, 41.30431899990195], [-105.63576299982996, 41.30516399974954], [-105.63490800041053, 41.305784999971955], [-105.63466099964002, 41.30597499981466], [-105.6345619999058, 41.305973999745916], [-105.63443300003436, 41.305973999745916], [-105.63412599988773, 41.30597499981466], [-105.63272800032006, 41.305978000020836], [-105.63087200009468, 41.305982000295515], [-105.63086399969876, 41.30489200004336], [-105.63070499969012, 41.30489200004336], [-105.62795899988522, 41.30490399971686], [-105.62794600036473, 41.303042000114516], [-105.62793200012102, 41.29880699978559], [-105.63060599995592, 41.29880200024177], [-105.63060599995592, 41.29893800011485], [-105.63060599995592, 41.29896500015514], [-105.63060699978082, 41.29900700012065], [-105.63162299975707, 41.29900400026864], [-105.63162799977992, 41.29985199996324], [-105.63179199981145, 41.299855999938835], [-105.6317879996135, 41.30021100000332], [-105.63179900038244, 41.300295999808064], [-105.63181199990295, 41.30039599979381], [-105.63192400005593, 41.300395000314374], [-105.63215000001173, 41.300395000314374], [-105.63258299965679, 41.300395000314374], [-105.63258199983187, 41.300256999792325], [-105.63276400030507, 41.300256999792325], [-105.63276500012998, 41.30039400016001], [-105.63317799968354, 41.30039300000568], [-105.63373400025054, 41.30039000021741], [-105.63370900013618, 41.30033400032013], [-105.63368700039486, 41.30028500011746], [-105.63368300019692, 41.30019299987167], [-105.63367700034915, 41.30003300013269], [-105.63367300015118, 41.299919000028595], [-105.63367099960303, 41.299828000104355], [-105.63366999977814, 41.2998040002367], [-105.63307700029951, 41.29981399984522], [-105.63255199969464, 41.29980800021523], [-105.63254900021991, 41.29940499996159], [-105.63254699967177, 41.298970999862625], [-105.63254599984685, 41.298794999665006], [-105.6340260003286, 41.29879100029918], [-105.63448300026307, 41.29879000012026], [-105.63447400004226, 41.297880000333365], [-105.63445099957771, 41.29526500028373], [-105.63443300003436, 41.29327599990272], [-105.63439000037668, 41.29064599971355], [-105.63428700044452, 41.28728199991605], [-105.633610000402, 41.28729000005875], [-105.63353300040909, 41.287292999774486], [-105.6334560004162, 41.28729899988055], [-105.63337900042332, 41.28730599966611], [-105.63330300025531, 41.2873159998406], [-105.63322700008735, 41.28732800004799], [-105.63315199974427, 41.28734099993263], [-105.63307700029951, 41.2873559998483], [-105.63300299978134, 41.287374000147494], [-105.63292999998642, 41.28739300012044], [-105.63285800001641, 41.28741400011959], [-105.6327869998713, 41.28743700014311], [-105.63271699955109, 41.28746200018877], [-105.63264899977902, 41.287489000254354], [-105.63258100000697, 41.28751699998553], [-105.63251499988472, 41.287546999732434], [-105.6324499995874, 41.28757900016725], [-105.6323869998382, 41.28761299993699], [-105.63231700041632, 41.2876540001123], [-105.63226499963946, 41.28768500014543], [-105.63220699991315, 41.287722999904624], [-105.63215099983665, 41.28776299966281], [-105.63209599958508, 41.28780399974381], [-105.6320429998816, 41.28784699981761], [-105.63199199982799, 41.28789100020907], [-105.63194400014741, 41.28793600024132], [-105.63188899989582, 41.28799199998306], [-105.63185299991082, 41.28803099990735], [-105.63181100007803, 41.28807900019764], [-105.63177099989507, 41.28812899978742], [-105.63173300026023, 41.28817999968056], [-105.63169800010013, 41.288231999874654], [-105.63166499958986, 41.288284999692316], [-105.6316339996277, 41.28833899980616], [-105.62947500035196, 41.28807399983155], [-105.62930799994737, 41.288414000227604], [-105.62929100022893, 41.288438999898915], [-105.62927299978728, 41.288578999771346], [-105.6292600002668, 41.28866900020567], [-105.62924299965005, 41.28880100030312], [-105.62905699987719, 41.28897499980877], [-105.62866600006495, 41.2894139998586], [-105.62859599974476, 41.28946500009722], [-105.62824900031343, 41.28959800025409], [-105.62821300032844, 41.289613000325815], [-105.62800900011392, 41.28970100004716], [-105.62783300038683, 41.28978699969084], [-105.6272879996905, 41.28993699981841], [-105.62661200037118, 41.2898979996834], [-105.62639999976076, 41.28985300032944], [-105.6261560002616, 41.28978699969084], [-105.62540399987601, 41.289526000131815], [-105.6249369998958, 41.28936700019894], [-105.62466099971125, 41.28927700005247], [-105.62456100015216, 41.2892650002036], [-105.62408099975312, 41.289079999891115], [-105.62265999972095, 41.28914100028562], [-105.62222200005303, 41.28951100004008], [-105.62230400006878, 41.28978099981358], [-105.62251900015393, 41.29019199991869], [-105.62260199999461, 41.29037200026292], [-105.62254799956796, 41.29045199988153], [-105.6223679996429, 41.29060500006852], [-105.62213800038745, 41.29063600004943], [-105.62158500019348, 41.29071400008869], [-105.62061299969987, 41.290639999915236], [-105.62032099962181, 41.29065299981501], [-105.61977199962583, 41.290784999948194], [-105.61941599997368, 41.291056999769104], [-105.61910999965193, 41.29131999986506], [-105.61887299982547, 41.29152500031062], [-105.61868100020483, 41.29199000002005], [-105.61882799961961, 41.292523999904304], [-105.61915999988064, 41.2927679997337], [-105.61974599968654, 41.293269000082695], [-105.61983500027333, 41.29334499982379], [-105.61995099972597, 41.29380300029639], [-105.61985399964159, 41.294047000066456], [-105.61963899955644, 41.29420499981794], [-105.6195800000052, 41.29424799972251], [-105.61947500042321, 41.294323999672855], [-105.61901599994059, 41.294662000084614], [-105.61858099974741, 41.294980000075086], [-105.61833800007317, 41.295158000237684], [-105.61803099992649, 41.2953849997859], [-105.61801800040602, 41.29548700033654], [-105.61802799955345, 41.29555799972578], [-105.61734899986111, 41.29597300009479], [-105.61676499970501, 41.29596100012772], [-105.61657800010727, 41.2959569999132], [-105.6165529999929, 41.2959569999132], [-105.6164049998549, 41.29662399972552], [-105.61643099979418, 41.29662399972552], [-105.61661200044244, 41.29662699968699], [-105.61659900002365, 41.29669600011295], [-105.6165170000079, 41.2969150000717], [-105.61645500008362, 41.29691399986402], [-105.61636700022007, 41.29691300033118], [-105.61629100005209, 41.29723400007968], [-105.61617700024927, 41.297720999839655], [-105.6160940004086, 41.29807000026224], [-105.61605500005054, 41.29823700005524], [-105.61599999979896, 41.29828299988673], [-105.615891000019, 41.2983790001935], [-105.6156580003905, 41.298380999889034], [-105.61528299957345, 41.29838600014001], [-105.61169400004468, 41.29842200004605], [-105.61081100013784, 41.29843000017246], [-105.61080600011498, 41.29822199994175], [-105.61080199991702, 41.29802899988395], [-105.61070499983262, 41.29802899988395], [-105.61073400014496, 41.29790000013885], [-105.61072900012208, 41.29742799999024], [-105.61073300032004, 41.297185000247616], [-105.61074199964256, 41.296755999925175], [-105.61074099981764, 41.29672099998516], [-105.61071400005346, 41.2957830001316], [-105.61066399982475, 41.29551900025146], [-105.6105480003721, 41.295254999977764], [-105.61052599973249, 41.29496199984957], [-105.61044799991468, 41.294324999920306], [-105.610441000242, 41.294269999788284], [-105.61039799968599, 41.293922000209754], [-105.61038599999041, 41.2938249998373], [-105.61037500011976, 41.29373900011711], [-105.6103500000054, 41.293514000085146], [-105.61032999991392, 41.293339999861296], [-105.61032300024121, 41.2932800002816], [-105.6102160001111, 41.29234499970081], [-105.60998799960714, 41.2923379997809], [-105.60991200033749, 41.292340999939555], [-105.60946700009856, 41.29233599990011], [-105.60916699962459, 41.29233200013825], [-105.60901299963881, 41.29233000025722], [-105.60884199993457, 41.29232799970123], [-105.60847899971142, 41.292323999938866], [-105.60684500014221, 41.29230500005201], [-105.60595899986232, 41.29229300008508], [-105.60545599989707, 41.29228699976332], [-105.60302599956135, 41.29133700012732], [-105.60209099977598, 41.29097200007345], [-105.60214199982961, 41.29199899986848], [-105.60218700003544, 41.292882000187625], [-105.60309699970648, 41.29330800022733], [-105.60359999967172, 41.29354300018982], [-105.60403099966692, 41.29374400004901], [-105.60406500000212, 41.29384899988025], [-105.6041200002537, 41.2940200000151], [-105.60415799988854, 41.29413799995724], [-105.60417100030735, 41.29425599968593], [-105.60419100039881, 41.29444100016936], [-105.60418100035308, 41.29482700002484], [-105.60420200026948, 41.29517999999655], [-105.6042249998357, 41.29575799989987], [-105.60451100006595, 41.29587700029623], [-105.60467099989953, 41.29594300017292], [-105.60487000009117, 41.29602599969806], [-105.60534200009425, 41.29622100004532], [-105.60540700039161, 41.29625399981798], [-105.60542800030797, 41.29627599988212], [-105.6054509998742, 41.296330000130816], [-105.60544199965338, 41.29637499974144], [-105.60542999995782, 41.29644000024912], [-105.60537899990418, 41.29652299981677], [-105.60530799975908, 41.296597000065915], [-105.60438499966925, 41.297304000065225], [-105.60439300006519, 41.29772200003496], [-105.60416000043668, 41.29837600031261], [-105.60403099966692, 41.29855900021909], [-105.6038659998105, 41.29879599984385], [-105.60377200009917, 41.29879599984385], [-105.6003040000459, 41.298801000063015], [-105.59986100035512, 41.29880200024177], [-105.59952800026917, 41.29880299974566], [-105.59903899964931, 41.29880299974566], [-105.59875400014228, 41.29880399992437], [-105.59853700040732, 41.29880399992437], [-105.59831099955319, 41.29880399992437], [-105.5981349998261, 41.29880399992437], [-105.59794099965734, 41.29880399992437], [-105.59786200001462, 41.29880500010307], [-105.59781699980877, 41.29880500010307], [-105.59777099977802, 41.29880500010307], [-105.59766199999808, 41.29880399992437], [-105.5975930004011, 41.29880600028176], [-105.59707000034439, 41.29880799996425], [-105.59698099975758, 41.298794999665006], [-105.59683599999265, 41.29878799976234], [-105.59640099979946, 41.298768999733596], [-105.59625699985939, 41.298763000007526], [-105.59614200023168, 41.29876700004992], [-105.5957990001, 41.29877900017565], [-105.5956850002972, 41.29878399972124], [-105.59549199995337, 41.29878799976234], [-105.59507500020182, 41.298797000022674], [-105.59510299979092, 41.29857999999848], [-105.59515899986742, 41.298148999700324], [-105.59628199997378, 41.29844999980924], [-105.59640199962435, 41.29848299980393], [-105.5963969996015, 41.29808599992547], [-105.59639499995168, 41.297880000333365], [-105.59639300030186, 41.29771300030119], [-105.59639199957864, 41.297647000190814], [-105.59637999988307, 41.296440999789155], [-105.59636999983732, 41.29556999976705], [-105.5963549997687, 41.29425099979327], [-105.5963330000274, 41.293973000299], [-105.59604099994935, 41.29236400025098], [-105.59601099981212, 41.292115000204056], [-105.59600400013944, 41.29204800022159], [-105.59599900011656, 41.290984000283395], [-105.59599699956843, 41.290616000041645], [-105.59599699956843, 41.29040799986717], [-105.59599599974351, 41.29023299982327], [-105.59599599974351, 41.29008099975139], [-105.59600300031452, 41.28967000029695], [-105.59599499991859, 41.289632999966095], [-105.596023000406, 41.28945700022126], [-105.59611100026954, 41.28892900016301], [-105.59614100040677, 41.28875400020187], [-105.59610399969853, 41.28867599984426], [-105.59607399956131, 41.287983000256816], [-105.59606600006371, 41.287776999808585], [-105.59608000030741, 41.28564499970087], [-105.59608199995722, 41.28535999999104], [-105.5960379995763, 41.28486799981519], [-105.59600800033738, 41.28413999966996], [-105.59592100029876, 41.28195899974347], [-105.59591399972774, 41.28177599984743], [-105.59589199998642, 41.28123199999633], [-105.59587600009291, 41.28093600033657], [-105.59586500022226, 41.28044000006828], [-105.59584799960548, 41.279954000033385], [-105.59583599990994, 41.278614999971246], [-105.59585099997855, 41.27769000016035], [-105.59585299962836, 41.27758400014836], [-105.59165999985203, 41.27750999993606], [-105.58815800036189, 41.277532000245124], [-105.58653200029029, 41.27751600026659], [-105.58608100020359, 41.27750000028408], [-105.5853070000767, 41.27747799996422], [-105.58469199995845, 41.27747799996422], [-105.58376399984576, 41.27745099980703], [-105.58075199990208, 41.27740400030685], [-105.57992099987378, 41.27738299978671], [-105.57984700025393, 41.27738100012259], [-105.57960899970423, 41.27733200023126], [-105.57957299971922, 41.2774379999774], [-105.57954400030522, 41.27744100014602], [-105.57967300017665, 41.277572000174395], [-105.58195200000132, 41.27998900019297], [-105.58199100035938, 41.28002100028384], [-105.58376999969356, 41.281477999741114], [-105.58914900022376, 41.2871520001603], [-105.58927899992008, 41.28728899970344], [-105.59005800006986, 41.28810399999732], [-105.59154500022427, 41.28952499981077], [-105.59230199973443, 41.290295999758165], [-105.59252000019264, 41.29051799984739], [-105.59275100017132, 41.29076899984401], [-105.59291000017998, 41.29156200024338], [-105.59299300002064, 41.29197100003587], [-105.59301200028723, 41.29206099984075], [-105.59309400030301, 41.29246699972689], [-105.59321499977851, 41.29301399986044], [-105.59300200024148, 41.2927820001554], [-105.59281399992051, 41.29260499985758], [-105.59267699965316, 41.29247600018448], [-105.59236299983381, 41.292298999731365], [-105.59213500022817, 41.29223599970583], [-105.59212199980936, 41.292175999785684], [-105.59210500009094, 41.29209699986293], [-105.5920950000452, 41.292043000159694], [-105.59206999993086, 41.292003999933755], [-105.59203700031888, 41.291953999938826], [-105.5919410000594, 41.29180800019325], [-105.5911939996967, 41.29099000005001], [-105.59107999989388, 41.29087300011359], [-105.59038100011004, 41.29014999967694], [-105.59005300004698, 41.28983100012402], [-105.5892710004225, 41.28896200024963], [-105.58830399995175, 41.28791600008083], [-105.5882860004084, 41.28935200007066], [-105.58826799996673, 41.29060199983007], [-105.58829200025619, 41.291763000131795], [-105.58829599955583, 41.29197999988698], [-105.58816400020966, 41.291974999819864], [-105.58720199976179, 41.29195700011508], [-105.58318100041289, 41.29189500004397], [-105.58243300022527, 41.29190099972687], [-105.58241899998157, 41.29180899980426], [-105.58241899998157, 41.2917700001134], [-105.58242599965426, 41.29112200017636], [-105.58148199964806, 41.2910909997514], [-105.58139600033265, 41.2910909997514], [-105.58142499974664, 41.29143999987478], [-105.58141800007394, 41.29176100023332], [-105.58141800007394, 41.291782999787955], [-105.58141100040126, 41.291805000010086], [-105.58138399973876, 41.291910000262554], [-105.5810709997443, 41.29188800007578], [-105.58004600044556, 41.29184899975718], [-105.5788039996152, 41.291794999848705], [-105.57871400010184, 41.29179600013489], [-105.57856500013892, 41.29179800003229], [-105.57856000011606, 41.29096100016035], [-105.578556999743, 41.29049199999149], [-105.57855599991808, 41.2902620000366], [-105.57855599991808, 41.29024700011408], [-105.5788449996231, 41.290247999749], [-105.57953900028237, 41.29025200031362], [-105.57954699977996, 41.28975799994142], [-105.5795700002445, 41.28836800018636], [-105.57956900041958, 41.28830200007048], [-105.57956699987145, 41.28809700029737], [-105.57956400039672, 41.28765800016097], [-105.57956000019875, 41.28713700019778], [-105.57956100002366, 41.287103999863064], [-105.578015000318, 41.28709299997281], [-105.57797299958692, 41.28709200028949], [-105.57794800037085, 41.28709200028949], [-105.57757500010196, 41.287084999806005], [-105.57757500010196, 41.28749399999026], [-105.57661500020221, 41.28749800004873], [-105.57653499983627, 41.287498999725784], [-105.57653400001136, 41.287525999776044], [-105.57653400001136, 41.28784800016432], [-105.57653499983627, 41.28815400024295], [-105.57653999985914, 41.28978800000785], [-105.57653999985914, 41.28998399974239], [-105.57653900003424, 41.29018699971454], [-105.57653999985914, 41.29023600007872], [-105.57663199992065, 41.29023600007872], [-105.57691499977788, 41.29023800002389], [-105.57741299972025, 41.290239999969046], [-105.57741199989533, 41.2902860000404], [-105.57741199989533, 41.29033799990597], [-105.57741400044348, 41.290650999882516], [-105.57742100011617, 41.29155200004475], [-105.57742299976599, 41.29178099989011], [-105.57738299958304, 41.291782000176504], [-105.57735699964375, 41.291782000176504], [-105.57728300002391, 41.291782999787955], [-105.57698099990012, 41.291789000156065], [-105.57662799972272, 41.29179699974609], [-105.57663600011863, 41.29188300000167], [-105.57663899959334, 41.29190399990557], [-105.5766849996241, 41.29220799997499], [-105.576733000203, 41.29246699972689], [-105.57676499999005, 41.29264600027054], [-105.57680199979997, 41.29284799978889], [-105.5768169998686, 41.29292599988327], [-105.57685100020377, 41.29380899980376], [-105.57685399967852, 41.293874000168735], [-105.57686999957204, 41.294061999790145], [-105.57686999957204, 41.294209000139865], [-105.57687299994508, 41.29472299998431], [-105.57687600031812, 41.29522799975149], [-105.57684299980787, 41.29522799975149], [-105.57658699971482, 41.29522799975149], [-105.57555900004301, 41.29522799975149], [-105.57513200024577, 41.29522899998503], [-105.57211100008125, 41.29527399968035], [-105.57192699995822, 41.295276999703916], [-105.57169599997955, 41.29527799993675], [-105.5716929996065, 41.29517800020289], [-105.56980399976918, 41.29519099987325], [-105.56981800001287, 41.2963849998757], [-105.56993600001366, 41.296389000063925], [-105.57153299977294, 41.296393000251896], [-105.57194000037703, 41.296393999792706], [-105.57194200002685, 41.29667400019048], [-105.57158100035183, 41.29667899989741], [-105.57158100035183, 41.29773399967811], [-105.57157899980369, 41.298438000297836], [-105.57195799992037, 41.298435999929154], [-105.57211000025634, 41.29843499974479], [-105.57252100016008, 41.298430999682], [-105.57375399987129, 41.298419999676845], [-105.57403400025376, 41.29841799998246], [-105.57401699963701, 41.2985489997433], [-105.57389600016151, 41.298552999798815], [-105.57353499958818, 41.298567000328696], [-105.57333799994467, 41.2985709997082], [-105.57333799994467, 41.29863000031379], [-105.57333899976958, 41.298874999752364], [-105.57278800012378, 41.298875999929976], [-105.57207000007337, 41.29887899978788], [-105.57127400020515, 41.298882000320546], [-105.56756900032543, 41.29889300024779], [-105.56653699955736, 41.29801000030895], [-105.5660240004447, 41.29757100006276], [-105.56675500001558, 41.29707099988971], [-105.5651940002413, 41.29576899967905], [-105.56429700009075, 41.296371999768375], [-105.56422900031869, 41.296417000024945], [-105.56403599997485, 41.29654600000352], [-105.5639339998676, 41.29661600005251], [-105.56267199984407, 41.29742900019003], [-105.56242400014696, 41.29758500012852], [-105.5623649996974, 41.29752800032402], [-105.56232000038989, 41.29748399968314], [-105.56221300025976, 41.29737999982954], [-105.56189400041754, 41.29707099988971], [-105.56178800011232, 41.296968999791325], [-105.56141599966833, 41.296610000128396], [-105.56054500035538, 41.29720500026617], [-105.55980300001552, 41.29658699996421], [-105.55905700037603, 41.2966290001112], [-105.55906599969855, 41.297241000149135], [-105.55906700042176, 41.29777899966992], [-105.55872699976484, 41.297779999864346], [-105.557731999705, 41.29778399996703], [-105.55765899991006, 41.295309999954156], [-105.55762200010014, 41.29404000032917], [-105.55679899956944, 41.294029000258426], [-105.54810900024313, 41.293912999951615], [-105.54655799961627, 41.293919999702524], [-105.54576199974808, 41.29392299978837], [-105.54265799974291, 41.293933999876984], [-105.54027400033625, 41.29394300013223], [-105.53924099974326, 41.29394699979527], [-105.53822599959194, 41.29394999987987], [-105.53807400015428, 41.293951000133056], [-105.53807599980411, 41.29408000026401], [-105.5380619995604, 41.29466599970357], [-105.53806900013143, 41.29621800006517], [-105.53807400015428, 41.296524000030445], [-105.5380900000478, 41.29744200008669], [-105.53809599989559, 41.29774799970888], [-105.53767199957308, 41.29775100029359], [-105.53720999961571, 41.29775499972313], [-105.53640000040211, 41.29776800022971], [-105.53597699990449, 41.297775000241806], [-105.5358289997665, 41.29777200033312], [-105.53583399978938, 41.29878799976234], [-105.53534500006782, 41.29879000012026], [-105.53469899998744, 41.29879100029918], [-105.53457599996379, 41.298794999665006], [-105.53407499964838, 41.29822700020493], [-105.53366200009482, 41.29775899982738], [-105.5333859999103, 41.297445000010555], [-105.53314400006097, 41.29716999989217], [-105.53215599967383, 41.29604499985099], [-105.53203799967304, 41.295909000019826], [-105.53192800006818, 41.295962999897384], [-105.53157200041603, 41.29613699987378], [-105.53105199983403, 41.296393999792706], [-105.53095499974967, 41.296260999992604], [-105.53085400036565, 41.296296000179396], [-105.52886500007088, 41.29729599980077], [-105.52902599972936, 41.29746600014862], [-105.52951799982395, 41.29806200009168], [-105.52873000035167, 41.29845299968675], [-105.52820899994477, 41.29871500015441], [-105.52820800011985, 41.29900099974158], [-105.52820800011985, 41.29938200010812], [-105.52820800011985, 41.299648999697546], [-105.52820800011985, 41.29968800007688], [-105.52820800011985, 41.30101700020707], [-105.52820800011985, 41.30159499967429], [-105.52820800011985, 41.302330999730714], [-105.52820800011985, 41.302529999935], [-105.5282039999219, 41.30270600017596], [-105.52842700040297, 41.30270799973886], [-105.52880599962134, 41.30271200021414], [-105.52908299963076, 41.30270799973886], [-105.52991399965909, 41.302700000137214], [-105.53019200039174, 41.30269699978022], [-105.53099699958246, 41.302700000137214], [-105.53341199984956, 41.302708999857686], [-105.53361900043711, 41.30270999997656], [-105.5342169999386, 41.302719999814315], [-105.5348649996688, 41.30271899969566], [-105.53663499968044, 41.30271800025178], [-105.53677899962048, 41.302821000249374], [-105.5369769999872, 41.30296399996974], [-105.53726499986729, 41.30324899970892], [-105.5373850004162, 41.30335800019621], [-105.53751599993745, 41.30344400005587], [-105.53777799987827, 41.30361500000487], [-105.53796500037434, 41.30378199977085], [-105.53821300007147, 41.30400399985231], [-105.53821499972128, 41.304196999774064], [-105.53823599963768, 41.30611699997494], [-105.53823999983564, 41.30887799980219], [-105.53825699955408, 41.31361499980116], [-105.53825800027731, 41.313858999670714], [-105.53826300030016, 41.3149499997343], [-105.53826699959981, 41.31531800032271], [-105.53828400021656, 41.316827999788124], [-105.53829000006435, 41.31731399973417], [-105.53829400026233, 41.31771099994815], [-105.53830400030806, 41.318562000228326], [-105.53831199980567, 41.31925500011737], [-105.53832100002649, 41.320044000179706], [-105.53831299963056, 41.32042100031812], [-105.53830699978279, 41.320766999812605], [-105.5382930004374, 41.32155800011989], [-105.53824700040666, 41.32398300013004], [-105.53823099961483, 41.32433699992322], [-105.5382299997899, 41.32463199985594], [-105.5380549998877, 41.32464499972621], [-105.53805900008567, 41.32641900030121], [-105.53805900008567, 41.32835400031519], [-105.5382220002923, 41.328355999765996], [-105.53822599959194, 41.328050000100056], [-105.53917200014628, 41.32804599983035], [-105.5401930001454, 41.328042000234994], [-105.54493800029078, 41.32802099982567], [-105.54778700002785, 41.328095999810934], [-105.54915299980844, 41.32813299990677], [-105.55735400031155, 41.328103999669324], [-105.55734799956542, 41.32818499995125], [-105.55729999988486, 41.32883900026249], [-105.55729700041013, 41.328880999872474], [-105.55729700041013, 41.32903700011416], [-105.55729700041013, 41.329562000129656], [-105.55731099975552, 41.33044400007563], [-105.55733199967193, 41.33071099995337], [-105.55743299995424, 41.331033000285515], [-105.55747499978706, 41.33116300026613], [-105.55747700033518, 41.33133500003895], [-105.5572460003565, 41.33147999997707], [-105.55723600031077, 41.3315460002421], [-105.55725100037938, 41.331573999945945], [-105.56129000016995, 41.33232899987835], [-105.56129600001773, 41.332762999849244], [-105.56134200004848, 41.335664999755586], [-105.56712699956124, 41.335681000310586], [-105.57671499976134, 41.335706999686515], [-105.57670999973845, 41.33480999970748], [-105.5767890002795, 41.33480999970748], [-105.57678699973137, 41.33477199972967], [-105.57678500008153, 41.334751999767896], [-105.57697500005233, 41.334751999767896], [-105.57748899988823, 41.33475300006966], [-105.5775159996524, 41.334762999713895], [-105.57767100036143, 41.33476099978519], [-105.57822399965708, 41.33475499999866], [-105.57899600013415, 41.33475100014065], [-105.57913500005131, 41.33477400033255], [-105.57976299969002, 41.334767999872696], [-105.58027300022628, 41.33476400001548], [-105.58046200037217, 41.334769999801196], [-105.58050699967971, 41.33410599992744], [-105.58050699967971, 41.33372599976639], [-105.58189599992484, 41.33372100020214], [-105.58189900029788, 41.333445000321525], [-105.58190299959752, 41.333062999696345], [-105.5819009999477, 41.33290599999591], [-105.58195200000132, 41.33290599999591], [-105.58215799986566, 41.33290700032602], [-105.58215700004074, 41.33283999975965], [-105.58321300019995, 41.332831999808256], [-105.58321300019995, 41.33309300007724], [-105.58321400002485, 41.33320700018445], [-105.58321599967468, 41.333984999873536], [-105.58321800022283, 41.334740000192625], [-105.5832240000706, 41.334789999757376], [-105.58321800022283, 41.334827999724745], [-105.58321800022283, 41.33486699996989], [-105.58321800022283, 41.33489599989493], [-105.58322200042076, 41.33496599991662], [-105.58332600017785, 41.33496000014897], [-105.58339700032296, 41.334956000303556], [-105.58396499968723, 41.33495899985039], [-105.58431799986464, 41.33496200007156], [-105.58567199994967, 41.334994999797594], [-105.58624100003713, 41.33500899992157], [-105.58634099959626, 41.33501999982416], [-105.58632499970273, 41.3357230002312], [-105.5873780003872, 41.33572899992857], [-105.58868399989335, 41.33573799981082], [-105.58874300034289, 41.33540399967423], [-105.58877299958179, 41.33523199985264], [-105.58882500035865, 41.33494000024498], [-105.58911499988858, 41.33496799983908], [-105.58956900034835, 41.335014000061484], [-105.58949200035543, 41.33539999985607], [-105.5894620002182, 41.33555299980742], [-105.58945700019534, 41.335582000101574], [-105.5894489997994, 41.33562099989528], [-105.58943299990588, 41.33570400017411], [-105.58941700001236, 41.33578299987808], [-105.58957199982306, 41.335786000061304], [-105.58973300037987, 41.335787999958534], [-105.58990499990898, 41.335791000141576], [-105.59073699976221, 41.33580399980886], [-105.59080899973223, 41.335089999712594], [-105.59102700019042, 41.33289699972233], [-105.59104300008396, 41.332784000079094], [-105.59112500009974, 41.33194199975346], [-105.59137100014702, 41.32949399978793], [-105.59098500035763, 41.32949199969747], [-105.59058600014947, 41.32949000028146], [-105.59050699960844, 41.329497000260865], [-105.59051900020232, 41.329216000112936], [-105.59054099994363, 41.328883999699045], [-105.59056299968493, 41.32850400010727], [-105.59057600010372, 41.32829100004314], [-105.59061100026382, 41.32793299986778], [-105.5906720003632, 41.327937000144416], [-105.59086399998381, 41.32795000002992], [-105.59108099971878, 41.32796500005022], [-105.5910530001297, 41.328241999939394], [-105.59146999988121, 41.328241000212195], [-105.59150300039148, 41.327947000160336], [-105.5917920000965, 41.32794900029823], [-105.5919410000594, 41.327950999761526], [-105.59429699987697, 41.32796700018756], [-105.59436899984698, 41.328047999965214], [-105.59458999977993, 41.32805500009954], [-105.59541400013556, 41.328083999684154], [-105.59538800019628, 41.3279529998993], [-105.5956579996347, 41.327947999892], [-105.59595899993359, 41.32794200015257], [-105.59597300017728, 41.32794200015257], [-105.59603199972851, 41.327940999746225], [-105.59640699964724, 41.32793500000615], [-105.596748999954, 41.327927999858936], [-105.59729799995, 41.327917999840096], [-105.59775499988449, 41.32790999995888], [-105.59807999957451, 41.3279040002159], [-105.59855599977557, 41.32789499992592], [-105.59877099986072, 41.32789200005381], [-105.59902399958072, 41.3278879997744], [-105.59922299977234, 41.328300000278475], [-105.59893200041752, 41.3284520003174], [-105.59877300040885, 41.32858299977352], [-105.59858099988992, 41.32879299972702], [-105.59840900036079, 41.328992000108705], [-105.59846999956184, 41.32916200011609], [-105.59854800027797, 41.329377000125106], [-105.59856199962336, 41.329543000299225], [-105.59875400014228, 41.329931999911935], [-105.59902600012884, 41.33013300025834], [-105.59936300041274, 41.330645000191524], [-105.59997799963267, 41.33066900017396], [-105.60081700005689, 41.3313729999981], [-105.60093500005766, 41.33214299996933], [-105.60240799996838, 41.33213000024592], [-105.60443800027103, 41.332118999855304], [-105.6056330003474, 41.332112999825426], [-105.60569000024881, 41.33207300028668], [-105.60689899967056, 41.33118599970121], [-105.60699699957985, 41.331261000090386], [-105.60682500005073, 41.33138799990489], [-105.60693499965558, 41.331475000240445], [-105.60724900037324, 41.33172399974453], [-105.60770399975961, 41.33182600011181], [-105.60913800021059, 41.33181899970815], [-105.60944600018215, 41.33181699968906], [-105.60946500044872, 41.33578299987808], [-105.61275199985371, 41.335775999899596], [-105.61285300013606, 41.335777000185686], [-105.61460600042925, 41.33579600022147], [-105.61518999968705, 41.33579600022147], [-105.61517700016657, 41.33407299975109], [-105.61515299987713, 41.33072699970159], [-105.61514799985424, 41.3301429999372], [-105.61460399988111, 41.329596000273916], [-105.61386900011229, 41.32908999982591], [-105.61321100033635, 41.32880199989301], [-105.6110689998807, 41.3284040000594], [-105.61004600023179, 41.32824400006824], [-105.60981199988005, 41.32821100029521], [-105.60982699994867, 41.3284040000594], [-105.60981699990292, 41.32842300022194], [-105.60976400019948, 41.32853899985168], [-105.60973200041242, 41.32860499972329], [-105.60971499979568, 41.32864299992569], [-105.60957300040376, 41.328751000060315], [-105.60951399995422, 41.32879400012028], [-105.6094620000757, 41.32839600023781], [-105.60943299976336, 41.32816999998158], [-105.60879099988095, 41.32808099982079], [-105.60806699998277, 41.32797799993008], [-105.60775700036137, 41.32793500000615], [-105.60779099979825, 41.32779000027303], [-105.60814399997565, 41.32779699976044], [-105.60820199970198, 41.32771400020024], [-105.6085199997193, 41.32775000010377], [-105.6087390000024, 41.32777599994674], [-105.60947200012143, 41.32787499987658], [-105.60979000013874, 41.327917999840096], [-105.6097869997657, 41.327846999932106], [-105.61190300028207, 41.327872999736364], [-105.6128849999231, 41.32788499990201], [-105.61359600030082, 41.32789400019339], [-105.61449500010117, 41.3279040002159], [-105.61456600024628, 41.327904999948274], [-105.61514000035663, 41.32791200009792], [-105.61525900018232, 41.326614000155686], [-105.6153550004418, 41.32556200011803], [-105.61544599978008, 41.32455900017302], [-105.61548599996304, 41.32411900010277], [-105.6155319999938, 41.32361400009371], [-105.6155889998952, 41.322983000265275], [-105.61559700029113, 41.322896000058776], [-105.61562200040548, 41.322628000049605], [-105.61567099991099, 41.32208299967985], [-105.61575299992673, 41.32115900005443], [-105.61587199975243, 41.32252699993893], [-105.6160819998147, 41.32493700028028], [-105.6167980002153, 41.32667100016899], [-105.6168540002918, 41.327447999922086], [-105.6192279996527, 41.327380000072296], [-105.61924000024659, 41.3275519997138], [-105.6192560001401, 41.32776099988292], [-105.61913800013932, 41.32776399976106], [-105.61914200033728, 41.32782800027614], [-105.61915999988064, 41.328092000218646], [-105.61727699989109, 41.3282340000979], [-105.61706400035406, 41.328251000181446], [-105.61690600017032, 41.3282340000979], [-105.61695600039904, 41.328956000216884], [-105.6165529999929, 41.330956000262894], [-105.61657200025947, 41.33122399974729], [-105.61974300021181, 41.33124499979875], [-105.6222759995814, 41.331261000090386], [-105.62234300042684, 41.33052100002888], [-105.6223810000617, 41.33008600026309], [-105.62240199997808, 41.32985700001649], [-105.62248900001671, 41.328852999685786], [-105.62254300044339, 41.328236000226994], [-105.62258799975092, 41.32775399971705], [-105.62259799979665, 41.3276109997294], [-105.62254500009321, 41.3276109997294], [-105.62108399987807, 41.3276109997294], [-105.6204100002086, 41.32761200014081], [-105.62055099977557, 41.32568900024811], [-105.62061699989782, 41.32445699989691], [-105.6236859997429, 41.32443899971259], [-105.6236859997429, 41.32343500022115], [-105.62254599991813, 41.32344099970095], [-105.62137699978102, 41.32344699985483], [-105.6207549999901, 41.32344699985483], [-105.62068700021803, 41.32344699985483], [-105.62069399989073, 41.32189899985287], [-105.62063000031662, 41.32117100010719], [-105.62056900021724, 41.320778999937616], [-105.62049300004928, 41.320430000291196], [-105.62042399955398, 41.320026999978914], [-105.6204090003837, 41.31911300023604], [-105.6203759998734, 41.31805599977806], [-105.62036900020071, 41.317788999993205], [-105.62065200005794, 41.31779099976821], [-105.62068999969276, 41.31779200033038], [-105.62150400000263, 41.31779800032973], [-105.62178900040797, 41.317800999991846], [-105.62208800015873, 41.317800999991846], [-105.62298699995908, 41.317801999879165], [-105.62328700043305, 41.31780299976648], [-105.62357699996296, 41.3177990002171], [-105.62444999982407, 41.31779099976821], [-105.6247410000772, 41.317788999993205], [-105.62479100030592, 41.31778800010562], [-105.62494100009374, 41.31778700021808], [-105.62499200014737, 41.31778700021808], [-105.62515500035398, 41.31778499976826], [-105.62564499990044, 41.31778299999303], [-105.62580899993199, 41.31778299999303], [-105.62593399960544, 41.31778399988063], [-105.6263100002474, 41.31778700021808], [-105.62643599974578, 41.317788999993205], [-105.62643499992086, 41.317762000325516], [-105.62643499992086, 41.317682999684315], [-105.62643499992086, 41.317656999862265], [-105.62643400009594, 41.31761299998413], [-105.62643300027105, 41.31748299995596], [-105.62643300027105, 41.31743999985329], [-105.62642999989801, 41.3172070001057], [-105.62642400005022, 41.316508999820854], [-105.62642200040038, 41.316277000029444], [-105.62669600003677, 41.316280999672216], [-105.62752000039238, 41.316292999948494], [-105.62779499985368, 41.316297000265], [-105.62810000035053, 41.31628200025758], [-105.6290150000444, 41.31623700021463], [-105.62931999964295, 41.316222000193385], [-105.62934599958221, 41.31622100028183], [-105.62942699977306, 41.31622100028183], [-105.62945400043556, 41.31622100028183], [-105.62945400043556, 41.316207000168696], [-105.62945699991029, 41.31616499981133], [-105.6294579997352, 41.31615200027358], [-105.62943299962085, 41.31600799987439], [-105.62940000000889, 41.314858999869806], [-105.62980699971466, 41.314796999978306], [-105.63010299999067, 41.31520499987902], [-105.63091300010258, 41.316061999977016], [-105.63084500033052, 41.31610800005414], [-105.63078300040623, 41.316130000167576], [-105.63083199991173, 41.31640400003791], [-105.63083399956153, 41.31673599994299], [-105.63083500028478, 41.316908000017314], [-105.63083699993459, 41.31707600004401], [-105.6308300002619, 41.317194000101054], [-105.63081000017041, 41.31754900023105], [-105.63126600028001, 41.31754699977392], [-105.6313859999306, 41.31755100001346], [-105.6315059995812, 41.31755799992601], [-105.63162399958196, 41.317564999837856], [-105.63174400013088, 41.317581000115446], [-105.63186299995655, 41.317596999714404], [-105.63198000013243, 41.31761700021963], [-105.63209599958508, 41.317638999823735], [-105.63219400039267, 41.31766100009506], [-105.632211999936, 41.317665000327615], [-105.63226200016473, 41.31767800023835], [-105.63232599973882, 41.31769399981351], [-105.63238900038634, 41.31770200027431], [-105.63240699992969, 41.317716999954946], [-105.63265899982477, 41.31779699976764], [-105.63276699977979, 41.31783799986129], [-105.63287300008501, 41.31788099970143], [-105.63297699984209, 41.317926999844175], [-105.63439600022446, 41.31858300031277], [-105.63440399972205, 41.31820999986158], [-105.6344129999429, 41.31809200029457], [-105.63441200011796, 41.318021999684255], [-105.63441200011796, 41.317902000005304], [-105.63439899969919, 41.31784000030949], [-105.63320899964567, 41.317227999952074], [-105.63280199993989, 41.31701899973407], [-105.63268499976404, 41.316957999773344], [-105.63255900026564, 41.31689400005175], [-105.63249399996835, 41.31686000002655], [-105.63233599978459, 41.31677700002934], [-105.63230099962448, 41.316758999747776], [-105.63230099962448, 41.316535000100835], [-105.63229999979957, 41.315358000026755], [-105.63330400008023, 41.31535299972774], [-105.63355400032549, 41.31507000012512], [-105.6337319997024, 41.31486500013914], [-105.63432099988138, 41.31425999977862], [-105.63432400025442, 41.31427600019277], [-105.63432400025442, 41.31434300028196], [-105.63432599990425, 41.31449299993993], [-105.6343710001101, 41.317621999670315], [-105.63438299980567, 41.31766100009506], [-105.63488999996886, 41.3179499999034], [-105.63567900016439, 41.318384999729524], [-105.63645099974315, 41.31874000011937], [-105.63746300041971, 41.31913900015195], [-105.63873200011592, 41.31946700017218], [-105.63982300043523, 41.31967099999389], [-105.64099500004708, 41.31974200004], [-105.64529800032659, 41.31977800029993], [-105.64802099966697, 41.31980300009389], [-105.6496900002946, 41.31980399995051], [-105.65203299969336, 41.319858000281535], [-105.65321299970111, 41.31994599967566], [-105.65469499983267, 41.320213000069444], [-105.65632000007936, 41.320632000109434], [-105.66436300039871, 41.32291600028711], [-105.67183900028039, 41.32498900017699], [-105.67211200009186, 41.32450000009233], [-105.67244400035288, 41.323593000281136], [-105.67253999971405, 41.32153800014939], [-105.67248600018569, 41.321285999995325], [-105.67237300020777, 41.321061999715006], [-105.6725149995997, 41.32106300022697], [-105.67266600011074, 41.32100500019241], [-105.67281699972347, 41.321427000032934], [-105.67281699972347, 41.3222820003159], [-105.67273899990566, 41.323644000103414], [-105.67232200015417, 41.324708000150544], [-105.67212799998539, 41.325083000066606], [-105.67317200044901, 41.32539399970379], [-105.67688599965126, 41.326474000301936], [-105.67912500019128, 41.32710899970803], [-105.6792809998269, 41.32171500018099], [-105.67930000009348, 41.321125000230104], [-105.67939800000276, 41.32113000008631], [-105.68633099973623, 41.32627600008197], [-105.6900730003242, 41.323411000272436], [-105.68664700010372, 41.32086799995239], [-105.69217499969854, 41.32088400009378], [-105.69212799984288, 41.31358799975396], [-105.69208299963702, 41.306351000286625], [-105.69210399955342, 41.30618399967705], [-105.69247599999743, 41.3054230000179], [-105.69254100029474, 41.30298800002423], [-105.69255399981522, 41.30250799995586], [-105.69262699961016, 41.30193300019981], [-105.69465100006502, 41.30045299979133], [-105.69738000015147, 41.2989800000977]], [[-105.63957599966471, 41.302700000137214], [-105.63955100044868, 41.302879000268135], [-105.6394069996103, 41.30406499978794], [-105.63932399976964, 41.30473800021274], [-105.63916599958588, 41.306008000050596], [-105.63908500029335, 41.306006999982316], [-105.63754600026039, 41.3059990001106], [-105.63592900040962, 41.30598900010085], [-105.63516399960524, 41.30598499982655], [-105.63594399957992, 41.30540199974264], [-105.63711100006722, 41.304527000257494], [-105.63924900032488, 41.30297599999809], [-105.63957599966471, 41.302700000137214]], [[-105.57420099976002, 41.329365000234255], [-105.57418400004158, 41.32978899998267], [-105.57409100015518, 41.329800999795424], [-105.57368799974905, 41.32984399983697], [-105.57351799986974, 41.32987000019346], [-105.57304300039189, 41.3298910000068], [-105.572742000093, 41.33023100028292], [-105.57274299991792, 41.33041799994827], [-105.5722769997626, 41.330371999853085], [-105.57159100039756, 41.33030399968223], [-105.57139200020593, 41.33027899986945], [-105.57125699958841, 41.32958799992411], [-105.57121700030376, 41.32955799995278], [-105.57105599974696, 41.32943700022058], [-105.57077600026278, 41.32922800003118], [-105.5697350001722, 41.32852499968638], [-105.56892099986234, 41.32797599979307], [-105.56945099959175, 41.32797400033054], [-105.56949099977473, 41.32792400025634], [-105.57182999987386, 41.32791400023688], [-105.57252100016008, 41.32792099971101], [-105.57249500022083, 41.328564000332186], [-105.57282900013165, 41.32878900017752], [-105.57352100024278, 41.328804999723175], [-105.57375899989415, 41.328782999840946], [-105.57420099976002, 41.329365000234255]]]}, "properties": {"id": "covered-us-wy-laramie", "status": "covered", "jurisdiction": "Laramie", "country_id": "us", "state_id": "wy", "area_type": "city", "note": "Covered by public tree inventory for Laramie; geometry from official jurisdiction boundary."}}]}