{"type": "FeatureCollection", "features": [{"type": "Feature", "geometry": {"type": "Polygon", "coordinates": [[[-83.05775499970831, 39.977314999938535], [-83.05775499970831, 39.977194000189044], [-83.05739999988107, 39.97705899994261], [-83.05731000036769, 39.977029999839594], [-83.05667900035594, 39.976862999813825], [-83.05599999976528, 39.97674699968355], [-83.05492900043578, 39.97659400003543], [-83.05352000009916, 39.976390000201214], [-83.05303300002744, 39.976312999906426], [-83.05071700039285, 39.97598500009253], [-83.0483289998899, 39.97568000003255], [-83.04833700028584, 39.97559400023459], [-83.0484750003781, 39.97393200025456], [-83.04830799997352, 39.97388500028089], [-83.04813200024643, 39.973843000218544], [-83.04799599980399, 39.97380199970657], [-83.04795899999407, 39.9742650001966], [-83.047779000069, 39.974254000112765], [-83.04766699991602, 39.974247999941184], [-83.04760499999172, 39.97424300002722], [-83.04752600034902, 39.974239999940984], [-83.04736399996732, 39.974228999853125], [-83.04714300003437, 39.97421499967622], [-83.04711999956984, 39.9742129998474], [-83.04700999996498, 39.97420499984311], [-83.04697800017793, 39.97448699994499], [-83.04654399980966, 39.97445800012734], [-83.04637399993034, 39.97444599981936], [-83.04636800008257, 39.97451899982447], [-83.0463639998846, 39.97456600005051], [-83.04636300005969, 39.97458000015551], [-83.04575399978924, 39.97454299972422], [-83.04575600033738, 39.9745230001525], [-83.04587599998797, 39.973009000027666], [-83.0459129997979, 39.97241499995155], [-83.04578999977424, 39.97237399995982], [-83.04375699999686, 39.97173700028714], [-83.04366499993537, 39.97170699969578], [-83.04367900017908, 39.971537000226576], [-83.04371000014122, 39.9712309999789], [-83.0437169998139, 39.97115900020753], [-83.04371799963882, 39.97113900033404], [-83.04349500005605, 39.97107500014889], [-83.04327599977294, 39.971012000209264], [-83.04283499973198, 39.97088600015585], [-83.04282700023437, 39.970999999984684], [-83.04282399986133, 39.971034000041804], [-83.04279500044731, 39.971028000275936], [-83.04272400030221, 39.971012999826286], [-83.04244499974463, 39.97097199968201], [-83.04224599955302, 39.97094299974983], [-83.04189400009881, 39.97155899989014], [-83.04186200031177, 39.971613999706484], [-83.04131199959254, 39.97142200030544], [-83.04122899975187, 39.97139299987573], [-83.04168700040958, 39.97059999978455], [-83.04176400040247, 39.97046200002955], [-83.04038199983003, 39.97067000021231], [-83.039837000032, 39.97064500001858], [-83.03977500010772, 39.97063900021856], [-83.03955900019766, 39.97062499999474], [-83.03957500009118, 39.97076899989825], [-83.0392949997087, 39.970657999927695], [-83.03922399956359, 39.9706289998623], [-83.03921900043902, 39.97073600001889], [-83.0391750000581, 39.97126100009079], [-83.03939299961797, 39.9713519999594], [-83.04050300020386, 39.9717709999776], [-83.04101600021485, 39.971962999775144], [-83.04130599974476, 39.97207199980027], [-83.04156600003576, 39.97216900032071], [-83.04228099971311, 39.972389000110795], [-83.04269800036293, 39.9725130002687], [-83.04267300024858, 39.972831000189586], [-83.04266400002774, 39.97294700008255], [-83.04261600034718, 39.9735419999341], [-83.04259100023282, 39.97386900019463], [-83.04254600002699, 39.9744269997864], [-83.04250900021705, 39.97488500030579], [-83.04242899985111, 39.97487300007283], [-83.04227200039058, 39.97485100009918], [-83.04174099993794, 39.974777000198365], [-83.03928300001313, 39.97443299994233], [-83.03784699991233, 39.97422299967935], [-83.03525699974304, 39.9738460003222], [-83.03521200043551, 39.973838999850635], [-83.03207099972208, 39.97340399992315], [-83.03103300000454, 39.973268000178464], [-83.02628200001135, 39.97259199990224], [-83.02387500014018, 39.9722489999508], [-83.02343099972616, 39.97218599971637], [-83.02321700036423, 39.97215499972178], [-83.02311000023411, 39.97214000020794], [-83.02238899981066, 39.97203699996904], [-83.02225200044163, 39.972017999954836], [-83.02199499962536, 39.97198100020184], [-83.02179100030918, 39.97195200000925], [-83.0215469999117, 39.97191700011659], [-83.02121399982578, 39.97187000013416], [-83.02120600032816, 39.971901999862084], [-83.02119000043464, 39.9719640000667], [-83.0211519999015, 39.97211600015276], [-83.02150000005604, 39.97228199978814], [-83.02166499991247, 39.97237200007712], [-83.02184499983753, 39.972481000138444], [-83.02204400002917, 39.972612000039014], [-83.02209300043297, 39.972647000264224], [-83.02230699979489, 39.97280900024705], [-83.0225110000094, 39.97299000028361], [-83.02261399994156, 39.973090999913104], [-83.0227300002925, 39.97322000016345], [-83.02289000012608, 39.973410000168826], [-83.02297799998962, 39.97352500018727], [-83.0230600000054, 39.97364199985775], [-83.02313699999829, 39.97376200012372], [-83.0232080001434, 39.97388299975404], [-83.02326599986972, 39.973992000159285], [-83.02327300044074, 39.97401499998258], [-83.02339399991624, 39.97401900034018], [-83.02348000012996, 39.974169999727316], [-83.02354100022934, 39.97427600027861], [-83.02359700030583, 39.974439000097675], [-83.02339899993912, 39.9744759998969], [-83.02333600018993, 39.974488000199614], [-83.02337200017492, 39.97460500028676], [-83.02365400020724, 39.97563499967152], [-83.02409699989802, 39.97725500019763], [-83.02466000013773, 39.979313000255694], [-83.0250309998585, 39.98066599968554], [-83.02507699988925, 39.98083599985108], [-83.02509799980565, 39.98091000007444], [-83.02551100025752, 39.98249000015623], [-83.02562800043337, 39.98293500000212], [-83.0259039997196, 39.983840999767196], [-83.02597300021489, 39.98406900006777], [-83.02604199981185, 39.98429500007368], [-83.02607899962177, 39.984296000184735], [-83.02626600011784, 39.98430399969599], [-83.02624600002636, 39.98421299986557], [-83.02623400033079, 39.984161000203024], [-83.0262150000642, 39.98408300029088], [-83.02615700033789, 39.983851999684454], [-83.02614999976689, 39.98382800030074], [-83.02636700040017, 39.98383699998456], [-83.02668200004445, 39.983851000255214], [-83.02706299981095, 39.98386700006937], [-83.02768200012716, 39.983893999790254], [-83.0277840002344, 39.98389899968637], [-83.02790700025805, 39.983904000270506], [-83.02927899988643, 39.98396399967972], [-83.02941600015377, 39.983981999698685], [-83.0294809995528, 39.983991000050594], [-83.02951200041325, 39.983992000166054], [-83.03091699965358, 39.98405599995636], [-83.03194799969843, 39.984094000169165], [-83.0329879999641, 39.98413999989128], [-83.03402400003182, 39.984185000158085], [-83.0350559999016, 39.984230999818934], [-83.0360929997942, 39.984277000137126], [-83.03704600002126, 39.98431300000543], [-83.03713499970972, 39.984299999940504], [-83.03723000014428, 39.98428500033897], [-83.03764299969782, 39.98430200016241], [-83.03765299974357, 39.98416399985371], [-83.03778400016314, 39.98430900025047], [-83.03786299980585, 39.984335999796684], [-83.03820099991466, 39.98444100030129], [-83.03860000012281, 39.9845629997148], [-83.03876199960622, 39.98443099989964], [-83.03898400026239, 39.984429999790606], [-83.03900099998081, 39.984429999790606], [-83.03910100043827, 39.98442800026072], [-83.03926100027181, 39.98442700015159], [-83.03951800018976, 39.984426000042454], [-83.03994800036008, 39.98444399993969], [-83.03999500021575, 39.984447000266286], [-83.04168499986145, 39.984512999846096], [-83.04179000034175, 39.98451700027748], [-83.04275100006639, 39.98456399982193], [-83.04374699995113, 39.984607000284804], [-83.04445800032883, 39.9846370000315], [-83.0446800000867, 39.98464799982058], [-83.04478800004172, 39.9846370000315], [-83.04490799969233, 39.98462999997703], [-83.04618599960938, 39.98469000012531], [-83.0462939995644, 39.98468799991471], [-83.04764000015184, 39.98474300017801], [-83.0476379996037, 39.98485000026306], [-83.04762699973304, 39.98514499970676], [-83.04770799992389, 39.98514100000045], [-83.04770100025121, 39.98524599995621], [-83.04769299985527, 39.98534200026615], [-83.04781099985605, 39.98534900024766], [-83.04762699973304, 39.987689000171784], [-83.04756800018181, 39.988488999849366], [-83.04875200038754, 39.98854000029837], [-83.04895400005388, 39.98576099986045], [-83.0490390004427, 39.985766000308296], [-83.04913200032914, 39.98576999997795], [-83.04916800031413, 39.98530899985218], [-83.04917400016193, 39.985223999880525], [-83.04906799985672, 39.98522000017885], [-83.04909799999395, 39.984815000092865], [-83.05024799986448, 39.984865999843244], [-83.05149700036752, 39.98492699988603], [-83.05213400022707, 39.98496500030269], [-83.052756000018, 39.98499800019452], [-83.05339299987756, 39.98503200017069], [-83.05338799985468, 39.98510000007228], [-83.0533679997632, 39.98540899976444], [-83.05337799980893, 39.98549200000722], [-83.05338700002977, 39.98557400005678], [-83.05335699989254, 39.98598400020497], [-83.05426999993661, 39.98602899994543], [-83.05492600006272, 39.986052999932575], [-83.05473199989396, 39.98881800025439], [-83.05471199980248, 39.989165999832785], [-83.0547059999547, 39.98923899994263], [-83.05508400024648, 39.98925199975603], [-83.05523999988208, 39.989259000025115], [-83.05532199989784, 39.98926300017853], [-83.05586900024403, 39.989285999679794], [-83.05594700006182, 39.98928899979373], [-83.05602599970454, 39.98929299994539], [-83.05630100006417, 39.98930100024806], [-83.05656399982988, 39.98930899986152], [-83.05661200040878, 39.989309999899184], [-83.05685699973284, 39.989319000237394], [-83.05688500022025, 39.98893199976567], [-83.0570219995893, 39.986996000238314], [-83.05702800033538, 39.986922999796306], [-83.05703500000809, 39.986815000130775], [-83.05703800038113, 39.98677900020429], [-83.05704699970364, 39.986649000006004], [-83.05705599992447, 39.98652199979575], [-83.05705900029751, 39.98648699979385], [-83.05707000016818, 39.98632100024866], [-83.05707500019106, 39.986262000238476], [-83.05708199986373, 39.98616000003075], [-83.05709399955931, 39.985994999777176], [-83.05711100017606, 39.985748000071], [-83.05712100022181, 39.98565499991681], [-83.05712899971941, 39.98557600024143], [-83.0571499996358, 39.9853099999484], [-83.05716499970443, 39.98509699977436], [-83.0571709995522, 39.98502400005637], [-83.05718700034404, 39.984798999812455], [-83.05719700038979, 39.98466099981934], [-83.0572059997123, 39.98454], [-83.05720999991026, 39.98449700018328], [-83.0572180003062, 39.984384999685126], [-83.05722499997887, 39.98428200000527], [-83.05723000000175, 39.98422100007486], [-83.05724199969731, 39.984053000300925], [-83.05724400024545, 39.98402399972456], [-83.0572540002912, 39.9838910001277], [-83.05725799959083, 39.98383499974904], [-83.05726400033694, 39.983760999940316], [-83.05727900040556, 39.98355800028603], [-83.05729000027621, 39.98339899999997], [-83.05730299979668, 39.983232999834634], [-83.05732100023835, 39.98298099981625], [-83.05732899973596, 39.98287400024573], [-83.05735899987317, 39.98246199974268], [-83.05736300007113, 39.982371000212105], [-83.05736700026911, 39.9823060000799], [-83.0573880001855, 39.98201399982448], [-83.05739800023125, 39.98189199998934], [-83.0574090001019, 39.981744999672934], [-83.05741599977459, 39.98163999984327], [-83.05742900019338, 39.98147000030148], [-83.05743400021626, 39.9813999999218], [-83.05745099993469, 39.98118099969661], [-83.0574650001784, 39.98098900032674], [-83.05746799965311, 39.980949000131986], [-83.0574810000719, 39.98078700017068], [-83.05748799974461, 39.98068100008159], [-83.05749600014052, 39.98057800032455], [-83.05750100016341, 39.980511000218826], [-83.05751200003405, 39.98035699988081], [-83.05752399972961, 39.98019499989266], [-83.05752499955453, 39.98017700025268], [-83.05753999962315, 39.979982000292495], [-83.05754600036924, 39.97990899992776], [-83.05755200021702, 39.979841999854365], [-83.05755600041499, 39.979797999657436], [-83.05775499970831, 39.977314999938535]]]}, "properties": {"id": "covered-us-oh-grandview-heights", "status": "covered", "jurisdiction": "Grandview Heights", "country_id": "us", "state_id": "oh", "area_type": "city", "note": "Covered by public tree inventory for Grandview Heights; geometry from official jurisdiction boundary."}}]}