{"type": "FeatureCollection", "features": [{"type": "Feature", "geometry": {"type": "Polygon", "coordinates": [[[-96.90382200034117, 46.815219000002756], [-96.90376999956432, 46.81503300002116], [-96.9035930000123, 46.81484299970628], [-96.90346300031597, 46.814762000079774], [-96.90327599981993, 46.81468800011701], [-96.90279399977106, 46.81489300011307], [-96.90223200025459, 46.81515100017004], [-96.90201899981926, 46.815151999779424], [-96.90171400022072, 46.81505000017839], [-96.90154500016634, 46.81492999996613], [-96.90116699987456, 46.814500000285314], [-96.89954500000091, 46.81238299999089], [-96.89905299990632, 46.81179100014463], [-96.89898599995918, 46.81171499982118], [-96.89891300016423, 46.81164800015075], [-96.89871099959956, 46.81143999981623], [-96.89818400024319, 46.81144399975928], [-96.8950659999943, 46.81141499985781], [-96.8939899997436, 46.81140399970029], [-96.8926220003132, 46.811389999887815], [-96.89257000043465, 46.8104199997024], [-96.89237299989284, 46.80715399993296], [-96.89224900004427, 46.80507000015376], [-96.89218000044731, 46.80395299971052], [-96.89219600034085, 46.80395199989298], [-96.89221100040945, 46.80395199989298], [-96.89233899955765, 46.80395100007537], [-96.89241100042598, 46.80395100007537], [-96.89617400003205, 46.80393700016765], [-96.89954599982582, 46.80392499989247], [-96.90046399989276, 46.8039419998716], [-96.9006139996806, 46.80395100007537], [-96.9009519997894, 46.80397199993014], [-96.9011979998367, 46.803965999796795], [-96.90144200023417, 46.80396000027768], [-96.90163800005274, 46.80396100009507], [-96.90158299980115, 46.80389099991814], [-96.90145499975463, 46.80373300004479], [-96.90142899981538, 46.803699999771354], [-96.90141200009694, 46.80367300025927], [-96.90139100018054, 46.803633999778704], [-96.90137600011192, 46.80360599979458], [-96.90122499960087, 46.80360599979458], [-96.89966800002456, 46.803604000146535], [-96.89958900038185, 46.8036029997076], [-96.89904000038587, 46.80360000023531], [-96.89831499976444, 46.803594999884716], [-96.89817300037254, 46.803498000246506], [-96.89817300037254, 46.80247100003045], [-96.89817300037254, 46.802254999849936], [-96.89849499968949, 46.80224900014001], [-96.9000990000198, 46.80222999992677], [-96.90005399981393, 46.79967699993463], [-96.90061100020586, 46.79967600003763], [-96.90065300003866, 46.79967600003763], [-96.90070900011516, 46.79967600003763], [-96.90068800019876, 46.79965700014562], [-96.90067399995506, 46.79963800024688], [-96.90062700009939, 46.79954900004945], [-96.9006210002516, 46.79953700002536], [-96.90058799974133, 46.799462000121785], [-96.90058299971845, 46.79944200025283], [-96.90058000024372, 46.79937300024816], [-96.90058000024372, 46.79930300025105], [-96.90058100006863, 46.799229999832], [-96.90058100006863, 46.79920700015959], [-96.90061799987855, 46.799027000218295], [-96.90069499987146, 46.79889999992817], [-96.90078699993296, 46.798835000109186], [-96.90080200000158, 46.79882399983876], [-96.90083399978862, 46.79880199990612], [-96.90088400001734, 46.79876699985498], [-96.90105700026969, 46.798680999808326], [-96.90117899957012, 46.798617000256506], [-96.90140399970102, 46.7985520000956], [-96.90155900041003, 46.79851300020738], [-96.90162999965683, 46.798495999742684], [-96.90167599968758, 46.7984859999371], [-96.90216199993439, 46.798332999789324], [-96.90233000016387, 46.798244999816745], [-96.9024160003776, 46.79814499998067], [-96.90245800021039, 46.79801600021285], [-96.90243999976873, 46.79758400011125], [-96.90242800007317, 46.797489999903014], [-96.90234900043045, 46.79733600005751], [-96.9022260004068, 46.79720199986525], [-96.90203600043601, 46.797039000296785], [-96.90177299977195, 46.79688399982654], [-96.90157199993051, 46.79673799970531], [-96.90154799964105, 46.79672099990977], [-96.90091099978153, 46.79610999996629], [-96.90072900020664, 46.79591200010164], [-96.9004789999614, 46.79573200020747], [-96.90008499977607, 46.79550900021082], [-96.8999109996988, 46.79531499989224], [-96.89982799985813, 46.79517800026041], [-96.89978000017756, 46.794891000134356], [-96.8996989999867, 46.79488800017642], [-96.89962600019176, 46.7948860002043], [-96.89928200023519, 46.794873999755325], [-96.89923700002934, 46.79487499974157], [-96.89909800011218, 46.794866999850925], [-96.89909899993708, 46.79483199970023], [-96.89909899993708, 46.79479700014177], [-96.899099999762, 46.79471999980302], [-96.89911099963265, 46.793701999999485], [-96.89906100030225, 46.793680999826194], [-96.8990160000964, 46.79365400020634], [-96.89897900028649, 46.79362299991998], [-96.89894900014924, 46.79358800019025], [-96.89892800023286, 46.79354999979015], [-96.89891599963899, 46.793510999966685], [-96.89891399998916, 46.79347000009022], [-96.89892099966184, 46.79343200022182], [-96.89893699955537, 46.79339499972537], [-96.89896099984482, 46.79335999984731], [-96.89880500020921, 46.79335399976053], [-96.8987979996382, 46.7928560000639], [-96.89882600012561, 46.79174899987379], [-96.8983890002826, 46.79187699986268], [-96.89795400008941, 46.79202799983779], [-96.89722500016838, 46.792156999814964], [-96.89720400025197, 46.79189900016646], [-96.89721199974957, 46.791557000242214], [-96.89565400034836, 46.79153299970194], [-96.89246400012945, 46.791530000171825], [-96.89105999981568, 46.79153200026861], [-96.8898060001881, 46.79153399975027], [-96.88982000043178, 46.79150500018566], [-96.88950800026225, 46.791506000234556], [-96.889398999584, 46.79150700028339], [-96.88725500037685, 46.791521999783875], [-96.88730100040762, 46.78966800020444], [-96.88661699979409, 46.7896670001214], [-96.8864489995646, 46.78966800020444], [-96.88617400010331, 46.78966900028747], [-96.88242300019282, 46.78968400030019], [-96.88205400012185, 46.789684999767815], [-96.88224400009268, 46.78241900023133], [-96.88230799966678, 46.78010999983575], [-96.8824430002843, 46.77520800027717], [-96.88245199960683, 46.77488599989637], [-96.88257200015573, 46.76784600030544], [-96.88264800032371, 46.76184399994686], [-96.88267300043806, 46.76065799972553], [-96.88270000020226, 46.75936299971541], [-96.88271799974561, 46.758084000221906], [-96.8828099998071, 46.75337099978637], [-96.87639599993241, 46.75336000007227], [-96.87233700005036, 46.75333000011313], [-96.87233500040054, 46.752869000138936], [-96.87239200030194, 46.746041999954876], [-96.88209000010687, 46.74606799978398], [-96.88295000044751, 46.74607499987786], [-96.88299099955708, 46.74382300025114], [-96.88300399997587, 46.74250100007507], [-96.88308699981654, 46.73757100016668], [-96.88310299971006, 46.736088000268005], [-96.88311299975582, 46.73520100019379], [-96.88314600026608, 46.732358000073596], [-96.88316499963435, 46.73157000020881], [-96.8832669997416, 46.727434000151455], [-96.88327299958937, 46.727060999856334], [-96.88347699980388, 46.71985800018496], [-96.88348100000184, 46.71952300017197], [-96.88351100013907, 46.71706600030301], [-96.88351399961381, 46.716779000195594], [-96.88347699980388, 46.712246999794424], [-96.88345199968953, 46.710118999968], [-96.8834149998796, 46.707076999980615], [-96.88338300009255, 46.70298799986866], [-96.88287400027953, 46.702990000173266], [-96.88236399974328, 46.70297100004868], [-96.88118100026078, 46.70289199994512], [-96.88080399979391, 46.702876999787634], [-96.8786770003052, 46.70284700007621], [-96.87810099964673, 46.70284499976631], [-96.87817299961674, 46.709511000270105], [-96.87815400024847, 46.71011299984639], [-96.8782050003021, 46.71011200013405], [-96.88002700019229, 46.71011200013405], [-96.88136799985853, 46.71011099980572], [-96.8832039999924, 46.71011299984639], [-96.88320999984018, 46.71058700000636], [-96.88329100003104, 46.7170639999041], [-96.88327500013753, 46.71714300020732], [-96.88323699960438, 46.71951599971011], [-96.8832319995815, 46.71985800018496], [-96.88321900006102, 46.720685999714846], [-96.88312299980156, 46.724309999764294], [-96.88302999991512, 46.72785699970763], [-96.88302800026531, 46.72793500021997], [-96.88300399997587, 46.72884499991551], [-96.88298100040966, 46.72970500018697], [-96.8829639997929, 46.73036199975695], [-96.88294600024955, 46.731062999783255], [-96.88294100022668, 46.73122999996523], [-96.88293399965566, 46.73151399975835], [-96.88293200000585, 46.731569000278235], [-96.88293000035601, 46.731746999941784], [-96.88292600015806, 46.732011999722374], [-96.88292299978501, 46.73223599972266], [-96.88292000031028, 46.73250200009237], [-96.88291699993722, 46.73272200026792], [-96.88291299973926, 46.73298000023728], [-96.88291000026454, 46.73321500004448], [-96.88290699989149, 46.733456999944195], [-96.88290400041676, 46.73369700020721], [-96.88290100004372, 46.73393700001785], [-96.88289699984576, 46.734171000082426], [-96.88289400037101, 46.7344210002557], [-96.88289199982287, 46.73459200000473], [-96.88288900034814, 46.73488300026459], [-96.88288299960205, 46.73518300018977], [-96.88286099986074, 46.737551999902834], [-96.88283499992146, 46.738805000081925], [-96.88283499992146, 46.7388549997296], [-96.88278600041598, 46.74242800019141], [-96.88274000038523, 46.745886999766626], [-96.87770900000955, 46.74587799970224], [-96.87239399995175, 46.74589999972007], [-96.8726719997861, 46.731528999961675], [-96.87119600040066, 46.731531999755546], [-96.86931000003806, 46.731519999963325], [-96.86221699957271, 46.731490000163234], [-96.85180900011328, 46.73143199976353], [-96.851599000051, 46.731429999897244], [-96.85154700017245, 46.73504399988805], [-96.86214200012795, 46.73513199973536], [-96.86220499987714, 46.732053000218045], [-96.86363599995506, 46.732050999759075], [-96.8653430002175, 46.732061000206], [-96.86679100001388, 46.73207000011407], [-96.86843600035205, 46.732080999862845], [-96.86950800040478, 46.7320879999257], [-96.87010900027931, 46.732092000225094], [-96.87052900040389, 46.73209499998766], [-96.87052799968065, 46.732161000263226], [-96.87052699985574, 46.73221400028609], [-96.87052500020593, 46.73234400001705], [-96.87052299965777, 46.73245399992359], [-96.87052000018305, 46.73258799995437], [-96.87051900035813, 46.732691999905036], [-96.87051599998509, 46.73281800008571], [-96.87051500016018, 46.732931999878225], [-96.87051199978714, 46.73305999991978], [-96.87051099996222, 46.73314999972862], [-96.87050799958918, 46.73330399969623], [-96.87050699976426, 46.73337300003081], [-96.87050400028953, 46.73353399985249], [-96.87186500004725, 46.73353999983273], [-96.87180700032091, 46.73853800021793], [-96.87176499958981, 46.738778999828156], [-96.87006900009634, 46.7387740002278], [-96.86877899958542, 46.738771000221114], [-96.86678599999101, 46.73876600000437], [-96.86530800005741, 46.73876200020007], [-96.86321800037864, 46.73875699998249], [-96.86207000015791, 46.73875199976445], [-96.86206400031014, 46.739009999820375], [-96.86192200001992, 46.74601600011328], [-96.86654800033962, 46.746029999698116], [-96.8709749995694, 46.74603800007479], [-96.87157700016716, 46.746038999737074], [-96.87164300028941, 46.746038999737074], [-96.87164099974127, 46.74610300024434], [-96.8716299998706, 46.746681000075874], [-96.87161399997707, 46.74742000008415], [-96.8716080001293, 46.74788200013], [-96.8715939998856, 46.74864700010847], [-96.87158100036513, 46.749320999726855], [-96.87156799994632, 46.75007100024411], [-96.87155500042586, 46.75076799997351], [-96.87154200000707, 46.75146600009894], [-96.87153100013641, 46.75205199976327], [-96.8715239995654, 46.75243399975015], [-96.87151400041797, 46.75287700011604], [-96.87150699984696, 46.753326000158374], [-96.87149699980121, 46.75387799972803], [-96.88202499980956, 46.753907999997594], [-96.88193100009822, 46.76065999973855], [-96.88166999998231, 46.775204000100814], [-96.8772260001358, 46.775185999918804], [-96.8771359997241, 46.77725999988736], [-96.87701000022574, 46.78243300020157], [-96.87394700022841, 46.782442999914466], [-96.87164999996209, 46.78243300020157], [-96.86957199997889, 46.782396999743476], [-96.86526700004954, 46.782397999961596], [-96.86148799965164, 46.78238299976388], [-96.86141999987957, 46.782387000022034], [-96.86124300032759, 46.78238500020057], [-96.86122499988592, 46.78238500020057], [-96.86122400006101, 46.78245200002357], [-96.86113299982442, 46.786355999782316], [-96.85424399957354, 46.78630700005812], [-96.85422900040327, 46.786994999784426], [-96.85115800001002, 46.78697299993641], [-96.85113399972057, 46.78816299999627], [-96.85111199997928, 46.789299999765184], [-96.85051299975456, 46.789296000020656], [-96.84429499969843, 46.78925100026063], [-96.84396699963538, 46.789224999739695], [-96.84397000000843, 46.78904599971586], [-96.84238499994471, 46.788919999953684], [-96.84016899986923, 46.7862249997546], [-96.84004599984557, 46.785458000266075], [-96.83999700034009, 46.78862700028404], [-96.8399760004237, 46.78950900030163], [-96.83987400031646, 46.79675200025643], [-96.83986599992052, 46.797200999922204], [-96.83986400027071, 46.79733099973966], [-96.839814000042, 46.80010199999735], [-96.83981099966894, 46.800157999908684], [-96.83980999984404, 46.80017900001413], [-96.83980999984404, 46.80022100020044], [-96.83980499982115, 46.80048300006615], [-96.83979800014848, 46.800957999745016], [-96.83978899992763, 46.80154299987841], [-96.8397789998819, 46.802143999881054], [-96.83977600040716, 46.802299999805314], [-96.8397720002092, 46.8025880002273], [-96.83976999966107, 46.80269300023463], [-96.83976399981329, 46.803087000086364], [-96.83975399976754, 46.80367700016507], [-96.83901399997583, 46.80366799991546], [-96.83859899987412, 46.80366600026972], [-96.83850699981264, 46.80366400000901], [-96.83702100038141, 46.80364699994202], [-96.83686400002259, 46.80364600011879], [-96.83651099984517, 46.803642000210694], [-96.83639399966931, 46.803639999949084], [-96.83607999984996, 46.80363699986395], [-96.83460500028941, 46.8036210002271], [-96.83449200031151, 46.8036210002271], [-96.8343369996025, 46.80361899996471], [-96.83411200036991, 46.80361699970224], [-96.83404899972241, 46.80361999978849], [-96.83404700007259, 46.803838000276976], [-96.83398000012544, 46.80395800002789], [-96.83389700028475, 46.804022999806826], [-96.83379099997956, 46.80406899994346], [-96.83342299973351, 46.80406299982093], [-96.83289700020205, 46.80405500006645], [-96.83213300012089, 46.804035999876135], [-96.83141500007049, 46.80400299978861], [-96.8301620002678, 46.80390600027115], [-96.82916800003287, 46.80381200003947], [-96.82887900032787, 46.80379299976333], [-96.82888099997771, 46.8035569997874], [-96.82918200027659, 46.803565000230805], [-96.82922300028447, 46.8024689997253], [-96.82925199969847, 46.801510000106404], [-96.82928500020874, 46.80045399978941], [-96.82933500043747, 46.79880399973265], [-96.82936999969924, 46.797646999727135], [-96.82938300011803, 46.79724599979995], [-96.82938899996583, 46.79705999977461], [-96.82940400003444, 46.79656499979864], [-96.83477000014585, 46.79667099982878], [-96.83491800028386, 46.79667400030232], [-96.83785099968652, 46.796731999995146], [-96.83784599966364, 46.79666100029898], [-96.83791199978587, 46.793681999834604], [-96.83793400042549, 46.792733000073824], [-96.83800800004535, 46.78948099973239], [-96.83825099971959, 46.78219200016179], [-96.83753299966918, 46.78218199978712], [-96.8298459999003, 46.782014999961035], [-96.8297339997473, 46.78201100029035], [-96.82974399979305, 46.781640999941104], [-96.82975800003676, 46.780196000032184], [-96.82868000013626, 46.78017300022202], [-96.82866199969459, 46.78011300000229], [-96.82862300023484, 46.77997899998782], [-96.82856600033344, 46.77977899991519], [-96.82854700006685, 46.77970200023665], [-96.82854600024196, 46.77960399970357], [-96.82851899957946, 46.77951200000751], [-96.82848799961731, 46.779436999878214], [-96.8284869997924, 46.779288999857904], [-96.82848299959446, 46.77919400002122], [-96.82848599996748, 46.77911900006413], [-96.8285010000361, 46.779038000165414], [-96.82852799980029, 46.77898399975507], [-96.8285789998539, 46.77891400030462], [-96.82866599989254, 46.77879900026282], [-96.82886900028214, 46.778640999917215], [-96.82956200021817, 46.77828599989857], [-96.82970799980804, 46.77812199995392], [-96.82976499970945, 46.778020999953284], [-96.82978800017399, 46.777895000222934], [-96.82980599971734, 46.77655900008068], [-96.82461899970605, 46.77645200009898], [-96.81982300040535, 46.77635399980279], [-96.81984299959852, 46.7745109998252], [-96.81984599997156, 46.77426000000854], [-96.81944199974053, 46.77425700013112], [-96.81452800043904, 46.774227999871876], [-96.81433799956993, 46.77422700011723], [-96.81433199972213, 46.77254899992371], [-96.81432900024741, 46.7708620001611], [-96.81286800003225, 46.77084800025857], [-96.8112589996791, 46.77083299991946], [-96.80968399966112, 46.77081800019147], [-96.8091969995894, 46.77081299987101], [-96.80919999996244, 46.77114400014786], [-96.80920400016042, 46.77159500017115], [-96.80920699963514, 46.77197600025335], [-96.8092109998331, 46.77243999978167], [-96.80921400020615, 46.772837000219695], [-96.80921800040412, 46.77325900005073], [-96.80922199970377, 46.773695999812325], [-96.80922500007681, 46.774099999750185], [-96.80922599990173, 46.774199000212214], [-96.80912100031973, 46.774199000212214], [-96.80906699989306, 46.774199000212214], [-96.80850399965335, 46.774194000205696], [-96.80395900042282, 46.774167000039256], [-96.80396000024773, 46.7742770001311], [-96.80083299977801, 46.774257999885215], [-96.79873800007636, 46.77426000000854], [-96.79839499994466, 46.77426000000854], [-96.79839599976958, 46.77439400010525], [-96.79842099988394, 46.77574599975465], [-96.79844400034847, 46.77701399970973], [-96.79843699977746, 46.777550999906914], [-96.79838200042421, 46.777710999754994], [-96.79834100041631, 46.77795299985226], [-96.79839199957163, 46.778020999953284], [-96.79840800036347, 46.77817700029489], [-96.79835800013475, 46.779257999910186], [-96.79836499980746, 46.78048299977949], [-96.7983549997617, 46.78102199970155], [-96.79747799970264, 46.78100699973562], [-96.79713499957097, 46.78100499986289], [-96.79712799989828, 46.7816230000654], [-96.79834300006614, 46.78162600014763], [-96.79834100041631, 46.781762999828494], [-96.79847500031062, 46.78263000023168], [-96.79859499996122, 46.782992999716896], [-96.79865299968753, 46.78321400011292], [-96.79868799984763, 46.7833520002592], [-96.7989520003366, 46.78406600017993], [-96.79908799988071, 46.7843320000812], [-96.7991980003839, 46.78454800024119], [-96.79947600021823, 46.7849449999921], [-96.79956099970875, 46.785066999773704], [-96.799670000387, 46.78521000030521], [-96.799698999801, 46.78524799982766], [-96.79961799961013, 46.78525300003801], [-96.80049800004225, 46.786452000041585], [-96.80053700040033, 46.78651199996289], [-96.80092700038766, 46.78704800002433], [-96.80143600020068, 46.787777000060245], [-96.80154699963043, 46.78795800022831], [-96.80165100028584, 46.78813999989917], [-96.80174900019512, 46.78832399978574], [-96.8018389997085, 46.78850999986751], [-96.80192200044748, 46.78869700002265], [-96.80198799967141, 46.78886899990752], [-96.80199500024243, 46.78888699982079], [-96.80200799976289, 46.788922000147465], [-96.80204999959568, 46.78905399985673], [-96.80209700034968, 46.789203000188074], [-96.80220399958147, 46.789540999967784], [-96.80221399962721, 46.78958600010048], [-96.8022189996501, 46.789608000110626], [-96.80223399971871, 46.78967600025292], [-96.8022479999624, 46.789743000227666], [-96.8022610003812, 46.78981100019939], [-96.80227300007677, 46.78987800000614], [-96.80228499977233, 46.78994599980732], [-96.80229599964298, 46.7900140001376], [-96.80230700041196, 46.790081999766954], [-96.80231699955938, 46.79014999992546], [-96.80232599978022, 46.790217999998056], [-96.80237600000893, 46.790605999781604], [-96.8024370001083, 46.79108700027157], [-96.80245999967451, 46.791266999711475], [-96.80253699966741, 46.7918690001414], [-96.80263700012485, 46.792650000306715], [-96.80272400016347, 46.79333400008134], [-96.80273800040717, 46.79343899969786], [-96.8028379999663, 46.79422099983345], [-96.80298299973126, 46.79535700018539], [-96.803036000333, 46.7957710002664], [-96.80308200036374, 46.796128999880835], [-96.80159900040728, 46.796128999880835], [-96.80154099978266, 46.79612799991786], [-96.80009100033648, 46.79622499992908], [-96.79961299958727, 46.79625699990706], [-96.80134999998695, 46.79631300013032], [-96.80150499979764, 46.79640100018765], [-96.80206999968718, 46.796721999861695], [-96.80219600008388, 46.79733400017643], [-96.80190400000582, 46.797743000142006], [-96.80124299985684, 46.798093000140085], [-96.79990100036568, 46.79839399991646], [-96.79822900026333, 46.79872499976356], [-96.79659599962072, 46.79922000016278], [-96.79591500027855, 46.79975499984028], [-96.7955749996216, 46.800504000044754], [-96.79558499966737, 46.80119400005342], [-96.79591799975329, 46.801993999858375], [-96.79635200012156, 46.803135000073986], [-96.7966159997122, 46.803378000084436], [-96.79694100030052, 46.803935999734904], [-96.79751000038802, 46.80433499998904], [-96.79828699998964, 46.80465100003978], [-96.79922099995011, 46.804757000127516], [-96.80061600004302, 46.80441699975635], [-96.80168100042306, 46.8041210001575], [-96.80263299992687, 46.804231999736764], [-96.80316299965631, 46.80447600013402], [-96.8031919999686, 46.805039000295295], [-96.80291999998207, 46.80558899979256], [-96.80191800024951, 46.8058980001565], [-96.79987200005336, 46.80599699994544], [-96.79820999999676, 46.8061279998084], [-96.7968969999196, 46.806351999839436], [-96.79602700043155, 46.80682799972887], [-96.79580300012557, 46.807174000009375], [-96.79573000033064, 46.80773299999839], [-96.79596399978405, 46.80822799991041], [-96.7965809995521, 46.80870500014384], [-96.79757800016009, 46.80925899976897], [-96.79858400009056, 46.809531000102204], [-96.8001060004051, 46.80968700012475], [-96.80122399959025, 46.81004200025925], [-96.80206499966431, 46.81056200019255], [-96.80260399961455, 46.81119400028586], [-96.80275000010275, 46.81168999999062], [-96.80260899963743, 46.812107999712715], [-96.80213800035754, 46.81252599987486], [-96.80189999980786, 46.81264599991837], [-96.8004739997528, 46.81364199972038], [-96.79977300031916, 46.81430699982679], [-96.79956599973161, 46.81511899974886], [-96.79946799982231, 46.815505999895414], [-96.79956200043196, 46.81662000021179], [-96.80010499968186, 46.81824700020324], [-96.80011100042796, 46.8182990002352], [-96.80016999997918, 46.81881000007285], [-96.80015999993344, 46.81966399999283], [-96.79975099967953, 46.82060600029387], [-96.79911200017017, 46.821432000038406], [-96.79832700017262, 46.82196700010489], [-96.79744400026578, 46.822397999789565], [-96.79515299984723, 46.822350999870615], [-96.79427999998613, 46.82236700008306], [-96.79325200031433, 46.82250700020209], [-96.79239500034676, 46.82303700024815], [-96.79208300017723, 46.82381600027133], [-96.79251900019531, 46.824767000149905], [-96.79309599978042, 46.82601399978753], [-96.79284700025838, 46.82682399992432], [-96.79239500034676, 46.827291999958064], [-96.7915810000369, 46.82773299987793], [-96.79065700012218, 46.82770500014667], [-96.78984600018535, 46.827533000248344], [-96.7886460000861, 46.82711299995618], [-96.78808500039453, 46.82690999984737], [-96.78699400007523, 46.82678500024977], [-96.78350299955744, 46.82622399972017], [-96.78281700019241, 46.82578799984491], [-96.78223700023428, 46.82520999996105], [-96.78167900001745, 46.82478999995798], [-96.78103999960976, 46.82469700000533], [-96.78039799972734, 46.82493800025156], [-96.78013599978652, 46.825429000259106], [-96.78025200013748, 46.82568800019266], [-96.7806470001477, 46.8263660002751], [-96.78149099969646, 46.826960000096705], [-96.78307699958509, 46.82805999996183], [-96.78526900026945, 46.829351000139106], [-96.78730299987173, 46.83043000027694], [-96.78757900005625, 46.83057599991793], [-96.78797999991424, 46.83070199985338], [-96.78961400038176, 46.8312160001977], [-96.79188099961254, 46.831832999759094], [-96.79308599973467, 46.83241900017094], [-96.7939250001589, 46.83305100027046], [-96.79395899959576, 46.833064000083645], [-96.79379000043967, 46.83389199990648], [-96.79318700001701, 46.834243999811385], [-96.79291800040349, 46.83429399999846], [-96.79281100027336, 46.83429800008515], [-96.7926510004398, 46.83430300003949], [-96.79258699996738, 46.83430100030363], [-96.7923910001488, 46.83429300013039], [-96.7920520002151, 46.834279999999936], [-96.79078699981852, 46.8339290002057], [-96.7894689997185, 46.83332800014771], [-96.78838999999307, 46.83286900009747], [-96.78686199983076, 46.8324679996957], [-96.78611700001618, 46.83244899970969], [-96.78509500019217, 46.83277400019459], [-96.78445499995958, 46.833298999757105], [-96.78383399999356, 46.834091999841995], [-96.78335699996758, 46.83499900008042], [-96.78300399979017, 46.83576299998571], [-96.7828869996143, 46.8362830000761], [-96.78321200020262, 46.836942000239794], [-96.78365900009138, 46.83746299979144], [-96.78410199978217, 46.837862999990584], [-96.78484800031995, 46.83813299983966], [-96.78710299985518, 46.8388159997873], [-96.7878650002865, 46.83932400007877], [-96.78808700004436, 46.83999099975717], [-96.787849000393, 46.84054600002772], [-96.78753200020059, 46.840912000091805], [-96.78680099973138, 46.84119800011893], [-96.78578499975517, 46.84134100017609], [-96.78373600008426, 46.84119800011893], [-96.7818940001026, 46.840864000023984], [-96.77957599991987, 46.839593999960336], [-96.77832099956903, 46.838959000039345], [-96.77706699994144, 46.838657000108746], [-96.77591799989581, 46.838666000033534], [-96.7750149998975, 46.839045999989295], [-96.77464800037468, 46.83964700000533], [-96.77484800039123, 46.84033100012712], [-96.77518200030205, 46.840798999914966], [-96.77571600022945, 46.841383000172094], [-96.7762839995937, 46.841783999797705], [-96.77825399962188, 46.842801999704676], [-96.78010800019743, 46.843754000072764], [-96.78090900008851, 46.84432199972839], [-96.78154400029823, 46.84510700017473], [-96.78182700015545, 46.845641000271925], [-96.78166099957578, 46.84630899981661], [-96.78150999996303, 46.84699400015712], [-96.78071699956958, 46.847649999731324], [-96.78055900028413, 46.847763000243674], [-96.78049599963663, 46.84780000020751], [-96.78000600009018, 46.8482220002506], [-96.77948399985837, 46.8485499999916], [-96.7786339995635, 46.848835999906896], [-96.77768899973236, 46.8489869997377], [-96.77651499957238, 46.84914399976667], [-96.77430299969487, 46.84978899982491], [-96.7735860003677, 46.85026000010353], [-96.77332000022892, 46.850730999937944], [-96.773247000434, 46.851271999970166], [-96.77353399959085, 46.8516880000429], [-96.77414399968622, 46.852204999762925], [-96.7749529999732, 46.85248199980881], [-96.77582300035958, 46.85251199981896], [-96.77659099974038, 46.85248199980881], [-96.77723699982076, 46.85231799990758], [-96.77816800030648, 46.85196999983696], [-96.77946899978974, 46.85146800029955], [-96.78050300020764, 46.85112000025037], [-96.78150699959001, 46.85104800029763], [-96.7825, 46.85101699991284], [-96.78354399956534, 46.85134499978775], [-96.78409699975929, 46.851631999724574], [-96.78457899980812, 46.85205200007431], [-96.78506000003206, 46.85269700022797], [-96.78546900028597, 46.85341399995626], [-96.78559200030965, 46.85421199983888], [-96.78532600017084, 46.85515399977903], [-96.78488599995478, 46.85545099990631], [-96.78437399976872, 46.85570699988098], [-96.78374199993203, 46.855726999712424], [-96.77977599993642, 46.85435599976491], [-96.77766699999107, 46.85378199982653], [-96.77648899963312, 46.85391500023098], [-96.77599800026175, 46.85429399972463], [-96.77585400032171, 46.85460100012542], [-96.77593600033748, 46.855062000248175], [-96.7760789995543, 46.855532999743076], [-96.77646900043995, 46.85611700015832], [-96.77691899980341, 46.85676200001944], [-96.77764600007467, 46.85747900014632], [-96.7795149998205, 46.85865599985846], [-96.78106600044735, 46.85931200012033], [-96.78241799998423, 46.86005900007508], [-96.78345200040215, 46.860950000135894], [-96.78395899966702, 46.861662999729326], [-96.78407900021594, 46.86238399997282], [-96.78397200008581, 46.863033999840326], [-96.7829579997594, 46.864463000302585], [-96.78256699994715, 46.86490100007422], [-96.7816050003976, 46.865979000130594], [-96.78131800034242, 46.86625499986961], [-96.78119399959556, 46.866527999770945], [-96.7806889999805, 46.86717899969648], [-96.78050900005542, 46.86824400017271], [-96.78045700017688, 46.8685270000795], [-96.78050200038274, 46.86863499982632], [-96.78117600005218, 46.86943899970941], [-96.781810000437, 46.87013799969531], [-96.78202200014911, 46.87077999998607], [-96.7817180003755, 46.871418000187916], [-96.78091900013425, 46.87206299985847], [-96.77940600004055, 46.87267899974788], [-96.77930999978109, 46.872719000269846], [-96.77625799965443, 46.87376299991055], [-96.77620800032403, 46.87385999990248], [-96.77609600017105, 46.874181999979655], [-96.7760710000567, 46.87443600021837], [-96.77640800034058, 46.87503699973569], [-96.77657200037211, 46.87521200025074], [-96.77816499993344, 46.87575999969849], [-96.77937300042859, 46.87622000021258], [-96.78016799957358, 46.87695599983344], [-96.78017799961931, 46.87699899991382], [-96.7801900002132, 46.87703900028612], [-96.78136199982504, 46.87920999984978], [-96.78133099986292, 46.87968700023791], [-96.78085999968471, 46.88005999993873], [-96.78033800035121, 46.88029099999735], [-96.77965700011072, 46.880228999818755], [-96.77892499981661, 46.879849999803916], [-96.77818800039798, 46.87934900021533], [-96.77730600031603, 46.879112999703864], [-96.77657200037211, 46.8789930000656], [-96.77619999992811, 46.87896800020952], [-96.77547299965688, 46.879066999915175], [-96.77447000009946, 46.87992800007272], [-96.77400099957107, 46.880292000237326], [-96.77288599986065, 46.88133200025761], [-96.77217600020616, 46.88149199969946], [-96.771664999845, 46.88118700000591], [-96.77131400021572, 46.88059200016297], [-96.7712840000785, 46.87994399972025], [-96.77166999986788, 46.879021000087036], [-96.77197600018962, 46.87823799976736], [-96.77179500043967, 46.877815999806536], [-96.77129900014711, 46.877411999973546], [-96.7706510004169, 46.87727500009495], [-96.7700100003594, 46.87745000006616], [-96.76949899999825, 46.87773200026803], [-96.76920199989732, 46.87815899983224], [-96.76895800039817, 46.87861700011612], [-96.76842899959534, 46.87950799978995], [-96.76728999959546, 46.88347199981361], [-96.76736300028871, 46.88395200027883], [-96.76777900021531, 46.88473500009782], [-96.7682500003935, 46.88501199993174], [-96.76866899979485, 46.885072999957906], [-96.7691650000874, 46.884935999993345], [-96.76968800014413, 46.88476200003591], [-96.77149900016366, 46.88418300015773], [-96.77239100029132, 46.88416500021085], [-96.77305400009014, 46.884379000074915], [-96.7735579998803, 46.88472199989534], [-96.77386300037713, 46.885072999957906], [-96.7741140004473, 46.88574399996533], [-96.77422900007504, 46.88672000023035], [-96.77441900004582, 46.88821499997631], [-96.77463300030607, 46.88883300001735], [-96.7746559998723, 46.88943499980919], [-96.77448500016807, 46.889843000217965], [-96.7738619996539, 46.89031899994406], [-96.77205700038049, 46.890578000160055], [-96.77073900028046, 46.89106399989443], [-96.77002200005498, 46.891387999930956], [-96.76955800044779, 46.89196299991535], [-96.76944399974664, 46.89258999984056], [-96.76974500004553, 46.89321399980491], [-96.77042499956279, 46.893614999764004], [-96.77152299955478, 46.8939040002313], [-96.7737269999347, 46.89389699971373], [-96.77571000038166, 46.89416199972779], [-96.77640400014262, 46.89476299989432], [-96.77663299957317, 46.89587200014604], [-96.77638099967808, 46.896959999824304], [-96.77603400024677, 46.89797699980751], [-96.77550199996921, 46.89869400000795], [-96.77467299959072, 46.89927400027015], [-96.77373799980536, 46.89958699990158], [-96.7724039998118, 46.89978100024827], [-96.7712709996597, 46.89987299986358], [-96.77065800008961, 46.90026299997577], [-96.77027700032309, 46.900729000085256], [-96.77048499983724, 46.90149199993858], [-96.77133699978195, 46.90205300009295], [-96.77270400028576, 46.90248600021221], [-96.77339800004673, 46.9028099999829], [-96.773572000124, 46.90314800010051], [-96.7738259996689, 46.90363100005123], [-96.77377999963814, 46.90389700024729], [-96.77355700005538, 46.904203999903544], [-96.7729240003938, 46.90463699983475], [-96.77232299962095, 46.90521500008559], [-96.77173299961707, 46.905884999974006], [-96.77122499962896, 46.90627799980789], [-96.77075099997602, 46.90652099996899], [-96.77028800019374, 46.90654399975793], [-96.76957099996827, 46.90640499989564], [-96.76906299998015, 46.90611599990684], [-96.76856599986269, 46.90556200014437], [-96.76786000040616, 46.9051339998175], [-96.76706299981474, 46.904832999885485], [-96.76589500040086, 46.904879000288304], [-96.76508600011385, 46.90537700025462], [-96.76465799959337, 46.90662499973666], [-96.76445699975191, 46.90746300006118], [-96.76337399982853, 46.909654999726634], [-96.76333100017084, 46.910462999802846], [-96.76356200014952, 46.911055000068195], [-96.76392299982453, 46.91167599974513], [-96.7640819998332, 46.912138000250124], [-96.7640819998332, 46.91259999984082], [-96.76363400011952, 46.91323599993475], [-96.76253699995245, 46.91421699987415], [-96.76161300003774, 46.91467899995144], [-96.76079000040535, 46.914867000271855], [-96.76009699957098, 46.915083999743395], [-96.75979299979737, 46.915530999832995], [-96.75982200010968, 46.91607999994351], [-96.7597099999567, 46.91638300028156], [-96.75937799969567, 46.91651300027803], [-96.75901399964759, 46.916434999827096], [-96.75865299997257, 46.91579099996276], [-96.75820500025893, 46.91511300015195], [-96.75772900005786, 46.91450599975275], [-96.75722299971956, 46.91404400002493], [-96.75650100036952, 46.91371200003755], [-96.75574999980884, 46.913625000172075], [-96.7550140002151, 46.91381299989467], [-96.75453800001404, 46.91442000016621], [-96.75449399963311, 46.91503999991873], [-96.75513399986569, 46.91596799983444], [-96.75577300027338, 46.91654600000981], [-96.7568300002575, 46.91728000009627], [-96.7580639997936, 46.917935999839095], [-96.75898699988342, 46.91824800019848], [-96.76008999989828, 46.918723999960605], [-96.76126900008114, 46.919547000119955], [-96.76248199970085, 46.92073600007471], [-96.76298999968898, 46.921562000258476], [-96.763181000383, 46.92247200014136], [-96.76319200025365, 46.923128000125516], [-96.76292199991693, 46.92354000019515], [-96.76197399971277, 46.923890000147765], [-96.76123300009613, 46.9240170002225], [-96.7602599997776, 46.92386899990833], [-96.75799500019664, 46.92291599977832], [-96.75693700038761, 46.922513999866624], [-96.75532800003445, 46.92255700023784], [-96.75424900030903, 46.92264100013568], [-96.75344400022, 46.92287399975471], [-96.75293600023188, 46.92310700020092], [-96.75265400019958, 46.9235429997224], [-96.75279700031471, 46.92408599973592], [-96.75325699972393, 46.92456299980983], [-96.75463000007554, 46.92507499996951], [-96.75666200002799, 46.92549899991557], [-96.75884200011846, 46.92570999985071], [-96.76174100008426, 46.92575300011064], [-96.76373100020392, 46.92619700016263], [-96.76485299958703, 46.92693799982556], [-96.76538200038986, 46.92761499972854], [-96.76536099957515, 46.92835600002042], [-96.76469399957838, 46.92892500016554], [-96.76376399981586, 46.92927000020261], [-96.76303499989483, 46.92938699980127], [-96.76235500037757, 46.929244999856735], [-96.75960399965149, 46.9277640000907], [-96.75888399995127, 46.927467000152525], [-96.75807999968714, 46.92742500001599], [-96.75742299973611, 46.927658000299694], [-96.75672499977718, 46.927996000162985], [-96.75632300009428, 46.928588999935194], [-96.75623799970546, 46.929032999791964], [-96.756401999737, 46.92954700003937], [-96.75685799984659, 46.93021299972158], [-96.75745700007128, 46.930763000215975], [-96.75951400013811, 46.93144299993414], [-96.76028999991483, 46.93158199988184], [-96.76108900015608, 46.93189899997534], [-96.7613929999297, 46.9322040001848], [-96.7615760002278, 46.93302000028824], [-96.761526999824, 46.933764000209116], [-96.76169300040368, 46.93455800028233], [-96.76219200017096, 46.934896999989164], [-96.76286099981755, 46.93487700021979], [-96.7633350003688, 46.93467700027548], [-96.76447199982054, 46.93375399980711], [-96.76515999973371, 46.933519999804304], [-96.76652499968938, 46.93324000006153], [-96.76758599987147, 46.932984000049686], [-96.7685609998398, 46.932557000213606], [-96.76943799989887, 46.93204499979756], [-96.77024899983569, 46.931667000245824], [-96.77134000015498, 46.93141100007604], [-96.77251000011702, 46.93131399987175], [-96.77355600023046, 46.93106399990769], [-96.77438700025877, 46.93082600016304], [-96.77489299969875, 46.930545999831104], [-96.77529500027995, 46.93008299983906], [-96.77545400028863, 46.92961900020531], [-96.77534399978546, 46.92920499976982], [-96.77502699959305, 46.92870499984396], [-96.77489299969875, 46.92829099970541], [-96.77489299969875, 46.92782699988445], [-96.77538099959537, 46.926999000012614], [-96.77597800017027, 46.92635300013626], [-96.77668100015205, 46.925720999920514], [-96.77719599981286, 46.92563899995952], [-96.77785199993899, 46.925693999745214], [-96.77827999956116, 46.92603999973439], [-96.77840799960768, 46.92650500030285], [-96.77832599959191, 46.92706100011144], [-96.77832599959191, 46.9277169997289], [-96.778845000349, 46.928135999815694], [-96.7797109996391, 46.92832700003118], [-96.7803669997652, 46.92801300015785], [-96.7809860000814, 46.927570999764654], [-96.78134099990865, 46.92705100029824], [-96.78215199984545, 46.92583099988052], [-96.7827540004432, 46.92517499986563], [-96.7831269998138, 46.924719000247414], [-96.78376500039657, 46.92438199998343], [-96.78453899962516, 46.924299999813364], [-96.78517700020792, 46.92439999992915], [-96.78549600005016, 46.924719000247414], [-96.78559599960927, 46.92526600005676], [-96.78531399957697, 46.92675100012671], [-96.78480300011412, 46.928464000180654], [-96.78485800036569, 46.929182999831994], [-96.78573500042476, 46.929916999794656], [-96.786194999834, 46.93005300024606], [-96.78680499992934, 46.93016399982181], [-96.7873770003899, 46.93010300017186], [-96.78772600036935, 46.929828999931956], [-96.78848999955217, 46.92894499970381], [-96.78889600033136, 46.92784999973232], [-96.78914499985339, 46.92748900018172], [-96.78991700033046, 46.92721500006618], [-96.7910739998737, 46.92731500026182], [-96.79150300021908, 46.927688999976674], [-96.79179899959678, 46.928265000170796], [-96.79181200001557, 46.92875100000266], [-96.79148999980028, 46.92948800017205], [-96.79093099975856, 46.930617999881015], [-96.79090499981928, 46.9317749998642], [-96.791095999615, 46.93282699988511], [-96.79133300033978, 46.933853000208266], [-96.79141899965518, 46.93467700027548], [-96.79132099974589, 46.9353210000886], [-96.79107100039894, 46.93572199976004], [-96.79087999970493, 46.93591900003437], [-96.79051200035723, 46.93620199992295], [-96.79026899978464, 46.936393000203196], [-96.79001299969161, 46.936740999993134], [-96.78988800001814, 46.93705000002082], [-96.78990800010963, 46.93734599978056], [-96.78994999994242, 46.93768500023889], [-96.79018400029416, 46.938082000279906], [-96.79044700005988, 46.938404000000645], [-96.79187300011495, 46.939528000169034], [-96.79215799962198, 46.940564000038535], [-96.79208300017723, 46.94105899982375], [-96.79204700019221, 46.941286999869256], [-96.7922859996685, 46.94128400010897], [-96.7934969996384, 46.94129900013524], [-96.79355600008795, 46.94129900013524], [-96.79368300030954, 46.94129900013524], [-96.79374500023384, 46.94129900013524], [-96.79394299970224, 46.94129999985064], [-96.79419499959731, 46.94129999985064], [-96.794397000162, 46.94130199989468], [-96.7952359996879, 46.94130300022331], [-96.7965019999094, 46.94130599998251], [-96.79780099974283, 46.94131000007006], [-96.79780099974283, 46.9411820001868], [-96.79779999991793, 46.940908000203365], [-96.80167399985207, 46.94094499974356], [-96.8031550001587, 46.9409590001431], [-96.80501700023183, 46.940977999759475], [-96.8084219996376, 46.941012000089124], [-96.80944099998688, 46.94102399980342], [-96.81598899975589, 46.94109300010196], [-96.81659300000346, 46.94109999997616], [-96.8190319996617, 46.94113200017802], [-96.8190319996617, 46.94185399999324], [-96.82023799960872, 46.941858999744795], [-96.82300000020547, 46.941858999744795], [-96.82300000020547, 46.941160999980255], [-96.82347200020858, 46.941167000127706], [-96.82511900019657, 46.94118099985587], [-96.82636199995352, 46.94119100009755], [-96.82663899996297, 46.94119399986304], [-96.82957599956357, 46.94121900015093], [-96.82958599960931, 46.94186899985985], [-96.82957300008884, 46.94847300026923], [-96.82957300008884, 46.94882399999105], [-96.82957800011171, 46.94972399982974], [-96.82960700042402, 46.95621900016278], [-96.82961099972367, 46.95678599970915], [-96.82966400032544, 46.962977000228264], [-96.8299019999768, 46.96297999999905], [-96.83205500030309, 46.963003999998236], [-96.83209999961062, 46.96300499992131], [-96.83214399999154, 46.96300599984436], [-96.83214700036459, 46.963222999876486], [-96.83215099966424, 46.96347999990321], [-96.83215499986221, 46.96370700017861], [-96.83215900006017, 46.96396999976312], [-96.83216200043321, 46.964157000072845], [-96.83216599973285, 46.96439199971876], [-96.83217400012879, 46.964900000241265], [-96.83217699960352, 46.96512399974529], [-96.8321959998701, 46.96634200028759], [-96.83221799961139, 46.96774399997415], [-96.83224600009879, 46.96954999980049], [-96.83198900018085, 46.96991799999676], [-96.83182199977627, 46.970159000042564], [-96.83172499969189, 46.97030000019405], [-96.83168799988196, 46.97029899979433], [-96.83083799958709, 46.97029599982101], [-96.82983500002965, 46.970292000060624], [-96.82946000011093, 46.970291000273754], [-96.82805300032246, 46.97028600011303], [-96.82716299984459, 46.97028199973894], [-96.82458000024631, 46.97026500029114], [-96.82466899993479, 46.972176999723196], [-96.82470499991979, 46.97313800005848], [-96.82472099981331, 46.9735130000116], [-96.82472800038431, 46.97410800018029], [-96.82474699975258, 46.97486399983754], [-96.82475000012563, 46.97568900028326], [-96.8247479995775, 46.97613400028404], [-96.82474500010275, 46.97671299991459], [-96.82394800040964, 46.97670900002124], [-96.82394800040964, 46.976769000229126], [-96.82208499961327, 46.97676000017162], [-96.82208499961327, 46.976720999700454], [-96.82107700003297, 46.97671699980766], [-96.82040699966313, 46.97671299991459], [-96.82015200029333, 46.97670799974135], [-96.8200889996458, 46.97670599979454], [-96.82005799968367, 46.976819000044514], [-96.82474500010275, 46.976884000286226], [-96.82571099985027, 46.976888999830095], [-96.83709900019923, 46.97694699989822], [-96.83901099960279, 46.97695799986179], [-96.84029100006798, 46.97696600022388], [-96.84026299958056, 46.9701389999605], [-96.84026299958056, 46.97003600006328], [-96.84026199975567, 46.96823300018479], [-96.84022499994573, 46.963093999745944], [-96.85872099993036, 46.96317799982353], [-96.86144800036699, 46.96317300022398], [-96.86144300034412, 46.96140600030272], [-96.86140599963588, 46.95590099989952], [-96.86139499976522, 46.954309000110904], [-96.86000600041841, 46.952391000206454], [-96.85998200012898, 46.95235699974538], [-96.85995899966441, 46.95232500012129], [-96.85947800033881, 46.95232399999862], [-96.85902600042718, 46.952321000243586], [-96.85848900012677, 46.952317999875234], [-96.85797199991781, 46.95231500011991], [-96.85746599957953, 46.952311999751174], [-96.85699500029963, 46.952308999995516], [-96.8565779996498, 46.952306999749496], [-96.8564859995883, 46.952306000239645], [-96.85616300044643, 46.95230399999352], [-96.85607800005761, 46.95230299987045], [-96.85611499986753, 46.95585699987623], [-96.85611099966958, 46.95592399995301], [-96.85504799983767, 46.9559190002888], [-96.85394499982282, 46.95591299995531], [-96.85284299963286, 46.95590700023431], [-96.85173700014325, 46.95590099989952], [-96.85096899986414, 46.95589600023311], [-96.85083699961964, 46.95589600023311], [-96.85083400014493, 46.955360000055144], [-96.85082800029714, 46.954586999888186], [-96.85082099972614, 46.953800000102056], [-96.85081499987835, 46.953007999843365], [-96.85079399996197, 46.95025700017043], [-96.85078599956604, 46.949247000009436], [-96.8507830000913, 46.948638999825285], [-96.8507689998476, 46.9434309998011], [-96.85076200017491, 46.940649000252776], [-96.85076100035, 46.94004300001972], [-96.85086500010708, 46.93979900001128], [-96.85043999995962, 46.939207000215376], [-96.8499510002381, 46.938615000007516], [-96.84965300031226, 46.938358000159134], [-96.8492699999976, 46.938039999880246], [-96.84886900013962, 46.937781000163284], [-96.84876799985727, 46.93772800008574], [-96.84901200025475, 46.93751800004975], [-96.84883499980442, 46.937423000054956], [-96.84865400005447, 46.937335000258095], [-96.84847099975636, 46.937251000093994], [-96.84790599986682, 46.937004000242815], [-96.84771500007112, 46.93692099997005], [-96.84678500030863, 46.93651400002176], [-96.84648999985751, 46.93639600023746], [-96.84620500035048, 46.936253999861194], [-96.84593400018882, 46.93608799992884], [-96.84567700027088, 46.935901000279124], [-96.84543700007136, 46.935693000078764], [-96.84521500031352, 46.93546500013415], [-96.84501299974883, 46.935220000289966], [-96.84483199999887, 46.93495900014671], [-96.84467299999021, 46.93468399976168], [-96.84452200037747, 46.93435699991499], [-96.84532800029142, 46.934363000211555], [-96.8474320002139, 46.93470800018386], [-96.85103300033656, 46.93967100019561], [-96.85227699991843, 46.941385999836825], [-96.85349899975897, 46.94306999978478], [-96.85508800002064, 46.945260000150675], [-96.85573400010102, 46.94614999988837], [-96.85601100011046, 46.94605600011748], [-96.85626999967823, 46.9459679997909], [-96.85691599975861, 46.9459720001434], [-96.85741299987608, 46.94597500025423], [-96.85806700035236, 46.94597899999297], [-96.86050000016283, 46.94599599979902], [-96.86054700001849, 46.94599599979902], [-96.86072199992067, 46.945997000039945], [-96.86112000030393, 46.945998999908504], [-96.86130899955151, 46.94600000014941], [-96.86132899964298, 46.94068300017801], [-96.86133100019114, 46.9390499998946], [-96.86133700003892, 46.93800499972648], [-96.86133700003892, 46.93727100020344], [-96.86134899973447, 46.935984000292834], [-96.86133700003892, 46.93512199979307], [-96.86134799990955, 46.934213999804705], [-96.86105599983152, 46.93421299995704], [-96.86056000043727, 46.93421200010932], [-96.85603899969955, 46.93418599976844], [-96.85602399963093, 46.92691800015142], [-96.85601000028555, 46.919792999990406], [-96.85601000028555, 46.91967000019636], [-96.86112000030393, 46.919696999726376], [-96.86133299984095, 46.91969799984507], [-96.86133100019114, 46.918485999994544], [-96.86135799995532, 46.916075000239516], [-96.86135999960513, 46.915922999932896], [-96.86134999955938, 46.91341200003221], [-96.86135299993244, 46.91244199981259], [-96.8720099998122, 46.91246500012923], [-96.87203499992657, 46.90870400026191], [-96.87203599975147, 46.908478000234766], [-96.87499199961864, 46.90962899973908], [-96.87664600017766, 46.910228999920335], [-96.88268099993569, 46.912350000288455], [-96.88306599990014, 46.91248500028978], [-96.88312399962645, 46.90569999997148], [-96.88342400010045, 46.90570200011759], [-96.8834280002984, 46.9052209999642], [-96.88312799982444, 46.90521899980014], [-96.88313200002239, 46.90494599972373], [-96.88271500027085, 46.9049429997691], [-96.88271699992069, 46.90486300009929], [-96.88273600018725, 46.90160100008343], [-96.88277700019515, 46.8989559999657], [-96.88281300018016, 46.89805600002309], [-96.8828159996549, 46.897961000013844], [-96.88282099967776, 46.89753799997782], [-96.8828240000508, 46.89727200015002], [-96.88283499992146, 46.89616300000131], [-96.88285300036313, 46.89446499997845], [-96.8828650000587, 46.8935830000243], [-96.88290299969353, 46.890878000273744], [-96.8829000002188, 46.89070099980802], [-96.88133799972131, 46.89068999991587], [-96.87660699981961, 46.890680000067775], [-96.87531499965884, 46.89067799997514], [-96.87252000034847, 46.89065600017916], [-96.87233100020258, 46.890655000132405], [-96.87225199966154, 46.88362899970806], [-96.87226099988237, 46.88053599990305], [-96.8709820001404, 46.88045199971051], [-96.86488100026016, 46.88005300007028], [-96.86163800033778, 46.87984100002537], [-96.86163499996475, 46.87957399997317], [-96.86163499996475, 46.87953800005078], [-96.86163300031492, 46.879313999786156], [-96.86162300026918, 46.87837299970601], [-96.86162999994187, 46.87770800011258], [-96.86162499991899, 46.87628299981179], [-96.86165400023133, 46.875506000199756], [-96.86160400000259, 46.87493700023784], [-96.86161999989613, 46.874614000046385], [-96.86164800038354, 46.87406199975338], [-96.8616679995767, 46.873464999997346], [-96.86169199986614, 46.872733000077055], [-96.86177200023208, 46.87234700028316], [-96.86177600043007, 46.8714950000276], [-96.86179899999628, 46.87007999994705], [-96.86182300028571, 46.869061999921726], [-96.86277300013971, 46.869083999975565], [-96.86351499958124, 46.86909000021199], [-96.86422900033199, 46.86909999978573], [-96.86484799974987, 46.869121999824], [-96.86506899968282, 46.86912700022225], [-96.86592300017566, 46.869135999955326], [-96.86647999966925, 46.86914200018595], [-96.86710800020629, 46.86915400003108], [-96.86824899985598, 46.86917500021416], [-96.8683629996588, 46.869176999880224], [-96.86966599969021, 46.869182000273355], [-96.8709040003226, 46.8692139998305], [-96.87230100006535, 46.86922300016315], [-96.87232299980664, 46.86866299972522], [-96.87232000033191, 46.86789600013209], [-96.87233700005036, 46.86711699972203], [-96.87235399976879, 46.8661999998902], [-96.87237399986027, 46.86513500001047], [-96.87240800019546, 46.864154999851664], [-96.87240800019546, 46.86318199984228], [-96.8724180002412, 46.862019999950924], [-96.87241900006612, 46.86189700026651], [-96.8724180002412, 46.86166099978335], [-96.87242599973881, 46.86136500019896], [-96.87243999998252, 46.86112299993638], [-96.87243400013473, 46.86105399983425], [-96.87242699956373, 46.860951000122135], [-96.87242999993677, 46.86070399988223], [-96.87243599978457, 46.86021900029278], [-96.8724469996552, 46.85933499988671], [-96.87245699970096, 46.8585929998385], [-96.87246500009687, 46.85792800023854], [-96.87247000011973, 46.85755599971062], [-96.87247500014261, 46.85718599978967], [-96.87248199981532, 46.85658900029605], [-96.87249500023411, 46.85556299989183], [-96.87250600010475, 46.854717999938316], [-96.87251000030271, 46.85437799970257], [-96.87252100017336, 46.8535509999255], [-96.87252700002115, 46.85307799998255], [-96.8725379998918, 46.852176999880605], [-96.87256399983107, 46.85110399999615], [-96.8726090000369, 46.848492000265615], [-96.87261099968674, 46.84832100014746], [-96.87261999990757, 46.84781000006052], [-96.87262099973248, 46.847742000286026], [-96.87261999990757, 46.847532999880094], [-96.87324599989647, 46.847532000258326], [-96.87656099978885, 46.84752900016424], [-96.88302900009023, 46.847542000161276], [-96.88326099989382, 46.847532999880094], [-96.88323999997742, 46.846900000283064], [-96.88327299958937, 46.846094999893666], [-96.88334200008468, 46.84381700029716], [-96.88334000043484, 46.843742999772445], [-96.88331500032048, 46.84206300019113], [-96.88330699992457, 46.840288999923175], [-96.88331000029763, 46.83984600026426], [-96.88332700001605, 46.83672399996864], [-96.88333200003892, 46.83501299989163], [-96.88333600023688, 46.83388100004517], [-96.8833379998867, 46.83320300011141], [-96.88319800014462, 46.833096000272185], [-96.88319700031973, 46.832978000173775], [-96.88313000037257, 46.83130700008724], [-96.88305500002949, 46.82943599974831], [-96.88299899995299, 46.82803299977087], [-96.88298100040966, 46.82767799977739], [-96.8829219999601, 46.82643700010456], [-96.88290100004372, 46.826040999763336], [-96.88289600002084, 46.82587899970492], [-96.88287199973139, 46.82498499975285], [-96.88280399995932, 46.823595000029286], [-96.8827450004081, 46.82220100025976], [-96.88270900042308, 46.82131799997268], [-96.88266000001929, 46.82035199987229], [-96.88260499976771, 46.81925699977064], [-96.8825839998513, 46.81854600000765], [-96.88307699977081, 46.81855100019789], [-96.88324900019825, 46.818554000065916], [-96.88446299964288, 46.818577000073134], [-96.88562000008443, 46.81860199977587], [-96.88751599959444, 46.818643000172926], [-96.8877869997561, 46.81864899989858], [-96.88859199984513, 46.818667000300906], [-96.89172699981246, 46.818734999990546], [-96.89252799970353, 46.8187520002069], [-96.89713800012973, 46.81885300000732], [-96.89761000013284, 46.81886600018087], [-96.89829600039617, 46.81887899973653], [-96.89935800040317, 46.81888399989581], [-96.89937799959634, 46.81888399989581], [-96.8993680004489, 46.81884700030443], [-96.89936099987791, 46.81880499990673], [-96.89935599985503, 46.8187640002479], [-96.89935500003011, 46.81872199978533], [-96.89935599985503, 46.81867899974615], [-96.89935900022809, 46.81865199976114], [-96.89936099987791, 46.81862899978595], [-96.89937400029669, 46.81848300027551], [-96.89937799959634, 46.818450999993], [-96.89938400034244, 46.81841900030618], [-96.89939299966494, 46.818386999985584], [-96.89940600008374, 46.81835100021691], [-96.8994169999544, 46.81832400006719], [-96.8994310001981, 46.81827899999243], [-96.89944399971857, 46.81824000026603], [-96.89946700018312, 46.818153999997044], [-96.89948899992442, 46.81806999993035], [-96.89950700036609, 46.817985000175675], [-96.8995220004347, 46.817899000113584], [-96.89953499995518, 46.817814000088596], [-96.89954400017601, 46.81772799975302], [-96.89954400017601, 46.81766000001932], [-96.89954500000091, 46.817606999805626], [-96.89954500000091, 46.81759200019963], [-96.89954699965074, 46.81756299992492], [-96.89954900019887, 46.81752499985928], [-96.89955400022176, 46.81745699986886], [-96.89956699974222, 46.817389999975], [-96.89957699978798, 46.81732299999765], [-96.89958400035897, 46.81725899987713], [-96.89958900038185, 46.81718800022097], [-96.89959000020676, 46.81712099999198], [-96.89959699987945, 46.817048999964754], [-96.8996069999252, 46.81697699984111], [-96.89961899962077, 46.81690500023583], [-96.8996350004126, 46.816832999919384], [-96.89965399978087, 46.81676199970075], [-96.89967700024539, 46.81669100000312], [-96.89970200035975, 46.81662099979388], [-96.89973099977375, 46.81655100010827], [-96.89976199973589, 46.816481999916206], [-96.89978699985025, 46.81643199975734], [-96.89994900023196, 46.816177999904475], [-96.90041299983915, 46.815633999929815], [-96.90058199989355, 46.81551999986595], [-96.9010289997823, 46.81542600025707], [-96.90130599979172, 46.815468999823885], [-96.9015019996103, 46.815547999796166], [-96.90187700042735, 46.815627000267206], [-96.90228099976007, 46.81577399975304], [-96.9030499998641, 46.81578299982144], [-96.90346199959275, 46.815598999763345], [-96.90373899960218, 46.81539200017497], [-96.90382200034117, 46.815219000002756]], [[-96.88129099986563, 46.78968699993321], [-96.88127800034515, 46.790110000023525], [-96.88127699962193, 46.79012900021129], [-96.88127599979701, 46.79016599987793], [-96.88126499992637, 46.790522999809475], [-96.88124900003284, 46.79102200024049], [-96.8812389999871, 46.79135800017986], [-96.88123099959118, 46.79166399972738], [-96.88121600042088, 46.7920949999599], [-96.88121399987274, 46.79217399982226], [-96.88116799984199, 46.793640000079236], [-96.88109900024502, 46.79586299985187], [-96.88105800023713, 46.79717300027996], [-96.88102999974973, 46.79891200009429], [-96.88101899987907, 46.79961899972651], [-96.87997399959052, 46.80005600015835], [-96.87865600038882, 46.8006079999351], [-96.87701100005064, 46.80129699997296], [-96.87576999994351, 46.80181599973162], [-96.8740019995817, 46.80255599970998], [-96.87336399989722, 46.80282299969625], [-96.87282400012208, 46.803049000245096], [-96.872600999641, 46.803142999965324], [-96.87240700037056, 46.80322399987373], [-96.87218999973726, 46.80331499979996], [-96.87200399996443, 46.80339200013768], [-96.8718409997578, 46.80346099990741], [-96.87176399976491, 46.80349299988643], [-96.87163700044162, 46.803545999867474], [-96.87158499966476, 46.80356999996933], [-96.8715520000528, 46.80358899970932], [-96.8715379998091, 46.80359799997214], [-96.87152299974049, 46.80360800005746], [-96.87150900039511, 46.80361800014092], [-96.8714950001514, 46.80362900004612], [-96.87148199973261, 46.803639999949084], [-96.87146900021214, 46.80365099984975], [-96.87145699961825, 46.8036619997482], [-96.87144499992267, 46.803674000082054], [-96.87143499987694, 46.803685999798304], [-96.87142400000629, 46.803698999949106], [-96.87141399996054, 46.803711000274696], [-96.87140499973971, 46.8037239998045], [-96.87139700024211, 46.80373699994612], [-96.87138899984619, 46.80375000008455], [-96.87138200017348, 46.803763000219874], [-96.87137600032571, 46.803775999737155], [-96.87136999957961, 46.80379100012223], [-96.87136499955673, 46.80380400024766], [-96.8713610002571, 46.80381800018999], [-96.87135700005913, 46.803832000128686], [-96.87135399968608, 46.80384600006372], [-96.87135200003625, 46.80385999999513], [-96.87135000038643, 46.80387499974193], [-96.87134899966323, 46.80390600027115], [-96.87130400035568, 46.80390600027115], [-96.87128400026421, 46.80390600027115], [-96.86617000004786, 46.80387099985086], [-96.86123300028183, 46.80383900009664], [-96.86123400010675, 46.803744999747884], [-96.86123599975657, 46.80362999986971], [-96.8612519996501, 46.80250100029437], [-96.86126300041907, 46.80164999980125], [-96.8612729995665, 46.80095599999855], [-96.86127900031258, 46.800508000186156], [-96.86128500016038, 46.80013099984887], [-96.86130400042694, 46.798695999769194], [-96.86132699999317, 46.797052000208794], [-96.86134299988669, 46.79593300001933], [-96.86134999955938, 46.795456000307354], [-96.86135999960513, 46.79469100011016], [-96.861364999628, 46.79428099970476], [-96.86137200019901, 46.79384099970988], [-96.8613860004427, 46.792756000053366], [-96.86142999992532, 46.78964700030221], [-96.87155799990059, 46.78966199970605], [-96.8748950004326, 46.7896670001214], [-96.88067300027267, 46.789690000181075], [-96.88125300023079, 46.78968699993321], [-96.88129099986563, 46.78968699993321]], [[-96.86062900003425, 46.789917000002085], [-96.86059600042229, 46.79272699991713], [-96.85046400024908, 46.79265399980199], [-96.85050400043205, 46.78984399976578], [-96.85108600004001, 46.78984800008464], [-96.85446399968158, 46.789872000146175], [-96.855802999698, 46.78988199970736], [-96.85631400005917, 46.78988600002335], [-96.85931000010932, 46.78990699983234], [-96.86062900003425, 46.789917000002085]], [[-96.86057700015571, 46.79427599971803], [-96.86057399978266, 46.79451399980081], [-96.86057200013283, 46.79473500025307], [-96.86054399964544, 46.797022999927684], [-96.85864099956441, 46.796998000033305], [-96.85625499960962, 46.79696699982836], [-96.85567300000164, 46.79695800030115], [-96.85386600018009, 46.796935000272555], [-96.85145500011095, 46.79690300008279], [-96.8504030001497, 46.79689299998111], [-96.85044099978454, 46.79420299985897], [-96.85896199995479, 46.79426399974799], [-96.86057700015571, 46.79427599971803]], [[-96.85709400003384, 46.93445199982864], [-96.85708999983588, 46.93705699981027], [-96.85298599974799, 46.937026000034905], [-96.85264400033954, 46.936359000007215], [-96.85307000031189, 46.93442200022921], [-96.85709400003384, 46.93445199982864]], [[-96.84022199957269, 46.94355200027443], [-96.84024599986213, 46.94856800028138], [-96.83657399959436, 46.948536000231535], [-96.8362740000187, 46.94853300026424], [-96.83606899997929, 46.9485309998771], [-96.8360050004052, 46.948530000296735], [-96.83600799987994, 46.94673400020781], [-96.83601000042808, 46.94519000006044], [-96.83601000042808, 46.944759999863486], [-96.836011000253, 46.94352099996634], [-96.83600299985706, 46.942896000193514], [-96.83598500031371, 46.941288999913766], [-96.84020700040239, 46.94132900017521], [-96.84021700044812, 46.94261300011221], [-96.84021800027304, 46.942933000199794], [-96.84022199957269, 46.94355200027443]], [[-96.83863700040729, 46.81774700002486], [-96.83860899991987, 46.81789699976743], [-96.83856299988912, 46.817970000060384], [-96.8385400003229, 46.81800600008419], [-96.83853100010208, 46.81802000001864], [-96.83842899999482, 46.818148000216205], [-96.83800100037264, 46.818126000194326], [-96.83783800016603, 46.81812399985656], [-96.83659799988381, 46.81810899978005], [-96.83439000020425, 46.818100000100955], [-96.83396699970665, 46.818096000038224], [-96.83266600022337, 46.817989999803395], [-96.83215400003729, 46.817956000112964], [-96.83215700041035, 46.81673699975733], [-96.83216999993081, 46.816117999860886], [-96.83255400007037, 46.816120000273266], [-96.8339850001483, 46.816141999886355], [-96.83764999984504, 46.81617000010747], [-96.83829299955238, 46.81617300010833], [-96.83855700004133, 46.816228000299525], [-96.83856600026218, 46.81640900006209], [-96.83858700017858, 46.816808000008926], [-96.83863700040729, 46.81774700002486]]]}, "properties": {"id": "covered-us-nd-fargo", "status": "covered", "jurisdiction": "Fargo", "country_id": "us", "state_id": "nd", "area_type": "city", "note": "Covered by public tree inventory for Fargo; geometry from official jurisdiction boundary."}}]}