{"type": "FeatureCollection", "features": [{"type": "Feature", "geometry": {"type": "MultiPolygon", "coordinates": [[[[-97.1530499998792, 37.67953099982296], [-97.1530499998792, 37.679385999913514], [-97.15304800022939, 37.679180000133464], [-97.15304599968124, 37.679005999811444], [-97.15303900000855, 37.6782670002831], [-97.15303200033586, 37.67759399965938], [-97.1530289999628, 37.67727100010668], [-97.1530280001379, 37.67720299994683], [-97.15302700031299, 37.67708900024998], [-97.15302200029012, 37.67657000008978], [-97.15301899991707, 37.67634199999772], [-97.15301899991707, 37.67623999987936], [-97.1530149997191, 37.67586899984871], [-97.1529860003051, 37.6739220003061], [-97.15298499958188, 37.673046000153164], [-97.15297799990917, 37.67241799965312], [-97.15298399975697, 37.6723520001592], [-97.15298899977982, 37.67228599989555], [-97.15299700017574, 37.672255999950224], [-97.15302999978772, 37.67220300015942], [-97.15263499977752, 37.6722050002998], [-97.15164200026581, 37.67220600001442], [-97.14901799976134, 37.67221300014966], [-97.14906299996717, 37.66683200008943], [-97.14907999968561, 37.664916000126944], [-97.14913199956415, 37.664916000126944], [-97.1493459998244, 37.664917999752596], [-97.15094900032977, 37.66493100016251], [-97.15150499999847, 37.664935999936624], [-97.15155500022718, 37.664935000124075], [-97.15294600012214, 37.66489799993806], [-97.15294500029722, 37.66467900001635], [-97.15294500029722, 37.664668999722046], [-97.15294299974907, 37.66392399995981], [-97.15294299974907, 37.663261999704325], [-97.15294600012214, 37.66324100031931], [-97.15294699994703, 37.66284600028276], [-97.15294699994703, 37.66282099999371], [-97.15294899959686, 37.66243400004855], [-97.15294699994703, 37.66218399965813], [-97.15294699994703, 37.66217299988898], [-97.15294000027436, 37.66108399974293], [-97.15293899955113, 37.66084600033046], [-97.15294000027436, 37.66067699974651], [-97.15294000027436, 37.66055300012535], [-97.15294399957399, 37.65954000024596], [-97.15294799977195, 37.65910800020146], [-97.15295199996991, 37.6587109997154], [-97.15295299979482, 37.65862099973816], [-97.15294899959686, 37.65804199985974], [-97.15294500029722, 37.6576299999885], [-97.15294500029722, 37.65760599998766], [-97.15294399957399, 37.657479999678266], [-97.15294199992418, 37.65651599977362], [-97.15294000027436, 37.65573200032817], [-97.15293899955113, 37.65552800019292], [-97.1529369999013, 37.65420099991902], [-97.1529369999013, 37.654069999726524], [-97.15294299974907, 37.65342899982293], [-97.15295399961973, 37.652223000003616], [-97.15295399961973, 37.65220200034107], [-97.15295500034296, 37.6520600003331], [-97.1529650003887, 37.65133899982478], [-97.15296700003853, 37.651219000244424], [-97.1529650003887, 37.65061100010179], [-97.1529650003887, 37.65059400000641], [-97.15296399966549, 37.650400000064465], [-97.15296399966549, 37.65037499985182], [-97.15296399966549, 37.65031299999929], [-97.14893300027082, 37.65030699994194], [-97.14759099988137, 37.650303999913135], [-97.14627399960627, 37.65030299990348], [-97.14443699964745, 37.65029999987451], [-97.1435660003345, 37.650316000027715], [-97.14330500021859, 37.65032100007492], [-97.14279200020759, 37.65031900005608], [-97.14265400011534, 37.650318000046674], [-97.14258999964294, 37.650318000046674], [-97.14257100027467, 37.650318000046674], [-97.14222499976995, 37.650316000027715], [-97.14216200002076, 37.650316000027715], [-97.14197500042302, 37.650316000027715], [-97.14191299960041, 37.650316000027715], [-97.14107900009738, 37.65031500001827], [-97.1392999998649, 37.650314000008755], [-97.13858000016468, 37.65031299999929], [-97.13774699958824, 37.65031299999929], [-97.13726500043771, 37.65031299999929], [-97.13582000011606, 37.65031500001827], [-97.13555499980221, 37.650316000027715], [-97.13533899989214, 37.650317000037205], [-97.13533899989214, 37.650416000196174], [-97.13533999971705, 37.65083900029412], [-97.135343999915, 37.65212800006026], [-97.13534599956483, 37.6524070003494], [-97.13534800011296, 37.652930000114125], [-97.13534800011296, 37.652940999830285], [-97.13534800011296, 37.6529749996539], [-97.13534800011296, 37.65298700004809], [-97.13534800011296, 37.65311000024323], [-97.13534899993789, 37.65348100025105], [-97.1353499997628, 37.653605000304246], [-97.1353499997628, 37.65371799983978], [-97.1353509995877, 37.65393300024978], [-97.1353509995877, 37.653955000094534], [-97.13543699980143, 37.65396099985713], [-97.13989599971657, 37.65399899976448], [-97.13987599962506, 37.65762000016691], [-97.14180499964537, 37.657623999811236], [-97.1443050003013, 37.65758800015977], [-97.1444750001806, 37.65758499971388], [-97.1444950002721, 37.65758499971388], [-97.14449400044718, 37.65780300003163], [-97.14449000024922, 37.65849499972891], [-97.14447799965535, 37.66084499975165], [-97.14447799965535, 37.66101800012572], [-97.14447600000553, 37.66125200024926], [-97.14317700017207, 37.66125800013339], [-97.14304199955454, 37.66125899999546], [-97.14240200022027, 37.66126300015489], [-97.14216200002076, 37.661264000016956], [-97.14046499980404, 37.66126999990004], [-97.1402570002899, 37.66127099976195], [-97.13982000044689, 37.661269000038054], [-97.13969700042325, 37.66126800017612], [-97.13933099982704, 37.661267000314105], [-97.1392089996283, 37.661267000314105], [-97.13842899965363, 37.661264999878945], [-97.13814599979642, 37.661264999878945], [-97.13608899972958, 37.66126099971962], [-97.13570600031326, 37.66125999985757], [-97.13530899975491, 37.66125999985757], [-97.13530899975491, 37.661300999880915], [-97.13530899975491, 37.66142600024595], [-97.13530999957982, 37.661468000036876], [-97.13530999957982, 37.66152200024117], [-97.13531100030305, 37.66168399990714], [-97.13531200012797, 37.661737999954255], [-97.1353149996027, 37.662379999796535], [-97.13532499964843, 37.664307999784995], [-97.13532700019657, 37.66458200001991], [-97.13530700010509, 37.664950000155756], [-97.13467199989537, 37.66494399985899], [-97.13340200037423, 37.664932999787766], [-97.13276999963925, 37.66492700020074], [-97.13213600015274, 37.664921999714856], [-97.13187099983888, 37.66491900027654], [-97.13107900016864, 37.66491100035149], [-97.1309789997112, 37.66490999982744], [-97.1309019997183, 37.66490900001453], [-97.13081600040289, 37.66490699967751], [-97.13076600017418, 37.66490599986452], [-97.13076399962605, 37.66488500023354], [-97.1307600003264, 37.66481600028663], [-97.13077100019706, 37.664122000128856], [-97.13077600021994, 37.66160200026087], [-97.13077600021994, 37.661213999787066], [-97.12845200018941, 37.66121000033615], [-97.12757099993239, 37.66120899976225], [-97.1274160001217, 37.66120799989945], [-97.1274160001217, 37.66146300002917], [-97.1274160001217, 37.66160700025921], [-97.12845200018941, 37.661608999974014], [-97.12845200018941, 37.66166499978902], [-97.12844899981638, 37.662913000247954], [-97.1284439997935, 37.664812000318655], [-97.1284439997935, 37.664882999895866], [-97.12903700017043, 37.664882999895866], [-97.12921999957021, 37.664882999895866], [-97.12938199995192, 37.664886999860016], [-97.13024399994237, 37.664912999977275], [-97.13041999966946, 37.66490900001453], [-97.13059600029487, 37.66490599986452], [-97.13064899999831, 37.664905000051576], [-97.13069900022703, 37.664905000051576], [-97.13069800040213, 37.66498100002208], [-97.13069800040213, 37.66501599983259], [-97.13069800040213, 37.66507900001884], [-97.1307040002499, 37.66656399979357], [-97.13070599989973, 37.667021000130106], [-97.13070800044787, 37.667848999816314], [-97.13071199974752, 37.668699999724176], [-97.13071500012057, 37.669389000266904], [-97.13071500012057, 37.669473999809114], [-97.13072099996835, 37.67111399998167], [-97.13072500016631, 37.67187600030408], [-97.1307259999912, 37.67217600003675], [-97.1307259999912, 37.672220000284284], [-97.12608499960288, 37.672236999694206], [-97.1259869996936, 37.672235999979954], [-97.12591300007375, 37.672235000265744], [-97.12580400029381, 37.672233000126184], [-97.12571300005722, 37.67223199970083], [-97.1215369999993, 37.67217699975181], [-97.1215239995805, 37.67217699975181], [-97.1215239995805, 37.67223000027223], [-97.1215229997556, 37.67238499991347], [-97.12152100010577, 37.672703999862854], [-97.1215160000829, 37.6735279999277], [-97.12150799968698, 37.67490099971753], [-97.12149799964124, 37.67654900020417], [-97.12149699981632, 37.67673400034644], [-97.1214950001665, 37.677039999665396], [-97.12149199979343, 37.67764200023676], [-97.12148900031872, 37.67804799999699], [-97.12148900031872, 37.678197000346344], [-97.12148900031872, 37.67823600027861], [-97.12115200003484, 37.67823099997853], [-97.12113799979112, 37.67900999972538], [-97.12113299976825, 37.67926699978594], [-97.12113299976825, 37.67928199976471], [-97.12113299976825, 37.679309000145516], [-97.12113100011844, 37.67939199975359], [-97.12109699978325, 37.67939199975359], [-97.11994100006493, 37.67941100031039], [-97.11954400040489, 37.679398000304126], [-97.11954299968167, 37.67929600012138], [-97.11954299968167, 37.67897700007357], [-97.11954299968167, 37.678797000098704], [-97.11954299968167, 37.67878099968487], [-97.11950400022192, 37.67878099968487], [-97.11942800005393, 37.67878000005879], [-97.11937799982523, 37.67877899972176], [-97.11933500016752, 37.67877899972176], [-97.11919799990018, 37.67877699975859], [-97.11919899972507, 37.67869299983521], [-97.11919899972507, 37.67851800016334], [-97.11920100027321, 37.677977000216686], [-97.11920100027321, 37.67773799987626], [-97.11920200009813, 37.67749900018785], [-97.11920299992303, 37.67720099994117], [-97.11920399974795, 37.676900000254406], [-97.11920399974795, 37.676601000079394], [-97.11920399974795, 37.67650800007172], [-97.11920700012101, 37.675900999796035], [-97.11920799994591, 37.675668000019336], [-97.11920999959574, 37.67543399983983], [-97.11921200014386, 37.67520100001861], [-97.11921899981658, 37.67426699973153], [-97.11922700021249, 37.673158000259], [-97.11922899986232, 37.672938000119494], [-97.1183340002599, 37.672926000106024], [-97.11802799993816, 37.672921999864094], [-97.11772900018741, 37.672918000332984], [-97.11743600028446, 37.67291400009068], [-97.11725399981125, 37.672911999969415], [-97.1171020003736, 37.672909999848095], [-97.1169600000834, 37.67290700002151], [-97.11695800043357, 37.67296200014056], [-97.11695300041069, 37.673251999899996], [-97.11695199968746, 37.67334899994174], [-97.11693199959599, 37.67441300008727], [-97.11692999994615, 37.67627599972806], [-97.11692200044855, 37.67760400034511], [-97.1169190000755, 37.67867300017798], [-97.11688200026559, 37.67941700014845], [-97.11688499974031, 37.67954500013263], [-97.11688499974031, 37.67958299974107], [-97.11688499974031, 37.679648999912736], [-97.11688499974031, 37.679748000060194], [-97.11688499974031, 37.679816000020324], [-97.11688100044067, 37.67999899990657], [-97.11687100039494, 37.68054900001385], [-97.11686800002187, 37.68073299982456], [-97.11686899984679, 37.680812000155804], [-97.11687200021986, 37.681048999933736], [-97.11687399986967, 37.68112900023381], [-97.11687899989252, 37.68127699977951], [-97.11928999996167, 37.681281000281906], [-97.11930300038047, 37.68245399985445], [-97.11930900022826, 37.68298999987651], [-97.11922200018961, 37.68299300000632], [-97.11922200018961, 37.68304500034144], [-97.11922200018961, 37.68364999992025], [-97.11923399988518, 37.68364999992025], [-97.11923200023537, 37.684853999805625], [-97.11922999968724, 37.68667799984265], [-97.11921700016674, 37.68667900007316], [-97.11753099982069, 37.68666599991883], [-97.11677000011258, 37.68666100018698], [-97.11679000020408, 37.69396299991806], [-97.11705499961963, 37.69396799986848], [-97.11710300019851, 37.693964000050315], [-97.11724600031364, 37.69395300001621], [-97.11729499981915, 37.693950000329735], [-97.11787999980015, 37.69393599989567], [-97.11818899959663, 37.693929999810386], [-97.1195929999104, 37.69392499985741], [-97.11963700029132, 37.69392499985741], [-97.12022300009723, 37.6939220001698], [-97.12026800030307, 37.69392100003692], [-97.12040700022025, 37.69392300030261], [-97.120453000251, 37.693923999724625], [-97.12049599990871, 37.69392499985741], [-97.12062700032828, 37.693928999677674], [-97.12066900016107, 37.69393099994309], [-97.1208750000254, 37.69392800025573], [-97.12119200021779, 37.693923999724625], [-97.12139499970908, 37.69391600008339], [-97.12146400020437, 37.69391399981751], [-97.12146500002926, 37.694058999760095], [-97.12146400020437, 37.69488099980517], [-97.12146000000641, 37.696517000206654], [-97.12146000000641, 37.699126999918604], [-97.12145900018149, 37.70305399967201], [-97.12145900018149, 37.70429299984791], [-97.12145900018149, 37.70485300017051], [-97.12130900039367, 37.70485200018515], [-97.12088699972097, 37.70485300017051], [-97.12033299970209, 37.70485400015586], [-97.11915900044042, 37.704856000126576], [-97.11796699983879, 37.70485700011189], [-97.11684899975529, 37.70484600027257], [-97.11685100030346, 37.70616399996508], [-97.11685200012835, 37.70710599978727], [-97.11685299995327, 37.70730699970458], [-97.11685299995327, 37.70737300007826], [-97.11685399977817, 37.707547999890885], [-97.11685399977817, 37.70765500004386], [-97.11655400020251, 37.70754000029836], [-97.1122519997479, 37.705915999745656], [-97.10948800039965, 37.70486899993478], [-97.10923399995644, 37.70477799980793], [-97.10820299991158, 37.704788999657346], [-97.10809999997942, 37.70479200032674], [-97.10765599956541, 37.70479700025758], [-97.10765800011356, 37.705471999905136], [-97.10766399996133, 37.707404999936784], [-97.10766700033439, 37.70852100004036], [-97.10772300041089, 37.70852100004036], [-97.10772199968767, 37.70858099972274], [-97.10772300041089, 37.708653999922205], [-97.10772599988563, 37.70886200013522], [-97.10773699975627, 37.70957800006759], [-97.10773400028154, 37.710297999836676], [-97.10773299955832, 37.71052999964596], [-97.10773799958119, 37.71133500001435], [-97.10774299960407, 37.71213900027847], [-97.10776500024367, 37.71572299991209], [-97.10776500024367, 37.71577800025843], [-97.11687499969457, 37.71580799965495], [-97.11696900030421, 37.715810000040634], [-97.11793400022681, 37.71581199971569], [-97.11793199967867, 37.71544699985729], [-97.11793300040192, 37.715426000320825], [-97.11787899997525, 37.715426000320825], [-97.1174539998278, 37.71542700016357], [-97.1174530000029, 37.715153000120196], [-97.11749700038382, 37.715153000120196], [-97.11752199959986, 37.715153000120196], [-97.11752199959986, 37.71509399992124], [-97.11752099977495, 37.71487799992407], [-97.11748399996503, 37.71487799992407], [-97.11745200017798, 37.71487799992407], [-97.11745200017798, 37.71477100025156], [-97.11745200017798, 37.71472099984022], [-97.11745200017798, 37.71460399998229], [-97.11745100035307, 37.71432899988043], [-97.11744899980492, 37.71410900034316], [-97.11744799998002, 37.714034999970835], [-97.11778000024104, 37.71403400010931], [-97.11795099994526, 37.714074000243485], [-97.11797199986165, 37.71410500019048], [-97.11809200041057, 37.7141040003299], [-97.11809099968734, 37.714074000243485], [-97.11808700038769, 37.713969999707636], [-97.11821100023626, 37.713969999707636], [-97.11981399984332, 37.71396499968505], [-97.11999999961616, 37.71396399982263], [-97.11999899979125, 37.713595999785866], [-97.12000100033939, 37.713394999870744], [-97.11999700014142, 37.71308399981504], [-97.12114799983686, 37.7130899997713], [-97.12144900013575, 37.7130899997713], [-97.12145099978557, 37.71387800023259], [-97.12145599980845, 37.7156510001205], [-97.12145499998353, 37.71582099967392], [-97.12198899991093, 37.715822000221905], [-97.12234200008832, 37.715824999733954], [-97.12324799956139, 37.71582799995646], [-97.12562500019368, 37.71583600007559], [-97.1257530002402, 37.71583600007559], [-97.12601299963288, 37.71583699991276], [-97.12601400035608, 37.716597000171866], [-97.12597699964786, 37.71943500033076], [-97.12597699964786, 37.71949499970292], [-97.13053699984532, 37.7195100000713], [-97.13056199995968, 37.72094999997652], [-97.13059999959451, 37.72315099987524], [-97.1306759997625, 37.723152000324276], [-97.1308659997333, 37.723153000062695], [-97.13093400040368, 37.723153000062695], [-97.13113500024512, 37.723153999801106], [-97.1312259995834, 37.72315500025005], [-97.13140899988151, 37.72315599998848], [-97.1316409996851, 37.72315599998848], [-97.13164200040833, 37.72326300034059], [-97.13164499988306, 37.72368399995319], [-97.13165400010391, 37.725601999690525], [-97.13184900009756, 37.725603000106474], [-97.13333500042708, 37.725612000296245], [-97.13333200005403, 37.72503900000532], [-97.13361699956107, 37.72504100014181], [-97.13519999997496, 37.72505300024878], [-97.13519999997496, 37.725078000169425], [-97.13519999997496, 37.72512099987114], [-97.13519900015004, 37.72548200013293], [-97.13519499995208, 37.726816000114795], [-97.13504099996631, 37.72680900016], [-97.12601299963288, 37.726759000057854], [-97.12602600005165, 37.730459000278344], [-97.12606200003667, 37.73801300026247], [-97.12755599986379, 37.738015000048534], [-97.12790300019341, 37.738015000048534], [-97.13065599967102, 37.73801800008265], [-97.13157299991306, 37.73801200001424], [-97.13432499956573, 37.73799600030303], [-97.13524299963267, 37.73799099977094], [-97.13522699973913, 37.73591099991389], [-97.13521800041663, 37.734734000283815], [-97.1332580004342, 37.7347369997405], [-97.13322999994678, 37.73357799978403], [-97.13504400033935, 37.733598999858195], [-97.1352090001958, 37.733598999858195], [-97.13519699960192, 37.73188500009047], [-97.13300499981588, 37.73190099970139], [-97.1329920002954, 37.731900000081055], [-97.13299499977015, 37.73173699997317], [-97.13301499986162, 37.73066899965121], [-97.13302400008246, 37.730457999928], [-97.13303699960294, 37.72932100001105], [-97.13512100033226, 37.72931400029304], [-97.13518800027941, 37.72931499994832], [-97.13518800027941, 37.72935100031742], [-97.13518800027941, 37.72947300001729], [-97.13518699955617, 37.7295750000896], [-97.13518699955617, 37.72976400010308], [-97.13518699955617, 37.72979499987876], [-97.13518699955617, 37.729929999942534], [-97.13518499990634, 37.73037299994373], [-97.13518499990634, 37.730471000217925], [-97.13778500012138, 37.730479000176594], [-97.13954500008728, 37.73048999976309], [-97.13969700042325, 37.730491000112984], [-97.13973199968503, 37.73048999976309], [-97.13973500005807, 37.7307380001474], [-97.13973800043112, 37.73093600028767], [-97.13974000008095, 37.73114199978557], [-97.13974199973077, 37.73133399965694], [-97.13974500010383, 37.73154600006145], [-97.13974699975365, 37.73173800030619], [-97.13974900030178, 37.73193700023429], [-97.13975099995162, 37.73214499973385], [-97.13975400032466, 37.73235300007005], [-97.13975599997447, 37.73254500035363], [-97.1397579996243, 37.73275700013285], [-97.13976299964716, 37.733159999808905], [-97.13976900039327, 37.73338000031429], [-97.13977400041614, 37.73358999992862], [-97.13978000026393, 37.73380099996289], [-97.13978899958644, 37.734133999941875], [-97.1402570002899, 37.73413700013326], [-97.14047800022284, 37.7341379997234], [-97.14079000039239, 37.73414000032459], [-97.14106599967857, 37.7341420002152], [-97.14134299968802, 37.73414299980527], [-97.14158500043567, 37.73414400010577], [-97.141827000285, 37.73414599999634], [-97.14233500027312, 37.734149000187244], [-97.14386400026032, 37.734156999748556], [-97.144311999974, 37.73415999993906], [-97.14436399985253, 37.73415999993906], [-97.14436600040067, 37.73439499980005], [-97.14436899987541, 37.734586999761675], [-97.14437100042355, 37.73479799979646], [-97.14437499972318, 37.73513399970501], [-97.14440599968532, 37.73781400032535], [-97.14440700040856, 37.73792799971578], [-97.1449670002752, 37.73792299988952], [-97.14963299987957, 37.73789099971475], [-97.15287900017499, 37.73789999983192], [-97.15287800035007, 37.73779799986094], [-97.15287400015211, 37.73754799988099], [-97.15287599980192, 37.73600000032609], [-97.15291799963472, 37.731434999670654], [-97.15291400033509, 37.730585000257726], [-97.15291199978694, 37.730016000081086], [-97.15291400033509, 37.72875200006898], [-97.15291400033509, 37.72855500014909], [-97.15291900035795, 37.72787600034749], [-97.15292699985557, 37.7269390001256], [-97.15292699985557, 37.72689399997205], [-97.15292699985557, 37.72681499971529], [-97.1529300002286, 37.72504100014181], [-97.15294100009926, 37.72329199981173], [-97.15296399966549, 37.72221799998699], [-97.15296600021361, 37.72214699986462], [-97.15297799990917, 37.72082799973751], [-97.152979999559, 37.72064900022303], [-97.152979999559, 37.72054900019485], [-97.15298499958188, 37.719556000234626], [-97.15299100032797, 37.718375999896935], [-97.1529939998027, 37.717755000312984], [-97.15299499962762, 37.71739099989467], [-97.15299600035084, 37.71732800007802], [-97.15299600035084, 37.71725999969695], [-97.15299499962762, 37.71702200000344], [-97.1529939998027, 37.71695599969625], [-97.1529939998027, 37.71678900008834], [-97.15299100032797, 37.71600199986485], [-97.15299100032797, 37.71598499982645], [-97.15298999960474, 37.71579500034432], [-97.15298999960474, 37.71568500034667], [-97.15299100032797, 37.71542499976751], [-97.15299899982558, 37.71434800001331], [-97.15300600039659, 37.71187999993844], [-97.15300300002355, 37.71074600023688], [-97.1530149997191, 37.70867799975794], [-97.15301399989418, 37.70765500004386], [-97.15303900000855, 37.703818000262], [-97.15304300020651, 37.70319400017962], [-97.15304700040447, 37.702619999900556], [-97.15304800022939, 37.70231500023088], [-97.15296799986344, 37.70235000019843], [-97.15279200013634, 37.70243899971663], [-97.14907499966274, 37.70406199969933], [-97.14887700019433, 37.704141000055756], [-97.14888700024007, 37.70858799997863], [-97.14888700024007, 37.7086480003174], [-97.14854699958313, 37.70864599973837], [-97.14531399970652, 37.70863100001315], [-97.14437800009622, 37.70864900025156], [-97.1442979997303, 37.70865100011987], [-97.14412100017829, 37.70865499985627], [-97.14407699979735, 37.70865499985627], [-97.1440790003455, 37.708558999726385], [-97.14408099999531, 37.707926000264806], [-97.1443539998068, 37.7079209998344], [-97.1443610003778, 37.70620200014896], [-97.13974099990587, 37.70846300018279], [-97.13974099990587, 37.70805100025569], [-97.13974000008095, 37.70787999998769], [-97.13974000008095, 37.707591999766585], [-97.13974000008095, 37.707494999731374], [-97.1398770003483, 37.70742800022633], [-97.14417800007969, 37.705324000314825], [-97.14436700022559, 37.70523200005558], [-97.1474460001164, 37.70377400027801], [-97.14836500000825, 37.70337599994675], [-97.15295299979482, 37.701386999672195], [-97.1530499998792, 37.701345999764776], [-97.1530499998792, 37.70132599981904], [-97.1530499998792, 37.70130899996758], [-97.15304599968124, 37.700417999868996], [-97.15304300020651, 37.69892299965662], [-97.15304200038159, 37.69872000032291], [-97.15304300020651, 37.69870700014708], [-97.15303800018364, 37.69800999973807], [-97.15303900000855, 37.69763400013623], [-97.15303300016076, 37.696461999781114], [-97.1530280001379, 37.69529600006637], [-97.15302599958976, 37.694674000286476], [-97.15302599958976, 37.69427799968975], [-97.15302499976484, 37.694058999760095], [-97.15302499976484, 37.693966999736276], [-97.1530280001379, 37.69307100024134], [-97.1530289999628, 37.69292400020661], [-97.15303300016076, 37.691343000140684], [-97.15303300016076, 37.691305000159026], [-97.15303800018364, 37.690046999763794], [-97.15304599968124, 37.6867979996849], [-97.15304599968124, 37.686618999724594], [-97.15304700040447, 37.68629800012761], [-97.15304700040447, 37.68599999968119], [-97.15304800022939, 37.68495699970909], [-97.15304800022939, 37.684822000165425], [-97.15304800022939, 37.6847339996618], [-97.15304800022939, 37.68369800013383], [-97.15304800022939, 37.68362000030416], [-97.15304800022939, 37.683416000033766], [-97.15304800022939, 37.68256200025534], [-97.15304800022939, 37.682426999907356], [-97.15304800022939, 37.68233799982797], [-97.15304900005431, 37.68208099974217], [-97.15304900005431, 37.68184100024122], [-97.15304900005431, 37.68175599993554], [-97.1530499998792, 37.67964800029841], [-97.1530499998792, 37.67953099982296]], [[-97.14443099979968, 37.66576899984566], [-97.14443099979968, 37.66595399984239], [-97.14442099975393, 37.66810200034694], [-97.14440900005837, 37.670758999932985], [-97.14440200038567, 37.6721960000232], [-97.14056400043656, 37.67221399986421], [-97.13986200027969, 37.672200000304265], [-97.13986999977729, 37.67096899997668], [-97.13988800021896, 37.66862499976927], [-97.13990199956434, 37.66673700034996], [-97.13990400011248, 37.66629500015793], [-97.13990900013536, 37.665465999685146], [-97.13991300033332, 37.665038999760085], [-97.13991499998313, 37.66490400023854], [-97.13992800040191, 37.66490400023854], [-97.14000799986955, 37.66490299971444], [-97.1401590003806, 37.6649019999014], [-97.14049400011636, 37.66490599986452], [-97.14065599959974, 37.66490800020156], [-97.14118399967936, 37.66490900001453], [-97.14161100037494, 37.66490999982744], [-97.14276899974307, 37.66491200016436], [-97.14307000004196, 37.664912999977275], [-97.14308500011056, 37.664912999977275], [-97.14329799964759, 37.66491399979012], [-97.14329000014997, 37.66576800004427], [-97.14443099979968, 37.66576899984566]]], [[[-97.14461599974761, 37.635848999791016], [-97.1446149999227, 37.63580900014715], [-97.14460700042508, 37.634084999870296], [-97.14460400005204, 37.633506000064564], [-97.14459700037935, 37.6322039996703], [-97.14458099958752, 37.628975000159144], [-97.14457899993769, 37.628571000113865], [-97.14303099968387, 37.62858899985974], [-97.13996000018898, 37.628625000049865], [-97.13889499980894, 37.62864400008385], [-97.13691700028316, 37.62866899978424], [-97.13665899964198, 37.628673000276194], [-97.1366600003652, 37.628829000086256], [-97.13666100019012, 37.628966000333484], [-97.13590299995676, 37.628975000159144], [-97.13557999991657, 37.62897899992321], [-97.13552499966498, 37.62897899992321], [-97.13542400028095, 37.62897899992321], [-97.13542299955773, 37.628889999786125], [-97.13542199973281, 37.62874199965792], [-97.13537599970205, 37.62874299995784], [-97.13531600032591, 37.62874199965792], [-97.13521300039375, 37.62874199965792], [-97.13479300026918, 37.628739000181056], [-97.13446000018327, 37.62873700029262], [-97.13416599955707, 37.62873499969266], [-97.13370799979766, 37.62873299980406], [-97.13332399965812, 37.62873099991545], [-97.13292399962504, 37.628727999726685], [-97.13256100030019, 37.62872599983795], [-97.13175700003607, 37.62872200006026], [-97.13105400005428, 37.62871800028235], [-97.13079799996123, 37.62871599968188], [-97.12985700032809, 37.62871000001448], [-97.12966599963406, 37.62870899971416], [-97.12925700027847, 37.628706999824864], [-97.12904600039126, 37.62870600023598], [-97.12871800032819, 37.628704000346595], [-97.12849499984713, 37.6287030000462], [-97.12787200023128, 37.628699000267275], [-97.12774800038272, 37.62869799996676], [-97.12721500028024, 37.62869499977672], [-97.12617199964153, 37.62868900010763], [-97.12616499996884, 37.62898299968702], [-97.1261499999002, 37.62967599998904], [-97.12616499996884, 37.63121699992504], [-97.12617500001457, 37.63221899991127], [-97.12618500006032, 37.63326299999642], [-97.12619699975589, 37.63442400026487], [-97.12621099999959, 37.63582300016719], [-97.12621099999959, 37.63590700023226], [-97.12141599962547, 37.635893000228045], [-97.1179049999145, 37.63588200012123], [-97.1177280003625, 37.63588099991739], [-97.11720000028289, 37.63587800001733], [-97.11702399965748, 37.63587699981345], [-97.11702399965748, 37.635896000127566], [-97.11702399965748, 37.63595399982078], [-97.11702399965748, 37.63597400031774], [-97.11702399965748, 37.63614600010124], [-97.11702700003055, 37.63666099971502], [-97.11702899968036, 37.636834000233335], [-97.1170310002285, 37.637238999649384], [-97.11703700007628, 37.63845499975971], [-97.11703999955101, 37.63884499997572], [-97.11703999955101, 37.63886099975118], [-97.11703299987832, 37.641154999826874], [-97.1170320000534, 37.641607000154494], [-97.11701899963461, 37.64313599964441], [-97.11703799990119, 37.64433100021906], [-97.11705999964249, 37.646569000180115], [-97.11706999968824, 37.647622999669224], [-97.11706600038859, 37.64803899974677], [-97.11704700012203, 37.65020500031607], [-97.11703999955101, 37.650334000196054], [-97.11705600034286, 37.650334000196054], [-97.11738299968269, 37.65033300018679], [-97.1184120000777, 37.65033100016829], [-97.11875600003431, 37.65033100016829], [-97.11901100030242, 37.65033000015899], [-97.11977899968322, 37.650328000140405], [-97.12003499977625, 37.650328000140405], [-97.12068699970442, 37.65032600012177], [-97.12264699968685, 37.650323000093685], [-97.12330000033825, 37.65032200008434], [-97.12354700021044, 37.65032200008434], [-97.12472200019535, 37.65031500001827], [-97.12798299966106, 37.65029699984538], [-97.12898799976664, 37.6502989998648], [-97.13028699960007, 37.65030299990348], [-97.13041100034695, 37.650303999913135], [-97.13139600036104, 37.65030599993238], [-97.13435300005314, 37.650314000008755], [-97.1350469998141, 37.650316000027715], [-97.13533899989214, 37.650317000037205], [-97.13533899989214, 37.65030199989386], [-97.13533899989214, 37.650259000177336], [-97.13533899989214, 37.650245000032676], [-97.13534499973993, 37.64923999982416], [-97.1353649998314, 37.64622500010838], [-97.13537200040241, 37.64522100034966], [-97.13537200040241, 37.64519300029225], [-97.13537200040241, 37.64510900005663], [-97.13537300022732, 37.645082000036915], [-97.13538699957272, 37.643772999797456], [-97.13543000012874, 37.640028999660785], [-97.13543099995366, 37.6398470002492], [-97.13544199982431, 37.63853899969466], [-97.1354429996492, 37.63838100000933], [-97.13544699984716, 37.63790699964861], [-97.13544699984716, 37.637867999866984], [-97.13544799967208, 37.63779499970998], [-97.1354490003953, 37.63776600023188], [-97.1354490003953, 37.63775000022061], [-97.1354490003953, 37.637739999856144], [-97.1354490003953, 37.637702000166186], [-97.13545199987004, 37.63736699981195], [-97.13546100009087, 37.63636199964589], [-97.13546500028883, 37.63602799985426], [-97.1354639995656, 37.636009999776], [-97.1354639995656, 37.63595699971783], [-97.1354639995656, 37.63593999982537], [-97.13535999980854, 37.63593900033371], [-97.1322950001614, 37.63592800023375], [-97.13229699981125, 37.63523900003678], [-97.13229799963614, 37.6351669996444], [-97.13229799963614, 37.63508499988325], [-97.13229900035937, 37.6348549999835], [-97.1341460003639, 37.63486099986622], [-97.1341460003639, 37.63479000003745], [-97.13414399981576, 37.634519000087494], [-97.13472100029917, 37.63452099982039], [-97.13524900037876, 37.63452200004247], [-97.13535200031093, 37.6345230002646], [-97.13545500024308, 37.6345239997753], [-97.13545500024308, 37.63444900015505], [-97.13544199982431, 37.63214299984481], [-97.13544799967208, 37.63081400024477], [-97.13544400037244, 37.630505000210164], [-97.13544199982431, 37.630384999698435], [-97.13549399970285, 37.63038400013206], [-97.13553399988582, 37.63038299985423], [-97.13617999996619, 37.630376000043526], [-97.13618599981397, 37.631473999697405], [-97.13642900038653, 37.6314710003308], [-97.13684299976501, 37.6314669999894], [-97.13687899975002, 37.631465999726196], [-97.13693900002446, 37.631465999726196], [-97.13693999984937, 37.63160499990376], [-97.13694400004734, 37.632184999835], [-97.13708600033756, 37.632183000039234], [-97.13708799998737, 37.63260600010197], [-97.13708899981229, 37.63269000024664], [-97.13708999963721, 37.63291699971374], [-97.13709100036043, 37.633083000144964], [-97.13709200018533, 37.63315100017174], [-97.13709499966008, 37.63369500027967], [-97.1380269999707, 37.63367900010318], [-97.13804200003933, 37.63596900001615], [-97.1399400000975, 37.63593599972459], [-97.14014000011402, 37.63593100013179], [-97.14117100015888, 37.635906000028825], [-97.14122200021251, 37.63590499982532], [-97.14146800025979, 37.635900000230485], [-97.14220899987642, 37.635886999717265], [-97.14229599991506, 37.6358860002249], [-97.1438199998794, 37.635858999698605], [-97.14441599973105, 37.63585100019947], [-97.14461599974761, 37.635848999791016]]], [[[-97.1124269996501, 37.653959999896706], [-97.11208799971638, 37.65396099985713], [-97.11081200034747, 37.65396299977787], [-97.11018899983331, 37.653963999738195], [-97.10998700016694, 37.653963999738195], [-97.10997399974815, 37.65396599965885], [-97.10994100013619, 37.653963999738195], [-97.10823300004883, 37.65396800029068], [-97.10790199961272, 37.65396800029068], [-97.10789400011512, 37.65478500033793], [-97.10787700039668, 37.65766399979861], [-97.10787499984853, 37.65792600007199], [-97.10785999977993, 37.65996500004265], [-97.10785899995501, 37.660012999933706], [-97.10785700030519, 37.660486000163544], [-97.10785099955909, 37.661412999933326], [-97.10785099955909, 37.661447000144356], [-97.10784600043455, 37.662015999838694], [-97.10782700016797, 37.66485699976811], [-97.10810300035249, 37.66485199998868], [-97.10865599964812, 37.66485199998868], [-97.11031699987983, 37.66485400032712], [-97.1104840002844, 37.66485500014081], [-97.11087099989871, 37.66485599995449], [-97.11115100028117, 37.66485699976811], [-97.11199200035522, 37.6648599999201], [-97.1122729996643, 37.66486200025832], [-97.11233200011385, 37.66486200025832], [-97.11233399976366, 37.664783999825694], [-97.11233499958858, 37.66428200016694], [-97.11234399980941, 37.6576299999885], [-97.11235999970295, 37.65688799975324], [-97.11241999997739, 37.65427099973168], [-97.1124269996501, 37.653959999896706]]], [[[-97.12155299989281, 37.66120899976225], [-97.11985300020139, 37.66121000033615], [-97.11731599973554, 37.66121100019886], [-97.11731599973554, 37.661221000247984], [-97.1171099998712, 37.661221000247984], [-97.11711099969614, 37.66165899993785], [-97.11710499984832, 37.66178699997621], [-97.11700100009126, 37.66407400005018], [-97.11696699975609, 37.66483699993714], [-97.11703799990119, 37.66483699993714], [-97.11725299998635, 37.66483799975106], [-97.11732499995637, 37.66483900027604], [-97.11758199987432, 37.664840000089924], [-97.11831400016841, 37.6648440000564], [-97.11834900032852, 37.6648440000564], [-97.11861399974407, 37.664848999836366], [-97.11889300030164, 37.66485299980234], [-97.11973000017773, 37.66486799985065], [-97.12000899983698, 37.66487300034013], [-97.12024300018872, 37.66487499996693], [-97.1203489995956, 37.664877000304806], [-97.12101899996544, 37.66488500023354], [-97.1215450003952, 37.66488500023354], [-97.12154600022012, 37.66486399988548], [-97.12154600022012, 37.66479099994989], [-97.12154700004504, 37.66459799994008], [-97.12155299989281, 37.66120899976225]]], [[[-97.11688499974031, 37.7184040000576], [-97.11661699995172, 37.718582000222504], [-97.11533800020975, 37.71912400004699], [-97.11480500010728, 37.719351000275424], [-97.11427500037784, 37.71958099987889], [-97.11405500026981, 37.71977699972504], [-97.11311899976123, 37.720609000085844], [-97.11313200018002, 37.7229620000383], [-97.11313300000494, 37.72306500029119], [-97.11330100023442, 37.72307999993667], [-97.11590899994704, 37.72306500029119], [-97.11687899989252, 37.723060000171856], [-97.11688499974031, 37.7184040000576]]]]}, "properties": {"id": "covered-us-ks-andover", "status": "covered", "jurisdiction": "Andover", "country_id": "us", "state_id": "ks", "area_type": "city", "note": "Covered by public tree inventory for Andover; geometry from official jurisdiction boundary."}}]}