{"type": "FeatureCollection", "features": [{"type": "Feature", "geometry": {"type": "Polygon", "coordinates": [[[-116.85289999984442, 47.699118000299045], [-116.85289900001953, 47.69876199973461], [-116.8528970003697, 47.698288000040144], [-116.85268999978216, 47.698266999953965], [-116.85219900041078, 47.69829100005173], [-116.85173699955511, 47.6983789997111], [-116.85149600042901, 47.69838699972776], [-116.8511990003281, 47.69841199977181], [-116.85102199987777, 47.69835100024783], [-116.85092899999134, 47.698405999762336], [-116.85087499956468, 47.69843799980489], [-116.85065899965461, 47.698442999809814], [-116.8500030004268, 47.698541999807674], [-116.84942199974545, 47.69876599971371], [-116.8488900003662, 47.699073000215826], [-116.84845699982282, 47.699187000028694], [-116.84816700029293, 47.69929800024337], [-116.84758700033478, 47.69943199981182], [-116.84700200035377, 47.69953500027021], [-116.84544300022931, 47.69985200021626], [-116.84414000019792, 47.70006600023818], [-116.8434149995765, 47.700172999919765], [-116.84270400009711, 47.700322999702564], [-116.84226600042918, 47.700303999762], [-116.84202700005459, 47.70027400019178], [-116.84196400030542, 47.7002079999883], [-116.84175000004517, 47.700167000112906], [-116.84167800007513, 47.700133999953906], [-116.84160299973207, 47.70004099977806], [-116.84136599990562, 47.69996400019606], [-116.84115199964536, 47.69993599977022], [-116.84099099998687, 47.699936999742526], [-116.84095099980391, 47.69994800004095], [-116.84059000012887, 47.699864999875395], [-116.84041600005162, 47.69972599972471], [-116.84025500039314, 47.69978100020705], [-116.8400779999428, 47.69969799977563], [-116.84001600001854, 47.69970099970613], [-116.83993099962971, 47.69966399994682], [-116.8398529998119, 47.699487999980654], [-116.83946500037271, 47.699577999996364], [-116.83935900006749, 47.699427999883824], [-116.83873200025371, 47.69929900022788], [-116.83852899986412, 47.69930300016578], [-116.83845900044221, 47.69928599982302], [-116.83828799983968, 47.69922200015456], [-116.83802000005109, 47.69920399979909], [-116.83799699958655, 47.69914499996753], [-116.8377890000724, 47.69905399981972], [-116.83753200015447, 47.69904599990546], [-116.83738499984135, 47.699010000275955], [-116.83731000039658, 47.698966000090465], [-116.83715200021287, 47.69891499992521], [-116.83676899989823, 47.69884699982871], [-116.83648100001813, 47.69876199973461], [-116.83550400039995, 47.69856399978169], [-116.83503099967363, 47.69848699983208], [-116.83469400028805, 47.698431999798416], [-116.83402499974314, 47.69832000015512], [-116.83358700007521, 47.69829900008188], [-116.83309199960759, 47.698217999720065], [-116.83207499980644, 47.69817000005084], [-116.83036500006926, 47.69804799976067], [-116.82976900021758, 47.698005999991175], [-116.82972800020968, 47.69795800012683], [-116.82940599999442, 47.6979359998971], [-116.82922600006938, 47.69799299986856], [-116.82861900034706, 47.69796400018785], [-116.82784400039526, 47.697914000262706], [-116.82752899985266, 47.697894000037394], [-116.82621599977554, 47.69779600003163], [-116.82583500000901, 47.69761899978888], [-116.82550000027325, 47.697737999830416], [-116.8254759999838, 47.697781999843016], [-116.82506300043025, 47.6977660002275], [-116.82501599967627, 47.6976899997193], [-116.82467900029069, 47.69750200011833], [-116.82405999997448, 47.69768500024683], [-116.82356200003213, 47.697774999747324], [-116.82303599960233, 47.697838999982785], [-116.82242100038242, 47.69780500015089], [-116.82219299987848, 47.69772400023081], [-116.82170499998186, 47.69735100005728], [-116.82044600033137, 47.69674799970582], [-116.82004600029828, 47.6966350000372], [-116.81972400008301, 47.69633900014567], [-116.81926399977547, 47.6963520000761], [-116.81893800026053, 47.69622400010839], [-116.81775099968179, 47.69579899984662], [-116.8169849999508, 47.69548500022078], [-116.81677900008648, 47.69533200024361], [-116.81659999998634, 47.695244999736296], [-116.81619400010547, 47.695035000144586], [-116.81591200007315, 47.69484200029512], [-116.8156819999194, 47.69476100000452], [-116.81556499974353, 47.694675999900134], [-116.81555200022305, 47.6945820001925], [-116.81529399958187, 47.69454200020115], [-116.81503099981614, 47.69442200004313], [-116.8149289997089, 47.69442699982847], [-116.81420499981071, 47.694089000198744], [-116.81353799981393, 47.69375899970954], [-116.81338300000323, 47.69365700002628], [-116.8128089998929, 47.6932050002976], [-116.8121689996603, 47.69273799983537], [-116.81164099958069, 47.692391999811385], [-116.81108800028504, 47.69208099999248], [-116.80989900005645, 47.691546999933735], [-116.80963200009278, 47.69142899980591], [-116.80939600009121, 47.69129000014302], [-116.80915000004393, 47.69110999976367], [-116.80892200043827, 47.69104900016263], [-116.80881000028529, 47.69095899993704], [-116.808628999637, 47.690886999765674], [-116.80847200017648, 47.6907980000128], [-116.80834699960471, 47.69078499990706], [-116.80815199961104, 47.690697000129596], [-116.80813499989259, 47.69067899985446], [-116.80803100013553, 47.69056299988086], [-116.80783699996675, 47.69046399985048], [-116.80733800019948, 47.69043500021523], [-116.80722699987139, 47.69033400023373], [-116.80677400013485, 47.69020099981601], [-116.80637900012465, 47.68998200021234], [-116.80459599969423, 47.68917900024773], [-116.80390600013122, 47.688982999947115], [-116.80272699994838, 47.68854099971265], [-116.80146300027502, 47.6881599999932], [-116.80005599958824, 47.68765200027097], [-116.7996870004156, 47.68746299994592], [-116.79929700042825, 47.687223000033995], [-116.79860500031715, 47.68657199981497], [-116.79854699969249, 47.686516999912826], [-116.79840899960024, 47.686387000133536], [-116.79820299973592, 47.686193000092985], [-116.79781699994655, 47.68559599979628], [-116.79748300003571, 47.68482399970434], [-116.79742100011141, 47.6844849998555], [-116.79895099992355, 47.68447999972169], [-116.80040799994073, 47.68447599985624], [-116.80071099988945, 47.68447399992337], [-116.80119700013624, 47.68447199999048], [-116.80164999987278, 47.68481400010606], [-116.80184999988934, 47.68486399989267], [-116.801896999745, 47.6850750001817], [-116.80247400022839, 47.6848560002203], [-116.80306900025514, 47.68548000000742], [-116.8033810004247, 47.68568800009186], [-116.80363099977163, 47.685733999876426], [-116.80388500021483, 47.685522000190126], [-116.80418700033862, 47.68558199996058], [-116.80432299988276, 47.68566900026102], [-116.80400200039071, 47.68592000030073], [-116.8047770003425, 47.68611900012433], [-116.8048540003354, 47.686330999803175], [-116.80491700008459, 47.686387000133536], [-116.80488899959717, 47.686779999778], [-116.80488500029753, 47.686830999717905], [-116.80491600025967, 47.68696400026335], [-116.8049179999095, 47.686974000054214], [-116.80505400035194, 47.68709199998154], [-116.80518300022337, 47.68708599987892], [-116.80541900022492, 47.68721999999031], [-116.8056569998763, 47.686871999799436], [-116.8057630001815, 47.686717999724614], [-116.80636599970587, 47.68717199987264], [-116.80598900013733, 47.68765799970375], [-116.80610499958996, 47.68774099995009], [-116.80664400043852, 47.68802299988042], [-116.80689499961036, 47.68816599997228], [-116.80729600036669, 47.687498000080176], [-116.80738699970496, 47.687347000075974], [-116.80764699999597, 47.68691599991009], [-116.80774300025543, 47.68675599982459], [-116.80828999970328, 47.686747000217174], [-116.80829100042652, 47.686701000116514], [-116.80829100042652, 47.686688999820625], [-116.80829499972617, 47.686600999783956], [-116.80829899992412, 47.686516000287924], [-116.80818099992335, 47.68651800014245], [-116.80766000041476, 47.686529000248285], [-116.80765899969153, 47.68649099998288], [-116.8076629998895, 47.68646800012709], [-116.80766399971439, 47.686332000036366], [-116.80765200001885, 47.686061000238965], [-116.80764699999597, 47.685957999772626], [-116.80841799974982, 47.68595700013697], [-116.80842199994777, 47.685659999861336], [-116.80840500022931, 47.68551500026282], [-116.80837300044229, 47.68534800016324], [-116.80830899996987, 47.685200999792464], [-116.80826600031214, 47.68510300012148], [-116.80818900031927, 47.68486000005662], [-116.8081209996489, 47.68489000002885], [-116.80808700021201, 47.68490999979913], [-116.80731999975782, 47.684960000098435], [-116.8073750000094, 47.684817000288135], [-116.80724500031307, 47.68413700016483], [-116.80777300039264, 47.68408999990526], [-116.8079180001576, 47.684078000218214], [-116.8078119998524, 47.683811999794365], [-116.80767100028542, 47.68382299986608], [-116.80719599990925, 47.68386999976145], [-116.8071840002137, 47.68382499982386], [-116.80712399993922, 47.68349900024589], [-116.806881000265, 47.68223399978265], [-116.80684600010488, 47.68141099978085], [-116.80680099989904, 47.68120800002408], [-116.80679300040144, 47.68117200017543], [-116.80671800005835, 47.681397000031566], [-116.80664799973816, 47.68160799982937], [-116.80655599967666, 47.68159299980886], [-116.80640599988882, 47.68157099993227], [-116.80642900035339, 47.68152199973389], [-116.80643699985096, 47.68149900010631], [-116.80648899972952, 47.681359999984785], [-116.80651800004183, 47.681250999743575], [-116.80656700044563, 47.68110399992311], [-116.80674300017272, 47.680567999883465], [-116.80676699956386, 47.68046700014852], [-116.8067919996782, 47.68039000008751], [-116.80682199981544, 47.68023699997464], [-116.80692499974761, 47.67988700026259], [-116.80700500011353, 47.6796319999875], [-116.80713800018293, 47.679301999951576], [-116.80729200016873, 47.679025999869204], [-116.80745100017738, 47.67877799984704], [-116.80730700023734, 47.67872100004117], [-116.80726299985642, 47.67868300013602], [-116.80724399958984, 47.678630999711565], [-116.80722500022158, 47.67855300018745], [-116.80722699987139, 47.67850200001676], [-116.80724500031307, 47.67844600029378], [-116.80728600032094, 47.6783929998526], [-116.80734400004727, 47.67835099997825], [-116.8073950001009, 47.67830399994916], [-116.80744799980432, 47.67826400017418], [-116.80742900043609, 47.67804899979977], [-116.80720699977991, 47.67745899984722], [-116.80720099993215, 47.677446000045826], [-116.8072260000465, 47.6771130000746], [-116.80724399958984, 47.676788999909924], [-116.80731100043529, 47.676456999797296], [-116.80732700032881, 47.67638100029057], [-116.80733800019948, 47.67627199992934], [-116.80735599974282, 47.67627499999782], [-116.80759799959215, 47.67629199997937], [-116.80822199993122, 47.672684000218844], [-116.8052500001705, 47.672280000152504], [-116.80368199982526, 47.672065999823445], [-116.79485299968343, 47.670863999939726], [-116.79465500021503, 47.670863000014826], [-116.79392499957076, 47.67086000024012], [-116.79297100041711, 47.670855999935284], [-116.79173199995981, 47.67084999977997], [-116.79133500029978, 47.67080500010524], [-116.78856799968015, 47.670496000282704], [-116.78652499985704, 47.67026800018619], [-116.78641500025219, 47.67013200020619], [-116.78640100000848, 47.669518000243826], [-116.78639500016071, 47.669208000103865], [-116.78740299974099, 47.66705400016718], [-116.78790099968337, 47.66538800013981], [-116.78806399989001, 47.66484299982204], [-116.78817799969282, 47.66313000022917], [-116.78766399985692, 47.66175900007432], [-116.78700299970794, 47.66122399987073], [-116.78652800023009, 47.660841000071485], [-116.78491499967897, 47.6602360002703], [-116.78410000044252, 47.66007799969867], [-116.78259900004439, 47.65978500027958], [-116.7824040000507, 47.65979200002884], [-116.78225099988983, 47.659797000108426], [-116.78117600036236, 47.659668999976766], [-116.78011199980726, 47.6595410001363], [-116.77874600002666, 47.659474999812296], [-116.77813400028148, 47.6594799999223], [-116.77653599979897, 47.659601000138395], [-116.7723709996117, 47.66015299982665], [-116.76956399970743, 47.660752999997065], [-116.76936000039126, 47.66079699975032], [-116.7683789996768, 47.661213999984355], [-116.76811900028412, 47.66132399983912], [-116.76768699956567, 47.661874999968546], [-116.76786599966582, 47.66248800021483], [-116.7678580001682, 47.663509999978295], [-116.7674859997242, 47.6637979999707], [-116.7671259998741, 47.66394899977287], [-116.7668589999104, 47.663928999832194], [-116.7666470001983, 47.663913000116096], [-116.76471900000293, 47.663321999983246], [-116.76477000005653, 47.66593799970356], [-116.76477199970637, 47.66606700021082], [-116.76465500042882, 47.66604899990593], [-116.76447499960545, 47.666012999882504], [-116.76415400011341, 47.66596900029068], [-116.76407100027272, 47.665957000065596], [-116.76394300022618, 47.66594699987591], [-116.76320000006145, 47.6658549998558], [-116.76305100009854, 47.66583600006158], [-116.76263699982174, 47.6657659997412], [-116.76201000000793, 47.66565900024543], [-116.76117800015471, 47.6654629998991], [-116.7611329999489, 47.66539899986119], [-116.76091799986372, 47.665415999756036], [-116.76024500001917, 47.66523600023266], [-116.76012600019348, 47.66520399978188], [-116.7593100002338, 47.66496699982164], [-116.75887400021571, 47.664795000289566], [-116.75824800022681, 47.66458699978888], [-116.75796399964635, 47.6644140001663], [-116.75782899992716, 47.66436700028871], [-116.75748499997056, 47.66424600022886], [-116.75674900037681, 47.66395500011661], [-116.75612199966469, 47.66370000002557], [-116.75601600025779, 47.66365699975704], [-116.75594699976251, 47.663627999738786], [-116.75576199981458, 47.663549000108084], [-116.75568399999679, 47.66349699972694], [-116.75560500035407, 47.66341599976292], [-116.75559199993528, 47.663376000070436], [-116.7556360003162, 47.663155999701516], [-116.75566200025547, 47.66311699988312], [-116.75559600013322, 47.66304299985284], [-116.7555369996837, 47.663011999948], [-116.75412700042047, 47.66253000015181], [-116.75383699999226, 47.66244099981314], [-116.75379599998436, 47.662427999900544], [-116.7537430002809, 47.6624129998112], [-116.75336400016425, 47.662348000180884], [-116.75315800029992, 47.66225800004727], [-116.75307799993396, 47.66226099971139], [-116.75279400025184, 47.6623869999688], [-116.75272499975655, 47.662358999937894], [-116.75270300001523, 47.662321000217624], [-116.75274999987091, 47.66214600016171], [-116.75274599967294, 47.662053000003915], [-116.75268799994662, 47.66195100003071], [-116.75268000044902, 47.66194399996589], [-116.7524319998536, 47.661725999812155], [-116.75229700013439, 47.66164299992229], [-116.75214200032369, 47.661605000285874], [-116.75195800020067, 47.66155999990051], [-116.75179599981895, 47.66156999972062], [-116.7516589995516, 47.661611000294], [-116.7515399997259, 47.66175099988433], [-116.75146199990812, 47.661755000282], [-116.75083900029227, 47.661441999700685], [-116.75085199981272, 47.6613759999648], [-116.75086199985849, 47.66132700016191], [-116.75069700000206, 47.66095799970001], [-116.75058999987192, 47.66091299996702], [-116.75057800017636, 47.66090199990534], [-116.75039900007621, 47.66084399981699], [-116.75002900018035, 47.66075599974768], [-116.74954299993355, 47.66079100025368], [-116.74899499976246, 47.66089699993158], [-116.74880999981455, 47.66089699993158], [-116.74847900027673, 47.66094899987754], [-116.74825499997077, 47.66091900005464], [-116.74783900004414, 47.660853000262655], [-116.74759200017196, 47.660878000147854], [-116.747263000284, 47.660821000150094], [-116.74648800033215, 47.66062900027302], [-116.74631699972963, 47.6605830001346], [-116.7461600002691, 47.66054400020909], [-116.74550099976994, 47.66037999981568], [-116.74541600027943, 47.6603590001966], [-116.74492599983466, 47.660217000245964], [-116.74326799997604, 47.659736000193526], [-116.74249399984912, 47.65942099992523], [-116.74210899988464, 47.65923200018305], [-116.74159599987365, 47.65897999986598], [-116.74108600023573, 47.65876899992781], [-116.74082099992187, 47.658907999724825], [-116.74076300019554, 47.65893800009824], [-116.74031999960646, 47.65916899991529], [-116.74022300042037, 47.65923600016868], [-116.74002000003078, 47.6593760000775], [-116.7398309998849, 47.659473000131214], [-116.7392109997438, 47.659773999980274], [-116.73886799961211, 47.65992499992631], [-116.73873399971782, 47.659982999825544], [-116.73878499977145, 47.66002299969767], [-116.73882400012951, 47.66005300003544], [-116.7390840004205, 47.660259999717915], [-116.73886799961211, 47.660383000192724], [-116.73887699983295, 47.6606370000299], [-116.73827599995842, 47.66062300015203], [-116.73770699987092, 47.66060900027046], [-116.73770900041909, 47.660683000120784], [-116.73771199989379, 47.661019000002256], [-116.73771500026685, 47.66128700007884], [-116.73772399958935, 47.6621149997242], [-116.73695700003347, 47.66218500010052], [-116.73606999992867, 47.6622670002491], [-116.73541600035071, 47.66232600005501], [-116.7343960001765, 47.6624129998112], [-116.73241600010256, 47.66168999983241], [-116.7324169999275, 47.66176299986634], [-116.7324189995773, 47.662774999715666], [-116.7324189995773, 47.662887000066796], [-116.7324189995773, 47.663007000176314], [-116.73242000030054, 47.66328499982403], [-116.73242100012546, 47.663886999810806], [-116.73242199995038, 47.66414300025194], [-116.73252700043068, 47.666443999725296], [-116.73253599975318, 47.66692100028286], [-116.73255599984468, 47.6679339999367], [-116.732621000142, 47.671034000197025], [-116.7326360002106, 47.67169399993298], [-116.73293599978626, 47.6716829997235], [-116.73295000002997, 47.67167499984466], [-116.7331359998028, 47.671624000210045], [-116.73338500022317, 47.67157700017055], [-116.73373300037768, 47.67160500009619], [-116.73421200005349, 47.67168099990513], [-116.73439500035158, 47.67167800017744], [-116.73584200032305, 47.67165700026395], [-116.7366699999783, 47.67164500013681], [-116.73712000024013, 47.67165000029095], [-116.73738499965566, 47.67164899977621], [-116.73896999971939, 47.67163999998218], [-116.73899700038186, 47.67163999998218], [-116.73929000028483, 47.671526999747435], [-116.73962099982262, 47.671398999946135], [-116.73966600002846, 47.671382000185204], [-116.74024599998658, 47.671398999946135], [-116.74045400039904, 47.67133900019583], [-116.74082299957168, 47.671232999944166], [-116.74208100029556, 47.67097900024556], [-116.74241900040437, 47.670863999939726], [-116.74263600013937, 47.670674999886025], [-116.74274800029235, 47.67057700014881], [-116.742787999577, 47.670543000085885], [-116.7432610003033, 47.670129999723486], [-116.7436880001006, 47.66992000002876], [-116.74374699965182, 47.6699080001071], [-116.7441049998521, 47.66993299989039], [-116.74421199998224, 47.670112000214836], [-116.74456900035761, 47.67011899978924], [-116.7448849998268, 47.67030700010616], [-116.74522899978336, 47.6704350001661], [-116.74574699981724, 47.67032999982817], [-116.74605300013899, 47.669995999871816], [-116.74625300015552, 47.66958200007073], [-116.7465190002943, 47.66949999991917], [-116.74664999981555, 47.66934799988771], [-116.74696299981, 47.66941599973365], [-116.74724499984231, 47.66937299993924], [-116.74780700025711, 47.66958200007073], [-116.74800800009855, 47.669656999853046], [-116.74847000005592, 47.669693999730185], [-116.74876799998175, 47.66965300006095], [-116.74881800021045, 47.66964599981915], [-116.74895499957951, 47.669600999711214], [-116.74899300011265, 47.6695959999657], [-116.74905599986184, 47.66956800017201], [-116.74910699991547, 47.6695499998646], [-116.74919700032713, 47.669515999737555], [-116.74927000012205, 47.66948999980336], [-116.74931799980264, 47.6694610000011], [-116.74935100031293, 47.66942300000633], [-116.74936600038154, 47.66939600007286], [-116.74936800003138, 47.66938100017096], [-116.74939399997065, 47.669366000264795], [-116.7494269995826, 47.66935199970318], [-116.7494619997427, 47.669329000155116], [-116.74950600012363, 47.669310999765315], [-116.74955700017726, 47.669296999793914], [-116.74961599972848, 47.66928199986359], [-116.74966500013227, 47.66926599997349], [-116.7497220000337, 47.66924500029932], [-116.74977300008733, 47.66923500013465], [-116.74981699956994, 47.66922000018648], [-116.74992100022531, 47.669215999755984], [-116.74996100040832, 47.66922499996806], [-116.74999800021821, 47.66923400017854], [-116.75002699963221, 47.669240999870695], [-116.75006400034046, 47.669238000002764], [-116.75007799968583, 47.66925000007847], [-116.75007600003603, 47.66926200015141], [-116.75009799977732, 47.66928199986359], [-116.75010500034833, 47.669295999839036], [-116.75010799982307, 47.66930899985604], [-116.7501100003712, 47.669320999915435], [-116.75011500039409, 47.66933599983454], [-116.75013299993743, 47.66935999993812], [-116.75013299993743, 47.66937100003234], [-116.75013600031049, 47.669384000030725], [-116.75014299998317, 47.6694019997904], [-116.75014600035622, 47.66942399995878], [-116.75014600035622, 47.66943899984832], [-116.75015300002892, 47.669459000097575], [-116.7501660004477, 47.66947399997701], [-116.75015999970162, 47.669483000144595], [-116.75015399985384, 47.66949899996819], [-116.75014999965586, 47.66952000014509], [-116.75014999965586, 47.669535000007], [-116.750152000204, 47.66954700001442], [-116.7501589998767, 47.669563999768144], [-116.75015700022689, 47.66957399986978], [-116.75015499967876, 47.66958599986823], [-116.75015600040199, 47.669597999863925], [-116.75014899983097, 47.66961900000099], [-116.75014999965586, 47.66963599973126], [-116.75018300016615, 47.66963800023296], [-116.75017700031836, 47.66966300014557], [-116.75014399980809, 47.66967200028052], [-116.75013499958727, 47.669678999913934], [-116.75015700022689, 47.66968800004617], [-116.75054800003913, 47.66962700019504], [-116.75077200034511, 47.66960400016323], [-116.75092600033089, 47.66959000027041], [-116.75103299956271, 47.66958000017185], [-116.75109700003514, 47.66957399986978], [-116.75192200021564, 47.6694409997526], [-116.7522009998749, 47.66939500011984], [-116.75220900027082, 47.669425999863634], [-116.75221400029369, 47.6694489999739], [-116.75224000023296, 47.669532000155954], [-116.7522579997763, 47.669588999716204], [-116.75227700004288, 47.66969199983559], [-116.75228700008864, 47.66974799987978], [-116.75230899982994, 47.66981499986453], [-116.7523349997692, 47.669895000239286], [-116.75236599973134, 47.670051000254354], [-116.75242900037884, 47.67047599982591], [-116.75245699996795, 47.67057600021847], [-116.75250800002156, 47.6707570000062], [-116.75252700028814, 47.670903000019194], [-116.75256400009806, 47.67100599996501], [-116.75259300041039, 47.671173000003044], [-116.75270600038829, 47.67157399983196], [-116.75272599958144, 47.67164600004668], [-116.75243000020376, 47.67164400022688], [-116.75204799971405, 47.67164699995652], [-116.7514469998395, 47.6716549998397], [-116.75124699982294, 47.67165800017363], [-116.75101199964632, 47.6716739999353], [-116.75093700020155, 47.6716739999353], [-116.75092299995787, 47.6716739999353], [-116.75085799966051, 47.6716739999353], [-116.75088600014794, 47.67204300026163], [-116.75090700006433, 47.67220699970358], [-116.75047900044217, 47.672198999905056], [-116.75035999971816, 47.67219700010646], [-116.75015499967876, 47.672192999904105], [-116.75016200024976, 47.67178199971074], [-116.75010299980019, 47.671783000222895], [-116.75009899960224, 47.671634999827084], [-116.74883300027908, 47.67164099989215], [-116.74875600028618, 47.67164400022688], [-116.74877999967731, 47.67171300001442], [-116.74880499979166, 47.67187799979398], [-116.7487780000275, 47.67237900021703], [-116.74878200022545, 47.67245500010854], [-116.74878899989815, 47.672630999973634], [-116.74878999972307, 47.672950999802346], [-116.74879899994389, 47.67330100007128], [-116.74850500021603, 47.67330199994941], [-116.7482879995827, 47.67339099991653], [-116.74820499974203, 47.67343900001249], [-116.74806400017505, 47.67356900000028], [-116.74783599967111, 47.67381899971791], [-116.74772199986829, 47.673988000162375], [-116.74747300034625, 47.67422899973485], [-116.74743200033838, 47.67425499972764], [-116.74725999991091, 47.67441800022469], [-116.7474209995694, 47.67450799995808], [-116.74792799973262, 47.67478799974906], [-116.74733400042908, 47.675271999750215], [-116.74724900004028, 47.67534100018458], [-116.7470680002903, 47.6752409998497], [-116.74663700029508, 47.6750049999448], [-116.74648400013422, 47.67492100015168], [-116.74644700032427, 47.67488699989453], [-116.7463910002478, 47.67477899989146], [-116.7462720004221, 47.67480600006439], [-116.7461390003527, 47.67483099992085], [-116.74583700022892, 47.674874000057216], [-116.74571699968001, 47.67489700018595], [-116.74474199971165, 47.67504799993782], [-116.74457699985521, 47.67507000014559], [-116.74426399986075, 47.6751200001984], [-116.74293800026312, 47.67534800026734], [-116.74208100029556, 47.67543999988575], [-116.74194499985313, 47.67549199986131], [-116.74167299986658, 47.675623000011974], [-116.74156200043679, 47.675676000242674], [-116.74148200007086, 47.67570900015369], [-116.74123199982557, 47.67581700004652], [-116.74098999997626, 47.67592099979924], [-116.74072800003543, 47.675973999727255], [-116.7407029999211, 47.67597699981287], [-116.74041900023896, 47.67600799988095], [-116.74028600016959, 47.676008999707264], [-116.74009200000081, 47.67601099996461], [-116.73988899961121, 47.676001999713115], [-116.73984799960334, 47.676000000060256], [-116.73941099976031, 47.675936000240796], [-116.739096999941, 47.67596899998742], [-116.73851000031014, 47.67607500029693], [-116.73821900005701, 47.67610300022864], [-116.7377319999853, 47.676100999974786], [-116.73749699980864, 47.6760909999141], [-116.7372530003095, 47.676073000042], [-116.73692000022355, 47.67607200021696], [-116.73673600010054, 47.67607900020171], [-116.73643999982451, 47.676125999815625], [-116.7362890002118, 47.676138999945906], [-116.7360089998293, 47.67620399994376], [-116.73568699961405, 47.67631299984222], [-116.73556299976545, 47.67635999985023], [-116.73539799990903, 47.67641100030008], [-116.73499799987596, 47.676509999785736], [-116.73478899963858, 47.67652500005797], [-116.7345719999036, 47.67652700029558], [-116.73433300042731, 47.67650899996902], [-116.73416699984764, 47.67651100020724], [-116.73400100016629, 47.67652700029558], [-116.73397400040213, 47.67653800008884], [-116.73351400009459, 47.67659600028006], [-116.73335599991084, 47.676600000144894], [-116.73318699985644, 47.67659600028006], [-116.73299000021292, 47.67655299974821], [-116.73284799992273, 47.67647399971955], [-116.73269099956387, 47.67639399975244], [-116.73257500011124, 47.6763140002675], [-116.73240100003396, 47.676288999911876], [-116.73226600031477, 47.67626499997049], [-116.73208399984156, 47.676251000049994], [-116.7319459997493, 47.67625800001069], [-116.73152200032509, 47.676371000283545], [-116.7314539996547, 47.67638399974791], [-116.73213700044332, 47.67862700000247], [-116.73188200017519, 47.67868099998106], [-116.73189100039603, 47.678745000062555], [-116.73201500024459, 47.67968300026321], [-116.73322500038957, 47.67925399980549], [-116.73336199975861, 47.67924899977512], [-116.73336299958353, 47.67899800029643], [-116.73337000015454, 47.67857099980882], [-116.73337500017742, 47.67844600029378], [-116.73354199968368, 47.678420999750045], [-116.7339309998461, 47.6783929998526], [-116.73410499992337, 47.678414000079485], [-116.73401000038713, 47.67858900002881], [-116.73396099998331, 47.67862400006922], [-116.73363000044553, 47.6788590001644], [-116.73364700016397, 47.67960900013148], [-116.73396500018129, 47.67955299978223], [-116.73523999972527, 47.67948600020339], [-116.73606900010375, 47.679327000073215], [-116.73677399973536, 47.679217000053335], [-116.73722499982208, 47.679214999918855], [-116.73762900005313, 47.67921999995248], [-116.73791699993323, 47.679271000026056], [-116.73828900037721, 47.67940399988866], [-116.73849799971627, 47.679619000122734], [-116.73851299978487, 47.6798109997038], [-116.73932700009473, 47.67988200029293], [-116.73948399955526, 47.67990200016884], [-116.73949799979897, 47.67988599990581], [-116.7395120000427, 47.67986899988559], [-116.73964400028714, 47.67966499981583], [-116.73968100009706, 47.67955900014654], [-116.73971799990701, 47.67945499978242], [-116.73970100018857, 47.67925699970251], [-116.73960499992909, 47.67908000003966], [-116.73930399963022, 47.67865900008612], [-116.73925900032268, 47.67858699987029], [-116.73918099960659, 47.67846300017288], [-116.73882499995443, 47.67793099998008], [-116.73881599973359, 47.67791300013792], [-116.73880700041109, 47.67789300010438], [-116.73874999961134, 47.677768000174694], [-116.73887900038109, 47.67774800008558], [-116.7391759995837, 47.67770299970579], [-116.7394790004307, 47.677675999822235], [-116.73962599984549, 47.67766900005173], [-116.73972100028004, 47.67780499974475], [-116.74019999995585, 47.67830499973143], [-116.74025799968216, 47.67836599972122], [-116.74079900018054, 47.6789479997259], [-116.74195099970092, 47.68016200027721], [-116.74187500043125, 47.680179999948294], [-116.74094700031856, 47.68040400010707], [-116.74089399971679, 47.68041699977627], [-116.74008100013015, 47.68061300021138], [-116.73975999973982, 47.6809879998218], [-116.73948399955526, 47.68128900019751], [-116.73937800014839, 47.68141200010843], [-116.7398250000371, 47.68170399997945], [-116.73997800019798, 47.68232300023945], [-116.74006199986357, 47.68266000022621], [-116.74008000030526, 47.68266299992738], [-116.7413099996434, 47.682690999952335], [-116.74127299983347, 47.68273099996192], [-116.74123299965049, 47.68283800013919], [-116.74122599997781, 47.68292599987179], [-116.74125600011506, 47.68304799986035], [-116.7413299997349, 47.68315600028625], [-116.74134700035164, 47.68318099977064], [-116.74154599964497, 47.68312900020076], [-116.74215099971744, 47.68297200027773], [-116.74346200014479, 47.683043000193585], [-116.7434410002284, 47.68302299970749], [-116.74342399961164, 47.683000000136836], [-116.74329999976307, 47.68283299984752], [-116.74314400012746, 47.68273299996161], [-116.74321600009749, 47.68271099996099], [-116.74339099999968, 47.6826589999226], [-116.74351099965027, 47.6826209998618], [-116.74348800008406, 47.680996000087355], [-116.74344799990108, 47.67819100023361], [-116.74352400006906, 47.67820500023842], [-116.74377400031432, 47.67825199975185], [-116.74396900030798, 47.67828100011254], [-116.74421299980713, 47.67831599975469], [-116.74439000025747, 47.67832899994416], [-116.7445269996265, 47.67832899994416], [-116.74462500043408, 47.67832099987448], [-116.7447450000847, 47.67830300016687], [-116.7448150004049, 47.67828600023568], [-116.74491800033705, 47.67824599984203], [-116.74500700002551, 47.67820000010752], [-116.7451590003615, 47.67811999976256], [-116.74540399968556, 47.67797000022166], [-116.74564300006016, 47.67781700026989], [-116.74589400013033, 47.67769399974615], [-116.74616600011689, 47.67758900010228], [-116.74705900006947, 47.67730000019293], [-116.747263000284, 47.67723799975898], [-116.74735399962226, 47.677212000042836], [-116.7481810003509, 47.67701099989253], [-116.74847500007878, 47.67696999992327], [-116.74873500036978, 47.6769340001745], [-116.74915799996907, 47.676957000000044], [-116.74914999957318, 47.676778999981146], [-116.74914799992334, 47.6767289997035], [-116.74914799992334, 47.67671899976317], [-116.74956100037521, 47.67671499990745], [-116.74956300002502, 47.6767720000903], [-116.74955299997929, 47.677007999866376], [-116.74958499976634, 47.67792899979633], [-116.74988600006523, 47.67792500003337], [-116.74994100031682, 47.67792500003337], [-116.74994100031682, 47.67780099997233], [-116.74993499957071, 47.67765199991397], [-116.74997499975369, 47.67765199991397], [-116.74996600043116, 47.677091000123355], [-116.74996100040832, 47.67676600001033], [-116.74995999968507, 47.676713000281914], [-116.75004800044692, 47.67671100005148], [-116.75018300016615, 47.67671000023862], [-116.75071500044372, 47.676705999777404], [-116.75078200039086, 47.67670499996449], [-116.75144500018966, 47.677075000207964], [-116.75144500018966, 47.67711200026949], [-116.75143500014393, 47.6780190001272], [-116.75143199977087, 47.67820200028087], [-116.75145100003745, 47.678333000280944], [-116.75151299996175, 47.67839599979912], [-116.75165000022908, 47.67852600013888], [-116.75169799990965, 47.67860299992681], [-116.75177099970459, 47.67873900020941], [-116.75177300025271, 47.678814000138026], [-116.7517210003742, 47.67902200019034], [-116.75168399966597, 47.679171999730904], [-116.7516589995516, 47.67930799973997], [-116.75161400024407, 47.67962199999877], [-116.75159599980242, 47.679880000183935], [-116.7515940001526, 47.680031000030965], [-116.75163400033557, 47.68022200016475], [-116.75168200001613, 47.6803699997939], [-116.75173800009263, 47.680544000095914], [-116.75175999983395, 47.68060900004942], [-116.7518069996896, 47.68083899979292], [-116.75185199989545, 47.68093599988038], [-116.7518839996825, 47.680982999957656], [-116.75196700042149, 47.68106599993923], [-116.75209899976765, 47.681126999724874], [-116.75217999995851, 47.68113299990816], [-116.75222400033944, 47.68113600030194], [-116.75232899992145, 47.681145000272636], [-116.75239000002081, 47.681145000272636], [-116.75242400035597, 47.681145000272636], [-116.75246199999081, 47.681145000272636], [-116.75240000006654, 47.681287999867614], [-116.75235099966272, 47.681337000285744], [-116.75223299966196, 47.68145599998643], [-116.75219900022506, 47.6814849997758], [-116.75207899967619, 47.681583999915446], [-116.75205100008708, 47.68160399974369], [-116.75200500005634, 47.681635999815775], [-116.75189399972825, 47.6817140001739], [-116.75182799960601, 47.68175099996962], [-116.75167899964308, 47.681837000292354], [-116.75126899956426, 47.68204800012493], [-116.75122000005878, 47.68207300014025], [-116.75110600025596, 47.68213599998062], [-116.75090399969129, 47.68222700001891], [-116.75059999991768, 47.68234400009406], [-116.75040099972604, 47.682405000199765], [-116.75077999984272, 47.682405000199765], [-116.75194099958391, 47.68239100011239], [-116.75201199972902, 47.682389999803625], [-116.75201299955391, 47.68293199984816], [-116.75201400027716, 47.68337999976254], [-116.75215499984414, 47.68336799991218], [-116.75259699971004, 47.683331999739735], [-116.75266899968007, 47.68332599980938], [-116.75271800008383, 47.68332599980938], [-116.75363100012792, 47.68332500012332], [-116.75400799969648, 47.68332199985544], [-116.75416500005528, 47.68332199985544], [-116.75417099990307, 47.68368100024664], [-116.754171999728, 47.685260999932154], [-116.754171999728, 47.68534500001171], [-116.75434400015546, 47.68534500001171], [-116.75443799986678, 47.68534199986004], [-116.75464299990618, 47.685334999908534], [-116.75491099969479, 47.68532499980345], [-116.75489200032655, 47.68515000007309], [-116.75488399993063, 47.685061000206126], [-116.75524700015379, 47.684904000050274], [-116.75614799960395, 47.68452999982845], [-116.75639799984921, 47.6844190002281], [-116.75696899958652, 47.68417999988909], [-116.75715899955732, 47.68410099991831], [-116.75721800000687, 47.684078000218214], [-116.75729599982466, 47.684135000218966], [-116.75745999985621, 47.684227999736336], [-116.75739499955888, 47.685073999924356], [-116.75738600023637, 47.68517600006671], [-116.75730000002262, 47.68519899988744], [-116.75708900013544, 47.68525700012659], [-116.75690599983733, 47.68525000016367], [-116.75630300031297, 47.68527999991161], [-116.75609099970255, 47.68528699987045], [-116.75550900009459, 47.68530599984044], [-116.75557799969157, 47.68538600005184], [-116.75557900041478, 47.685787000116925], [-116.75560299980592, 47.68579099988185], [-116.75684899993593, 47.68576599983411], [-116.75734699987831, 47.68611600001714], [-116.75760999964403, 47.686301000055], [-116.75795000030098, 47.686838000073344], [-116.75774600008647, 47.68683500000751], [-116.75691699970798, 47.68684600004649], [-116.75618399958898, 47.68685599985998], [-116.75618600013712, 47.686947999747375], [-116.75620200003064, 47.68762500009368], [-116.75611800036506, 47.6876230002816], [-116.75606300011347, 47.687631000134296], [-116.75601999955744, 47.68763799977764], [-116.75593900026492, 47.68766300013761], [-116.7556429999889, 47.687795999770984], [-116.75538799972077, 47.68795500009245], [-116.7553109997279, 47.6880409998628], [-116.75530800025315, 47.6880739998144], [-116.75530499988011, 47.688115000128256], [-116.75531199955279, 47.68813600007006], [-116.7551070004117, 47.68822299973889], [-116.75510400003864, 47.68939199975783], [-116.75510499986356, 47.689406999954564], [-116.75484499957254, 47.68941200022073], [-116.75484600029579, 47.689673000267604], [-116.75484499957254, 47.68992700027783], [-116.75490900004498, 47.68992799983736], [-116.75728199958098, 47.68990999990151], [-116.75727400008338, 47.689584000257035], [-116.75726499986254, 47.689203000295656], [-116.75733000015985, 47.689175000137894], [-116.75749500001629, 47.689107000037765], [-116.75768900018507, 47.68896800023311], [-116.75777600022369, 47.68890699994089], [-116.75780200016297, 47.688902999810146], [-116.75803700033961, 47.68886500006498], [-116.75867099982611, 47.68887800004454], [-116.75928099992147, 47.688891000020924], [-116.75934799986861, 47.68906800026048], [-116.75952699996878, 47.689065999899], [-116.75979300010754, 47.689062999961315], [-116.76009000020845, 47.68905899984259], [-116.76027400033149, 47.68906199978049], [-116.76014399973683, 47.68911899977734], [-116.76013200004124, 47.68912500025076], [-116.75960899998452, 47.689398000199844], [-116.75927400024877, 47.68952799973092], [-116.75920599957841, 47.689552000222946], [-116.75877600030641, 47.68970400005898], [-116.75853399955876, 47.68978199984262], [-116.75840499968733, 47.68981799979645], [-116.75824800022681, 47.689854999891075], [-116.75811900035536, 47.68987900023258], [-116.75798399973785, 47.68989199995945], [-116.75790599992006, 47.689890000234236], [-116.75796799984433, 47.689963000131534], [-116.75797100021735, 47.69206399971363], [-116.76026000008778, 47.69205400029401], [-116.76087100000807, 47.692050999923524], [-116.76086400033535, 47.69170699983434], [-116.76198999991647, 47.69169799987188], [-116.7622050000016, 47.69169600021591], [-116.76221199967429, 47.691864000072165], [-116.7622180004204, 47.691985000194826], [-116.76221699969719, 47.69205400029401], [-116.76220199962856, 47.69349300028331], [-116.76388499960157, 47.693486000216424], [-116.76399000008186, 47.693486000216424], [-116.76461100004789, 47.69348299992837], [-116.76474300029237, 47.69350900000073], [-116.76486999961567, 47.69353399996507], [-116.76488399985935, 47.69478399983107], [-116.76489899992796, 47.6960650002069], [-116.76490899997373, 47.697130000196566], [-116.76490899997373, 47.69718599981491], [-116.76479099997293, 47.697186999839936], [-116.76468200019299, 47.697186999839936], [-116.7645149997884, 47.69718799986492], [-116.76386200003536, 47.69718999991491], [-116.76386399968517, 47.697398999875865], [-116.76387100025617, 47.698003999972535], [-116.76388399977665, 47.6994639998293], [-116.76329200012295, 47.69946899973578], [-116.76329600032092, 47.69985300019019], [-116.76391300008896, 47.69984900029449], [-116.76422600008344, 47.69984099989758], [-116.76423100010628, 47.70075399970778], [-116.76379000006533, 47.7007560002255], [-116.76378400021754, 47.700562999787415], [-116.76377300034687, 47.700396000109784], [-116.76333200030592, 47.7003869998332], [-116.76237099968296, 47.70039300021927], [-116.76236999985804, 47.7003369998134], [-116.76236999985804, 47.69985800005937], [-116.76222400026819, 47.69985800005937], [-116.76171100025721, 47.69986199995432], [-116.75826699959505, 47.69988100005598], [-116.75660299988864, 47.69989099978849], [-116.75530300023026, 47.69989800020471], [-116.75425200009394, 47.69990400004249], [-116.75426700016256, 47.70081600000312], [-116.75426600033767, 47.70117299979129], [-116.75426499961442, 47.7016520001592], [-116.75426499961442, 47.70211199986713], [-116.75426600033767, 47.70369600001173], [-116.75426700016256, 47.70460999989965], [-116.75431300019332, 47.70802100000743], [-116.74930399955896, 47.7080100002035], [-116.74897100037133, 47.70800700014669], [-116.74897600039422, 47.70872899997834], [-116.74763599965455, 47.70872500015923], [-116.74762499978388, 47.70914800003633], [-116.74763200035491, 47.70937800026778], [-116.74762399995899, 47.711526999844075], [-116.74764099967744, 47.711608000078385], [-116.74818899984854, 47.711613000029], [-116.74843400007089, 47.71161500013004], [-116.74895999960238, 47.71161599987829], [-116.75030299981674, 47.71162099982813], [-116.75030199999185, 47.711761999788564], [-116.75031000038777, 47.714540000128345], [-116.75031200003758, 47.71517999983777], [-116.75030700001471, 47.715222000276704], [-116.74980499987436, 47.71519099994161], [-116.74902900009768, 47.71519200022566], [-116.74897300002114, 47.71519400018935], [-116.74895499957951, 47.719555999933284], [-116.74895399975459, 47.719740000196275], [-116.74895200010475, 47.719998000153744], [-116.74893299983819, 47.72206599975109], [-116.74893000036343, 47.72234700002901], [-116.7489279998153, 47.72245799987604], [-116.74984800043039, 47.72246599982319], [-116.75430700034553, 47.72250299971394], [-116.75761600039014, 47.7225220000233], [-116.75968699980231, 47.72253299978573], [-116.76513099973155, 47.72257499973637], [-116.76792900031332, 47.72257400019839], [-116.77055700011742, 47.722573000056045], [-116.77182599981366, 47.72257899970113], [-116.77319400014241, 47.72258499994983], [-116.77448100028029, 47.722587999771804], [-116.77603500038185, 47.722591999735556], [-116.77881100032397, 47.72260899972915], [-116.77916500032632, 47.72261100001242], [-116.77916399960309, 47.72251699991077], [-116.7791660001512, 47.722345999882315], [-116.77914000021195, 47.717733000013794], [-116.77914000021195, 47.717680999841576], [-116.77913900038705, 47.7171370002286], [-116.77913699983893, 47.71558900026848], [-116.77913699983893, 47.71544700010887], [-116.77913699983893, 47.71543600005907], [-116.77911900029555, 47.71537800014274], [-116.77925300018985, 47.7153789998188], [-116.7834939996468, 47.715397999704365], [-116.78394899993145, 47.71539500007283], [-116.78527500042739, 47.71538700024863], [-116.78665799992645, 47.715380000099245], [-116.78663100016226, 47.71651599985833], [-116.78665100025373, 47.71750599990361], [-116.78665200007865, 47.7177690000096], [-116.78665299990357, 47.71789799989118], [-116.78665499955339, 47.71837899991795], [-116.78667200017013, 47.71999699996195], [-116.78652400003214, 47.71999599977014], [-116.78489700013563, 47.71998900023999], [-116.78381500003715, 47.71998500007639], [-116.7836989996862, 47.71998200010452], [-116.78370100023433, 47.72023799969801], [-116.78370700008212, 47.72089200015729], [-116.78370399970908, 47.72142600001581], [-116.7834819999512, 47.72142600001581], [-116.78334399985896, 47.721427000180164], [-116.78318800022338, 47.72142600001581], [-116.78298700038191, 47.721424999851436], [-116.78200099964458, 47.72142199996253], [-116.78163499994668, 47.72142000023794], [-116.78151100009815, 47.72141900007345], [-116.78152000031896, 47.72247200008492], [-116.78152000031896, 47.7225440001502], [-116.78152100014388, 47.72262599971724], [-116.78163499994668, 47.722626999858555], [-116.78299200040478, 47.722631999960534], [-116.78335599955454, 47.72263300010173], [-116.78435599963724, 47.722635999920904], [-116.78491899987692, 47.722638000203126], [-116.78669700028449, 47.72264399984077], [-116.78669700028449, 47.72272300004069], [-116.78669700028449, 47.722803999792376], [-116.78669599956126, 47.72354200025621], [-116.78669499973637, 47.723821000191634], [-116.7867049997821, 47.724419999977975], [-116.78671300017803, 47.72588399991612], [-116.78670800015516, 47.72692500021395], [-116.78671800020089, 47.7282520002906], [-116.78672200039884, 47.728681000124254], [-116.7867320004446, 47.72972200011047], [-116.78672800024663, 47.729915000129864], [-116.78672300022376, 47.73014699993289], [-116.78673800029239, 47.733189000217244], [-116.78673800029239, 47.7333289998795], [-116.78676000003368, 47.73388200012214], [-116.78676500005656, 47.73515599981453], [-116.78675199963776, 47.73699999981799], [-116.78674699961489, 47.73716799988023], [-116.78946099963272, 47.73717100007057], [-116.7907960003495, 47.737171999932606], [-116.79079299997647, 47.73744900024709], [-116.79079200015155, 47.73750900007305], [-116.79079299997647, 47.73755500005391], [-116.79079799999936, 47.737600000140326], [-116.79080499967203, 47.73764600004074], [-116.7908149997178, 47.737691000048514], [-116.79082800013656, 47.737735000166175], [-116.79084400003009, 47.73778000009703], [-116.79094500031243, 47.73802799985044], [-116.79093699991651, 47.73888700028567], [-116.79063200031797, 47.73895900001318], [-116.78924999974555, 47.73895500009808], [-116.78768399994841, 47.738966000014955], [-116.7876849997733, 47.739008000005775], [-116.78767200025283, 47.7405670002035], [-116.78713199957937, 47.74057199979153], [-116.78672800024663, 47.740574999785764], [-116.78672900007155, 47.74073800021899], [-116.78713300030259, 47.74073600002774], [-116.78767200025283, 47.74073200024917], [-116.79011500010904, 47.74071299993739], [-116.79010900026127, 47.74143099993641], [-116.79010699971312, 47.74170700016848], [-116.79035000028568, 47.741707999943415], [-116.79035299976042, 47.74143199971664], [-116.79036000033142, 47.740552000228355], [-116.7921470000615, 47.74053899984363], [-116.79244300033753, 47.74054199983977], [-116.79274200008825, 47.74054600023705], [-116.7926530003998, 47.741477000076685], [-116.79263499995814, 47.74172000026154], [-116.79227199973498, 47.74446400016439], [-116.793842999555, 47.74445300020103], [-116.79469100020006, 47.744447000055295], [-116.7954059998774, 47.74444900010397], [-116.79692300016903, 47.74445199987479], [-116.79728300001916, 47.74445199987479], [-116.79755099980777, 47.74445199987479], [-116.79756000002858, 47.74377900004344], [-116.79756500005145, 47.74345199984598], [-116.79756500005145, 47.74340600024269], [-116.79756199967842, 47.7418529997258], [-116.7980959996058, 47.741854999874086], [-116.79849700036209, 47.74185799979439], [-116.79849999983686, 47.743324999910044], [-116.79852400012628, 47.744453999923216], [-116.79961000042273, 47.74445599997161], [-116.80124700036495, 47.744473000077775], [-116.80198200013379, 47.744481000267946], [-116.80234100015898, 47.74448400003691], [-116.80231400039482, 47.743507999833426], [-116.80232899956513, 47.740511999870684], [-116.802954999554, 47.740514999868374], [-116.802954999554, 47.74085099972319], [-116.80298700023937, 47.74085099972319], [-116.80359899998457, 47.74084600016196], [-116.80420200040724, 47.74086700000738], [-116.80489799981801, 47.74084499976636], [-116.80517599965235, 47.74083700022562], [-116.8055599997919, 47.740838999808865], [-116.8056839996405, 47.74083700022562], [-116.80699500006781, 47.74086300023883], [-116.80697800034937, 47.7426779997169], [-116.80696599975548, 47.7440670002895], [-116.80696400010568, 47.744342999835574], [-116.80697599980124, 47.744523000038015], [-116.80829899992412, 47.744533000265946], [-116.80963100026786, 47.74454299988787], [-116.80963399974256, 47.74437200028945], [-116.80963600029072, 47.74419900007115], [-116.80963600029072, 47.74361600007062], [-116.80964200013851, 47.74359900028866], [-116.81097000028427, 47.74361399998995], [-116.81097000028427, 47.74362500013061], [-116.81096400043648, 47.744551999787596], [-116.81174500023609, 47.74455799992121], [-116.81174400041117, 47.74445800001994], [-116.81175699993165, 47.74273500029223], [-116.81218200007909, 47.742746000014556], [-116.81230599992763, 47.742746000014556], [-116.81230699975255, 47.74255099970495], [-116.81231099995053, 47.74183599997217], [-116.81231500014847, 47.7409730001047], [-116.81308500007742, 47.74098200001753], [-116.81365099979183, 47.74098899974732], [-116.81364499994407, 47.74182599983022], [-116.81363300024849, 47.74274699976953], [-116.81230599992763, 47.742746000014556], [-116.81227300031568, 47.743942000109946], [-116.81226400009484, 47.74421400020362], [-116.81226699956957, 47.74456100028978], [-116.81427599995583, 47.744577000037815], [-116.81498499978538, 47.74458300016855], [-116.81561300032241, 47.74458700025531], [-116.81562199964495, 47.743373000278964], [-116.81562599984287, 47.74277000016944], [-116.81628699999189, 47.742778999771616], [-116.81628399961883, 47.74333699985543], [-116.81627899959597, 47.74459200006135], [-116.81789600034506, 47.74460399971462], [-116.81825000034738, 47.744605999757255], [-116.8189359997124, 47.74461100016549], [-116.81909899991905, 47.744611999884654], [-116.81997000013031, 47.74461899973043], [-116.82061000036292, 47.74462400013742], [-116.82132300039045, 47.74462899993986], [-116.82159600020191, 47.74463099998154], [-116.8220880002965, 47.74463500006461], [-116.82425400014324, 47.74465000007149], [-116.82476799997917, 47.744652999830684], [-116.8257220000311, 47.74466000027496], [-116.82640599974631, 47.744665000074], [-116.82691600028257, 47.74466900015445], [-116.82692299995527, 47.74364899988025], [-116.82693600037403, 47.74198199977175], [-116.82693600037403, 47.7419460001985], [-116.8269460004198, 47.74107600002101], [-116.8294870001853, 47.74110199991491], [-116.8296229997294, 47.741095999986996], [-116.82961199985873, 47.74194400005367], [-116.82957500004883, 47.74469000026995], [-116.83008499968676, 47.74469399974441], [-116.8400500003537, 47.74476300014515], [-116.84022400043101, 47.74476399986139], [-116.84058299955788, 47.74476700021808], [-116.84929100022417, 47.74482799978238], [-116.85037099977454, 47.744835000203125], [-116.8510319999235, 47.7448399999853], [-116.8510739997563, 47.73789100028374], [-116.85107600030443, 47.7375149998102], [-116.8504400002698, 47.73751099978412], [-116.84762599979452, 47.737492000109235], [-116.84781999996329, 47.737399999995596], [-116.84909200003254, 47.73679599970412], [-116.84988299987789, 47.73611399982909], [-116.85006199997804, 47.73597000026003], [-116.85024799975086, 47.73581499971242], [-116.85067000042358, 47.736033000233775], [-116.85108299997714, 47.73626199972641], [-116.85108499962696, 47.73607699994005], [-116.8510860003502, 47.73582800006841], [-116.85108700017508, 47.73568399970836], [-116.85109200019795, 47.73492599978178], [-116.85112099961196, 47.73025900007214], [-116.85112499980993, 47.73009200007305], [-116.85117099984068, 47.72811399974086], [-116.85119699977994, 47.72665900021223], [-116.8512279997421, 47.723034999713065], [-116.85115300029733, 47.723034999713065], [-116.8468359997741, 47.72301799985846], [-116.84678399989556, 47.71938499985518], [-116.85126100025236, 47.71939600027998], [-116.85127200012302, 47.71821399975074], [-116.85124600018374, 47.71736299989094], [-116.84802900020065, 47.71734799987951], [-116.84802900020065, 47.71582200008772], [-116.8512069998257, 47.715829999845134], [-116.8512009999779, 47.715771999762964], [-116.85119500013012, 47.7152000000798], [-116.8511940003052, 47.71506599994363], [-116.85117699968846, 47.71455099976287], [-116.85114499990141, 47.7128600000596], [-116.8511309996577, 47.711560999793576], [-116.85105500038806, 47.70897400025385], [-116.8510319999235, 47.708725999962915], [-116.85099799958832, 47.708511999826044], [-116.85099099991564, 47.708469000215096], [-116.85097699967193, 47.708362999841775], [-116.84783800040496, 47.70833300007337], [-116.84799400004054, 47.70788400008583], [-116.84803099985047, 47.70777900015809], [-116.84808000025427, 47.707639000126896], [-116.84799999988833, 47.70762500016355], [-116.84784400025272, 47.707598000050886], [-116.84740800023464, 47.70742200027231], [-116.84734799996018, 47.7074099999086], [-116.84667299956747, 47.70727700012504], [-116.84507800035634, 47.70694400016919], [-116.84462800009454, 47.70685100005198], [-116.84348499989672, 47.706605000229], [-116.84232099978247, 47.706362999850185], [-116.84196799960506, 47.70628900008954], [-116.84181799981722, 47.7062589997319], [-116.84180899959641, 47.70598000005189], [-116.8417860000302, 47.70546500015002], [-116.84178199983222, 47.70538999985136], [-116.84177500015954, 47.70521700008891], [-116.84177400033462, 47.70518599984718], [-116.84190499985587, 47.70504899972815], [-116.84191900009958, 47.70503399979912], [-116.84191900009958, 47.70501700011617], [-116.84194500003885, 47.70494999999603], [-116.84244999965391, 47.703682000198405], [-116.84247599959318, 47.70361699997937], [-116.84253900024068, 47.70345900015991], [-116.8427819999149, 47.70351000011188], [-116.84315099998588, 47.703585999995134], [-116.84382999967819, 47.70371400002532], [-116.84427499991712, 47.70379800000659], [-116.84426900006936, 47.70361699997937], [-116.84426300022156, 47.7034580002552], [-116.84569099992643, 47.7037370001344], [-116.84693500040663, 47.703982000298595], [-116.84695100030015, 47.70393999986861], [-116.84694499955405, 47.70386399989688], [-116.84693700005644, 47.7037610001323], [-116.84654000039642, 47.70376600023119], [-116.84652899962744, 47.703404999836344], [-116.8465320000005, 47.70335299987487], [-116.84692000033802, 47.70335000015456], [-116.8469279998356, 47.703311000147195], [-116.84699999980563, 47.70324699997889], [-116.84710000026305, 47.703209999713465], [-116.84722099973857, 47.70320199983238], [-116.84727500016523, 47.70320299974201], [-116.8482219996462, 47.70325100021838], [-116.84821800034653, 47.70301500007025], [-116.8482159997984, 47.70296500015274], [-116.84819499988201, 47.70234300024107], [-116.84819400005709, 47.70226699975472], [-116.84878700043403, 47.70228700011615], [-116.84893999969658, 47.70229400021066], [-116.84893499967372, 47.70205999982504], [-116.84891600030545, 47.70107799975447], [-116.84893899987166, 47.70107899970483], [-116.84896499981096, 47.70107899970483], [-116.84919199959165, 47.70108200016045], [-116.85077599983046, 47.701104000271776], [-116.85095699958042, 47.7011060001715], [-116.85095699958042, 47.70100099989032], [-116.85095699958042, 47.7008829999956], [-116.85100000013645, 47.70088399994972], [-116.85244999958263, 47.7009690002117], [-116.8528820003011, 47.700994000226814], [-116.85289999984442, 47.699118000299045]], [[-116.73976099956471, 47.66076699984007], [-116.73969199996773, 47.66080600020404], [-116.73938900001902, 47.660979000288194], [-116.73916600043627, 47.66080199973366], [-116.73947299968461, 47.66062599991011], [-116.73953799998193, 47.66058900026019], [-116.73976099956471, 47.66076699984007]], [[-116.80882399963066, 47.696695999754965], [-116.80882299980577, 47.696786999786035], [-116.80882199998085, 47.69689600021224], [-116.80881699995798, 47.69697100003475], [-116.80875000001085, 47.697401999938606], [-116.80864500042884, 47.69738600020648], [-116.80846899980342, 47.697361000275045], [-116.80817800044862, 47.6973119997943], [-116.80817800044862, 47.69726599994269], [-116.80818199974827, 47.69669400029065], [-116.80871800022379, 47.69669499972053], [-116.80882399963066, 47.696695999754965]], [[-116.76580500029934, 47.71957899969951], [-116.76580000027647, 47.72018300025265], [-116.76550400000045, 47.72018099987615], [-116.76519400037907, 47.72017799991557], [-116.76508600042405, 47.72017900010388], [-116.76508600042405, 47.71957500010877], [-116.76519199983093, 47.71957399990885], [-116.7655059996503, 47.71957699990417], [-116.76580500029934, 47.71957899969951]], [[-116.8296579998895, 47.738578000223825], [-116.82965299986662, 47.73895900001318], [-116.82964799984376, 47.73929200017631], [-116.82953499986586, 47.73929099975086], [-116.82861799962382, 47.739282000149835], [-116.82826000032185, 47.73927800025951], [-116.82826799981945, 47.738564000115026], [-116.82955199958428, 47.73857699978465], [-116.82956900020105, 47.73857699978465], [-116.8296579998895, 47.738578000223825]], [[-116.76769999998446, 47.71009000025797], [-116.76738500034017, 47.710093000194924], [-116.76635599994518, 47.710102000004674], [-116.76635799959499, 47.71017299985981], [-116.76636199979293, 47.710385000281946], [-116.76603600027805, 47.710385000281946], [-116.76512900008174, 47.71038600005379], [-116.7650629999595, 47.710385000281946], [-116.76505700011171, 47.70984000027262], [-116.76512800025685, 47.70984000027262], [-116.7676969996114, 47.70983899988583], [-116.76769999998446, 47.71009000025797]], [[-116.7514040001818, 47.67490900017022], [-116.75138900011316, 47.67491000001754], [-116.75094600042239, 47.67491800000535], [-116.75088500032302, 47.674835999769726], [-116.75083099989635, 47.674765000177146], [-116.75013299993743, 47.67388000011327], [-116.75005500011962, 47.67380600021941], [-116.75002099978445, 47.67375100016495], [-116.74993000044616, 47.67363299969848], [-116.74985699975292, 47.67351900027594], [-116.74978200030814, 47.67340000001351], [-116.74971299981286, 47.67329100007888], [-116.750144999633, 47.67328899971722], [-116.75031700006045, 47.67328899971722], [-116.750989999905, 47.67328500020348], [-116.75111200010375, 47.67328500020348], [-116.75118900009664, 47.67328500020348], [-116.75127899961, 47.67328399972012], [-116.75131999961789, 47.67328500020348], [-116.75136900002168, 47.67346800002386], [-116.7513770004176, 47.6734960001447], [-116.75137200039474, 47.673573999970074], [-116.75138599974014, 47.674135000071665], [-116.7514040001818, 47.67490900017022]], [[-116.76768900011379, 47.70922100017507], [-116.76758899965637, 47.70922100017507], [-116.76515099982306, 47.70922499995612], [-116.76512599970872, 47.70922499995612], [-116.76505000043902, 47.70922499995612], [-116.76504700006598, 47.70892300020758], [-116.76504299986803, 47.708564000081346], [-116.76504299986803, 47.70854500012197], [-116.76512099968582, 47.70854500012197], [-116.76732500006571, 47.70853099979749], [-116.76768200044111, 47.70852900018257], [-116.76768900011379, 47.70922100017507]], [[-116.80839699983342, 47.73839099992711], [-116.80839699983342, 47.73868199987851], [-116.80702600002995, 47.73867199973481], [-116.80703699990062, 47.737684999727534], [-116.80676900011198, 47.73768300002315], [-116.80677199958673, 47.73743700015277], [-116.80652800008758, 47.737436000295816], [-116.80653999978313, 47.73723200007778], [-116.80677300030996, 47.73723200007778], [-116.80677499995977, 47.7370489998418], [-116.8067769996096, 47.736909999777446], [-116.80838799961258, 47.73688699980923], [-116.80839000016074, 47.7372410000332], [-116.80839099998563, 47.73741799984672], [-116.80839400035866, 47.73792000010299], [-116.80839699983342, 47.73839099992711]], [[-116.83420100036854, 47.7284160000569], [-116.83418799994975, 47.728685000224395], [-116.83419700017056, 47.72947800011106], [-116.83419600034567, 47.72994200016006], [-116.83418600029991, 47.73019399976708], [-116.83355100009021, 47.73019099977893], [-116.83269999997043, 47.730185999798294], [-116.83259100019048, 47.730185999798294], [-116.83259899968809, 47.729552000177165], [-116.8322139997236, 47.72955000016043], [-116.83220799987585, 47.72891700006844], [-116.83220299985295, 47.72834400025257], [-116.83268300025198, 47.72830400018399], [-116.83302600038367, 47.72828200007274], [-116.83329199962414, 47.72827699990888], [-116.8333669999672, 47.728270999711555], [-116.8340420003599, 47.728215000253556], [-116.8341910003228, 47.72820599994659], [-116.83420100036854, 47.7284160000569]], [[-116.7596369995736, 47.70440199971458], [-116.75957600037258, 47.70440199971458], [-116.7588800000635, 47.70438499982551], [-116.75881700031428, 47.70438399993856], [-116.75877600030641, 47.70438300005158], [-116.75823300015819, 47.704385999712485], [-116.75823200033327, 47.704457999985586], [-116.75823300015819, 47.70468099998208], [-116.75823499980802, 47.70495599985692], [-116.75774500026155, 47.70495300022885], [-116.75754600006992, 47.70495199974825], [-116.7574799999477, 47.70495199974825], [-116.75699500042413, 47.70494900011991], [-116.75691199968512, 47.70494900011991], [-116.75691199968512, 47.7048950001308], [-116.75691199968512, 47.70486500017984], [-116.75690800038545, 47.70445600021441], [-116.75696399956365, 47.70440800024307], [-116.75696399956365, 47.704377000124744], [-116.75694799967012, 47.70306300011522], [-116.75694199982236, 47.70258100025186], [-116.75697500033264, 47.70258100025186], [-116.7571900004178, 47.70257999972574], [-116.75788500000364, 47.702577999882564], [-116.75917200014152, 47.70258300009492], [-116.75961999985518, 47.70258499993795], [-116.75962499987806, 47.703076000182755], [-116.75963599974871, 47.704324999923834], [-116.7596369995736, 47.70440199971458]], [[-116.84021600003508, 47.73022500023877], [-116.8398939998198, 47.730223000247875], [-116.83950300000755, 47.73022200025241], [-116.83919599986088, 47.730062000124995], [-116.83708600009062, 47.72896499982377], [-116.83706699982406, 47.73020799970951], [-116.83694999964818, 47.73020799970951], [-116.8361079997492, 47.73020399972634], [-116.83542700040705, 47.730199999742865], [-116.83544800032345, 47.72895899970571], [-116.83546199966884, 47.72811899992042], [-116.83515899972014, 47.72796200009581], [-116.82992400002829, 47.72829699995734], [-116.82977500006538, 47.72830400018399], [-116.82979199978382, 47.72704299976613], [-116.8298060000275, 47.72597100004986], [-116.82981400042343, 47.72574699982071], [-116.82981000022548, 47.72518499998542], [-116.82980900040056, 47.72495000014784], [-116.82980699985241, 47.724784000145576], [-116.8300219999376, 47.7248899997494], [-116.83129099963381, 47.72555500015247], [-116.83210300029384, 47.72597900006181], [-116.83345400000583, 47.726687000180966], [-116.83993900002564, 47.730065000120575], [-116.84021600003508, 47.73022500023877]], [[-116.83617100039672, 47.70261499999196], [-116.83535500043702, 47.70237399975532], [-116.8353599995616, 47.70275099993978], [-116.83528000009396, 47.702756000135594], [-116.83451699983772, 47.70279699978847], [-116.83452400040875, 47.70285299997005], [-116.8334439999601, 47.702910999922], [-116.8334740000973, 47.70352100026095], [-116.83375799977944, 47.703593999817336], [-116.83391099994031, 47.703606999752445], [-116.83422899995762, 47.70366400017376], [-116.8345439996019, 47.70369600001173], [-116.8350780004276, 47.703786999915984], [-116.8355429998597, 47.70386899998593], [-116.83562099967749, 47.70388299974909], [-116.83562400005054, 47.70403400023707], [-116.83562800024852, 47.70423399974974], [-116.83563699957104, 47.70469500013166], [-116.8356419995939, 47.70502899982182], [-116.83558100039285, 47.70501700011617], [-116.83538899987391, 47.704979000022526], [-116.83513000030614, 47.70488100003495], [-116.83424599967607, 47.704684000230344], [-116.83390199971949, 47.7046170002867], [-116.83304599957683, 47.704433999704094], [-116.83217199989082, 47.704432999818025], [-116.83216299966999, 47.70425300007158], [-116.82955400013243, 47.70372000002846], [-116.82955400013243, 47.703698999712174], [-116.82945100020028, 47.70367799999193], [-116.82944299980436, 47.703530999899804], [-116.8294460001774, 47.70342800008172], [-116.82945299985009, 47.70314600002571], [-116.82945100020028, 47.70295700023406], [-116.82943899960638, 47.70283899993032], [-116.82944799982722, 47.70224500013418], [-116.82943600013164, 47.70120000020926], [-116.82944799982722, 47.700819999824624], [-116.83151300028995, 47.70084100009161], [-116.83194799958483, 47.700869000031346], [-116.83237799975514, 47.70091299981997], [-116.83279600022989, 47.70096800025922], [-116.83320999960834, 47.70104800002505], [-116.83383599959726, 47.70118299988056], [-116.83425499989691, 47.701294000077546], [-116.8346759998464, 47.70141799991467], [-116.8351079996665, 47.701539000236856], [-116.83596999965695, 47.70179700023578], [-116.83615899980285, 47.701849999871264], [-116.83616200017589, 47.70201699972777], [-116.83617100039672, 47.70261499999196]], [[-116.77050299969076, 47.71442499974407], [-116.77044599978935, 47.71442600004282], [-116.77040800015452, 47.71442600004282], [-116.77030900042033, 47.71442499974407], [-116.77030900042033, 47.71516800005153], [-116.77030900042033, 47.71529699972432], [-116.76863800014287, 47.715288000207295], [-116.76768200044111, 47.71529400008697], [-116.765231000189, 47.7152629997947], [-116.76508899989877, 47.715262000116425], [-116.76507999967792, 47.714847000210646], [-116.76514300032542, 47.71484599991997], [-116.76522399961799, 47.714847000210646], [-116.7657030001921, 47.71484900018753], [-116.76575300042082, 47.71484900018753], [-116.76574699967473, 47.714392999844286], [-116.76570099964394, 47.714392999844286], [-116.76528499971735, 47.71439000015485], [-116.76524600025759, 47.71439000015485], [-116.76521799977021, 47.71439000015485], [-116.76507200018034, 47.714388999855395], [-116.76506600033255, 47.71345399977817], [-116.76507399983016, 47.712844000236046], [-116.76508800007385, 47.71172799997019], [-116.76508899989877, 47.71166599995986], [-116.76518799963299, 47.711663000113454], [-116.76525299993028, 47.711661000014296], [-116.77046000003305, 47.71166199976166], [-116.77047400027676, 47.7125369998373], [-116.77048799962213, 47.7134939997662], [-116.77050199986584, 47.71439499983859], [-116.77050299969076, 47.71442499974407]], [[-116.74921999989334, 47.66619699980861], [-116.74855799991946, 47.66619799982285], [-116.74861700036901, 47.66779999989135], [-116.7486180001939, 47.66783699987505], [-116.74799399985486, 47.66769299972552], [-116.7475179996538, 47.667571000128156], [-116.747335000254, 47.66751600015691], [-116.74711400032106, 47.66743799974632], [-116.7470110003889, 47.66741199998688], [-116.74685999987786, 47.66737700029021], [-116.74673100000642, 47.66738100025674], [-116.74661300000562, 47.66738900018888], [-116.74626400002619, 47.667439999727286], [-116.74591000002384, 47.667495999768], [-116.74567599967212, 47.667529000012365], [-116.74534699978415, 47.66761800014563], [-116.7452360003544, 47.66765200029925], [-116.74513699972186, 47.66770200020019], [-116.745027000117, 47.66775000008426], [-116.74493099985756, 47.667778000248305], [-116.7446809996123, 47.66782700004556], [-116.7445629996115, 47.66783299994347], [-116.74448800016677, 47.66783699987505], [-116.74443399974007, 47.667828000028585], [-116.74434900024957, 47.667813000280994], [-116.74428200030243, 47.667801999858455], [-116.74419299971566, 47.66776899978674], [-116.74409499980636, 47.66774100022278], [-116.74382299981981, 47.66765300028562], [-116.74327100034907, 47.66749799974674], [-116.74326899980093, 47.66746200011773], [-116.74316500004387, 47.6658650000631], [-116.7431609998459, 47.66578800023229], [-116.7430689997844, 47.664298999914614], [-116.74306700013457, 47.664254000036486], [-116.7430679999595, 47.66413799998357], [-116.74308200020319, 47.662923999903086], [-116.74353400011479, 47.66289199984997], [-116.7442239996778, 47.66284399973354], [-116.74443399974007, 47.66284300026001], [-116.74462100023617, 47.662844999812016], [-116.74480899965882, 47.66285199975598], [-116.7449969999798, 47.66286400008992], [-116.7451829997526, 47.66287900004967], [-116.74536900042378, 47.6628999998651], [-116.74573599994659, 47.66295299970741], [-116.74591800041979, 47.66298699987468], [-116.74609800034483, 47.663024000245116], [-116.74627499989684, 47.663065999750856], [-116.74653699983764, 47.66313700013491], [-116.74670900026511, 47.6631890002697], [-116.74784499989192, 47.664283999757885], [-116.74919800015205, 47.66558700024078], [-116.74921999989334, 47.66619699980861]], [[-116.82978000008825, 47.72104600022997], [-116.82934999991792, 47.72105099987935], [-116.82865100013409, 47.721059000042615], [-116.82833700031478, 47.72105099987935], [-116.82784500022015, 47.72105099987935], [-116.82764799967835, 47.72105099987935], [-116.8272789996074, 47.72103399998168], [-116.82691000043478, 47.721029999898256], [-116.8255470001289, 47.72103900023656], [-116.82537800007452, 47.72102199973059], [-116.82497899986635, 47.72101100025341], [-116.82458899987903, 47.721019999990645], [-116.82438600038775, 47.72101299999374], [-116.8233200001828, 47.72100799973632], [-116.82307699961022, 47.721011999821435], [-116.82285200037767, 47.72098900008345], [-116.82273000017891, 47.72096599973101], [-116.82234000019157, 47.72078800002331], [-116.82171099982963, 47.720450999848126], [-116.82138000029181, 47.720282000058575], [-116.82031999993465, 47.71971099992206], [-116.81972599973282, 47.719399999884494], [-116.81967100037956, 47.71937299982861], [-116.81930999980622, 47.71919200010006], [-116.81906700013197, 47.71905699974616], [-116.81820099994356, 47.7186089999019], [-116.8180970001865, 47.71855000027608], [-116.81775300022991, 47.71836600004095], [-116.81745799977882, 47.7182080002073], [-116.8174569999539, 47.718104999778525], [-116.81744699990816, 47.71782400019024], [-116.81743500021258, 47.717426000012495], [-116.81738199961084, 47.71561500019618], [-116.81813200034661, 47.71561999976238], [-116.81893200041277, 47.715624999932466], [-116.81889100040488, 47.71184899993392], [-116.82897400017428, 47.71194299994158], [-116.82944500035251, 47.71193199975654], [-116.82958199972153, 47.711869000245535], [-116.82969999972232, 47.715626999879476], [-116.82970300009535, 47.71576000011306], [-116.82970499974519, 47.716057000004405], [-116.82971300014111, 47.71707300011403], [-116.82974599975306, 47.71851700027188], [-116.82974900012611, 47.719777000210094], [-116.82978000008825, 47.72104600022997]]]}, "properties": {"id": "covered-us-id-coeur-d-alene", "status": "covered", "jurisdiction": "Coeur d'Alene", "country_id": "us", "state_id": "id", "area_type": "city", "note": "Covered by public tree inventory for Coeur d'Alene; geometry from official jurisdiction boundary."}}]}