{"type": "FeatureCollection", "features": [{"type": "Feature", "geometry": {"type": "Polygon", "coordinates": [[[-96.83915600026606, 44.30932099995522], [-96.8391450003954, 44.30692599998259], [-96.8351950002933, 44.3069029997386], [-96.83351800016807, 44.30691700019565], [-96.83049799982845, 44.30691400005205], [-96.82902699956756, 44.30640699994244], [-96.82902200044302, 44.30685300009947], [-96.82823599972222, 44.306565000088725], [-96.82821800017888, 44.306130000132434], [-96.82820999978297, 44.306014999834275], [-96.82779200020653, 44.30585300030102], [-96.8261009998376, 44.30520599991696], [-96.82607700044649, 44.304447999885866], [-96.82389700035603, 44.30444199998904], [-96.82389399998296, 44.304358999746476], [-96.82383000040885, 44.297165000054605], [-96.82411599974083, 44.297165000054605], [-96.82474400027785, 44.29716299984097], [-96.82516000020446, 44.29716200005559], [-96.82516100002935, 44.29705000019714], [-96.82508700040951, 44.29548799984987], [-96.82508499986137, 44.29537299992297], [-96.82035999980747, 44.29538600009931], [-96.81984500014667, 44.2953879997305], [-96.8198209998572, 44.29495999994451], [-96.82037200040135, 44.294958000298756], [-96.82092800007004, 44.294941000092024], [-96.8212000000566, 44.29477200015212], [-96.82172599958807, 44.29459499980781], [-96.82137400013387, 44.294056999921374], [-96.82160299956442, 44.294164999713146], [-96.822903999946, 44.294827000205004], [-96.82425800003102, 44.29480800030943], [-96.82502399976201, 44.294163000040314], [-96.82500299984561, 44.29373399984112], [-96.82499299979987, 44.293541999950875], [-96.82898599955969, 44.2935360002255], [-96.82886500008418, 44.29030999974487], [-96.8288879996504, 44.28990099980548], [-96.82885500003843, 44.288760999884154], [-96.82881200038072, 44.28685100010966], [-96.82880800018276, 44.28627199994572], [-96.82830100001956, 44.286270000004144], [-96.81869399955289, 44.28642199987287], [-96.81863500000166, 44.28985899975424], [-96.81396500019933, 44.28987600014603], [-96.80865599998933, 44.289865999764885], [-96.80864199974562, 44.28803599972796], [-96.80869100014942, 44.282552999892886], [-96.80962500010989, 44.282553999926975], [-96.81056400009322, 44.28255499996106], [-96.81108600032505, 44.28256000013109], [-96.81155599978003, 44.28256599969148], [-96.81240600007489, 44.282574999995624], [-96.81367800014417, 44.282579000130355], [-96.81417400043671, 44.282581000197595], [-96.8153410000257, 44.28258400029835], [-96.81815499960264, 44.28259199992319], [-96.81960599977205, 44.282597000090135], [-96.82105699994146, 44.28260200025658], [-96.82105500029165, 44.281209999856785], [-96.81962000001576, 44.28120300010086], [-96.81876700024615, 44.28120099998666], [-96.81876899989598, 44.2791780001314], [-96.81421100024663, 44.27917399976511], [-96.8086819999286, 44.279136000130705], [-96.80867899955555, 44.27846700020658], [-96.80867799973063, 44.27823199982135], [-96.80867699990573, 44.27811899976947], [-96.80867400043098, 44.27754400020306], [-96.80867899955555, 44.27655999994147], [-96.8086839995784, 44.27548299978648], [-96.80510900029334, 44.27545399980322], [-96.79858999993834, 44.27539699994968], [-96.7985799998926, 44.2746610002372], [-96.79855599960317, 44.27284399994986], [-96.79854100043286, 44.27177100009878], [-96.79983199987038, 44.27178000012685], [-96.79983199987038, 44.268172999829055], [-96.79849200002906, 44.26817000027898], [-96.79478999962407, 44.268154000317466], [-96.79273299955724, 44.26813000004541], [-96.7922859996685, 44.26812499993389], [-96.78836999990159, 44.268108999960134], [-96.7884419998716, 44.27173000016789], [-96.78846399961292, 44.27354400024561], [-96.78847799985661, 44.275325999772654], [-96.7882309999844, 44.275316000130395], [-96.78787399960903, 44.27531899995893], [-96.78227599969402, 44.27527799993053], [-96.78142600029746, 44.27526800028005], [-96.78079500028569, 44.275259000142945], [-96.77838300039164, 44.275255000153045], [-96.77837900019368, 44.27510100001292], [-96.778296000353, 44.27180799977654], [-96.77829499962978, 44.27167199969909], [-96.78110999992995, 44.2716890002084], [-96.78133699971069, 44.27168999978416], [-96.7812880002052, 44.26807100024625], [-96.78122799993075, 44.26806999996566], [-96.7783950000872, 44.26804300010276], [-96.77069200042477, 44.267966999921775], [-96.76823799979962, 44.2679590002356], [-96.75846499965161, 44.26808900014763], [-96.75810899999946, 44.26809400026221], [-96.75769999974554, 44.26809899973309], [-96.75780799970057, 44.27044399996031], [-96.75788100039382, 44.27522700021607], [-96.75803799985435, 44.280804999835084], [-96.75841000029833, 44.28082699994926], [-96.75877699982114, 44.2808490000552], [-96.75942100025169, 44.28088799993045], [-96.76250199979235, 44.28083299968666], [-96.76249400029475, 44.28086599983911], [-96.7624909999217, 44.28100999970273], [-96.76255399967089, 44.28142500013131], [-96.76264400008257, 44.28163500001372], [-96.76283300022845, 44.28187199974203], [-96.76312199993345, 44.282079999871826], [-96.76360300015739, 44.28240799991593], [-96.76067099968135, 44.28236899976348], [-96.759915999821, 44.28235399984639], [-96.75881299980615, 44.28237099983791], [-96.75845299995605, 44.28237700006071], [-96.75806100031889, 44.28238300028291], [-96.75812800026604, 44.28404400028634], [-96.7582889999245, 44.29120999985156], [-96.75843799988742, 44.29710299982958], [-96.75846200017686, 44.298056999820545], [-96.75846200017686, 44.29807299999825], [-96.75846200017686, 44.29814899981838], [-96.75803700002943, 44.29805600005038], [-96.75576099967951, 44.29756200028603], [-96.7540779997065, 44.29721000002137], [-96.75356600041873, 44.29710400025889], [-96.75287000010965, 44.296957999763286], [-96.75166199961447, 44.29696099977273], [-96.7512199997486, 44.29691300024632], [-96.75028199959017, 44.29696099977273], [-96.748170999995, 44.29699900009323], [-96.74816599997213, 44.30166700031038], [-96.74814099985778, 44.30444500025897], [-96.74815799957621, 44.30503899989501], [-96.74817799966769, 44.30540999983804], [-96.74844499963137, 44.310307000165345], [-96.74844100033174, 44.311350999802414], [-96.74844899982934, 44.31158499992188], [-96.74653999990053, 44.31156200021792], [-96.74607700011825, 44.311559999851966], [-96.74614599971524, 44.31237900002099], [-96.74616300033198, 44.31261900024553], [-96.74730999982947, 44.31264799987948], [-96.74723500038472, 44.31456800010329], [-96.74833800039958, 44.31458900029475], [-96.74824200014011, 44.31640000007608], [-96.74823000044454, 44.31660499975355], [-96.74692900006295, 44.31661199978949], [-96.7466429998327, 44.316612999886345], [-96.74657900025859, 44.318904999760036], [-96.74338700038986, 44.31890000011347], [-96.74087000001549, 44.318907999933366], [-96.74083200038065, 44.320088999700594], [-96.74812300031441, 44.32007100030592], [-96.74804899979627, 44.322663000243566], [-96.74795300043509, 44.325892999759866], [-96.74794800041224, 44.32608100014357], [-96.74796400030576, 44.32659999971254], [-96.74797099997846, 44.32731099979891], [-96.74870200044764, 44.32730899996982], [-96.75070500008779, 44.327301000010166], [-96.75066900010277, 44.32998199985621], [-96.74794199966614, 44.33002000000628], [-96.7479099998791, 44.33241400030867], [-96.74789499981047, 44.333467000086394], [-96.75315399979176, 44.33335800017935], [-96.75418700038475, 44.33333999971542], [-96.75511600032235, 44.33332400015511], [-96.7558090002584, 44.333314999918585], [-96.75705500038839, 44.33330099997635], [-96.75803399965638, 44.33328600021805], [-96.75813599976364, 44.33006800009304], [-96.75814599980937, 44.32775400010272], [-96.7581769997715, 44.32726399994172], [-96.7581769997715, 44.32716200013576], [-96.7585199999032, 44.32716200013576], [-96.75958000026036, 44.32717000011437], [-96.76197500043597, 44.32713499979833], [-96.76388699983953, 44.32710299985835], [-96.76389400041052, 44.327306000226045], [-96.76390299973305, 44.32754599980521], [-96.76396499965735, 44.32932699975801], [-96.76396300000751, 44.329451000188804], [-96.76595300012717, 44.32941699982728], [-96.7679680003612, 44.329430000175705], [-96.76799199975233, 44.32765399968102], [-96.76799599995029, 44.327351000221974], [-96.77048599966214, 44.32735900017476], [-96.77103700020629, 44.327363999743106], [-96.7710389998561, 44.32723499981963], [-96.77528000021137, 44.32727500029452], [-96.77933099969749, 44.32730899996982], [-96.78317000036984, 44.32732499988581], [-96.78315600012614, 44.32805399970234], [-96.78314199988242, 44.32886699974618], [-96.78312500016398, 44.33004099980813], [-96.78311699976807, 44.33057199991731], [-96.78308099978305, 44.33324900006971], [-96.77804899958248, 44.33319199976078], [-96.77767500038698, 44.33318900031792], [-96.77449199984075, 44.33316299999942], [-96.77299399981567, 44.33314999983588], [-96.77095799966527, 44.33313199995062], [-96.7679409996987, 44.33310499979113], [-96.7679409996987, 44.333580000306675], [-96.76790700026184, 44.33396200012153], [-96.7678910003683, 44.33423600025265], [-96.76785700003312, 44.33526399983367], [-96.76780699980439, 44.33809399988258], [-96.76781699985015, 44.33872500002882], [-96.76985600037361, 44.338745999926104], [-96.76983399973399, 44.34035300013567], [-96.7734890002833, 44.340399000092134], [-96.7761489998745, 44.34043200017833], [-96.77620199957795, 44.33734800007842], [-96.78279000042822, 44.33743500017845], [-96.78552799983721, 44.337485999844745], [-96.78558700028675, 44.33509199969403], [-96.78809000041741, 44.33511199982585], [-96.78811700018159, 44.33361499998954], [-96.78812800005225, 44.33329400000397], [-96.79604999999778, 44.333429000242006], [-96.7983129999289, 44.333467000086394], [-96.79836300015764, 44.33029999974435], [-96.79841199966312, 44.32748199971355], [-96.80560100038794, 44.32757000022318], [-96.80814800000121, 44.32762100011491], [-96.80852700011789, 44.32762100011491], [-96.80852799994281, 44.32815300018459], [-96.80925900041198, 44.328140000195695], [-96.80926299971163, 44.32763799985478], [-96.81876999972087, 44.3276920000541], [-96.81878399996458, 44.32633000026096], [-96.81878399996458, 44.32627099978928], [-96.81878399996458, 44.32617100005247], [-96.81878399996458, 44.326135999782984], [-96.81878999981238, 44.323581000181086], [-96.81880400005606, 44.32234900007905], [-96.81879999985811, 44.32225700008909], [-96.81879300018541, 44.32219300001097], [-96.818800999683, 44.3217849997999], [-96.81885699975953, 44.318925000270106], [-96.81885699975953, 44.31730000007116], [-96.81902499998901, 44.3136700002801], [-96.81902499998901, 44.313317000023545], [-96.81915300003554, 44.31331599987051], [-96.82546099960503, 44.313263000090245], [-96.82560999956793, 44.31325199968111], [-96.82863199955736, 44.3132239998575], [-96.82885199966539, 44.31321499975066], [-96.82907199977342, 44.313206999797394], [-96.82909199986489, 44.31172299988458], [-96.83344700002296, 44.311736000297536], [-96.83590800032083, 44.311729999860084], [-96.8363929998444, 44.31172899968], [-96.83640399971505, 44.3116369997503], [-96.83807300034267, 44.30942499972093], [-96.83816500040417, 44.30930700007158], [-96.83915600026606, 44.30932099995522]], [[-96.81877999976662, 44.29455299989844], [-96.81876499969802, 44.29455299989844], [-96.81442600033179, 44.29453499974436], [-96.81397600006999, 44.29453799987758], [-96.81379199994697, 44.29453399991423], [-96.81379100012207, 44.29444500017724], [-96.81377799970326, 44.29350200026976], [-96.81875100035262, 44.29348900031934], [-96.81875200017754, 44.29355999976629], [-96.81876100039838, 44.29408099989229], [-96.81877999976662, 44.29455299989844]], [[-96.80125200007767, 44.276058000225554], [-96.80130599960603, 44.27811899976947], [-96.79862799957317, 44.27811899976947], [-96.79859900015917, 44.276072000319346], [-96.80125200007767, 44.276058000225554]]]}, "properties": {"id": "covered-us-sd-brookings", "status": "covered", "jurisdiction": "Brookings", "country_id": "us", "state_id": "sd", "area_type": "city", "note": "Covered by public tree inventory for Brookings; geometry from official jurisdiction boundary."}}]}