{"type": "FeatureCollection", "features": [{"type": "Feature", "geometry": {"type": "Polygon", "coordinates": [[[-84.55421300012583, 39.07476600005404], [-84.55429900033955, 39.074552999891594], [-84.55367199962744, 39.0741999996997], [-84.55358499958881, 39.07413600024629], [-84.55292000014018, 39.07364799989032], [-84.55273799966696, 39.07351300015908], [-84.55271500010075, 39.07349599973038], [-84.55226300018914, 39.07293900031962], [-84.55213000011975, 39.072351000235756], [-84.5522339998768, 39.072188999921146], [-84.55230800039497, 39.07207299974294], [-84.5525770000085, 39.07164599986102], [-84.55262800006213, 39.07156499998711], [-84.55264200030582, 39.07154799978657], [-84.55262899988702, 39.07154699969255], [-84.55249400016783, 39.071539000335065], [-84.5520360004084, 39.07151299997607], [-84.549888000105, 39.071760999952765], [-84.54987300003638, 39.07176500031641], [-84.54924500039768, 39.070921000153184], [-84.54910700030541, 39.070740000135025], [-84.54892999985508, 39.07050399996894], [-84.54887600032673, 39.070430999663245], [-84.5487680003717, 39.07028500022011], [-84.54873900005937, 39.07024800025592], [-84.54858800044663, 39.070046999697006], [-84.54845600020215, 39.06986700034485], [-84.54834300022426, 39.06971099993061], [-84.54820799960673, 39.06953699975917], [-84.54816199957597, 39.069564000270816], [-84.5480999996517, 39.069598999653024], [-84.5472700003466, 39.070069000136534], [-84.54670000043421, 39.07039200025233], [-84.54613100034673, 39.070721000221766], [-84.54607000024735, 39.07075900004313], [-84.54575100040513, 39.07094499982792], [-84.54534999964885, 39.071178999715755], [-84.54507600001244, 39.071328999790154], [-84.54497999975298, 39.07138599972089], [-84.544474000313, 39.07168000021085], [-84.5441849997097, 39.071845999960765], [-84.54354100017746, 39.07221999975613], [-84.54329500013016, 39.07236099966616], [-84.54287800037864, 39.07260499983409], [-84.5422220002525, 39.07269399983396], [-84.54199200009874, 39.07282799966129], [-84.54190099986214, 39.07293399994817], [-84.54180999962554, 39.07308699999598], [-84.54170699969339, 39.07328199984954], [-84.5417009998456, 39.07329299991466], [-84.541685999777, 39.07360100034378], [-84.5417360000057, 39.07383499979388], [-84.54216399962787, 39.07513200006925], [-84.54217600022176, 39.07517699990581], [-84.54222399990233, 39.075304000312464], [-84.5424470003834, 39.07586700008204], [-84.54253000022409, 39.0760230001388], [-84.54280300003556, 39.07634800025348], [-84.54301599957259, 39.07655899983341], [-84.54318299997715, 39.076732000105615], [-84.54351299969004, 39.07705199966456], [-84.54364499993451, 39.07718100021167], [-84.54368500011749, 39.07721700001417], [-84.54372100010251, 39.077260999902734], [-84.54375000041482, 39.077297999676894], [-84.54385900019476, 39.077438999901105], [-84.54407599992975, 39.077761999758245], [-84.54423900013636, 39.07802100011488], [-84.544390999574, 39.07819800028827], [-84.54448699983348, 39.07826900023306], [-84.54480599967572, 39.078504000238084], [-84.54491600017887, 39.07862200029256], [-84.54521699957944, 39.07896700007055], [-84.54541199957312, 39.079190000015764], [-84.54570500037438, 39.07952699995903], [-84.54610600023237, 39.07923200009857], [-84.54639999996026, 39.07901400022708], [-84.54666199990108, 39.07888500024178], [-84.5474100000887, 39.07851600018171], [-84.54812399994113, 39.0781640002894], [-84.54816900014698, 39.078349000085254], [-84.5482190003757, 39.078614000342405], [-84.54839900030075, 39.079619000232924], [-84.54866100024157, 39.08109899982295], [-84.54868499963271, 39.08123299972781], [-84.54870200024946, 39.081322999958154], [-84.54870700027234, 39.081357999784316], [-84.54859599994424, 39.08140499974266], [-84.54843500028575, 39.08149699965958], [-84.54839099990483, 39.08145600018134], [-84.54831999975973, 39.081403999788385], [-84.54822799969821, 39.08133600007494], [-84.54808399975816, 39.081228999900844], [-84.54768600027323, 39.08098800014611], [-84.54741400028666, 39.080836999721164], [-84.54671299995469, 39.08048199965183], [-84.54658200043343, 39.080404000063105], [-84.54636300015034, 39.080253999753495], [-84.54605699982858, 39.07998900007737], [-84.54589100014722, 39.07982899981733], [-84.5456219996354, 39.079548000251926], [-84.54541300029635, 39.07930700033371], [-84.54498700032399, 39.07880300031771], [-84.54480099965284, 39.078601999718096], [-84.54469600007086, 39.07851100020543], [-84.54443699960477, 39.07830600017596], [-84.54432199997704, 39.07821300028256], [-84.5442130001971, 39.07810900025659], [-84.5440800001277, 39.07793899988404], [-84.5438690002405, 39.077584999885794], [-84.5437140004298, 39.077356999691254], [-84.54344800029102, 39.07708900024564], [-84.54306999999925, 39.076732000105615], [-84.54266999996618, 39.07632000021888], [-84.54249500006398, 39.0761109999829], [-84.54237700006323, 39.0758960003288], [-84.54226599973512, 39.07563999995112], [-84.54215199993233, 39.07533100001255], [-84.54179399973202, 39.0743070000728], [-84.54168499995208, 39.07396099976648], [-84.54161200015714, 39.07363900000925], [-84.5416020001114, 39.073487999896415], [-84.54161299998206, 39.07335600006422], [-84.54164300011928, 39.07323299991916], [-84.5413050000105, 39.07298099993887], [-84.5412360004135, 39.07292900027377], [-84.54074400031892, 39.07256099983184], [-84.54043899982209, 39.07266499966611], [-84.53973699966521, 39.072904999878936], [-84.53902000033804, 39.07298400015981], [-84.53838599995322, 39.073052000251316], [-84.53822000027186, 39.073079000115634], [-84.53806200008812, 39.07310399982579], [-84.53780699982, 39.07310000023541], [-84.5376939998421, 39.07310000023541], [-84.53710100036346, 39.07316900028613], [-84.53684100007247, 39.07319800024692], [-84.5367220002468, 39.073205000043245], [-84.53636800024447, 39.07324700020165], [-84.53602000008992, 39.07328800026565], [-84.53603199978548, 39.07333399995199], [-84.5352290002446, 39.07342499986464], [-84.53506900041101, 39.073454999787174], [-84.53499200041811, 39.073471000159046], [-84.53488100009002, 39.07349200016222], [-84.5343089996295, 39.0735519999375], [-84.53434499961452, 39.073703999976814], [-84.53439900004119, 39.07392899993865], [-84.53444400024703, 39.074125999672646], [-84.53452799991264, 39.07448000028718], [-84.53461999997413, 39.07486900007879], [-84.53463300039293, 39.07492699998592], [-84.53470299981481, 39.075220000327185], [-84.53478599965548, 39.07557100022438], [-84.53486699984633, 39.07591800033968], [-84.53508100010659, 39.076870000010565], [-84.53529100016887, 39.07780600000431], [-84.53532399978083, 39.07794699991073], [-84.53536300013889, 39.07806200019456], [-84.53515200025168, 39.07811800026486], [-84.53438800017054, 39.07828700020768], [-84.53363900015799, 39.07842599985731], [-84.53275600025115, 39.078550000010964], [-84.53255299986157, 39.07855799996837], [-84.5323789997843, 39.07855899996297], [-84.53213899958477, 39.07853000011339], [-84.53150799957302, 39.07840199993736], [-84.5313510001125, 39.07838799998028], [-84.5307030003823, 39.07840399993098], [-84.53066700039729, 39.07840499992776], [-84.53057500033579, 39.07839699995301], [-84.53010199960944, 39.07833200012423], [-84.52964200020021, 39.07825400025067], [-84.52950300028306, 39.07822400027633], [-84.52940399965054, 39.078190000290036], [-84.52917600004491, 39.078093000238994], [-84.52904600034856, 39.0780180001081], [-84.52870999988959, 39.07778099986784], [-84.5280629999843, 39.07731699991149], [-84.52735099978167, 39.07689199971778], [-84.52706000042686, 39.07670600026513], [-84.52693400003017, 39.07661699974621], [-84.52683399957273, 39.076557999810454], [-84.52675499993, 39.07652899983577], [-84.52662799970841, 39.07642500011713], [-84.52648499959328, 39.07632400032409], [-84.52640699977546, 39.07627799979738], [-84.52634999987406, 39.076244000268076], [-84.52633200033071, 39.07623700007581], [-84.52665600019583, 39.07595600015219], [-84.52679299956485, 39.075899999760715], [-84.52684899964135, 39.075878999776755], [-84.52706299990159, 39.07602200010825], [-84.52711899997809, 39.07601599992456], [-84.527492000247, 39.07566700021998], [-84.52758299958528, 39.07514199980293], [-84.52761699992045, 39.074954999875935], [-84.52775199963966, 39.07416699992341], [-84.52734499993389, 39.07370600010359], [-84.52726999959083, 39.07362100024369], [-84.5271340000467, 39.07347300029249], [-84.52669300000574, 39.072986999683216], [-84.52601799961305, 39.072240000047415], [-84.52591999970375, 39.07213199994159], [-84.52576400006814, 39.071918000108994], [-84.52583600003815, 39.07189999990446], [-84.52612100044352, 39.07182799973788], [-84.5265569995633, 39.07169400010399], [-84.52676999999862, 39.07159999977182], [-84.52682900044816, 39.07156600008087], [-84.52697699968788, 39.07145099967137], [-84.52702600009167, 39.071402999960505], [-84.52711899997809, 39.071279999898564], [-84.52718500010032, 39.071161000020176], [-84.52747399980534, 39.070462000270446], [-84.52711399995522, 39.07025599975973], [-84.52618099981966, 39.069720999735004], [-84.52579800040334, 39.06950100022332], [-84.52474499971886, 39.068898000211185], [-84.5245780002126, 39.06880999974162], [-84.52441099980803, 39.068985999873576], [-84.52409500033883, 39.06915299981095], [-84.52258100042023, 39.06927700021879], [-84.52241599966547, 39.06928399970662], [-84.52128599988643, 39.06772500008999], [-84.52102300012069, 39.06717000008147], [-84.52084900004343, 39.06686100002152], [-84.52069000003478, 39.06660599981331], [-84.51994000019732, 39.06557100034196], [-84.52137700012304, 39.064868999765935], [-84.52176700011037, 39.06467899994362], [-84.52430600022603, 39.06344300028204], [-84.52489200003194, 39.0631599999078], [-84.52500400018495, 39.06310500003863], [-84.52528299984421, 39.06296900015267], [-84.52524699985919, 39.062805000187986], [-84.52517300023933, 39.062470000347766], [-84.52569899977082, 39.06191800016867], [-84.5258030004262, 39.061812000077474], [-84.5259659997345, 39.06163999973568], [-84.52662000021081, 39.061645999746524], [-84.52684100014373, 39.06164699998082], [-84.52681100000652, 39.06158900032023], [-84.52665799984564, 39.0612850000451], [-84.52657400018005, 39.06111899987007], [-84.52646299985197, 39.060902000090486], [-84.52632999978258, 39.06063600003584], [-84.52626399966033, 39.06051700034774], [-84.5261690001241, 39.0603179997881], [-84.52612200026843, 39.06021899977392], [-84.52609899980389, 39.0601719996552], [-84.52606600019195, 39.060098999824326], [-84.52583299966511, 39.05959300021167], [-84.52578300033473, 39.059609000238424], [-84.52560599988439, 39.05966299977871], [-84.52547799983788, 39.059702000234815], [-84.52519800035371, 39.05978799967992], [-84.5251260003837, 39.059811000089624], [-84.52480900019128, 39.05990699989921], [-84.52475200028987, 39.059925999933284], [-84.52457300018972, 39.059978999670726], [-84.52455399992314, 39.05981599999577], [-84.5245430000525, 39.05966200021384], [-84.5245360003798, 39.05958399993349], [-84.52453200018184, 39.05951799995084], [-84.52452700015897, 39.05943799967785], [-84.52451299991527, 39.05925099999395], [-84.52333100025767, 39.059296000190635], [-84.5233029997703, 39.05929699976069], [-84.52315899983023, 39.05930400023814], [-84.52316399985311, 39.05903700016948], [-84.52321300025692, 39.05876900021122], [-84.52322099975451, 39.058681999946174], [-84.5232059996859, 39.05859500027148], [-84.52355399984044, 39.05793900003458], [-84.5239170000636, 39.05785799977719], [-84.52511100031506, 39.057654000034816], [-84.52534099957052, 39.05763300020227], [-84.52547299981501, 39.05764200003159], [-84.52562000012809, 39.057660999977614], [-84.52594499981811, 39.057719000074854], [-84.52617900016985, 39.057751999868344], [-84.52650399985986, 39.05775899980142], [-84.5265280001493, 39.057758000209645], [-84.5265430002179, 39.05734199998634], [-84.52655499991347, 39.057063000069924], [-84.52656699960905, 39.05679700020058], [-84.52607399968953, 39.05700399983132], [-84.525288999692, 39.05552099969265], [-84.52524699985919, 39.05544900025816], [-84.52530999960838, 39.055444000042826], [-84.52549299990649, 39.05541000024317], [-84.5255630002267, 39.05538299989822], [-84.52571200018961, 39.055324000348705], [-84.5260360000547, 39.055158999738715], [-84.52635599972186, 39.05500999981208], [-84.52646500040011, 39.05496000012208], [-84.52671700029518, 39.05485600001164], [-84.52681699985429, 39.054821999928926], [-84.52700500017527, 39.05478900016124], [-84.52728600038266, 39.05477400007152], [-84.52749999974458, 39.05475199974808], [-84.52765700010343, 39.054722000247274], [-84.5278160001121, 39.05467199965576], [-84.52789300010498, 39.054642000120914], [-84.52802199997642, 39.05458000034439], [-84.52828999976502, 39.054432000230136], [-84.5285070003983, 39.05431600016882], [-84.52860699995743, 39.05427700022568], [-84.5287950002784, 39.05422300005424], [-84.52883200008831, 39.05421700011014], [-84.52904700017348, 39.054180999737305], [-84.52894599989114, 39.05412999981714], [-84.52890999990612, 39.05409800006734], [-84.52864999961513, 39.05386400006068], [-84.52817000011441, 39.053433000240084], [-84.5280789998778, 39.0533510000427], [-84.52767299999695, 39.052989999785616], [-84.52738000009401, 39.0527239999207], [-84.52784399970118, 39.052377000182815], [-84.52941299987138, 39.051205000092274], [-84.53086900006366, 39.050110000054794], [-84.5315629998246, 39.04958299988556], [-84.531547999756, 39.04950199981005], [-84.53153600006043, 39.049441999823415], [-84.53053799962754, 39.04851700014932], [-84.53035299967961, 39.0483459999357], [-84.52994299960079, 39.04797400008509], [-84.52990900016391, 39.047943000067264], [-84.5301269997238, 39.047763000167336], [-84.53079200007076, 39.04727899992901], [-84.53074400039017, 39.047233999748386], [-84.52987099963077, 39.046335000334835], [-84.52974299958424, 39.046183999721585], [-84.52965700026883, 39.04605799970208], [-84.52962799995653, 39.04600299976705], [-84.52951499997863, 39.04578600027789], [-84.52939299977987, 39.04557400033901], [-84.52915000010564, 39.04518699981017], [-84.52899899959459, 39.04492000008604], [-84.52896900035566, 39.04487400002382], [-84.52874500004968, 39.044533000160385], [-84.52859699991167, 39.04434399981552], [-84.52843100023034, 39.044149000258706], [-84.52832999994799, 39.04404200021948], [-84.52751800018626, 39.04329799997119], [-84.52746700013263, 39.04325200024818], [-84.52706499955141, 39.04286799966259], [-84.52661600001285, 39.04245600026713], [-84.52612499974316, 39.042004000306974], [-84.52593999979523, 39.041831999858864], [-84.52573399993092, 39.041953999781796], [-84.52542900033238, 39.042073000052625], [-84.52519499998066, 39.04216099966081], [-84.5251420002772, 39.04218000028328], [-84.5245999999539, 39.04234000007159], [-84.52434600040901, 39.04242000017871], [-84.52412399975283, 39.042486000094236], [-84.52395700024657, 39.042538999664615], [-84.52375399985699, 39.04261900024406], [-84.52351700003052, 39.0427389998969], [-84.52333600028055, 39.04283400008796], [-84.5230430003776, 39.043030000284105], [-84.52282400009447, 39.043215000070056], [-84.5226209997049, 39.043427000111556], [-84.52243599975696, 39.043679000241696], [-84.52233500037295, 39.04385099968143], [-84.52226699970255, 39.04402799972635], [-84.52209500017341, 39.04424600021288], [-84.52201499980748, 39.04436100028806], [-84.52177899980593, 39.04473599965743], [-84.52161800014746, 39.04502899973472], [-84.52125699957412, 39.04576900014829], [-84.52093899955679, 39.046412000149076], [-84.52070799957812, 39.04687799974335], [-84.52044999983526, 39.04732999991296], [-84.52001100034244, 39.04803899996584], [-84.51912099986458, 39.04937899995707], [-84.51906099959012, 39.04946900034694], [-84.51898500032046, 39.0495840002907], [-84.51975799972412, 39.04989999994235], [-84.51984200028802, 39.049767999950724], [-84.52005300017522, 39.049431000227344], [-84.52039999960654, 39.049572000311386], [-84.52242499988631, 39.050389999931085], [-84.52265000001721, 39.05047499986077], [-84.5230650001189, 39.05062499997953], [-84.52232199995414, 39.051725000185215], [-84.52217299999123, 39.05194599965828], [-84.5221360001813, 39.05199800013139], [-84.52150299962142, 39.05293499966755], [-84.52139100036673, 39.05292199989975], [-84.5204039998045, 39.052804999789004], [-84.51978600021154, 39.052730999654656], [-84.5190580001154, 39.052647000011476], [-84.51883499963431, 39.05262099966983], [-84.51880200002236, 39.0526179999786], [-84.51878899960356, 39.05268400013238], [-84.5187140001588, 39.05305899996198], [-84.51867599962566, 39.05318399969521], [-84.51861299987647, 39.05324399999082], [-84.51816000013993, 39.053707999858005], [-84.51796099994831, 39.05343399989308], [-84.51768899996173, 39.05305499993339], [-84.51743100021888, 39.05269699994399], [-84.51682500032146, 39.05188499998011], [-84.51677199971972, 39.05181400000251], [-84.5167499999784, 39.051828000347626], [-84.51663500035067, 39.05169300004316], [-84.51585200000295, 39.05065499982555], [-84.51569200016938, 39.050426999839175], [-84.51550999969618, 39.050216000273096], [-84.51520199972462, 39.049791999840714], [-84.51483299965368, 39.04929800034525], [-84.51476200040688, 39.04920600031178], [-84.51455900001729, 39.04894099986409], [-84.51449799991791, 39.04885199991451], [-84.51499099983741, 39.04852299988002], [-84.51687899984985, 39.0472369996683], [-84.5170949997599, 39.04721999988794], [-84.51742700002092, 39.04719299989997], [-84.51750599966364, 39.047092999880654], [-84.51765200015181, 39.04694000000261], [-84.51776199975667, 39.04683899987868], [-84.51793599983395, 39.04670399980536], [-84.51809300019278, 39.046608999934946], [-84.51826200024718, 39.046525999738], [-84.51832900019433, 39.0465020001336], [-84.51836000015648, 39.046409000194124], [-84.51843899979919, 39.04617600028074], [-84.5188270001367, 39.04591100032544], [-84.5186430000137, 39.04561499973178], [-84.51863499961777, 39.045599000022655], [-84.51851199959412, 39.04539999997959], [-84.51850499992145, 39.04538899975399], [-84.51836500017934, 39.04517600024909], [-84.51795199972747, 39.04512899988536], [-84.5177349999925, 39.04511399983686], [-84.51736000007377, 39.045077999707594], [-84.51689599956826, 39.04503600023125], [-84.51677199971972, 39.04502499994898], [-84.5166229997568, 39.04501200012061], [-84.5165240000226, 39.045003000077024], [-84.51640699984674, 39.04499199978961], [-84.51628100034836, 39.04498100019817], [-84.51621000020323, 39.04497399969618], [-84.51574499987284, 39.044932999931326], [-84.51561099997853, 39.044925000348805], [-84.51549299997775, 39.04491900031248], [-84.51501299957873, 39.044877000043954], [-84.51496400007323, 39.044877000043954], [-84.51446799978069, 39.04483000017891], [-84.51426399956618, 39.04481200004421], [-84.51421699971051, 39.04480699977345], [-84.51409600023501, 39.04479399990492], [-84.51401000002129, 39.04478499983356], [-84.5139680001885, 39.04478000025853], [-84.51384500016485, 39.04476699968739], [-84.51373300001185, 39.044756000060914], [-84.51366799971453, 39.044737999907305], [-84.51363299955443, 39.04472899982881], [-84.51316599957418, 39.04468000031154], [-84.51307600006082, 39.04467100022565], [-84.51290399963337, 39.044655000302654], [-84.51279599967835, 39.044644999738495], [-84.51278399998276, 39.044646000213575], [-84.51209900044266, 39.04458100000129], [-84.51184300034961, 39.04455599995742], [-84.51171799977782, 39.04454000000838], [-84.51122099966035, 39.0444709998815], [-84.51112799977396, 39.04445799995113], [-84.5114969998449, 39.04418999978085], [-84.51299800024302, 39.04310199982087], [-84.5149540000275, 39.041705999751706], [-84.515046000089, 39.04163899998523], [-84.5151799999833, 39.04154400028036], [-84.51718900036956, 39.040112000256045], [-84.51821600021643, 39.03939699967742], [-84.51839899961622, 39.03925399980977], [-84.51870400011306, 39.03899100011738], [-84.51900000038908, 39.03875700029761], [-84.52008800033532, 39.03796799971099], [-84.52016399960499, 39.037911999884535], [-84.52025200036685, 39.03784800032762], [-84.52175200004176, 39.03675999968834], [-84.52269100002509, 39.036080000027006], [-84.52362900018352, 39.035399000193586], [-84.52393799998, 39.03517300033035], [-84.52456800016685, 39.034661999768616], [-84.52527699999642, 39.03412299967389], [-84.52572300006025, 39.03376200023229], [-84.52617300032205, 39.033369000272565], [-84.5266419999521, 39.03293399983026], [-84.52686999955775, 39.03270300002761], [-84.52707700014528, 39.0324970003008], [-84.5274939998968, 39.03204799999768], [-84.52793300028796, 39.03153699986697], [-84.52828300009233, 39.031096000196605], [-84.52861500035334, 39.03064500011336], [-84.52896599998263, 39.030126999728495], [-84.52926399990847, 39.02964100011057], [-84.5295490003138, 39.02913999999148], [-84.52984399986659, 39.02856100016061], [-84.5301400001426, 39.027908000153914], [-84.53034199980897, 39.027400000162686], [-84.53042700019778, 39.027159000168965], [-84.53045499978687, 39.02707600015172], [-84.53051900025928, 39.02688399978042], [-84.53054000017568, 39.02681799994672], [-84.53061299997063, 39.02660100015418], [-84.53078100020011, 39.025978000042194], [-84.5309000000258, 39.025420999826466], [-84.5309779998436, 39.024951000154395], [-84.5310620004075, 39.02421400034292], [-84.53106599970715, 39.02413099965928], [-84.53107900012593, 39.02384600003429], [-84.53107800030102, 39.02382700006499], [-84.53107699957779, 39.02377800001033], [-84.53107300027814, 39.02365099973906], [-84.53105099963854, 39.02340699998996], [-84.53099700011018, 39.023118999991866], [-84.53090300039884, 39.022816000319416], [-84.53081800001003, 39.02260700012254], [-84.53070400020721, 39.02238699968861], [-84.53046700038075, 39.022004000269014], [-84.5303650002735, 39.02184900029866], [-84.53029199958026, 39.02173700018062], [-84.53022700018124, 39.021636999725864], [-84.52968999988082, 39.02079899990374], [-84.52912300034147, 39.01987699969868], [-84.52895599993687, 39.019566999862896], [-84.5288530000047, 39.01931599972503], [-84.52878600005756, 39.01908399994522], [-84.52874900024764, 39.018810999837164], [-84.52874500004968, 39.01859700033205], [-84.52874500004968, 39.01858600012148], [-84.52876599996608, 39.018382000030286], [-84.52877600001182, 39.0182890000705], [-84.52881899966954, 39.01811699983011], [-84.52884200013406, 39.01802800013797], [-84.52888800016481, 39.017897000081454], [-84.52896000013483, 39.01773400031162], [-84.52898400042429, 39.01769099977871], [-84.52908200033357, 39.01751800001632], [-84.52910700044792, 39.017475000050055], [-84.52933500005358, 39.01713900001364], [-84.52957100005511, 39.01681000027764], [-84.52967700036034, 39.016665999900944], [-84.53034000015914, 39.01576099991867], [-84.53066900004711, 39.015324999805074], [-84.53103100044535, 39.01487700020514], [-84.53114400042327, 39.01474700009534], [-84.53167800035065, 39.014021000231644], [-84.53216600024727, 39.013354999864745], [-84.53402400012247, 39.01082099978247], [-84.53480200044733, 39.009758000327494], [-84.53485599997568, 39.00968500005318], [-84.53580500000477, 39.008389000024685], [-84.5361160003494, 39.007980999754786], [-84.53640500005439, 39.00764199977816], [-84.53649999959063, 39.007542000331355], [-84.53668200006382, 39.007351000269054], [-84.53702699984532, 39.007022999982155], [-84.53713200032563, 39.0069310000542], [-84.53741699983266, 39.00668499991707], [-84.53750300004639, 39.00661300027695], [-84.53752099958973, 39.00647800014339], [-84.53763399956763, 39.006218000220265], [-84.53772300015441, 39.0060770001872], [-84.53802500027821, 39.00564700028662], [-84.53817199969298, 39.005452000062775], [-84.53832999987671, 39.00518199999316], [-84.53853499991614, 39.004797000244494], [-84.53872800026, 39.00437100023478], [-84.53879799968186, 39.004193999997476], [-84.53885299993345, 39.004053000118674], [-84.53892400007857, 39.00370400009116], [-84.53898600000284, 39.003183000175], [-84.53902199998785, 39.0028499996618], [-84.5390670001937, 39.00243699977853], [-84.53921699998153, 39.00061499974831], [-84.53922000035458, 39.00007999999892], [-84.53921000030883, 38.999415000027724], [-84.53921100013375, 38.99908799966977], [-84.53918299964634, 38.9987750002792], [-84.53919400041532, 38.998667999964766], [-84.53910300017871, 38.998554999705], [-84.5389829996298, 38.99834799987926], [-84.53875900022213, 38.998037999921735], [-84.53858799961958, 38.99780100004933], [-84.53850499977891, 38.99768700005775], [-84.5384339996338, 38.99755600002435], [-84.53838799960305, 38.99744000014404], [-84.53829800008967, 38.99710999978162], [-84.53821100005104, 38.99670599981515], [-84.53815699962436, 38.99649399996762], [-84.53809200022536, 38.99636100029561], [-84.53797300039966, 38.996179000045395], [-84.53787299994224, 38.996042000016224], [-84.53781299966778, 38.99598100025425], [-84.53766999955265, 38.99585299986174], [-84.53753599965835, 38.99571399965868], [-84.53743399955108, 38.99562499970174], [-84.5370889997696, 38.995379999822575], [-84.53674999983589, 38.99516599993509], [-84.536568000261, 38.99509699978119], [-84.53644000021448, 38.99509299996248], [-84.53631399981778, 38.99512599968207], [-84.53613399989273, 38.99520699994408], [-84.53601400024212, 38.995020999695726], [-84.5355969995923, 38.994307000125474], [-84.53543699975873, 38.99398299998605], [-84.53536200031397, 38.9938319999315], [-84.5352290002446, 38.99353599976364], [-84.53514899987866, 38.99326899971779], [-84.5350479995963, 38.992986000311085], [-84.53500999996147, 38.99284399992825], [-84.53495800008294, 38.99262799972403], [-84.53488799976273, 38.99216900006852], [-84.53485900034873, 38.991945999730326], [-84.53484599992993, 38.99179799969719], [-84.53472200008137, 38.99159600019982], [-84.53464500008849, 38.99149400005485], [-84.53452299988976, 38.99133100018197], [-84.53433399974386, 38.99107800000841], [-84.53410799978805, 38.990832999748385], [-84.5338500000452, 38.99059700002681], [-84.53373399969423, 38.99050200015055], [-84.53322499988123, 38.99008599985925], [-84.53312600014702, 38.9900159997881], [-84.53305500000191, 38.989954999719515], [-84.53292600013047, 38.98985100029405], [-84.5328650000311, 38.98980199973973], [-84.5327460002054, 38.98964500000079], [-84.53266900021252, 38.98949100018984], [-84.53262200035685, 38.98933799990531], [-84.53260999976298, 38.989196999747286], [-84.53261300013602, 38.98913899996226], [-84.53263400005243, 38.989004999867845], [-84.53267599988521, 38.988869999651655], [-84.53282499984813, 38.988483000071994], [-84.53292199993251, 38.98828499969622], [-84.5330399999333, 38.98811399968769], [-84.53305699965172, 38.98810699983775], [-84.53312000029923, 38.988019999849996], [-84.53328900035362, 38.98785200024523], [-84.53348799964694, 38.987688999665664], [-84.53364099980782, 38.987581000158734], [-84.5340750001761, 38.98733299999492], [-84.53445299956955, 38.987128999839484], [-84.53457899996624, 38.98706000022893], [-84.53483300040946, 38.986923999898885], [-84.53531700010814, 38.98666499993915], [-84.53552499962227, 38.986551000163324], [-84.53555700030765, 38.98653199995013], [-84.53569200002687, 38.98645900014919], [-84.5360540004251, 38.98624300001028], [-84.53666899964503, 38.985801000038165], [-84.5376379997656, 38.985109999910655], [-84.53784500035316, 38.98498000026059], [-84.53844700005259, 38.98466300020974], [-84.53867200018348, 38.98451399968217], [-84.53899100002572, 38.984258999715415], [-84.53917699979856, 38.98408799975723], [-84.53925399979146, 38.98399899984422], [-84.53937599999018, 38.98381500004589], [-84.53945200015816, 38.98364900012108], [-84.53956400031116, 38.983234999950504], [-84.53961199999173, 38.98302300025161], [-84.53985899986394, 38.98202999967717], [-84.53997000019203, 38.98162900012953], [-84.54014699974402, 38.981049000281594], [-84.54017299968329, 38.98096499993862], [-84.54032599984417, 38.98054100027769], [-84.54035400033159, 38.98047499979248], [-84.54043600034736, 38.980282000009666], [-84.54024200017858, 38.98026200021919], [-84.53999199993332, 38.98020900004879], [-84.53969800020546, 38.98012600009746], [-84.53955900028829, 38.98006499988613], [-84.53942500039399, 38.97998299975963], [-84.5393199999137, 38.979886000313435], [-84.53921799980644, 38.97976600011634], [-84.53916599992789, 38.97966799967647], [-84.53914300036168, 38.979600999775144], [-84.53912900011798, 38.979515999809074], [-84.53911999989714, 38.97936900032522], [-84.53912200044529, 38.97890299982557], [-84.53912200044529, 38.978771999940555], [-84.53910200035381, 38.97834300033194], [-84.53909999980566, 38.97816199985909], [-84.53912099972204, 38.97795399972429], [-84.53919600006513, 38.97774599967691], [-84.53934800040109, 38.977493999861885], [-84.53942700004382, 38.97738800022598], [-84.5398139996581, 38.97689400031744], [-84.53991599976536, 38.97673299972707], [-84.53999899960603, 38.976568000000135], [-84.54007599959893, 38.97634300000679], [-84.54011900015493, 38.976167000246214], [-84.54013900024643, 38.976057999873596], [-84.54018000025431, 38.975616999920966], [-84.54018299972904, 38.97548600024209], [-84.5401719998584, 38.97530500014848], [-84.54014799956894, 38.975199000029335], [-84.54011199958393, 38.97510100025244], [-84.54004499963678, 38.974989000141775], [-84.5399829997125, 38.974914000180604], [-84.5399049998947, 38.974838000073795], [-84.53982600025196, 38.97478500003377], [-84.53951699955718, 38.97462999995254], [-84.53924600029384, 38.97451999993688], [-84.53911599969919, 38.97447899981748], [-84.53843500035701, 38.9742979999436], [-84.53817900026398, 38.97420000031659], [-84.53811200031683, 38.97416699991996], [-84.53793400004159, 38.97404499965337], [-84.53777000001007, 38.973872000008356], [-84.53769100036736, 38.973762000212076], [-84.53739099989339, 38.973253000219316], [-84.53730600040289, 38.9730900002482], [-84.53725699999909, 38.972937000135374], [-84.53722400038714, 38.972659000243894], [-84.53720099992259, 38.97235199981935], [-84.53718599985397, 38.97226999984019], [-84.53715499989184, 38.9721629999631], [-84.53710499966311, 38.97203200018063], [-84.53705600015763, 38.971933000104315], [-84.53699300040844, 38.9718310002619], [-84.53683699987451, 38.97164100030074], [-84.53660300042111, 38.97141800024751], [-84.53635599965057, 38.97123100022846], [-84.53608299983911, 38.97105799999528], [-84.53594300009702, 38.97097800015636], [-84.5358019996317, 38.97092199965663], [-84.53564500017119, 38.97088500003796], [-84.53539499992594, 38.9708549998611], [-84.53529000034393, 38.9708489998242], [-84.53492600029588, 38.9708640002647], [-84.53383800034963, 38.970956000289576], [-84.53360700037095, 38.971000000016346], [-84.53344300033942, 38.97105500033471], [-84.533090000162, 38.97124999965913], [-84.5327729999696, 38.971425999766744], [-84.53248900028746, 38.97157000003738], [-84.53227000000435, 38.97162399980155], [-84.53207199963762, 38.97164799968347], [-84.53191900037507, 38.97165399965268], [-84.53180899987191, 38.971641999713746], [-84.53158899976387, 38.97162000005322], [-84.53149099985458, 38.97161099974569], [-84.53133100002101, 38.97157800023786], [-84.53119999960144, 38.971552000106875], [-84.53087699956126, 38.97144800018595], [-84.53072900032156, 38.971388999712936], [-84.53052299955893, 38.9712439996557], [-84.53032099989257, 38.97107200027211], [-84.53015500021121, 38.970909000170344], [-84.52996100004245, 38.97071899983103], [-84.52987900002668, 38.970648000040256], [-84.52975400035322, 38.97054099980796], [-84.52927800015216, 38.970204999659586], [-84.52914500008275, 38.970083999685556], [-84.52902299988402, 38.969907999735305], [-84.52887200027129, 38.96966200010377], [-84.5288449996088, 38.96959499981473], [-84.52880500032414, 38.96949300009743], [-84.52860100010965, 38.96881700023055], [-84.52858600004103, 38.96871100017875], [-84.52858600004103, 38.96862100033971], [-84.52860299975947, 38.96849099974947], [-84.52864299994245, 38.968370000339604], [-84.5286970003691, 38.96827799974953], [-84.52873400017903, 38.968232000108095], [-84.5288160001948, 38.968150000248116], [-84.52894500006623, 38.96804399989658], [-84.52909599967896, 38.96793900024863], [-84.52921399967974, 38.96786799976651], [-84.52950599975779, 38.967694000231845], [-84.52980299985872, 38.96749400004609], [-84.5299560000196, 38.96736599982643], [-84.53012500007398, 38.96720300027594], [-84.53020899973957, 38.96710099990795], [-84.5302809997096, 38.96701500012721], [-84.53031900024276, 38.96694500029361], [-84.53036000025062, 38.96683000001763], [-84.53041100030426, 38.966622000125405], [-84.53042200017491, 38.96653500027809], [-84.53047599970326, 38.96627800014535], [-84.53048999994697, 38.966142999897755], [-84.53047499987834, 38.966067000157395], [-84.53042700019778, 38.96594899997618], [-84.53038100016701, 38.96588699993243], [-84.53031000002191, 38.96583400017869], [-84.53017399957947, 38.96576099999173], [-84.530012999921, 38.96571799999946], [-84.52989699957003, 38.96570900033891], [-84.52968499985792, 38.96571799999946], [-84.52951199960556, 38.96574299998189], [-84.52935699979487, 38.96576600026524], [-84.52929999989345, 38.965781999880996], [-84.52883999958593, 38.965932000206166], [-84.52847200023821, 38.966067000157395], [-84.52789899995275, 38.966257999892086], [-84.52771700037789, 38.9663040001169], [-84.52756300039209, 38.96632300017072], [-84.52740000018548, 38.96633299993964], [-84.52718599992524, 38.96632899989253], [-84.52702400044184, 38.96630699997867], [-84.52684500034171, 38.96624400006068], [-84.52678699971706, 38.96621100014774], [-84.5267259996177, 38.96616099980595], [-84.52664799979989, 38.96607800015244], [-84.52658800042376, 38.965932000206166], [-84.5265859998756, 38.96589299969117], [-84.52659900029441, 38.96576799995551], [-84.52664399960193, 38.96557399970545], [-84.52666100021868, 38.96551399972935], [-84.52666799989137, 38.96548800016628], [-84.52670300005147, 38.96536399991605], [-84.52681600002937, 38.965045999848115], [-84.52675199955696, 38.96496399979237], [-84.52659300044662, 38.96479899988666], [-84.52647000042298, 38.96472400031044], [-84.52636599976759, 38.96469199989898], [-84.52583799968798, 38.96457499973404], [-84.5256550002882, 38.96455800033279], [-84.52547600018805, 38.96455599990994], [-84.52526899960051, 38.96456599992829], [-84.52453399983168, 38.96463400029511], [-84.52412100027811, 38.96469700024801], [-84.52389699997212, 38.96474700022619], [-84.52344800043355, 38.96485999997702], [-84.52308900040835, 38.964966999710946], [-84.52197200014977, 38.965365000116044], [-84.52126400014512, 38.965605999718434], [-84.52039899978163, 38.96587000014754], [-84.51984300011294, 38.96606499977715], [-84.51935900041428, 38.966245999737396], [-84.5189950003662, 38.96639599977854], [-84.51862200009731, 38.96655899978904], [-84.51794300040496, 38.96691799968076], [-84.51764700012896, 38.96708600006739], [-84.51735099985295, 38.967267999687444], [-84.51704999955406, 38.96747100032378], [-84.51664500039642, 38.96776299985762], [-84.51659699981752, 38.967794000113], [-84.51652999987037, 38.96783799970866], [-84.51627299995242, 38.96800700017142], [-84.5159549999351, 38.96819499978268], [-84.51567799992569, 38.968357999844294], [-84.51559300043519, 38.96840800003225], [-84.51539400024355, 38.96849900029768], [-84.51519400022701, 38.96856899999257], [-84.51426799976414, 38.96880599996238], [-84.51297999980136, 38.96911100009755], [-84.51254799998122, 38.96920300030414], [-84.51238200029987, 38.96922500001702], [-84.5122430003827, 38.9692279997551], [-84.51208500019897, 38.96921100007354], [-84.51127500008704, 38.96904799987955], [-84.51116499958387, 38.969016000024546], [-84.51101099959808, 38.96903600019755], [-84.51083099967303, 38.96902799970994], [-84.51069199975585, 38.96903899994363], [-84.51050400033319, 38.96906800004353], [-84.51008800040658, 38.96915800001305], [-84.50981800006984, 38.96920700018895], [-84.50949300037983, 38.9692279997551], [-84.5093579997623, 38.969228999900594], [-84.50909599982148, 38.96920499989737], [-84.50900200011016, 38.96919899972071], [-84.5089769999958, 38.969197000127295], [-84.50884200027657, 38.96918899965793], [-84.50837000027347, 38.969160999753974], [-84.50797100006531, 38.969152999978974], [-84.50767599961422, 38.96916800008022], [-84.50738899955904, 38.96920700018895], [-84.5072589998627, 38.969231000191485], [-84.50697400035567, 38.969305999885016], [-84.50663000039907, 38.9694229999189], [-84.50638000015383, 38.96950800012672], [-84.50547600033059, 38.96978199996259], [-84.5048150001816, 38.96997599986316], [-84.50453300014928, 38.97006600007578], [-84.50428299990402, 38.97016700023255], [-84.50393899994744, 38.97034599992839], [-84.50369999957283, 38.970457000269505], [-84.5035420002874, 38.97048900017193], [-84.50333100040021, 38.97048199997624], [-84.50307299975904, 38.97046399976924], [-84.50278999990182, 38.971698999754814], [-84.50257200034194, 38.972585000008465], [-84.50256099957296, 38.97263500000616], [-84.50308600017783, 38.9727499999366], [-84.50354700031028, 38.97308900015723], [-84.50369899974791, 38.97320199987019], [-84.5035280000437, 38.9733259996691], [-84.50350200010442, 38.97335899975928], [-84.50344699985286, 38.97342299972094], [-84.50331499960836, 38.97350100011984], [-84.5031830002622, 38.973558000061495], [-84.50303099992625, 38.973609000154255], [-84.50287299974248, 38.97363600031172], [-84.50270700006114, 38.97364100002939], [-84.50253499963368, 38.97363600031172], [-84.50236300010455, 38.973620999759916], [-84.50234399983798, 38.973618000207885], [-84.5023029998301, 38.97380899983483], [-84.50133500043276, 38.97369200006232], [-84.50104199963148, 38.97367600013809], [-84.50089299966857, 38.973678999687664], [-84.50069100000219, 38.97368300001809], [-84.50022300019705, 38.973704999736206], [-84.49936500040457, 38.97375699980461], [-84.49918399975628, 38.97375599972305], [-84.49910099991561, 38.97374199997683], [-84.49901399987696, 38.973707999982935], [-84.49894399955679, 38.97366800017464], [-84.49887599978472, 38.97359900001572], [-84.49869500003474, 38.97328799982143], [-84.49864099960807, 38.97320600022757], [-84.49856600016332, 38.97311699990513], [-84.49812000009949, 38.97264699977684], [-84.49803600043391, 38.972559000247195], [-84.49785999980847, 38.97241700009307], [-84.49767300021075, 38.97232599997249], [-84.4974310003614, 38.97224999988195], [-84.4970089996887, 38.97212899990953], [-84.49667999980073, 38.97202299992546], [-84.4953619997007, 38.97160100002344], [-84.49527700021021, 38.97158799996337], [-84.49519799966917, 38.97158400021301], [-84.4951080001558, 38.97159399993765], [-84.49494999997205, 38.97164700027055], [-84.49476300037432, 38.9717369997567], [-84.49466899976466, 38.97178600024364], [-84.49443899961089, 38.97188399971909], [-84.49429100037122, 38.97191300005092], [-84.4942350002947, 38.971915000266065], [-84.49407700011096, 38.97189899994038], [-84.49385399962988, 38.97184499968752], [-84.49335400003768, 38.97169999986542], [-84.49291499964653, 38.9715129998925], [-84.49223699977912, 38.971178000282684], [-84.49190899971606, 38.97104300029429], [-84.49148500029185, 38.97089300031581], [-84.49137800016173, 38.970841999664096], [-84.4913349996057, 38.97081300029052], [-84.49109100010655, 38.970590999851744], [-84.49090899963335, 38.97046899971078], [-84.49077300008922, 38.970407000131075], [-84.49033500042131, 38.970261000027776], [-84.48998899991659, 38.97015500004169], [-84.48964199958695, 38.970032999848115], [-84.4892569996225, 38.96987600026876], [-84.48890099997034, 38.969704999797194], [-84.48877700012179, 38.96964099996786], [-84.4886940002811, 38.969588999671096], [-84.48835799982211, 38.96942400006158], [-84.48792299962895, 38.969256000330944], [-84.48753099999179, 38.96908200001526], [-84.48706200036172, 38.9688369997613], [-84.48691300039881, 38.968780000210714], [-84.48682499963695, 38.96875899981331], [-84.48675000019219, 38.96875600005537], [-84.48671099983412, 38.96875899981331], [-84.4866239997955, 38.968765000027304], [-84.48642399977895, 38.968799000298795], [-84.48604499966227, 38.96888700030957], [-84.4858429999959, 38.96891300002196], [-84.48572099979715, 38.96892099982412], [-84.4845829996222, 38.968927000024344], [-84.484343000321, 38.96892099982412], [-84.48408499967982, 38.96892900032377], [-84.48391099960254, 38.9689359999745], [-84.48351300011761, 38.96897100031305], [-84.48310100038897, 38.969014999876045], [-84.482985000038, 38.96902399981507], [-84.48303699991654, 38.969240000103014], [-84.48279300041739, 38.96924799986824], [-84.48220599988824, 38.969309999764015], [-84.48218499997185, 38.969299000270844], [-84.48207199999393, 38.96930700002942], [-84.48132999965408, 38.969401999712126], [-84.48045799961791, 38.96991499998772], [-84.48032399972362, 38.970001999874256], [-84.4801610004153, 38.970126999821225], [-84.48006000013295, 38.970221999800955], [-84.4799710004445, 38.97031899991349], [-84.47987199981199, 38.97045500001318], [-84.47978200029861, 38.97061600020966], [-84.47972899969685, 38.97080299975718], [-84.47971000032858, 38.970909000170344], [-84.47971399962823, 38.97109199986457], [-84.47976800005492, 38.97126100024611], [-84.47979200034436, 38.97132000012733], [-84.47983500000207, 38.971388000296365], [-84.47994299995709, 38.97152200021249], [-84.4800480004374, 38.97161199985749], [-84.48015700021735, 38.97167499989012], [-84.48069799981741, 38.97191300005092], [-84.48108799980476, 38.97205900024089], [-84.48196300021398, 38.97229799991187], [-84.48210499960591, 38.97234499980779], [-84.48245199993552, 38.97248800020569], [-84.48277800034877, 38.97264899997121], [-84.48293499980929, 38.972744000060246], [-84.48312999980296, 38.97289499970425], [-84.48349399985104, 38.97321099997555], [-84.48365799988255, 38.973394000007346], [-84.48429700029025, 38.97422500009893], [-84.4846179997823, 38.9747009999417], [-84.4850050002949, 38.975340000133244], [-84.48524700014424, 38.9757740000431], [-84.48529800019786, 38.97589800022721], [-84.48531300026649, 38.97595400028421], [-84.48532599978694, 38.97615300027823], [-84.48534099985557, 38.976189999938235], [-84.4853779996655, 38.97628400011993], [-84.48545499965839, 38.976393000144675], [-84.4855249999786, 38.97650600017261], [-84.4855629996134, 38.97657799971939], [-84.4856189996899, 38.97666799992286], [-84.48564200015446, 38.976703999972216], [-84.4857099999265, 38.97676999978234], [-84.48576900037605, 38.97683700026742], [-84.48585800006452, 38.97692500006813], [-84.48592900020962, 38.9770230001143], [-84.48618100010471, 38.97720099990822], [-84.48628099966382, 38.977252000170836], [-84.48647800020562, 38.977351999826], [-84.48660899972688, 38.97741799973058], [-84.48669099974265, 38.97745900024342], [-84.4868070000936, 38.97751100034872], [-84.48693199976707, 38.977578000132645], [-84.4870890001259, 38.977665999710844], [-84.48710699966925, 38.97767599997345], [-84.48722100037037, 38.97774599967691], [-84.48732699977728, 38.97780399971798], [-84.48747400009037, 38.97788600027295], [-84.48756199995393, 38.97793800006468], [-84.4876590000383, 38.97801200029334], [-84.48770800044208, 38.97806199995111], [-84.48782700026779, 38.97818400028076], [-84.48792900037505, 38.97829100013928], [-84.48803899997989, 38.97840499994771], [-84.48809400023147, 38.97847100026747], [-84.48818899976771, 38.978589999852666], [-84.48824900004217, 38.97866000004928], [-84.48832299966202, 38.97878600008909], [-84.48839399980713, 38.97889699977216], [-84.48843599963992, 38.97896899968114], [-84.4887500003576, 38.97958799978697], [-84.48879100036548, 38.979749000170905], [-84.48910500018484, 38.98100799975256], [-84.48921099959173, 38.98145800010363], [-84.48927000004129, 38.981754999774104], [-84.4892990003536, 38.9821720001078], [-84.48929400033072, 38.982393999856306], [-84.48926099982046, 38.98271300020121], [-84.4892230001856, 38.98287199985825], [-84.48898100033628, 38.983834000290095], [-84.48890799964303, 38.984198000271846], [-84.48885499993956, 38.98452399967588], [-84.48876899972585, 38.985145999857515], [-84.48855899966358, 38.987502999908045], [-84.48852299967857, 38.98796000003695], [-84.48851099998299, 38.98818199978954], [-84.48879899986308, 38.988197000049645], [-84.48979100044818, 38.98833700022943], [-84.49039899999542, 38.98841100006294], [-84.49069400044652, 38.988434999841324], [-84.49116200025166, 38.98838700027636], [-84.49128100007734, 38.98838700027636], [-84.49172299994322, 38.98838700027636], [-84.49218999992345, 38.98860499990086], [-84.49245100003937, 38.98894199989205], [-84.49258499993367, 38.989235000134464], [-84.49283799965364, 38.98968300014745], [-84.49296999989814, 38.989890000183806], [-84.49309299992179, 38.99006500019427], [-84.49368700012361, 38.990910999820564], [-84.49375800026874, 38.99104700017053], [-84.49379300042884, 38.99115300030321], [-84.49383600008652, 38.991576000114506], [-84.49390100038386, 38.9918000000488], [-84.49413200036253, 38.99234700018484], [-84.49421500020323, 38.992542000222066], [-84.49432800018113, 38.99281399997813], [-84.49590099965096, 38.992086000175036], [-84.49605499963675, 38.99201599998727], [-84.49613699965252, 38.991973999701806], [-84.49669700041748, 38.99071799986106], [-84.49720000038272, 38.98959199987243], [-84.49745300010271, 38.98902599984726], [-84.49758199997414, 38.98873800018432], [-84.49643499957834, 38.98767300011116], [-84.49741799994261, 38.98750800004307], [-84.49789900016654, 38.987427999935086], [-84.49946800033673, 38.98716600004824], [-84.49977299993527, 38.98709499998923], [-84.50195100037591, 38.9878249999224], [-84.50203800041454, 38.98775600029202], [-84.50239200041686, 38.98748399995032], [-84.50328600019435, 38.98836500023214], [-84.50356499985361, 38.98864700009085], [-84.50373899993089, 38.98875099988888], [-84.50381300044906, 38.9887949997306], [-84.5038729998252, 38.989088999748226], [-84.5040350002069, 38.98902300024955], [-84.50461599998994, 38.98879100025396], [-84.51114200001766, 38.98616900000507], [-84.51247299963816, 38.98563499988237], [-84.51288600009003, 38.98542099985591], [-84.5131520002288, 38.98566699990905], [-84.51457599973573, 38.986987000274226], [-84.51584799980499, 38.98816499977021], [-84.51729999979932, 38.98960599997609], [-84.51798100003978, 38.99028199969016], [-84.51869599971712, 38.99099100018132], [-84.51830300025507, 38.99186599975088], [-84.51818299970616, 38.992134000024336], [-84.51830699955471, 38.99218000019849], [-84.51848099963199, 38.99225900000285], [-84.51866899995295, 38.99235000033988], [-84.51903600037409, 38.99253599992819], [-84.51910999999392, 38.99256299985032], [-84.51928900009408, 38.992622000135604], [-84.51958100017212, 38.99270999986625], [-84.52020899981083, 38.992943999903005], [-84.52038799991097, 38.99299400018647], [-84.52059200012548, 38.99303100012216], [-84.52090699976975, 38.99308799970218], [-84.52099899983125, 38.993570000010976], [-84.5215389996064, 38.99639600034377], [-84.52165800033042, 38.99717800031644], [-84.52171100003389, 38.997195000265414], [-84.5233250004099, 38.99808899983468], [-84.52368299971188, 38.99905899999629], [-84.52370399962828, 38.999174000292534], [-84.52334399977816, 38.99925500010972], [-84.52279399995726, 38.99931000012236], [-84.52269400039815, 38.99931799998098], [-84.52215999957244, 38.999602000311164], [-84.52207199970888, 38.99965099966529], [-84.52210000019629, 38.99984299998482], [-84.52226300040292, 39.000949999704424], [-84.5222840003193, 39.000978999999056], [-84.52231600010636, 39.00107500016738], [-84.52231299973333, 39.00110300001739], [-84.52241999986344, 39.00176100028417], [-84.52247000009216, 39.00211600030351], [-84.52209699982326, 39.00237899967458], [-84.52152100006307, 39.002494999835], [-84.52062499973744, 39.002386999884315], [-84.52046300025404, 39.00232199989919], [-84.52038799991097, 39.00234900027614], [-84.52027300028325, 39.00243600010216], [-84.52020999963575, 39.002520999772635], [-84.52029599984947, 39.00256100003396], [-84.52143999987221, 39.00335600009966], [-84.52117600028159, 39.004317999965664], [-84.52065999989753, 39.00619499981323], [-84.52058799992753, 39.006454999820896], [-84.52067599979107, 39.00651899988028], [-84.52083099960177, 39.00664200034441], [-84.52111600000711, 39.00545999992505], [-84.52313700008892, 39.00641599998535], [-84.52336300004472, 39.00782099966351], [-84.5234030002277, 39.00825500008268], [-84.5233110001662, 39.00833299979849], [-84.5232530004399, 39.00838200008613], [-84.52234399969545, 39.009162999931156], [-84.52265000001721, 39.00940899982675], [-84.5237339997655, 39.01028000024649], [-84.52467500029698, 39.01103499978563], [-84.52541799956342, 39.01162999979022], [-84.52484199980323, 39.012043999987796], [-84.5240850002931, 39.01258600022155], [-84.52426000019528, 39.01380799970553], [-84.52429500035538, 39.0139889997643], [-84.52431200007382, 39.01413799965785], [-84.52432999961715, 39.01423800024888], [-84.52455300009824, 39.015397000348536], [-84.52436499977728, 39.01550399978959], [-84.52305500007317, 39.016323999837695], [-84.52074000026347, 39.01786799974308], [-84.52079899981472, 39.01785899973194], [-84.5208759998076, 39.01786600012846], [-84.52092199983836, 39.01788400014786], [-84.52010300040394, 39.0183320002397], [-84.51947700041504, 39.018675999954056], [-84.51939200002623, 39.0187189998879], [-84.51797500019201, 39.019640999839105], [-84.51665999956671, 39.0204989997184], [-84.5158629998736, 39.02101999980757], [-84.51533999981687, 39.02136200018877], [-84.51453599955275, 39.02189000019777], [-84.51471100035326, 39.02198700000071], [-84.51485199992025, 39.02212099974691], [-84.51489399975304, 39.02224200010684], [-84.51498099979167, 39.02231899965704], [-84.51509899979246, 39.02244799971258], [-84.5151239999068, 39.02247999984138], [-84.5152079995724, 39.02267499987709], [-84.51521500014341, 39.02276299991393], [-84.51522199981609, 39.02286100000051], [-84.51521299959528, 39.02291900005896], [-84.51518300035636, 39.02307900019014], [-84.51514900002115, 39.02325100022386], [-84.51512800010477, 39.023342999859125], [-84.51511200021125, 39.02340699998996], [-84.51504199989104, 39.02353800030607], [-84.51499699968521, 39.02362499989173], [-84.51492999973803, 39.02375399965782], [-84.51490399979879, 39.023771000199154], [-84.51484400042264, 39.023824999921], [-84.5147640000567, 39.02391900034647], [-84.51473200026965, 39.02398500009532], [-84.5147149996529, 39.024035000075536], [-84.51469100026175, 39.0241380001327], [-84.51466899962215, 39.02434299973212], [-84.51466100012455, 39.02443099978632], [-84.51463000016238, 39.024642000294804], [-84.51456499986506, 39.02487800021006], [-84.51447500035168, 39.025106000302486], [-84.51443599999364, 39.025181000117065], [-84.51437999991714, 39.02528900015693], [-84.51427600016007, 39.02546099969879], [-84.51418200044873, 39.025591999698044], [-84.51391100028708, 39.02592399987138], [-84.51378300024055, 39.026103000240596], [-84.51370600024767, 39.0262349997859], [-84.51312299991649, 39.02730600017891], [-84.5130390002509, 39.02742900008051], [-84.51294100034161, 39.02753800019452], [-84.51272100023357, 39.02772300006741], [-84.51257200027065, 39.02778000030786], [-84.51253999958531, 39.027847999971414], [-84.51253200008769, 39.02791800029567], [-84.51252700006482, 39.02796500024518], [-84.51251500036926, 39.02816299983784], [-84.51255399982901, 39.02827100020655], [-84.51262300032428, 39.028449000208674], [-84.51264699971541, 39.02854400007337], [-84.51270299979191, 39.029144999975436], [-84.51274200014997, 39.02956400016167], [-84.51273999960183, 39.02959799984131], [-84.51269000027143, 39.02966799982809], [-84.51267000017997, 39.02970400013324], [-84.51265099991338, 39.02973899973391], [-84.51263599984476, 39.02976800008773], [-84.5125959996618, 39.02984599980125], [-84.51254999963105, 39.029944999823606], [-84.5125470001563, 39.02996500022715], [-84.51248000020915, 39.03017099965815], [-84.5124540002699, 39.030222000129186], [-84.51240999988897, 39.03030899986256], [-84.5123210002005, 39.03044599981918], [-84.51195299995446, 39.03092399971215], [-84.51185400022027, 39.031069000326774], [-84.51177800005229, 39.03119899973453], [-84.511708999557, 39.031351000241884], [-84.51163599976206, 39.03163700027345], [-84.51160399997502, 39.03195599982902], [-84.5115810004088, 39.032345000164774], [-84.5115470000736, 39.03273399975501], [-84.51129000015565, 39.03390699990874], [-84.51126199966825, 39.03401499987384], [-84.51125499999556, 39.03404200001379], [-84.5116109996477, 39.034120999821226], [-84.51223499998677, 39.03426400030804], [-84.51302699965701, 39.03444199987051], [-84.513659000392, 39.03458499970776], [-84.51394600044719, 39.0365669999149], [-84.51410399973263, 39.03765199971032], [-84.51404799965611, 39.03763700016755], [-84.51399999997555, 39.03762799988218], [-84.51395200029498, 39.037617999718776], [-84.51390500043931, 39.03760699967698], [-84.51385799968531, 39.037596000331234], [-84.51381099982966, 39.03758399971088], [-84.51376499979891, 39.037570999908766], [-84.51371799994324, 39.03755800010425], [-84.51367299973741, 39.03754399972171], [-84.51362699970664, 39.03752900015601], [-84.51358200039911, 39.03751399988937], [-84.51353700019327, 39.037497999741014], [-84.51349199998744, 39.03748099971027], [-84.51344900032971, 39.037463999675374], [-84.51340400012388, 39.03744700033421], [-84.51337999983444, 39.03743399980911], [-84.51297800015153, 39.037282999707294], [-84.51264000004272, 39.03710999974388], [-84.51238099957664, 39.03694900008714], [-84.51213100022972, 39.036763000053035], [-84.51130600004917, 39.036036000287275], [-84.51117999965248, 39.03593699972618], [-84.51103900008549, 39.035854000248406], [-84.51080499973376, 39.035741000088], [-84.51064599972509, 39.03567999967321], [-84.51057899977795, 39.03577500028498], [-84.5106819997101, 39.0361460002829], [-84.51037700011159, 39.03646200004091], [-84.51021499972988, 39.03661899984789], [-84.51017600027012, 39.03683200003276], [-84.51013699991206, 39.036881000108934], [-84.51009900027724, 39.03692900026456], [-84.51000899986556, 39.03708399996284], [-84.50987699962107, 39.03706900029949], [-84.50976700001621, 39.03705800017222], [-84.50943700030335, 39.03703799968273], [-84.50890400020087, 39.036961000117564], [-84.5088859997592, 39.03700400009352], [-84.5088649998428, 39.03705300005037], [-84.50876100008573, 39.037306999652614], [-84.50867499987201, 39.03738199977813], [-84.50853500012992, 39.03750299983138], [-84.50849499994696, 39.03753799975629], [-84.50807599964729, 39.03829999966429], [-84.50804399986025, 39.038354000148075], [-84.50792400020964, 39.03857399972858], [-84.50780799985868, 39.03878300016075], [-84.50765100039817, 39.03906499999451], [-84.50761100021519, 39.03914500032133], [-84.50728700035009, 39.03972300011364], [-84.50723600029647, 39.03980800032043], [-84.50720799980907, 39.03985300034748], [-84.5069219995788, 39.04037300028643], [-84.5068789999211, 39.04044600027475], [-84.50683500043849, 39.04052099985924], [-84.50673300033122, 39.04070299973857], [-84.50669800017113, 39.04076800003041], [-84.50657299959934, 39.04075400028386], [-84.50640500026817, 39.040734999975555], [-84.50631999987935, 39.040725000251946], [-84.50505399965787, 39.040580999748585], [-84.50264799961158, 39.04030800032892], [-84.5025630001211, 39.04029299995452], [-84.50093200002662, 39.04012600012976], [-84.50022200037215, 39.04004100030555], [-84.49981599959295, 39.04000899975419], [-84.49997600032485, 39.03948599967822], [-84.50004599974675, 39.039405999737454], [-84.50008299955667, 39.039352999910015], [-84.50014600020417, 39.03927600007665], [-84.50027599990051, 39.038798000157996], [-84.50039300007637, 39.03841500034777], [-84.50058600042021, 39.038051000194415], [-84.50086099988151, 39.03769200033612], [-84.50114799993669, 39.037404999809986], [-84.50160499987116, 39.03707600018931], [-84.50210600018661, 39.036888000017385], [-84.5023029998301, 39.03662800026178], [-84.5030490003679, 39.03662499989135], [-84.50315700032294, 39.03655200014182], [-84.5032030003537, 39.036216000064115], [-84.50321300039943, 39.036137999705396], [-84.5032240002701, 39.03606600004934], [-84.50333800007292, 39.035246000108906], [-84.5035709997014, 39.03525699982052], [-84.50360699968641, 39.03488799987058], [-84.50367700000662, 39.034194999914114], [-84.50372200021246, 39.03375400008268], [-84.5032819999964, 39.03363499975634], [-84.50306600008633, 39.03358600022045], [-84.50181599975838, 39.03326900022343], [-84.50130699994536, 39.033123999935746], [-84.50117899989884, 39.033087999977], [-84.50105300040046, 39.03340300021517], [-84.50102400008812, 39.0334549996853], [-84.50075100027667, 39.03332800005324], [-84.50059399991783, 39.03325900014096], [-84.50046199967333, 39.033239999910556], [-84.50029599999198, 39.033235000216344], [-84.50013399961028, 39.0332839999956], [-84.49975299984376, 39.03343999994943], [-84.49922899996214, 39.033581999786925], [-84.49892099999056, 39.033635999689515], [-84.4984520003605, 39.03369900033786], [-84.49791400023517, 39.03374300013712], [-84.49740500042212, 39.033757999808664], [-84.4969309998709, 39.03373400005357], [-84.49642200005788, 39.033684999888536], [-84.49602600022276, 39.03365100008158], [-84.49584499957446, 39.03363700032055], [-84.49515099981352, 39.03360199985905], [-84.49497900028439, 39.0335919998237], [-84.49485700008563, 39.033581999786925], [-84.4947490001306, 39.033581999786925], [-84.49472300019134, 39.03358800008826], [-84.4942140003783, 39.03358299972086], [-84.49375700044382, 39.0336070002251], [-84.49350700019856, 39.0336070002251], [-84.4933409996189, 39.03359700019045], [-84.49321900031848, 39.03360199985905], [-84.49315499984606, 39.03362099999208], [-84.49308100022621, 39.033641000053166], [-84.49304000021833, 39.0336520000146], [-84.49288600023253, 39.033694999910736], [-84.49276900005668, 39.03369900033786], [-84.49246500028306, 39.0336649998399], [-84.49206400042506, 39.033581999786925], [-84.4917220001183, 39.03346499974003], [-84.49131600023745, 39.033239999910556], [-84.49073399973116, 39.03300999965464], [-84.49033299987317, 39.03287299978355], [-84.49015399977303, 39.032829000140424], [-84.48944699959328, 39.03258499997305], [-84.48940099956253, 39.032690000025354], [-84.48795699996413, 39.03598100022528], [-84.48768699962737, 39.036501999944875], [-84.48704599956989, 39.037334999811144], [-84.48643899984756, 39.03812399979085], [-84.48565499967492, 39.0392790003345], [-84.48529999984768, 39.0398019998495], [-84.48522000038005, 39.04101599986454], [-84.48546899990208, 39.04161199995724], [-84.48667800022216, 39.043827999654866], [-84.48698799984355, 39.04427500019488], [-84.48811900034583, 39.04590900010873], [-84.48817200004927, 39.04596799984952], [-84.4886030000445, 39.046452000001324], [-84.48893799978026, 39.04682200000255], [-84.48970000021158, 39.047358000285186], [-84.49169500035413, 39.04840699987993], [-84.49316099969384, 39.04938699973278], [-84.49321000009765, 39.04943600017078], [-84.49362699984917, 39.049883000105226], [-84.49419500011173, 39.05070899993479], [-84.49443799978597, 39.05106300009366], [-84.49462699993185, 39.051331999682176], [-84.49481400042792, 39.05158000010155], [-84.49534499998227, 39.05228999971585], [-84.49629300018643, 39.053552999659644], [-84.4972129999032, 39.05515400020039], [-84.49761200011137, 39.05631099986552], [-84.4977200000664, 39.05740700031359], [-84.49772400026436, 39.05765500032563], [-84.49773900033298, 39.05852500034316], [-84.49741600029279, 39.05948700011738], [-84.49630300023219, 39.061467999672324], [-84.49555599986947, 39.062979000214774], [-84.49527200018734, 39.063894999754076], [-84.49438300043272, 39.06676899985299], [-84.49434999992243, 39.066862000181935], [-84.49384500030736, 39.06825300031127], [-84.49362600002425, 39.06885699968902], [-84.49352499974192, 39.06930300000669], [-84.49322000014338, 39.0706280000955], [-84.49318300033347, 39.07135600031367], [-84.49335700041074, 39.0718470000505], [-84.49381699981996, 39.072630999790775], [-84.49473700043504, 39.073640000073574], [-84.49643600030157, 39.07537999988092], [-84.49648999982992, 39.07543599998774], [-84.49753900031642, 39.07664000025147], [-84.49761999960899, 39.0767330001261], [-84.49764800009639, 39.07676500007713], [-84.49777199994493, 39.07693099972081], [-84.49855500029265, 39.078089000234016], [-84.49908800039513, 39.078875000341185], [-84.49912299965692, 39.078925999819404], [-84.49940399986433, 39.079276000125326], [-84.49943200035172, 39.079310000285645], [-84.49944999989508, 39.07933499988035], [-84.49967800039902, 39.07962000021249], [-84.49981599959295, 39.07979099999862], [-84.49989299958585, 39.079886999831494], [-84.49991500022549, 39.0799139998699], [-84.50017200014345, 39.08023400033894], [-84.50080200033028, 39.08102000025933], [-84.50125000004394, 39.081516000158025], [-84.50153899974895, 39.081838000230306], [-84.50297400002484, 39.08344099998764], [-84.5033389998978, 39.08396699993434], [-84.50375999984729, 39.084571000091564], [-84.50436800029284, 39.085850000216745], [-84.50458099982984, 39.08680099987161], [-84.50462400038587, 39.08699399972706], [-84.50461400034013, 39.08789499992625], [-84.50458800040086, 39.08804599988604], [-84.50457099978411, 39.088143000197576], [-84.50424799974392, 39.088851999688934], [-84.50404600007755, 39.08927199974049], [-84.50347399961703, 39.09046500007508], [-84.50337900008078, 39.09088200012537], [-84.50329299986706, 39.09126300021285], [-84.50332600037733, 39.09151200030521], [-84.50359800036391, 39.092045000045566], [-84.5061609998707, 39.09517700024194], [-84.50947499993816, 39.09414299989118], [-84.5096039998096, 39.09409999984828], [-84.51013000023937, 39.09393799996999], [-84.51033799975352, 39.09387299981951], [-84.5108569996123, 39.09374300003603], [-84.51344099993379, 39.09327800000184], [-84.51577300036024, 39.092922000002446], [-84.51593400001872, 39.092897000342326], [-84.51842000043094, 39.092516999815565], [-84.51966200036297, 39.092367999962], [-84.51974900040162, 39.092357999881024], [-84.5198179999986, 39.09235399998765], [-84.5198690000522, 39.0923500000941], [-84.52139899986433, 39.09223800019295], [-84.52246300041945, 39.092207999890405], [-84.52257200019939, 39.09220499978975], [-84.52291699998091, 39.092193999884344], [-84.52377200029864, 39.09227199968375], [-84.52562599997589, 39.09247800006209], [-84.52668899980777, 39.09274000015457], [-84.52815800041886, 39.093418999661424], [-84.5285340001625, 39.09359199972392], [-84.53024600044782, 39.094465000189864], [-84.53083599955336, 39.09480000013951], [-84.53237700013447, 39.0956349999441], [-84.53394200010669, 39.09639800012725], [-84.53420499987244, 39.096497000284174], [-84.53480099972408, 39.09678800010967], [-84.53654300014664, 39.09751400005905], [-84.53673200029253, 39.09760700030181], [-84.53708799994467, 39.09774699994864], [-84.53826600030261, 39.09543099993273], [-84.53854699961171, 39.09513799986805], [-84.53879100000918, 39.094895000002055], [-84.53888999974339, 39.09477499975076], [-84.53895400021578, 39.094633000247], [-84.53895300039089, 39.09458399980687], [-84.53892499990349, 39.0945100002444], [-84.53872900008489, 39.09407499990857], [-84.5386379998483, 39.09390300011094], [-84.53860600006125, 39.093841999737364], [-84.5384770001898, 39.09356199999739], [-84.53844299985464, 39.093497000197544], [-84.53841000024265, 39.09346100033623], [-84.53843199998397, 39.093420999926515], [-84.53844500040277, 39.09336399966951], [-84.53847100034203, 39.09305000032665], [-84.53847899983964, 39.09280199987969], [-84.5384830000376, 39.0927530002589], [-84.53853300026633, 39.09242699992295], [-84.53854599978679, 39.09197899974028], [-84.53800099998874, 39.09137100031891], [-84.53798400027031, 39.0904269997105], [-84.53800600001162, 39.08992800021561], [-84.53802899957785, 39.08961500005385], [-84.53804500036968, 39.08938599985081], [-84.53808300000452, 39.08884299965549], [-84.53809499970008, 39.08877299974339], [-84.53809800007313, 39.08872300026173], [-84.53810700029396, 39.08864599987503], [-84.53812400001242, 39.08842699995455], [-84.53813400005815, 39.088311999832285], [-84.53815999999743, 39.088035000029166], [-84.53818599993667, 39.08747099987169], [-84.5382010000053, 39.08723999993699], [-84.5382930000668, 39.08723900006538], [-84.53852300022058, 39.08723900006538], [-84.53886700017716, 39.087311999717066], [-84.53919500024021, 39.08734200001046], [-84.53955099989238, 39.08729800013355], [-84.53989499984895, 39.087342999880555], [-84.54003399976611, 39.08761299985149], [-84.54023799998063, 39.08783200020761], [-84.54055099997507, 39.08796500001247], [-84.54078299977866, 39.08817200027919], [-84.54112699973525, 39.08820999976701], [-84.54119600023053, 39.088193000090456], [-84.54145200032357, 39.08813099979966], [-84.54178000038664, 39.08799800030786], [-84.54185400000648, 39.087808999864706], [-84.54196299978642, 39.08594600017201], [-84.54197799985505, 39.08567699998921], [-84.54198600025096, 39.08553399970251], [-84.54201800003803, 39.08496099993661], [-84.54204099960424, 39.08457200000094], [-84.54206300024386, 39.08419499968698], [-84.5420449998022, 39.08418900019838], [-84.54197100018234, 39.084156000212786], [-84.54137100013273, 39.084066000110155], [-84.54139600024709, 39.08400999987984], [-84.54220600035899, 39.08222999972919], [-84.54229699969729, 39.08225299979935], [-84.54271500017201, 39.08245199988108], [-84.54281800010418, 39.08248400002758], [-84.54299999967905, 39.082510999769426], [-84.54349299959857, 39.08265299997201], [-84.54377499963086, 39.08271999987501], [-84.54413200000624, 39.08277199999526], [-84.54452199999358, 39.08284400015216], [-84.54467799962919, 39.08288700008486], [-84.54498200030112, 39.082990000109056], [-84.54512600024115, 39.08301599972583], [-84.54520900008184, 39.0830139998629], [-84.5452890004478, 39.08300000012372], [-84.54524300041703, 39.083171000085095], [-84.54519099964017, 39.083229000140975], [-84.54510500032477, 39.083269999983386], [-84.54498200030112, 39.08333999977832], [-84.54480599967572, 39.083434999737605], [-84.54463099977352, 39.0835420000523], [-84.54454000043525, 39.08360099972629], [-84.54429400038795, 39.08378899967027], [-84.54383900010329, 39.08398100017892], [-84.54372600012539, 39.08402200028158], [-84.54366199965295, 39.084062999663104], [-84.54358999968292, 39.084126999874584], [-84.54352000026105, 39.08421500007056], [-84.54343099967427, 39.084366000238155], [-84.54337499959777, 39.08441699993079], [-84.54364900013248, 39.08446900019475], [-84.54573100031365, 39.08485999981177], [-84.54766700000664, 39.08521999966493], [-84.5477409996265, 39.08523500025816], [-84.54779400022827, 39.08524400005468], [-84.54798500002397, 39.08528099982605], [-84.54802199983389, 39.085287999818284], [-84.54852399997422, 39.085381000147486], [-84.54939799966023, 39.08554300015823], [-84.54923199997887, 39.08468999966857], [-84.54922000028331, 39.08459300018666], [-84.54910200028253, 39.08368700003733], [-84.54910300010745, 39.083671999812225], [-84.54909300006172, 39.08366700020135], [-84.54904799985586, 39.083645999739964], [-84.54908899986374, 39.08358500025686], [-84.54897300041111, 39.08269699995709], [-84.54891599961138, 39.08226000009213], [-84.54887299995367, 39.08218800003652], [-84.54871999979281, 39.08186600016713], [-84.54885799988507, 39.081686000279724], [-84.54891700033461, 39.08160899988157], [-84.54908600038901, 39.081378000274846], [-84.54915499998599, 39.0812809997255], [-84.5493180001926, 39.08106199995008], [-84.54981399958685, 39.08146199990237], [-84.54992200044018, 39.081553999744955], [-84.55012499993147, 39.081718000076286], [-84.55023799990937, 39.081636999909286], [-84.55041299981154, 39.081512000347104], [-84.55063999959228, 39.081348000234236], [-84.55103600032572, 39.08106199995008], [-84.55109800025, 39.08134700027916], [-84.55115099995344, 39.081575000131835], [-84.55117299969474, 39.081671000326466], [-84.55133000005357, 39.08154700007951], [-84.55139899965054, 39.08149199989456], [-84.55150900015373, 39.08140499974266], [-84.55157699992579, 39.081352000054444], [-84.55165499974358, 39.08141100016535], [-84.55176600007168, 39.08134199980618], [-84.55185599958506, 39.081270000208335], [-84.55180799990447, 39.08122799994408], [-84.55264499978057, 39.08054900022202], [-84.55297399966854, 39.0802350003098], [-84.55301700022454, 39.08026100024457], [-84.55323899998238, 39.08001700005068], [-84.55338600029549, 39.07981000025923], [-84.55341300005966, 39.07977600033981], [-84.55350299957304, 39.07960999971871], [-84.55355899964954, 39.07950800031961], [-84.55358299993898, 39.07946199977661], [-84.55362599959669, 39.07934799966611], [-84.55366400012983, 39.07922700017304], [-84.55371400035855, 39.07908899999657], [-84.55375500036644, 39.07892999977693], [-84.55377700010774, 39.07885499983838], [-84.55380100039719, 39.078732000212966], [-84.55381200026783, 39.07859899973601], [-84.55381100044292, 39.078506000228806], [-84.55381200026783, 39.07816900029025], [-84.55382700033645, 39.07768299994488], [-84.55381599956748, 39.07722000005497], [-84.55381999976545, 39.07708300015273], [-84.55384200040507, 39.07641599989286], [-84.55375100016846, 39.07642400009228], [-84.55383099963609, 39.07600300022233], [-84.55390400032935, 39.075656999863355], [-84.55399100036797, 39.07538400003947], [-84.55407800040663, 39.07511099985679], [-84.55419999970704, 39.07479900024761], [-84.55421300012583, 39.07476600005404]]]}, "properties": {"id": "covered-us-ky-covington", "status": "covered", "jurisdiction": "Covington", "country_id": "us", "state_id": "ky", "area_type": "city", "note": "Covered by public tree inventory for Covington; geometry from official jurisdiction boundary."}}]}