{"type": "FeatureCollection", "features": [{"type": "Feature", "geometry": {"type": "Polygon", "coordinates": [[[-96.80015999993344, 46.81966399999283], [-96.80016999997918, 46.81881000007285], [-96.80011100042796, 46.8182990002352], [-96.79986700003049, 46.818298000069575], [-96.79906799978924, 46.81829999978611], [-96.79906799978924, 46.818255000306046], [-96.7991060003224, 46.8160939998247], [-96.79912100039098, 46.81533300008994], [-96.79913599956129, 46.81448400019081], [-96.79914599960703, 46.81389399999061], [-96.79914999980501, 46.813700000179935], [-96.79917900011732, 46.81203100016984], [-96.79919599983576, 46.81107600006181], [-96.79904799969775, 46.811076999746945], [-96.7986629997333, 46.811076999746945], [-96.79647099994723, 46.811080999717035], [-96.79422499973455, 46.81108500030164], [-96.79218799975922, 46.81108799997135], [-96.78940699979421, 46.811093000240284], [-96.78886500036923, 46.811093999925134], [-96.78886600019413, 46.81121200010969], [-96.78890999967673, 46.81478300001742], [-96.78894099963888, 46.817463999907964], [-96.78894900003482, 46.81810299999419], [-96.7889559997075, 46.8183219997368], [-96.78878199963023, 46.8183219997368], [-96.78264899996292, 46.81833200015849], [-96.77841400035378, 46.81834099979875], [-96.77337999960505, 46.81838299994419], [-96.7732060004261, 46.81838400010824], [-96.76777400019243, 46.81843099980676], [-96.76779599993375, 46.81989499992804], [-96.76786500042904, 46.82428800027989], [-96.76788499962221, 46.82557099984086], [-96.76788700017033, 46.82569799985891], [-96.76788799999525, 46.82575300014147], [-96.76761199981073, 46.82575900030299], [-96.76759400026738, 46.82575900030299], [-96.76673300010185, 46.825784999765865], [-96.7665530001768, 46.82578399973949], [-96.76655099962866, 46.825608999751914], [-96.76654700032901, 46.82516400007974], [-96.76684500025485, 46.825163000041805], [-96.76684400042993, 46.82512399977684], [-96.76684400042993, 46.82507100015943], [-96.76683699985894, 46.82442400010708], [-96.7644550001021, 46.824413000151914], [-96.76432799988049, 46.824413000151914], [-96.7643289997054, 46.82448899974029], [-96.7643289997054, 46.82455600000807], [-96.76433100025353, 46.82466799987479], [-96.76434100029928, 46.825722999938435], [-96.75757300042224, 46.82574900003343], [-96.75740600001768, 46.82575000006046], [-96.75726299990254, 46.82575000006046], [-96.75147199964368, 46.82575900030299], [-96.74786600039647, 46.825764999849184], [-96.74785800000056, 46.82488199970665], [-96.74784399975684, 46.823416000010006], [-96.74782799986332, 46.82168699976323], [-96.74780699994693, 46.81945700006999], [-96.74779600007626, 46.818377999738324], [-96.7476439997403, 46.818377999738324], [-96.74721199992015, 46.818376000024685], [-96.74721199992015, 46.818421000018226], [-96.74729200028611, 46.825765999875955], [-96.74720000022461, 46.825765999875955], [-96.7469950001852, 46.825765999875955], [-96.7387929998572, 46.82577200003602], [-96.73881200012376, 46.82760699974317], [-96.73614699961139, 46.8276160002894], [-96.7361399999387, 46.827184000028275], [-96.73612300022027, 46.82616499984244], [-96.73611700037249, 46.82578999989755], [-96.71497799961682, 46.825944000037424], [-96.71497799961682, 46.825959999795174], [-96.71502399964757, 46.829368000071675], [-96.71503700006636, 46.830351000044814], [-96.71504100026432, 46.83062900025358], [-96.71503799989127, 46.830803999877396], [-96.71481299976037, 46.830803999877396], [-96.71372499981412, 46.83080000014523], [-96.71240500006427, 46.83079499986498], [-96.71219699965181, 46.83079499986498], [-96.71142500007305, 46.830792000065365], [-96.71101300034441, 46.8307900001989], [-96.71073299996192, 46.8307890002656], [-96.71065299959598, 46.83073400021918], [-96.71027400037761, 46.830864000126475], [-96.70985699972778, 46.83100500017166], [-96.70811500020355, 46.83098800014221], [-96.70776299985104, 46.83098700021263], [-96.70610599981731, 46.83098100002009], [-96.70580100021877, 46.83098700021263], [-96.7064079999411, 46.8315509999559], [-96.70661100033068, 46.83173899978422], [-96.70692699979985, 46.83203499980258], [-96.70787599982894, 46.83292600020441], [-96.70819300002135, 46.83322299971884], [-96.70809500011207, 46.83322199983085], [-96.7078010003842, 46.83322099994283], [-96.7077040002998, 46.83322099994283], [-96.70763999982738, 46.833220000054745], [-96.70744999985659, 46.83321900016671], [-96.7073870001074, 46.83321900016671], [-96.70695699993709, 46.83321599988782], [-96.70685599965475, 46.83321599988782], [-96.70577000025663, 46.83320999994412], [-96.70571800037811, 46.83320999994412], [-96.70571599982995, 46.833546999943025], [-96.70570999998218, 46.834614999710354], [-96.70570999998218, 46.83465899977032], [-96.70484600034192, 46.83465600018638], [-96.70459899957139, 46.834653999849145], [-96.70455099989083, 46.834653999849145], [-96.70455000006591, 46.83474800025635], [-96.70455000006591, 46.83479099973407], [-96.7024379997475, 46.83478599982513], [-96.70244600014342, 46.83399599976917], [-96.70244899961816, 46.833192999997614], [-96.70191399986587, 46.83319100022044], [-96.7004319997343, 46.833181999993215], [-96.70034800006871, 46.833181999993215], [-96.69565200032712, 46.83315800019923], [-96.69408700035488, 46.83314999985584], [-96.6897220001511, 46.83317000009757], [-96.67662800026291, 46.83323100005141], [-96.6763319999869, 46.83323299982706], [-96.672628999757, 46.83323699999272], [-96.67254500009142, 46.83323799988049], [-96.67242500044081, 46.84046999979248], [-96.67116000004424, 46.84049100013503], [-96.65449699982045, 46.83483500026448], [-96.65448500012486, 46.83330000025828], [-96.65405199958153, 46.83330100014483], [-96.65253099999023, 46.83330600019188], [-96.65202399982701, 46.83330799996478], [-96.6520149996062, 46.83640600005057], [-96.65201200013145, 46.83757600022474], [-96.65201100030654, 46.83800799991886], [-96.65201100030654, 46.83802500018574], [-96.65035199972466, 46.83803599981334], [-96.64832499979507, 46.83805099986053], [-96.64776699957824, 46.838055000282075], [-96.64770999967685, 46.838055000282075], [-96.64771999972258, 46.83966500013627], [-96.64772300009562, 46.8403130002193], [-96.64772499974545, 46.84055899987127], [-96.64952400006942, 46.840556999753716], [-96.65085800006297, 46.84055399988453], [-96.65194600000923, 46.84055399988453], [-96.65200499956045, 46.84055399988453], [-96.65250500005095, 46.84055100001521], [-96.65382099960284, 46.84054500027598], [-96.65732499964112, 46.840528000191966], [-96.66042699999647, 46.84051199985494], [-96.66400200017985, 46.840493000255044], [-96.66424999987697, 46.84058300004678], [-96.66470400033674, 46.840732000230815], [-96.66993900002859, 46.84250500028877], [-96.67237900041006, 46.84338499999599], [-96.6724890000149, 46.84338599969494], [-96.67247700031935, 46.846444999835626], [-96.67310499995806, 46.84638900019477], [-96.67410400021585, 46.84562099975646], [-96.67870000039834, 46.84562200002817], [-96.68029799998251, 46.846526999906565], [-96.68189999976468, 46.84653599974189], [-96.68829600009602, 46.8468259997044], [-96.6938560003762, 46.84683000008697], [-96.69386100039908, 46.84675600002629], [-96.6938630000489, 46.84660800021341], [-96.69386999972161, 46.84616799998904], [-96.69387300009465, 46.84602100004924], [-96.69387899994243, 46.84561300003972], [-96.69387899994243, 46.845602999777704], [-96.69402399970738, 46.845602999777704], [-96.69518899964653, 46.8456070002514], [-96.69534699983028, 46.8456070002514], [-96.69534000015759, 46.84609600015656], [-96.69532799956372, 46.846820000051515], [-96.69646200043903, 46.8468180001671], [-96.69921800028968, 46.84681399978359], [-96.70115300015775, 46.84681100026377], [-96.70271300010711, 46.846808000129414], [-96.70271099955897, 46.84709599997814], [-96.70270899990915, 46.84733399983135], [-96.70270700025934, 46.847662999699075], [-96.7026989998634, 46.84882200001093], [-96.70269700021359, 46.84963700020873], [-96.7044150003467, 46.849646999719745], [-96.7044649996771, 46.849646999719745], [-96.70446300002727, 46.84984800018653], [-96.70441799982142, 46.854953000126], [-96.70402000033648, 46.85495099993004], [-96.69911700000733, 46.854935000202886], [-96.69911500035752, 46.85526099992315], [-96.69909500026601, 46.8585509997841], [-96.70402799983408, 46.8585670002767], [-96.70439600008011, 46.8585679996931], [-96.70440100010299, 46.86041599990592], [-96.70439899955485, 46.86048400021876], [-96.70539899963755, 46.86048400021876], [-96.70539799981265, 46.86216299985899], [-96.70485700021257, 46.86216099993163], [-96.70467300008956, 46.86215999996793], [-96.70440199992791, 46.86215900000421], [-96.70437400033882, 46.86215900000421], [-96.70438699985928, 46.86396400002638], [-96.70437699981355, 46.865759999868665], [-96.70434199965344, 46.869348999748205], [-96.71374999992847, 46.86932399969806], [-96.71375099975339, 46.869212999998176], [-96.71469700030774, 46.8692139998305], [-96.7147440001634, 46.8692109997193], [-96.71492499991336, 46.869204000278046], [-96.71492599973828, 46.86917900016036], [-96.71492800028642, 46.86906299975686], [-96.71492999993625, 46.868914000162555], [-96.71493099976115, 46.868868000228964], [-96.71493499995911, 46.86860699991285], [-96.71567499975082, 46.86860799975646], [-96.71753500017414, 46.868610000057814], [-96.71908300042793, 46.86861099990137], [-96.72021999987966, 46.86861099990137], [-96.72021499985681, 46.86891700029035], [-96.72021099965885, 46.86919700022169], [-96.72020999983393, 46.86923999976374], [-96.71980899997594, 46.86924100020972], [-96.71834000026318, 46.86924299987332], [-96.71726200036267, 46.869245000151004], [-96.71626800012774, 46.86924599998274], [-96.71611699961669, 46.86925200020106], [-96.71582700008678, 46.86924699981445], [-96.71504499956397, 46.86924800026031], [-96.71492400008846, 46.86924800026031], [-96.71492400008846, 46.86932100020716], [-96.71491800024069, 46.86964800023133], [-96.71596600000396, 46.86964699979294], [-96.71596099998108, 46.86972399971686], [-96.71595799960804, 46.869998000217194], [-96.71595199976026, 46.87051899975539], [-96.71572199960649, 46.87052000017754], [-96.71547200025955, 46.87052000017754], [-96.71490800019492, 46.87052000017754], [-96.7149140000427, 46.87059700007734], [-96.7149130002178, 46.87060799979077], [-96.71489599960105, 46.87237599986138], [-96.71489499977615, 46.872571000154814], [-96.71501100012709, 46.8725799999245], [-96.71836000035466, 46.872939000151355], [-96.72106699980152, 46.87292600016111], [-96.72546299996745, 46.87292699992427], [-96.72545799994458, 46.87322800025538], [-96.72552400006683, 46.873226999883705], [-96.72552099969377, 46.8735279997604], [-96.72551700039413, 46.87385799979679], [-96.72551300019617, 46.874205999869915], [-96.72550999982312, 46.87449499990596], [-96.72550499980025, 46.87482599986466], [-96.72537599992881, 46.87482500013688], [-96.72536300040834, 46.875923000140816], [-96.72535699966224, 46.8764539999301], [-96.72544100022614, 46.87644900021448], [-96.72543000035547, 46.8765910000626], [-96.72542399960939, 46.876697000162714], [-96.72542699998245, 46.87686499989245], [-96.72543799985309, 46.87943899998608], [-96.72544899972374, 46.88006800005042], [-96.72546100031764, 46.88079800015574], [-96.72551499984598, 46.88129899972239], [-96.72555000000608, 46.88158800024075], [-96.725558000402, 46.881651000291534], [-96.7256200003263, 46.88215600008192], [-96.72564799991538, 46.88365399984825], [-96.72565100028842, 46.88372100001925], [-96.72571499986253, 46.88716799999153], [-96.72571700041067, 46.88730999971319], [-96.72572200043354, 46.88754199997155], [-96.72570599964169, 46.89019399992329], [-96.72571599968744, 46.89062599999635], [-96.72574900019771, 46.89077099990593], [-96.72584100025922, 46.894169000210766], [-96.7258189996196, 46.89812000028333], [-96.72584100025922, 46.905174000078844], [-96.72599600006993, 46.90517199991303], [-96.72622000037592, 46.90516899997109], [-96.72619299971342, 46.89794600012622], [-96.73582799976917, 46.89787500027386], [-96.73613200044112, 46.89786900018693], [-96.73612999989295, 46.89816800012145], [-96.73611999984722, 46.89954800026287], [-96.73610200030387, 46.90239299972884], [-96.73610200030387, 46.90369099996616], [-96.73610300012878, 46.905080000184505], [-96.73734599988575, 46.90507700023742], [-96.74096600027495, 46.90509100019372], [-96.7432130003126, 46.90507800001518], [-96.74620199979174, 46.90507400029012], [-96.74670599958189, 46.90507099972894], [-96.74667399979484, 46.908969999833424], [-96.74666799994705, 46.90966200002794], [-96.74666799994705, 46.91394499982804], [-96.74665000040369, 46.918041999846345], [-96.74665100022862, 46.91818299988996], [-96.74666799994705, 46.91983999994189], [-96.74666799994705, 46.92268800004301], [-96.74666799994705, 46.92478399998891], [-96.7466729999699, 46.927466000178896], [-96.74667600034296, 46.92866899977225], [-96.7466779999928, 46.9291890000948], [-96.7466779999928, 46.9299059999731], [-96.7466779999928, 46.931232999787895], [-96.7466779999928, 46.9325160002671], [-96.74665899972621, 46.93408200011898], [-96.74665899972621, 46.934148000002516], [-96.74675300033584, 46.934147000153565], [-96.74675099978772, 46.93612499973293], [-96.74806100039014, 46.936139000166044], [-96.75226699968697, 46.93618299983856], [-96.7536700001758, 46.93619800006717], [-96.75379599967418, 46.93621199986781], [-96.753957000231, 46.93637100015105], [-96.7547110002664, 46.936883000304725], [-96.75601099992475, 46.93777899998773], [-96.75653800017943, 46.938131000295684], [-96.75673499982294, 46.9383319999912], [-96.75703899959656, 46.93870699982287], [-96.75707100028191, 46.93879199991846], [-96.7571759998639, 46.93902199993351], [-96.75724299981106, 46.939289000258526], [-96.75726299990254, 46.93936499982737], [-96.75728499964384, 46.939640999839966], [-96.75729200021486, 46.93973199998777], [-96.75729399986467, 46.941141999815535], [-96.75729399986467, 46.941379000000005], [-96.76780199978154, 46.94139399999966], [-96.77222600043488, 46.941398999794174], [-96.77223099955944, 46.94300999979927], [-96.77231400029842, 46.948647999708896], [-96.77416600032585, 46.94864400016963], [-96.7783809998435, 46.94863500028535], [-96.77877599985369, 46.94863199971031], [-96.7799640002574, 46.948625000207706], [-96.78036000009251, 46.948622999824], [-96.78065700019344, 46.948619999861535], [-96.78155000014601, 46.94861399993614], [-96.78184800007185, 46.948612000165284], [-96.78326900010404, 46.94859999969878], [-96.78753200020059, 46.948567000088445], [-96.78895400005767, 46.9485569999981], [-96.79085899978853, 46.948543999939155], [-96.79657700025246, 46.94850899990638], [-96.79848299980821, 46.94849700003003], [-96.79885100005426, 46.94850599993752], [-96.7988050000235, 46.944205999740994], [-96.79797399999521, 46.94418599976882], [-96.79730100015064, 46.944394999752944], [-96.79698499978315, 46.94451399996324], [-96.7963410002509, 46.9450129998357], [-96.79605199964759, 46.94576300018345], [-96.79569699982035, 46.94643300028335], [-96.79503900004441, 46.9468409998771], [-96.7940670004491, 46.94693300027567], [-96.79296199988612, 46.94660399995501], [-96.79213400023086, 46.945932999913474], [-96.79156900034133, 46.9449480001121], [-96.79137199979952, 46.94359299974425], [-96.79192800036652, 46.94206299988181], [-96.79204700019221, 46.941286999869256], [-96.79208300017723, 46.94105899982375], [-96.79215799962198, 46.940564000038535], [-96.79187300011495, 46.939528000169034], [-96.79044700005988, 46.938404000000645], [-96.79018400029416, 46.938082000279906], [-96.78994999994242, 46.93768500023889], [-96.78990800010963, 46.93734599978056], [-96.78988800001814, 46.93705000002082], [-96.79001299969161, 46.936740999993134], [-96.79026899978464, 46.936393000203196], [-96.79051200035723, 46.93620199992295], [-96.79087999970493, 46.93591900003437], [-96.79107100039894, 46.93572199976004], [-96.79132099974589, 46.9353210000886], [-96.79141899965518, 46.93467700027548], [-96.79133300033978, 46.933853000208266], [-96.791095999615, 46.93282699988511], [-96.79090499981928, 46.9317749998642], [-96.79093099975856, 46.930617999881015], [-96.79148999980028, 46.92948800017205], [-96.79181200001557, 46.92875100000266], [-96.79179899959678, 46.928265000170796], [-96.79150300021908, 46.927688999976674], [-96.7910739998737, 46.92731500026182], [-96.78991700033046, 46.92721500006618], [-96.78914499985339, 46.92748900018172], [-96.78889600033136, 46.92784999973232], [-96.78848999955217, 46.92894499970381], [-96.78772600036935, 46.929828999931956], [-96.7873770003899, 46.93010300017186], [-96.78680499992934, 46.93016399982181], [-96.786194999834, 46.93005300024606], [-96.78573500042476, 46.929916999794656], [-96.78485800036569, 46.929182999831994], [-96.78480300011412, 46.928464000180654], [-96.78531399957697, 46.92675100012671], [-96.78559599960927, 46.92526600005676], [-96.78549600005016, 46.924719000247414], [-96.78517700020792, 46.92439999992915], [-96.78453899962516, 46.924299999813364], [-96.78376500039657, 46.92438199998343], [-96.7831269998138, 46.924719000247414], [-96.7827540004432, 46.92517499986563], [-96.78215199984545, 46.92583099988052], [-96.78134099990865, 46.92705100029824], [-96.7809860000814, 46.927570999764654], [-96.7803669997652, 46.92801300015785], [-96.7797109996391, 46.92832700003118], [-96.778845000349, 46.928135999815694], [-96.77832599959191, 46.9277169997289], [-96.77832599959191, 46.92706100011144], [-96.77840799960768, 46.92650500030285], [-96.77827999956116, 46.92603999973439], [-96.77785199993899, 46.925693999745214], [-96.77719599981286, 46.92563899995952], [-96.77668100015205, 46.925720999920514], [-96.77597800017027, 46.92635300013626], [-96.77538099959537, 46.926999000012614], [-96.77489299969875, 46.92782699988445], [-96.77489299969875, 46.92829099970541], [-96.77502699959305, 46.92870499984396], [-96.77534399978546, 46.92920499976982], [-96.77545400028863, 46.92961900020531], [-96.77529500027995, 46.93008299983906], [-96.77489299969875, 46.930545999831104], [-96.77438700025877, 46.93082600016304], [-96.77355600023046, 46.93106399990769], [-96.77251000011702, 46.93131399987175], [-96.77134000015498, 46.93141100007604], [-96.77024899983569, 46.931667000245824], [-96.76943799989887, 46.93204499979756], [-96.7685609998398, 46.932557000213606], [-96.76758599987147, 46.932984000049686], [-96.76652499968938, 46.93324000006153], [-96.76515999973371, 46.933519999804304], [-96.76447199982054, 46.93375399980711], [-96.7633350003688, 46.93467700027548], [-96.76286099981755, 46.93487700021979], [-96.76219200017096, 46.934896999989164], [-96.76169300040368, 46.93455800028233], [-96.761526999824, 46.933764000209116], [-96.7615760002278, 46.93302000028824], [-96.7613929999297, 46.9322040001848], [-96.76108900015608, 46.93189899997534], [-96.76028999991483, 46.93158199988184], [-96.75951400013811, 46.93144299993414], [-96.75745700007128, 46.930763000215975], [-96.75685799984659, 46.93021299972158], [-96.756401999737, 46.92954700003937], [-96.75623799970546, 46.929032999791964], [-96.75632300009428, 46.928588999935194], [-96.75672499977718, 46.927996000162985], [-96.75742299973611, 46.927658000299694], [-96.75807999968714, 46.92742500001599], [-96.75888399995127, 46.927467000152525], [-96.75960399965149, 46.9277640000907], [-96.76235500037757, 46.929244999856735], [-96.76303499989483, 46.92938699980127], [-96.76376399981586, 46.92927000020261], [-96.76469399957838, 46.92892500016554], [-96.76536099957515, 46.92835600002042], [-96.76538200038986, 46.92761499972854], [-96.76485299958703, 46.92693799982556], [-96.76373100020392, 46.92619700016263], [-96.76174100008426, 46.92575300011064], [-96.75884200011846, 46.92570999985071], [-96.75666200002799, 46.92549899991557], [-96.75463000007554, 46.92507499996951], [-96.75325699972393, 46.92456299980983], [-96.75279700031471, 46.92408599973592], [-96.75265400019958, 46.9235429997224], [-96.75293600023188, 46.92310700020092], [-96.75344400022, 46.92287399975471], [-96.75424900030903, 46.92264100013568], [-96.75532800003445, 46.92255700023784], [-96.75693700038761, 46.922513999866624], [-96.75799500019664, 46.92291599977832], [-96.7602599997776, 46.92386899990833], [-96.76123300009613, 46.9240170002225], [-96.76197399971277, 46.923890000147765], [-96.76292199991693, 46.92354000019515], [-96.76319200025365, 46.923128000125516], [-96.763181000383, 46.92247200014136], [-96.76298999968898, 46.921562000258476], [-96.76248199970085, 46.92073600007471], [-96.76126900008114, 46.919547000119955], [-96.76008999989828, 46.918723999960605], [-96.75898699988342, 46.91824800019848], [-96.7580639997936, 46.917935999839095], [-96.7568300002575, 46.91728000009627], [-96.75577300027338, 46.91654600000981], [-96.75513399986569, 46.91596799983444], [-96.75449399963311, 46.91503999991873], [-96.75453800001404, 46.91442000016621], [-96.7550140002151, 46.91381299989467], [-96.75574999980884, 46.913625000172075], [-96.75650100036952, 46.91371200003755], [-96.75722299971956, 46.91404400002493], [-96.75772900005786, 46.91450599975275], [-96.75820500025893, 46.91511300015195], [-96.75865299997257, 46.91579099996276], [-96.75901399964759, 46.916434999827096], [-96.75937799969567, 46.91651300027803], [-96.7597099999567, 46.91638300028156], [-96.75982200010968, 46.91607999994351], [-96.75979299979737, 46.915530999832995], [-96.76009699957098, 46.915083999743395], [-96.76079000040535, 46.914867000271855], [-96.76161300003774, 46.91467899995144], [-96.76253699995245, 46.91421699987415], [-96.76363400011952, 46.91323599993475], [-96.7640819998332, 46.91259999984082], [-96.7640819998332, 46.912138000250124], [-96.76392299982453, 46.91167599974513], [-96.76356200014952, 46.911055000068195], [-96.76333100017084, 46.910462999802846], [-96.76337399982853, 46.909654999726634], [-96.76445699975191, 46.90746300006118], [-96.76465799959337, 46.90662499973666], [-96.76508600011385, 46.90537700025462], [-96.76589500040086, 46.904879000288304], [-96.76706299981474, 46.904832999885485], [-96.76786000040616, 46.9051339998175], [-96.76856599986269, 46.90556200014437], [-96.76906299998015, 46.90611599990684], [-96.76957099996827, 46.90640499989564], [-96.77028800019374, 46.90654399975793], [-96.77075099997602, 46.90652099996899], [-96.77122499962896, 46.90627799980789], [-96.77173299961707, 46.905884999974006], [-96.77232299962095, 46.90521500008559], [-96.7729240003938, 46.90463699983475], [-96.77355700005538, 46.904203999903544], [-96.77377999963814, 46.90389700024729], [-96.7738259996689, 46.90363100005123], [-96.773572000124, 46.90314800010051], [-96.77339800004673, 46.9028099999829], [-96.77270400028576, 46.90248600021221], [-96.77133699978195, 46.90205300009295], [-96.77048499983724, 46.90149199993858], [-96.77027700032309, 46.900729000085256], [-96.77065800008961, 46.90026299997577], [-96.7712709996597, 46.89987299986358], [-96.7724039998118, 46.89978100024827], [-96.77373799980536, 46.89958699990158], [-96.77467299959072, 46.89927400027015], [-96.77550199996921, 46.89869400000795], [-96.77603400024677, 46.89797699980751], [-96.77638099967808, 46.896959999824304], [-96.77663299957317, 46.89587200014604], [-96.77640400014262, 46.89476299989432], [-96.77571000038166, 46.89416199972779], [-96.7737269999347, 46.89389699971373], [-96.77152299955478, 46.8939040002313], [-96.77042499956279, 46.893614999764004], [-96.76974500004553, 46.89321399980491], [-96.76944399974664, 46.89258999984056], [-96.76955800044779, 46.89196299991535], [-96.77002200005498, 46.891387999930956], [-96.77073900028046, 46.89106399989443], [-96.77205700038049, 46.890578000160055], [-96.7738619996539, 46.89031899994406], [-96.77448500016807, 46.889843000217965], [-96.7746559998723, 46.88943499980919], [-96.77463300030607, 46.88883300001735], [-96.77441900004582, 46.88821499997631], [-96.77422900007504, 46.88672000023035], [-96.7741140004473, 46.88574399996533], [-96.77386300037713, 46.885072999957906], [-96.7735579998803, 46.88472199989534], [-96.77305400009014, 46.884379000074915], [-96.77239100029132, 46.88416500021085], [-96.77149900016366, 46.88418300015773], [-96.76968800014413, 46.88476200003591], [-96.7691650000874, 46.884935999993345], [-96.76866899979485, 46.885072999957906], [-96.7682500003935, 46.88501199993174], [-96.76777900021531, 46.88473500009782], [-96.76736300028871, 46.88395200027883], [-96.76728999959546, 46.88347199981361], [-96.76842899959534, 46.87950799978995], [-96.76895800039817, 46.87861700011612], [-96.76920199989732, 46.87815899983224], [-96.76949899999825, 46.87773200026803], [-96.7700100003594, 46.87745000006616], [-96.7706510004169, 46.87727500009495], [-96.77129900014711, 46.877411999973546], [-96.77179500043967, 46.877815999806536], [-96.77197600018962, 46.87823799976736], [-96.77166999986788, 46.879021000087036], [-96.7712840000785, 46.87994399972025], [-96.77131400021572, 46.88059200016297], [-96.771664999845, 46.88118700000591], [-96.77217600020616, 46.88149199969946], [-96.77288599986065, 46.88133200025761], [-96.77400099957107, 46.880292000237326], [-96.77447000009946, 46.87992800007272], [-96.77547299965688, 46.879066999915175], [-96.77619999992811, 46.87896800020952], [-96.77657200037211, 46.8789930000656], [-96.77730600031603, 46.879112999703864], [-96.77818800039798, 46.87934900021533], [-96.77892499981661, 46.879849999803916], [-96.77965700011072, 46.880228999818755], [-96.78033800035121, 46.88029099999735], [-96.78085999968471, 46.88005999993873], [-96.78133099986292, 46.87968700023791], [-96.78136199982504, 46.87920999984978], [-96.7801900002132, 46.87703900028612], [-96.78017799961931, 46.87699899991382], [-96.78016799957358, 46.87695599983344], [-96.77937300042859, 46.87622000021258], [-96.77816499993344, 46.87575999969849], [-96.77657200037211, 46.87521200025074], [-96.77640800034058, 46.87503699973569], [-96.7760710000567, 46.87443600021837], [-96.77609600017105, 46.874181999979655], [-96.77620800032403, 46.87385999990248], [-96.77625799965443, 46.87376299991055], [-96.77930999978109, 46.872719000269846], [-96.77940600004055, 46.87267899974788], [-96.78091900013425, 46.87206299985847], [-96.7817180003755, 46.871418000187916], [-96.78202200014911, 46.87077999998607], [-96.781810000437, 46.87013799969531], [-96.78117600005218, 46.86943899970941], [-96.78050200038274, 46.86863499982632], [-96.78045700017688, 46.8685270000795], [-96.78050900005542, 46.86824400017271], [-96.7806889999805, 46.86717899969648], [-96.78119399959556, 46.866527999770945], [-96.78131800034242, 46.86625499986961], [-96.7816050003976, 46.865979000130594], [-96.78256699994715, 46.86490100007422], [-96.7829579997594, 46.864463000302585], [-96.78397200008581, 46.863033999840326], [-96.78407900021594, 46.86238399997282], [-96.78395899966702, 46.861662999729326], [-96.78345200040215, 46.860950000135894], [-96.78241799998423, 46.86005900007508], [-96.78106600044735, 46.85931200012033], [-96.7795149998205, 46.85865599985846], [-96.77764600007467, 46.85747900014632], [-96.77691899980341, 46.85676200001944], [-96.77646900043995, 46.85611700015832], [-96.7760789995543, 46.855532999743076], [-96.77593600033748, 46.855062000248175], [-96.77585400032171, 46.85460100012542], [-96.77599800026175, 46.85429399972463], [-96.77648899963312, 46.85391500023098], [-96.77766699999107, 46.85378199982653], [-96.77977599993642, 46.85435599976491], [-96.78374199993203, 46.855726999712424], [-96.78437399976872, 46.85570699988098], [-96.78488599995478, 46.85545099990631], [-96.78532600017084, 46.85515399977903], [-96.78559200030965, 46.85421199983888], [-96.78546900028597, 46.85341399995626], [-96.78506000003206, 46.85269700022797], [-96.78457899980812, 46.85205200007431], [-96.78409699975929, 46.851631999724574], [-96.78354399956534, 46.85134499978775], [-96.7825, 46.85101699991284], [-96.78150699959001, 46.85104800029763], [-96.78050300020764, 46.85112000025037], [-96.77946899978974, 46.85146800029955], [-96.77816800030648, 46.85196999983696], [-96.77723699982076, 46.85231799990758], [-96.77659099974038, 46.85248199980881], [-96.77582300035958, 46.85251199981896], [-96.7749529999732, 46.85248199980881], [-96.77414399968622, 46.852204999762925], [-96.77353399959085, 46.8516880000429], [-96.773247000434, 46.851271999970166], [-96.77332000022892, 46.850730999937944], [-96.7735860003677, 46.85026000010353], [-96.77430299969487, 46.84978899982491], [-96.77651499957238, 46.84914399976667], [-96.77768899973236, 46.8489869997377], [-96.7786339995635, 46.848835999906896], [-96.77948399985837, 46.8485499999916], [-96.78000600009018, 46.8482220002506], [-96.78049599963663, 46.84780000020751], [-96.78055900028413, 46.847763000243674], [-96.78071699956958, 46.847649999731324], [-96.78150999996303, 46.84699400015712], [-96.78166099957578, 46.84630899981661], [-96.78182700015545, 46.845641000271925], [-96.78154400029823, 46.84510700017473], [-96.78090900008851, 46.84432199972839], [-96.78010800019743, 46.843754000072764], [-96.77825399962188, 46.842801999704676], [-96.7762839995937, 46.841783999797705], [-96.77571600022945, 46.841383000172094], [-96.77518200030205, 46.840798999914966], [-96.77484800039123, 46.84033100012712], [-96.77464800037468, 46.83964700000533], [-96.7750149998975, 46.839045999989295], [-96.77591799989581, 46.838666000033534], [-96.77706699994144, 46.838657000108746], [-96.77832099956903, 46.838959000039345], [-96.77957599991987, 46.839593999960336], [-96.7818940001026, 46.840864000023984], [-96.78373600008426, 46.84119800011893], [-96.78578499975517, 46.84134100017609], [-96.78680099973138, 46.84119800011893], [-96.78753200020059, 46.840912000091805], [-96.787849000393, 46.84054600002772], [-96.78808700004436, 46.83999099975717], [-96.7878650002865, 46.83932400007877], [-96.78710299985518, 46.8388159997873], [-96.78484800031995, 46.83813299983966], [-96.78410199978217, 46.837862999990584], [-96.78365900009138, 46.83746299979144], [-96.78321200020262, 46.836942000239794], [-96.7828869996143, 46.8362830000761], [-96.78300399979017, 46.83576299998571], [-96.78335699996758, 46.83499900008042], [-96.78383399999356, 46.834091999841995], [-96.78445499995958, 46.833298999757105], [-96.78509500019217, 46.83277400019459], [-96.78611700001618, 46.83244899970969], [-96.78686199983076, 46.8324679996957], [-96.78838999999307, 46.83286900009747], [-96.7894689997185, 46.83332800014771], [-96.79078699981852, 46.8339290002057], [-96.7920520002151, 46.834279999999936], [-96.7923910001488, 46.83429300013039], [-96.79258699996738, 46.83430100030363], [-96.7926510004398, 46.83430300003949], [-96.79281100027336, 46.83429800008515], [-96.79291800040349, 46.83429399999846], [-96.79318700001701, 46.834243999811385], [-96.79379000043967, 46.83389199990648], [-96.79395899959576, 46.833064000083645], [-96.7939250001589, 46.83305100027046], [-96.79308599973467, 46.83241900017094], [-96.79188099961254, 46.831832999759094], [-96.78961400038176, 46.8312160001977], [-96.78797999991424, 46.83070199985338], [-96.78757900005625, 46.83057599991793], [-96.78730299987173, 46.83043000027694], [-96.78526900026945, 46.829351000139106], [-96.78307699958509, 46.82805999996183], [-96.78149099969646, 46.826960000096705], [-96.7806470001477, 46.8263660002751], [-96.78025200013748, 46.82568800019266], [-96.78013599978652, 46.825429000259106], [-96.78039799972734, 46.82493800025156], [-96.78103999960976, 46.82469700000533], [-96.78167900001745, 46.82478999995798], [-96.78223700023428, 46.82520999996105], [-96.78281700019241, 46.82578799984491], [-96.78350299955744, 46.82622399972017], [-96.78699400007523, 46.82678500024977], [-96.78808500039453, 46.82690999984737], [-96.7886460000861, 46.82711299995618], [-96.78984600018535, 46.827533000248344], [-96.79065700012218, 46.82770500014667], [-96.7915810000369, 46.82773299987793], [-96.79239500034676, 46.827291999958064], [-96.79284700025838, 46.82682399992432], [-96.79309599978042, 46.82601399978753], [-96.79251900019531, 46.824767000149905], [-96.79208300017723, 46.82381600027133], [-96.79239500034676, 46.82303700024815], [-96.79325200031433, 46.82250700020209], [-96.79427999998613, 46.82236700008306], [-96.79515299984723, 46.822350999870615], [-96.79744400026578, 46.822397999789565], [-96.79832700017262, 46.82196700010489], [-96.79911200017017, 46.821432000038406], [-96.79975099967953, 46.82060600029387], [-96.80015999993344, 46.81966399999283]], [[-96.75745200004843, 46.829419999796], [-96.75745200004843, 46.82943199991435], [-96.75544299966218, 46.829433999831345], [-96.75542699976866, 46.82820099998753], [-96.75555200034044, 46.82820099998753], [-96.75743500032998, 46.82819800004314], [-96.7574360001549, 46.82826200004965], [-96.75744100017778, 46.82860700013595], [-96.7574420000027, 46.82866499981899], [-96.75744500037572, 46.82897299977888], [-96.75744899967536, 46.82921000005707], [-96.75745200004843, 46.829419999796]], [[-96.74327000021398, 46.832950999995056], [-96.74326900038908, 46.83302199973038], [-96.74326600001602, 46.833131000110946], [-96.74281699957915, 46.83313200000063], [-96.74280800025663, 46.832359999718186], [-96.74280700043171, 46.832301999720364], [-96.74326099999315, 46.832301999720364], [-96.74327000021398, 46.832950999995056]], [[-96.7422929996975, 46.833018000163285], [-96.74229500024565, 46.83313200000063], [-96.74219700033635, 46.83313200000063], [-96.74186199970227, 46.83313200000063], [-96.74174899972436, 46.83313200000063], [-96.74174899972436, 46.83303500016515], [-96.74174100022677, 46.83230400014519], [-96.74228299965176, 46.83230300024006], [-96.74228500019989, 46.83235899981413], [-96.74229199987258, 46.83298500003584], [-96.7422929996975, 46.833018000163285]], [[-96.73623600019818, 46.837270999842644], [-96.73623600019818, 46.83729500025785], [-96.73344500018743, 46.83729999993331], [-96.73342199972289, 46.83314999985584], [-96.73350399973866, 46.83314999985584], [-96.73553300021639, 46.833142000125825], [-96.7362100002589, 46.83313999973218], [-96.73621500028177, 46.83397400008685], [-96.7362239996043, 46.83540999973605], [-96.7362300003504, 46.83647799996493], [-96.73623600019818, 46.837270999842644]], [[-96.69399399957015, 46.83878000017953], [-96.69399100009542, 46.83894500002717], [-96.69398600007254, 46.83920900008137], [-96.69398000022477, 46.83956299972425], [-96.69397299965375, 46.84000099983488], [-96.6939690003541, 46.84026599998778], [-96.69396599998106, 46.84039799969684], [-96.69255499999463, 46.84039299969516], [-96.69255400016971, 46.84027000024441], [-96.69256500004037, 46.839689000096634], [-96.69257599991101, 46.83893999989027], [-96.69257900028407, 46.83878300014777], [-96.69296599989835, 46.83878099996416], [-96.69384499960722, 46.83877899978042], [-96.69399399957015, 46.83878000017953]]]}, "properties": {"id": "covered-us-mn-moorhead", "status": "covered", "jurisdiction": "Moorhead", "country_id": "us", "state_id": "mn", "area_type": "city", "note": "Covered by public tree inventory for Moorhead; geometry from official jurisdiction boundary."}}]}