{"type": "FeatureCollection", "features": [{"type": "Feature", "geometry": {"type": "Polygon", "coordinates": [[[-63.11260000519991, 46.30580255458762], [-63.114157112466565, 46.30549861049307], [-63.11528976771308, 46.305270924825656], [-63.12206060957133, 46.3039094941793], [-63.124566098317175, 46.306152327627274], [-63.12467551063931, 46.306241735674426], [-63.13254723241077, 46.30470483631522], [-63.12901236355613, 46.29711951262607], [-63.1284990285906, 46.295905360216956], [-63.12704342623808, 46.29283272028292], [-63.127582512854744, 46.2905367885513], [-63.127661263042654, 46.29051842336239], [-63.12859362478245, 46.29030106799202], [-63.13082103135798, 46.29360531876968], [-63.13957385178629, 46.29179908289934], [-63.13947271854439, 46.29145179134428], [-63.13840082227488, 46.28793909829939], [-63.13838609607623, 46.28786220253324], [-63.137715015830565, 46.28582320255834], [-63.13757615940404, 46.28540124924816], [-63.14140279898414, 46.28437587827925], [-63.142124438240735, 46.284182527670254], [-63.14283943063285, 46.28512953759057], [-63.14362318285676, 46.28491565108868], [-63.144454833613516, 46.285974508147675], [-63.14728492783679, 46.28552517849279], [-63.14811374243231, 46.287360893637945], [-63.14834848212103, 46.2873575870273], [-63.149558406501754, 46.287735085022554], [-63.150416276905574, 46.2882592343399], [-63.150869395136326, 46.28881373531165], [-63.151456471529414, 46.290296104974324], [-63.15231407503101, 46.290793579237985], [-63.155195155631674, 46.29176573337879], [-63.15605492849549, 46.292414163542965], [-63.156419704328556, 46.29312846325316], [-63.15652504540288, 46.29388796058322], [-63.15616896594763, 46.294592904418295], [-63.15608557274765, 46.294758237329575], [-63.15503083748062, 46.29673392906962], [-63.154863595455794, 46.29704349154081], [-63.154764715000965, 46.29806193558728], [-63.155222992748826, 46.298834582674274], [-63.15758020922096, 46.29830113523874], [-63.1675327963476, 46.296115215296524], [-63.17376411860998, 46.294797959488086], [-63.17377322511224, 46.294818215266744], [-63.173912284158504, 46.29477849496751], [-63.17415122513908, 46.29531115382997], [-63.1753790375996, 46.29443416997142], [-63.17594463697796, 46.29559426309212], [-63.17710428391885, 46.29523046673048], [-63.177879548536204, 46.29677734155344], [-63.1783599892808, 46.29664051318929], [-63.17980318034045, 46.29983416736721], [-63.18062756291599, 46.29961054818265], [-63.18085022519443, 46.30049336857868], [-63.18109334163289, 46.3016218138191], [-63.180973716747815, 46.30216160740459], [-63.18148642823664, 46.303165895332214], [-63.18775102366165, 46.30164500539083], [-63.18671089004538, 46.299535646044475], [-63.18596268068525, 46.29904781372343], [-63.19450951535373, 46.29712086577811], [-63.19414223221336, 46.29692341401341], [-63.19305713469154, 46.29634180269667], [-63.191353120227085, 46.29544469559189], [-63.18751583802323, 46.293390104096616], [-63.18681351242355, 46.293022191393874], [-63.18657069972801, 46.2928858338949], [-63.18625422402697, 46.292708093466736], [-63.18447243720383, 46.291783998658595], [-63.183262934366404, 46.29116498682103], [-63.18276860787787, 46.29086879198324], [-63.179151837881115, 46.28855249661714], [-63.17907373259348, 46.288480696304916], [-63.18019783161969, 46.28823450584677], [-63.18321201639839, 46.28757407912964], [-63.183938515823186, 46.28743798062655], [-63.18409431497157, 46.28743767671765], [-63.18439273238377, 46.287392207107125], [-63.18467812879539, 46.287337792086994], [-63.18508021503206, 46.287229084744475], [-63.18548243959026, 46.287165486836436], [-63.18576793507561, 46.28713798351885], [-63.18591061330925, 46.287092781413925], [-63.18649432825571, 46.28695679843113], [-63.1867149174578, 46.28692950207083], [-63.18709952740014, 46.286838217117904], [-63.18780683099439, 46.28665640607974], [-63.187801656261115, 46.28612790549975], [-63.18780474762384, 46.285948517022206], [-63.187847221585336, 46.28543722494335], [-63.18835866755862, 46.28480443660776], [-63.188957663156906, 46.28405441206263], [-63.18902800461581, 46.283817609833356], [-63.189013485376144, 46.28360721292767], [-63.18900687347624, 46.283446030518526], [-63.18899565920773, 46.283154438851284], [-63.188963245928754, 46.28238522424004], [-63.18896020513991, 46.28233323999439], [-63.18895528349481, 46.282164098321466], [-63.188958628804684, 46.28203618822257], [-63.18896148224767, 46.28188063960078], [-63.188969351892084, 46.281469923975415], [-63.18897857524398, 46.28101177653942], [-63.18897941206289, 46.280966486841635], [-63.1890128047355, 46.28088197897337], [-63.18906830954563, 46.28074142336685], [-63.189268205104604, 46.28023572459062], [-63.18933190014107, 46.280074512206035], [-63.189427719498795, 46.27983124684058], [-63.18948936373425, 46.27967617909561], [-63.191966249941984, 46.27921193552586], [-63.193081081664744, 46.27896332332637], [-63.192857372643545, 46.27839251577019], [-63.192794503422206, 46.277753354306554], [-63.192639565303125, 46.277255827012105], [-63.19627041487155, 46.27650096022191], [-63.196490701293826, 46.27657152676037], [-63.196259337015064, 46.2762543850559], [-63.19573525049104, 46.275194284858], [-63.19573052616191, 46.27473648917347], [-63.19580952877775, 46.274543382799195], [-63.19648444590601, 46.2731672842423], [-63.1965215504591, 46.272897584647396], [-63.19672502839734, 46.27208277582628], [-63.196716134824364, 46.27170438979343], [-63.19647881887869, 46.27152327713921], [-63.19510972560849, 46.27103499690388], [-63.194587819729826, 46.27091837571826], [-63.193678931985545, 46.270847687107604], [-63.192772822518116, 46.27105157983968], [-63.192269912884896, 46.271337482876994], [-63.19213362189277, 46.27152900173073], [-63.19163737293549, 46.27176177552019], [-63.19141749050751, 46.26886441862992], [-63.18802729203862, 46.265352770025856], [-63.18575552114023, 46.26171022323763], [-63.184992821990626, 46.26048718435721], [-63.18352742292652, 46.25841274580167], [-63.18347395118283, 46.25833704864397], [-63.18306371818617, 46.25775625237145], [-63.18116527892852, 46.25506848219778], [-63.17734466068601, 46.24997915266159], [-63.17665953719049, 46.249591961238174], [-63.16770195966857, 46.24452847553537], [-63.16607044901722, 46.24357074236517], [-63.16090608930885, 46.23950426777936], [-63.15947694431059, 46.2383787822813], [-63.15826976456114, 46.23742803770959], [-63.158237465249556, 46.237399187608744], [-63.15148674579115, 46.2313675953386], [-63.14946119123718, 46.22955743778678], [-63.14879297774892, 46.228960210048605], [-63.14815545390778, 46.22835559575101], [-63.14552157559756, 46.225857601194896], [-63.13634631139616, 46.217153092812964], [-63.130993156965296, 46.220853037907354], [-63.130035343896026, 46.221501574045284], [-63.12586636055058, 46.224324106151236], [-63.12533659875749, 46.22468274499075], [-63.12146435017626, 46.22734821042468], [-63.12082282718224, 46.22778976795916], [-63.11991325622022, 46.228420425733894], [-63.11887656122022, 46.22913916145456], [-63.11731036049564, 46.23022496308831], [-63.115983456956876, 46.23073743096019], [-63.11032835903298, 46.23292110757909], [-63.11030331845959, 46.232930773701085], [-63.10906756451429, 46.23340788193415], [-63.10476404559695, 46.2362229394502], [-63.10471950858863, 46.236252077752575], [-63.10102561172069, 46.238667917547716], [-63.099594433453156, 46.24013280361737], [-63.09598414003149, 46.24382758842997], [-63.09388860003595, 46.24597186653456], [-63.08988042179505, 46.25007258051411], [-63.08986529025548, 46.250088074688996], [-63.08977678890604, 46.25017858764185], [-63.085369438245515, 46.25489275139057], [-63.082744354956624, 46.2577000271904], [-63.081920114069334, 46.25832305176806], [-63.07938946994854, 46.26023581015689], [-63.073678316420455, 46.264551724183946], [-63.08225418724727, 46.270716562155805], [-63.082352770724114, 46.27078743838277], [-63.08246304362263, 46.270866692177975], [-63.08248296052956, 46.27088129148572], [-63.08543914292909, 46.27829660936447], [-63.08548520918411, 46.278412024595205], [-63.09091346878085, 46.2877308563673], [-63.090890906252014, 46.287750889277085], [-63.09027559049451, 46.28829728410873], [-63.089225391743305, 46.28912608785635], [-63.08772128280947, 46.2902791868636], [-63.08759159353446, 46.29039630006054], [-63.087397085812036, 46.290531499181306], [-63.086852499263806, 46.29098189629121], [-63.08674877562643, 46.291044999074614], [-63.086376780752985, 46.29134569056439], [-63.085977413349454, 46.291666689224336], [-63.0862326761299, 46.29183649353892], [-63.0863266697929, 46.291898996695764], [-63.08705300125564, 46.29237179367278], [-63.087358997397395, 46.29266208421203], [-63.087420578005684, 46.2927205866817], [-63.08767201493062, 46.29312606747427], [-63.0888367321689, 46.295707684313676], [-63.09768074355774, 46.29420290338675], [-63.100645443988384, 46.30102903307608], [-63.10323545046459, 46.3007286419632], [-63.103753768981505, 46.3006684933467], [-63.104685208143785, 46.30236536392455], [-63.10694343055435, 46.3021656544354], [-63.107790124405966, 46.30345612836072], [-63.11108023392653, 46.30283857296096], [-63.11260000519991, 46.30580255458762]]]}, "properties": {"id": "covered-ca-pe-charlottetown", "status": "covered", "jurisdiction": "Charlottetown", "country_id": "ca", "state_id": "pe", "area_type": "city", "note": "Covered by public tree inventory for Charlottetown; geometry from official jurisdiction boundary."}}]}