{"type": "FeatureCollection", "features": [{"type": "Feature", "geometry": {"type": "Point", "coordinates": [139.71102270000014, 35.64908810994485]}, "properties": {"id": "shibuya-ward-305-0-125649088-319711023", "species_group": "cherry", "scientific_name": "Prunus species", "common_name": "サクラ", "subtype_name": "サクラ", "zip_code": null, "ownership": "public", "ownership_raw": "Tokyo Metropolitan Government", "city": "Shibuya Ward", "source_dataset": "Street Trees / 街路樹", "source_department": "Tokyo Metropolitan Government", "source_last_edit_at": ""}}, {"type": "Feature", "geometry": {"type": "Point", "coordinates": [139.71100950000013, 35.649098999944854]}, "properties": {"id": "shibuya-ward-305-0-125649099-319711010", "species_group": "cherry", "scientific_name": "Prunus species", "common_name": "サクラ", "subtype_name": "サクラ", "zip_code": null, "ownership": "public", "ownership_raw": "Tokyo Metropolitan Government", "city": "Shibuya Ward", "source_dataset": "Street Trees / 街路樹", "source_department": "Tokyo Metropolitan Government", "source_last_edit_at": ""}}, {"type": "Feature", "geometry": {"type": "Point", "coordinates": [139.71100950000013, 35.649098999944854]}, "properties": {"id": "shibuya-ward-305-0-125649099-319711010", "species_group": "cherry", "scientific_name": "Prunus species", "common_name": "サクラ", "subtype_name": "サクラ", "zip_code": null, "ownership": "public", "ownership_raw": "Tokyo Metropolitan Government", "city": "Shibuya Ward", "source_dataset": "Street Trees / 街路樹", "source_department": "Tokyo Metropolitan Government", "source_last_edit_at": ""}}, {"type": "Feature", "geometry": {"type": "Point", "coordinates": [139.71097240000014, 35.64913142994488]}, "properties": {"id": "shibuya-ward-305-0-125649131-319710972", "species_group": "cherry", "scientific_name": "Prunus species", "common_name": "シダレザクラ", "subtype_name": "シダレザクラ", "zip_code": null, "ownership": "public", "ownership_raw": "Tokyo Metropolitan Government", "city": "Shibuya Ward", "source_dataset": "Street Trees / 街路樹", "source_department": "Tokyo Metropolitan Government", "source_last_edit_at": ""}}, {"type": "Feature", "geometry": {"type": "Point", "coordinates": [139.71091440000018, 35.64918516994487]}, "properties": {"id": "shibuya-ward-305-0-125649185-319710914", "species_group": "cherry", "scientific_name": "Prunus species", "common_name": "シダレザクラ", "subtype_name": "シダレザクラ", "zip_code": null, "ownership": "public", "ownership_raw": "Tokyo Metropolitan Government", "city": "Shibuya Ward", "source_dataset": "Street Trees / 街路樹", "source_department": "Tokyo Metropolitan Government", "source_last_edit_at": ""}}, {"type": "Feature", "geometry": {"type": "Point", "coordinates": [139.71083840000014, 35.64925716994486]}, "properties": {"id": "shibuya-ward-305-0-125649257-319710838", "species_group": "cherry", "scientific_name": "Prunus species", "common_name": "シダレザクラ", "subtype_name": "シダレザクラ", "zip_code": null, "ownership": "public", "ownership_raw": "Tokyo Metropolitan Government", "city": "Shibuya Ward", "source_dataset": "Street Trees / 街路樹", "source_department": "Tokyo Metropolitan Government", "source_last_edit_at": ""}}, {"type": "Feature", "geometry": {"type": "Point", "coordinates": [139.7111217000001, 35.64930546994486]}, "properties": {"id": "shibuya-ward-305-0-125649305-319711122", "species_group": "cherry", "scientific_name": "Prunus species", "common_name": "シダレザクラ", "subtype_name": "シダレザクラ", "zip_code": null, "ownership": "public", "ownership_raw": "Tokyo Metropolitan Government", "city": "Shibuya Ward", "source_dataset": "Street Trees / 街路樹", "source_department": "Tokyo Metropolitan Government", "source_last_edit_at": ""}}, {"type": "Feature", "geometry": {"type": "Point", "coordinates": [139.7110401000002, 35.64937500994483]}, "properties": {"id": "shibuya-ward-305-0-125649375-319711040", "species_group": "cherry", "scientific_name": "Prunus species", "common_name": "シダレザクラ", "subtype_name": "シダレザクラ", "zip_code": null, "ownership": "public", "ownership_raw": "Tokyo Metropolitan Government", "city": "Shibuya Ward", "source_dataset": "Street Trees / 街路樹", "source_department": "Tokyo Metropolitan Government", "source_last_edit_at": ""}}, {"type": "Feature", "geometry": {"type": "Point", "coordinates": [139.71069280000015, 35.64939860994485]}, "properties": {"id": "shibuya-ward-305-0-125649399-319710693", "species_group": "cherry", "scientific_name": "Prunus species", "common_name": "シダレザクラ", "subtype_name": "シダレザクラ", "zip_code": null, "ownership": "public", "ownership_raw": "Tokyo Metropolitan Government", "city": "Shibuya Ward", "source_dataset": "Street Trees / 街路樹", "source_department": "Tokyo Metropolitan Government", "source_last_edit_at": ""}}, {"type": "Feature", "geometry": {"type": "Point", "coordinates": [139.71061440000014, 35.64947016994484]}, "properties": {"id": "shibuya-ward-305-0-125649470-319710614", "species_group": "cherry", "scientific_name": "Prunus species", "common_name": "シダレザクラ", "subtype_name": "シダレザクラ", "zip_code": null, "ownership": "public", "ownership_raw": "Tokyo Metropolitan Government", "city": "Shibuya Ward", "source_dataset": "Street Trees / 街路樹", "source_department": "Tokyo Metropolitan Government", "source_last_edit_at": ""}}, {"type": "Feature", "geometry": {"type": "Point", "coordinates": [139.71057790000017, 35.64950556994484]}, "properties": {"id": "shibuya-ward-305-0-125649506-319710578", "species_group": "cherry", "scientific_name": "Prunus species", "common_name": "シダレザクラ", "subtype_name": "シダレザクラ", "zip_code": null, "ownership": "public", "ownership_raw": "Tokyo Metropolitan Government", "city": "Shibuya Ward", "source_dataset": "Street Trees / 街路樹", "source_department": "Tokyo Metropolitan Government", "source_last_edit_at": ""}}, {"type": "Feature", "geometry": {"type": "Point", "coordinates": [139.7105334000001, 35.64954616994486]}, "properties": {"id": "shibuya-ward-305-0-125649546-319710533", "species_group": "cherry", "scientific_name": "Prunus species", "common_name": "シダレザクラ", "subtype_name": "シダレザクラ", "zip_code": null, "ownership": "public", "ownership_raw": "Tokyo Metropolitan Government", "city": "Shibuya Ward", "source_dataset": "Street Trees / 街路樹", "source_department": "Tokyo Metropolitan Government", "source_last_edit_at": ""}}, {"type": "Feature", "geometry": {"type": "Point", "coordinates": [139.71083530000018, 35.64956519994483]}, "properties": {"id": "shibuya-ward-305-0-125649565-319710835", "species_group": "cherry", "scientific_name": "Prunus species", "common_name": "シダレザクラ", "subtype_name": "シダレザクラ", "zip_code": null, "ownership": "public", "ownership_raw": "Tokyo Metropolitan Government", "city": "Shibuya Ward", "source_dataset": "Street Trees / 街路樹", "source_department": "Tokyo Metropolitan Government", "source_last_edit_at": ""}}, {"type": "Feature", "geometry": {"type": "Point", "coordinates": [139.7108064000001, 35.649585169944885]}, "properties": {"id": "shibuya-ward-305-0-125649585-319710806", "species_group": "cherry", "scientific_name": "Prunus species", "common_name": "シダレザクラ", "subtype_name": "シダレザクラ", "zip_code": null, "ownership": "public", "ownership_raw": "Tokyo Metropolitan Government", "city": "Shibuya Ward", "source_dataset": "Street Trees / 街路樹", "source_department": "Tokyo Metropolitan Government", "source_last_edit_at": ""}}, {"type": "Feature", "geometry": {"type": "Point", "coordinates": [139.7104914000001, 35.64958816994488]}, "properties": {"id": "shibuya-ward-305-0-125649588-319710491", "species_group": "cherry", "scientific_name": "Prunus species", "common_name": "シダレザクラ", "subtype_name": "シダレザクラ", "zip_code": null, "ownership": "public", "ownership_raw": "Tokyo Metropolitan Government", "city": "Shibuya Ward", "source_dataset": "Street Trees / 街路樹", "source_department": "Tokyo Metropolitan Government", "source_last_edit_at": ""}}, {"type": "Feature", "geometry": {"type": "Point", "coordinates": [139.71077240000017, 35.64960816994487]}, "properties": {"id": "shibuya-ward-305-0-125649608-319710772", "species_group": "cherry", "scientific_name": "Prunus species", "common_name": "シダレザクラ", "subtype_name": "シダレザクラ", "zip_code": null, "ownership": "public", "ownership_raw": "Tokyo Metropolitan Government", "city": "Shibuya Ward", "source_dataset": "Street Trees / 街路樹", "source_department": "Tokyo Metropolitan Government", "source_last_edit_at": ""}}, {"type": "Feature", "geometry": {"type": "Point", "coordinates": [139.71073740000017, 35.649634169944875]}, "properties": {"id": "shibuya-ward-305-0-125649634-319710737", "species_group": "cherry", "scientific_name": "Prunus species", "common_name": "シダレザクラ", "subtype_name": "シダレザクラ", "zip_code": null, "ownership": "public", "ownership_raw": "Tokyo Metropolitan Government", "city": "Shibuya Ward", "source_dataset": "Street Trees / 街路樹", "source_department": "Tokyo Metropolitan Government", "source_last_edit_at": ""}}, {"type": "Feature", "geometry": {"type": "Point", "coordinates": [139.71068520000014, 35.649665399944865]}, "properties": {"id": "shibuya-ward-305-0-125649665-319710685", "species_group": "cherry", "scientific_name": "Prunus species", "common_name": "シダレザクラ", "subtype_name": "シダレザクラ", "zip_code": null, "ownership": "public", "ownership_raw": "Tokyo Metropolitan Government", "city": "Shibuya Ward", "source_dataset": "Street Trees / 街路樹", "source_department": "Tokyo Metropolitan Government", "source_last_edit_at": ""}}, {"type": "Feature", "geometry": {"type": "Point", "coordinates": [139.7105229000002, 35.649822049944866]}, "properties": {"id": "shibuya-ward-305-0-125649822-319710523", "species_group": "cherry", "scientific_name": "Prunus species", "common_name": "シダレザクラ", "subtype_name": "シダレザクラ", "zip_code": null, "ownership": "public", "ownership_raw": "Tokyo Metropolitan Government", "city": "Shibuya Ward", "source_dataset": "Street Trees / 街路樹", "source_department": "Tokyo Metropolitan Government", "source_last_edit_at": ""}}, {"type": "Feature", "geometry": {"type": "Point", "coordinates": [139.7105229000002, 35.649822049944866]}, "properties": {"id": "shibuya-ward-305-0-125649822-319710523", "species_group": "cherry", "scientific_name": "Prunus species", "common_name": "シダレザクラ", "subtype_name": "シダレザクラ", "zip_code": null, "ownership": "public", "ownership_raw": "Tokyo Metropolitan Government", "city": "Shibuya Ward", "source_dataset": "Street Trees / 街路樹", "source_department": "Tokyo Metropolitan Government", "source_last_edit_at": ""}}, {"type": "Feature", "geometry": {"type": "Point", "coordinates": [139.71048540000012, 35.64984916994484]}, "properties": {"id": "shibuya-ward-305-0-125649849-319710485", "species_group": "cherry", "scientific_name": "Prunus species", "common_name": "シダレザクラ", "subtype_name": "シダレザクラ", "zip_code": null, "ownership": "public", "ownership_raw": "Tokyo Metropolitan Government", "city": "Shibuya Ward", "source_dataset": "Street Trees / 街路樹", "source_department": "Tokyo Metropolitan Government", "source_last_edit_at": ""}}, {"type": "Feature", "geometry": {"type": "Point", "coordinates": [139.71045880000014, 35.64987395994483]}, "properties": {"id": "shibuya-ward-305-0-125649874-319710459", "species_group": "cherry", "scientific_name": "Prunus species", "common_name": "シダレザクラ", "subtype_name": "シダレザクラ", "zip_code": null, "ownership": "public", "ownership_raw": "Tokyo Metropolitan Government", "city": "Shibuya Ward", "source_dataset": "Street Trees / 街路樹", "source_department": "Tokyo Metropolitan Government", "source_last_edit_at": ""}}, {"type": "Feature", "geometry": {"type": "Point", "coordinates": [139.7102754000002, 35.65003116994482]}, "properties": {"id": "shibuya-ward-305-0-125650031-319710275", "species_group": "cherry", "scientific_name": "Prunus species", "common_name": "シダレザクラ", "subtype_name": "シダレザクラ", "zip_code": null, "ownership": "public", "ownership_raw": "Tokyo Metropolitan Government", "city": "Shibuya Ward", "source_dataset": "Street Trees / 街路樹", "source_department": "Tokyo Metropolitan Government", "source_last_edit_at": ""}}, {"type": "Feature", "geometry": {"type": "Point", "coordinates": [139.7099624000002, 35.65004916994485]}, "properties": {"id": "shibuya-ward-305-0-125650049-319709962", "species_group": "cherry", "scientific_name": "Prunus species", "common_name": "シダレザクラ", "subtype_name": "シダレザクラ", "zip_code": null, "ownership": "public", "ownership_raw": "Tokyo Metropolitan Government", "city": "Shibuya Ward", "source_dataset": "Street Trees / 街路樹", "source_department": "Tokyo Metropolitan Government", "source_last_edit_at": ""}}, {"type": "Feature", "geometry": {"type": "Point", "coordinates": [139.7099044000001, 35.65009816994482]}, "properties": {"id": "shibuya-ward-305-0-125650098-319709904", "species_group": "cherry", "scientific_name": "Prunus species", "common_name": "シダレザクラ", "subtype_name": "シダレザクラ", "zip_code": null, "ownership": "public", "ownership_raw": "Tokyo Metropolitan Government", "city": "Shibuya Ward", "source_dataset": "Street Trees / 街路樹", "source_department": "Tokyo Metropolitan Government", "source_last_edit_at": ""}}, {"type": "Feature", "geometry": {"type": "Point", "coordinates": [139.70976470000014, 35.650236949944876]}, "properties": {"id": "shibuya-ward-305-0-125650237-319709765", "species_group": "cherry", "scientific_name": "Prunus species", "common_name": "シダレザクラ", "subtype_name": "シダレザクラ", "zip_code": null, "ownership": "public", "ownership_raw": "Tokyo Metropolitan Government", "city": "Shibuya Ward", "source_dataset": "Street Trees / 街路樹", "source_department": "Tokyo Metropolitan Government", "source_last_edit_at": ""}}, {"type": "Feature", "geometry": {"type": "Point", "coordinates": [139.71000150000015, 35.65028090994484]}, "properties": {"id": "shibuya-ward-305-0-125650281-319710002", "species_group": "cherry", "scientific_name": "Prunus species", "common_name": "シダレザクラ", "subtype_name": "シダレザクラ", "zip_code": null, "ownership": "public", "ownership_raw": "Tokyo Metropolitan Government", "city": "Shibuya Ward", "source_dataset": "Street Trees / 街路樹", "source_department": "Tokyo Metropolitan Government", "source_last_edit_at": ""}}, {"type": "Feature", "geometry": {"type": "Point", "coordinates": [139.70995320000014, 35.65032813994484]}, "properties": {"id": "shibuya-ward-305-0-125650328-319709953", "species_group": "cherry", "scientific_name": "Prunus species", "common_name": "シダレザクラ", "subtype_name": "シダレザクラ", "zip_code": null, "ownership": "public", "ownership_raw": "Tokyo Metropolitan Government", "city": "Shibuya Ward", "source_dataset": "Street Trees / 街路樹", "source_department": "Tokyo Metropolitan Government", "source_last_edit_at": ""}}, {"type": "Feature", "geometry": {"type": "Point", "coordinates": [139.7096632000001, 35.650334239944854]}, "properties": {"id": "shibuya-ward-305-0-125650334-319709663", "species_group": "cherry", "scientific_name": "Prunus species", "common_name": "シダレザクラ", "subtype_name": "シダレザクラ", "zip_code": null, "ownership": "public", "ownership_raw": "Tokyo Metropolitan Government", "city": "Shibuya Ward", "source_dataset": "Street Trees / 街路樹", "source_department": "Tokyo Metropolitan Government", "source_last_edit_at": ""}}, {"type": "Feature", "geometry": {"type": "Point", "coordinates": [139.70989740000013, 35.65037416994486]}, "properties": {"id": "shibuya-ward-305-0-125650374-319709897", "species_group": "cherry", "scientific_name": "Prunus species", "common_name": "シダレザクラ", "subtype_name": "シダレザクラ", "zip_code": null, "ownership": "public", "ownership_raw": "Tokyo Metropolitan Government", "city": "Shibuya Ward", "source_dataset": "Street Trees / 街路樹", "source_department": "Tokyo Metropolitan Government", "source_last_edit_at": ""}}, {"type": "Feature", "geometry": {"type": "Point", "coordinates": [139.70984840000014, 35.650420169944866]}, "properties": {"id": "shibuya-ward-305-0-125650420-319709848", "species_group": "cherry", "scientific_name": "Prunus species", "common_name": "シダレザクラ", "subtype_name": "シダレザクラ", "zip_code": null, "ownership": "public", "ownership_raw": "Tokyo Metropolitan Government", "city": "Shibuya Ward", "source_dataset": "Street Trees / 街路樹", "source_department": "Tokyo Metropolitan Government", "source_last_edit_at": ""}}, {"type": "Feature", "geometry": {"type": "Point", "coordinates": [139.70980340000014, 35.65046416994486]}, "properties": {"id": "shibuya-ward-305-0-125650464-319709803", "species_group": "cherry", "scientific_name": "Prunus species", "common_name": "シダレザクラ", "subtype_name": "シダレザクラ", "zip_code": null, "ownership": "public", "ownership_raw": "Tokyo Metropolitan Government", "city": "Shibuya Ward", "source_dataset": "Street Trees / 街路樹", "source_department": "Tokyo Metropolitan Government", "source_last_edit_at": ""}}, {"type": "Feature", "geometry": {"type": "Point", "coordinates": [139.70937320000016, 35.65066100994486]}, "properties": {"id": "shibuya-ward-305-0-125650661-319709373", "species_group": "cherry", "scientific_name": "Prunus species", "common_name": "シダレザクラ", "subtype_name": "シダレザクラ", "zip_code": null, "ownership": "public", "ownership_raw": "Tokyo Metropolitan Government", "city": "Shibuya Ward", "source_dataset": "Street Trees / 街路樹", "source_department": "Tokyo Metropolitan Government", "source_last_edit_at": ""}}, {"type": "Feature", "geometry": {"type": "Point", "coordinates": [139.7096040000001, 35.650695069944824]}, "properties": {"id": "shibuya-ward-305-0-125650695-319709604", "species_group": "cherry", "scientific_name": "Prunus species", "common_name": "シダレザクラ", "subtype_name": "シダレザクラ", "zip_code": null, "ownership": "public", "ownership_raw": "Tokyo Metropolitan Government", "city": "Shibuya Ward", "source_dataset": "Street Trees / 街路樹", "source_department": "Tokyo Metropolitan Government", "source_last_edit_at": ""}}, {"type": "Feature", "geometry": {"type": "Point", "coordinates": [139.7096040000001, 35.650695069944824]}, "properties": {"id": "shibuya-ward-305-0-125650695-319709604", "species_group": "cherry", "scientific_name": "Prunus species", "common_name": "シダレザクラ", "subtype_name": "シダレザクラ", "zip_code": null, "ownership": "public", "ownership_raw": "Tokyo Metropolitan Government", "city": "Shibuya Ward", "source_dataset": "Street Trees / 街路樹", "source_department": "Tokyo Metropolitan Government", "source_last_edit_at": ""}}, {"type": "Feature", "geometry": {"type": "Point", "coordinates": [139.70934650000012, 35.650699249944836]}, "properties": {"id": "shibuya-ward-305-0-125650699-319709347", "species_group": "cherry", "scientific_name": "Prunus species", "common_name": "シダレザクラ", "subtype_name": "シダレザクラ", "zip_code": null, "ownership": "public", "ownership_raw": "Tokyo Metropolitan Government", "city": "Shibuya Ward", "source_dataset": "Street Trees / 街路樹", "source_department": "Tokyo Metropolitan Government", "source_last_edit_at": ""}}, {"type": "Feature", "geometry": {"type": "Point", "coordinates": [139.70956940000016, 35.65072916994481]}, "properties": {"id": "shibuya-ward-305-0-125650729-319709569", "species_group": "cherry", "scientific_name": "Prunus species", "common_name": "シダレザクラ", "subtype_name": "シダレザクラ", "zip_code": null, "ownership": "public", "ownership_raw": "Tokyo Metropolitan Government", "city": "Shibuya Ward", "source_dataset": "Street Trees / 街路樹", "source_department": "Tokyo Metropolitan Government", "source_last_edit_at": ""}}, {"type": "Feature", "geometry": {"type": "Point", "coordinates": [139.7093174000001, 35.6507321699448]}, "properties": {"id": "shibuya-ward-305-0-125650732-319709317", "species_group": "cherry", "scientific_name": "Prunus species", "common_name": "シダレザクラ", "subtype_name": "シダレザクラ", "zip_code": null, "ownership": "public", "ownership_raw": "Tokyo Metropolitan Government", "city": "Shibuya Ward", "source_dataset": "Street Trees / 街路樹", "source_department": "Tokyo Metropolitan Government", "source_last_edit_at": ""}}, {"type": "Feature", "geometry": {"type": "Point", "coordinates": [139.70952840000015, 35.65078116994486]}, "properties": {"id": "shibuya-ward-305-0-125650781-319709528", "species_group": "cherry", "scientific_name": "Prunus species", "common_name": "シダレザクラ", "subtype_name": "シダレザクラ", "zip_code": null, "ownership": "public", "ownership_raw": "Tokyo Metropolitan Government", "city": "Shibuya Ward", "source_dataset": "Street Trees / 街路樹", "source_department": "Tokyo Metropolitan Government", "source_last_edit_at": ""}}, {"type": "Feature", "geometry": {"type": "Point", "coordinates": [139.70926560000018, 35.6508134299448]}, "properties": {"id": "shibuya-ward-305-0-125650813-319709266", "species_group": "cherry", "scientific_name": "Prunus species", "common_name": "シダレザクラ", "subtype_name": "シダレザクラ", "zip_code": null, "ownership": "public", "ownership_raw": "Tokyo Metropolitan Government", "city": "Shibuya Ward", "source_dataset": "Street Trees / 街路樹", "source_department": "Tokyo Metropolitan Government", "source_last_edit_at": ""}}, {"type": "Feature", "geometry": {"type": "Point", "coordinates": [139.70924080000017, 35.650851689944794]}, "properties": {"id": "shibuya-ward-305-0-125650852-319709241", "species_group": "cherry", "scientific_name": "Prunus species", "common_name": "シダレザクラ", "subtype_name": "シダレザクラ", "zip_code": null, "ownership": "public", "ownership_raw": "Tokyo Metropolitan Government", "city": "Shibuya Ward", "source_dataset": "Street Trees / 街路樹", "source_department": "Tokyo Metropolitan Government", "source_last_edit_at": ""}}, {"type": "Feature", "geometry": {"type": "Point", "coordinates": [139.70945640000008, 35.6508881699448]}, "properties": {"id": "shibuya-ward-305-0-125650888-319709456", "species_group": "cherry", "scientific_name": "Prunus species", "common_name": "シダレザクラ", "subtype_name": "シダレザクラ", "zip_code": null, "ownership": "public", "ownership_raw": "Tokyo Metropolitan Government", "city": "Shibuya Ward", "source_dataset": "Street Trees / 街路樹", "source_department": "Tokyo Metropolitan Government", "source_last_edit_at": ""}}, {"type": "Feature", "geometry": {"type": "Point", "coordinates": [139.70941140000008, 35.65095216994481]}, "properties": {"id": "shibuya-ward-305-0-125650952-319709411", "species_group": "cherry", "scientific_name": "Prunus species", "common_name": "シダレザクラ", "subtype_name": "シダレザクラ", "zip_code": null, "ownership": "public", "ownership_raw": "Tokyo Metropolitan Government", "city": "Shibuya Ward", "source_dataset": "Street Trees / 街路樹", "source_department": "Tokyo Metropolitan Government", "source_last_edit_at": ""}}, {"type": "Feature", "geometry": {"type": "Point", "coordinates": [139.70913540000012, 35.65100516994485]}, "properties": {"id": "shibuya-ward-305-0-125651005-319709135", "species_group": "cherry", "scientific_name": "Prunus species", "common_name": "シダレザクラ", "subtype_name": "シダレザクラ", "zip_code": null, "ownership": "public", "ownership_raw": "Tokyo Metropolitan Government", "city": "Shibuya Ward", "source_dataset": "Street Trees / 街路樹", "source_department": "Tokyo Metropolitan Government", "source_last_edit_at": ""}}, {"type": "Feature", "geometry": {"type": "Point", "coordinates": [139.7093544000001, 35.651041169944804]}, "properties": {"id": "shibuya-ward-305-0-125651041-319709354", "species_group": "cherry", "scientific_name": "Prunus species", "common_name": "シダレザクラ", "subtype_name": "シダレザクラ", "zip_code": null, "ownership": "public", "ownership_raw": "Tokyo Metropolitan Government", "city": "Shibuya Ward", "source_dataset": "Street Trees / 街路樹", "source_department": "Tokyo Metropolitan Government", "source_last_edit_at": ""}}, {"type": "Feature", "geometry": {"type": "Point", "coordinates": [139.70906640000018, 35.65112516994483]}, "properties": {"id": "shibuya-ward-305-0-125651125-319709066", "species_group": "cherry", "scientific_name": "Prunus species", "common_name": "シダレザクラ", "subtype_name": "シダレザクラ", "zip_code": null, "ownership": "public", "ownership_raw": "Tokyo Metropolitan Government", "city": "Shibuya Ward", "source_dataset": "Street Trees / 街路樹", "source_department": "Tokyo Metropolitan Government", "source_last_edit_at": ""}}, {"type": "Feature", "geometry": {"type": "Point", "coordinates": [139.70930040000016, 35.6511331699448]}, "properties": {"id": "shibuya-ward-305-0-125651133-319709300", "species_group": "cherry", "scientific_name": "Prunus species", "common_name": "シダレザクラ", "subtype_name": "シダレザクラ", "zip_code": null, "ownership": "public", "ownership_raw": "Tokyo Metropolitan Government", "city": "Shibuya Ward", "source_dataset": "Street Trees / 街路樹", "source_department": "Tokyo Metropolitan Government", "source_last_edit_at": ""}}, {"type": "Feature", "geometry": {"type": "Point", "coordinates": [139.70904790000017, 35.65117274994483]}, "properties": {"id": "shibuya-ward-305-0-125651173-319709048", "species_group": "cherry", "scientific_name": "Prunus species", "common_name": "シダレザクラ", "subtype_name": "シダレザクラ", "zip_code": null, "ownership": "public", "ownership_raw": "Tokyo Metropolitan Government", "city": "Shibuya Ward", "source_dataset": "Street Trees / 街路樹", "source_department": "Tokyo Metropolitan Government", "source_last_edit_at": ""}}, {"type": "Feature", "geometry": {"type": "Point", "coordinates": [139.70927140000012, 35.65118716994483]}, "properties": {"id": "shibuya-ward-305-0-125651187-319709271", "species_group": "cherry", "scientific_name": "Prunus species", "common_name": "シダレザクラ", "subtype_name": "シダレザクラ", "zip_code": null, "ownership": "public", "ownership_raw": "Tokyo Metropolitan Government", "city": "Shibuya Ward", "source_dataset": "Street Trees / 街路樹", "source_department": "Tokyo Metropolitan Government", "source_last_edit_at": ""}}, {"type": "Feature", "geometry": {"type": "Point", "coordinates": [139.70902040000018, 35.65121716994482]}, "properties": {"id": "shibuya-ward-305-0-125651217-319709020", "species_group": "cherry", "scientific_name": "Prunus species", "common_name": "シダレザクラ", "subtype_name": "シダレザクラ", "zip_code": null, "ownership": "public", "ownership_raw": "Tokyo Metropolitan Government", "city": "Shibuya Ward", "source_dataset": "Street Trees / 街路樹", "source_department": "Tokyo Metropolitan Government", "source_last_edit_at": ""}}, {"type": "Feature", "geometry": {"type": "Point", "coordinates": [139.70924940000018, 35.65123216994483]}, "properties": {"id": "shibuya-ward-305-0-125651232-319709249", "species_group": "cherry", "scientific_name": "Prunus species", "common_name": "シダレザクラ", "subtype_name": "シダレザクラ", "zip_code": null, "ownership": "public", "ownership_raw": "Tokyo Metropolitan Government", "city": "Shibuya Ward", "source_dataset": "Street Trees / 街路樹", "source_department": "Tokyo Metropolitan Government", "source_last_edit_at": ""}}, {"type": "Feature", "geometry": {"type": "Point", "coordinates": [139.7089284000002, 35.651528169944825]}, "properties": {"id": "shibuya-ward-305-0-125651528-319708928", "species_group": "cherry", "scientific_name": "Prunus species", "common_name": "シダレザクラ", "subtype_name": "シダレザクラ", "zip_code": null, "ownership": "public", "ownership_raw": "Tokyo Metropolitan Government", "city": "Shibuya Ward", "source_dataset": "Street Trees / 街路樹", "source_department": "Tokyo Metropolitan Government", "source_last_edit_at": ""}}, {"type": "Feature", "geometry": {"type": "Point", "coordinates": [139.70912440000015, 35.65162945994479]}, "properties": {"id": "shibuya-ward-305-0-125651629-319709124", "species_group": "cherry", "scientific_name": "Prunus species", "common_name": "シダレザクラ", "subtype_name": "シダレザクラ", "zip_code": null, "ownership": "public", "ownership_raw": "Tokyo Metropolitan Government", "city": "Shibuya Ward", "source_dataset": "Street Trees / 街路樹", "source_department": "Tokyo Metropolitan Government", "source_last_edit_at": ""}}, {"type": "Feature", "geometry": {"type": "Point", "coordinates": [139.70911740000014, 35.6516691699448]}, "properties": {"id": "shibuya-ward-305-0-125651669-319709117", "species_group": "cherry", "scientific_name": "Prunus species", "common_name": "シダレザクラ", "subtype_name": "シダレザクラ", "zip_code": null, "ownership": "public", "ownership_raw": "Tokyo Metropolitan Government", "city": "Shibuya Ward", "source_dataset": "Street Trees / 街路樹", "source_department": "Tokyo Metropolitan Government", "source_last_edit_at": ""}}, {"type": "Feature", "geometry": {"type": "Point", "coordinates": [139.70890240000014, 35.65167816994479]}, "properties": {"id": "shibuya-ward-305-0-125651678-319708902", "species_group": "cherry", "scientific_name": "Prunus species", "common_name": "シダレザクラ", "subtype_name": "シダレザクラ", "zip_code": null, "ownership": "public", "ownership_raw": "Tokyo Metropolitan Government", "city": "Shibuya Ward", "source_dataset": "Street Trees / 街路樹", "source_department": "Tokyo Metropolitan Government", "source_last_edit_at": ""}}, {"type": "Feature", "geometry": {"type": "Point", "coordinates": [139.70890240000014, 35.65167816994479]}, "properties": {"id": "shibuya-ward-305-0-125651678-319708902", "species_group": "cherry", "scientific_name": "Prunus species", "common_name": "シダレザクラ", "subtype_name": "シダレザクラ", "zip_code": null, "ownership": "public", "ownership_raw": "Tokyo Metropolitan Government", "city": "Shibuya Ward", "source_dataset": "Street Trees / 街路樹", "source_department": "Tokyo Metropolitan Government", "source_last_edit_at": ""}}, {"type": "Feature", "geometry": {"type": "Point", "coordinates": [139.70890040000012, 35.65171816994479]}, "properties": {"id": "shibuya-ward-305-0-125651718-319708900", "species_group": "cherry", "scientific_name": "Prunus species", "common_name": "シダレザクラ", "subtype_name": "シダレザクラ", "zip_code": null, "ownership": "public", "ownership_raw": "Tokyo Metropolitan Government", "city": "Shibuya Ward", "source_dataset": "Street Trees / 街路樹", "source_department": "Tokyo Metropolitan Government", "source_last_edit_at": ""}}, {"type": "Feature", "geometry": {"type": "Point", "coordinates": [139.7091084000002, 35.65176816994479]}, "properties": {"id": "shibuya-ward-305-0-125651768-319709108", "species_group": "cherry", "scientific_name": "Prunus species", "common_name": "シダレザクラ", "subtype_name": "シダレザクラ", "zip_code": null, "ownership": "public", "ownership_raw": "Tokyo Metropolitan Government", "city": "Shibuya Ward", "source_dataset": "Street Trees / 街路樹", "source_department": "Tokyo Metropolitan Government", "source_last_edit_at": ""}}, {"type": "Feature", "geometry": {"type": "Point", "coordinates": [139.7091034000002, 35.6518261699448]}, "properties": {"id": "shibuya-ward-305-0-125651826-319709103", "species_group": "cherry", "scientific_name": "Prunus species", "common_name": "シダレザクラ", "subtype_name": "シダレザクラ", "zip_code": null, "ownership": "public", "ownership_raw": "Tokyo Metropolitan Government", "city": "Shibuya Ward", "source_dataset": "Street Trees / 街路樹", "source_department": "Tokyo Metropolitan Government", "source_last_edit_at": ""}}, {"type": "Feature", "geometry": {"type": "Point", "coordinates": [139.70889140000017, 35.65183616994477]}, "properties": {"id": "shibuya-ward-305-0-125651836-319708891", "species_group": "cherry", "scientific_name": "Prunus species", "common_name": "シダレザクラ", "subtype_name": "シダレザクラ", "zip_code": null, "ownership": "public", "ownership_raw": "Tokyo Metropolitan Government", "city": "Shibuya Ward", "source_dataset": "Street Trees / 街路樹", "source_department": "Tokyo Metropolitan Government", "source_last_edit_at": ""}}, {"type": "Feature", "geometry": {"type": "Point", "coordinates": [139.7090994000001, 35.651871169944805]}, "properties": {"id": "shibuya-ward-305-0-125651871-319709099", "species_group": "cherry", "scientific_name": "Prunus species", "common_name": "シダレザクラ", "subtype_name": "シダレザクラ", "zip_code": null, "ownership": "public", "ownership_raw": "Tokyo Metropolitan Government", "city": "Shibuya Ward", "source_dataset": "Street Trees / 街路樹", "source_department": "Tokyo Metropolitan Government", "source_last_edit_at": ""}}, {"type": "Feature", "geometry": {"type": "Point", "coordinates": [139.70888620000014, 35.651901819944776]}, "properties": {"id": "shibuya-ward-305-0-125651902-319708886", "species_group": "cherry", "scientific_name": "Prunus species", "common_name": "シダレザクラ", "subtype_name": "シダレザクラ", "zip_code": null, "ownership": "public", "ownership_raw": "Tokyo Metropolitan Government", "city": "Shibuya Ward", "source_dataset": "Street Trees / 街路樹", "source_department": "Tokyo Metropolitan Government", "source_last_edit_at": ""}}, {"type": "Feature", "geometry": {"type": "Point", "coordinates": [139.70909140000012, 35.65195716994481]}, "properties": {"id": "shibuya-ward-305-0-125651957-319709091", "species_group": "cherry", "scientific_name": "Prunus species", "common_name": "シダレザクラ", "subtype_name": "シダレザクラ", "zip_code": null, "ownership": "public", "ownership_raw": "Tokyo Metropolitan Government", "city": "Shibuya Ward", "source_dataset": "Street Trees / 街路樹", "source_department": "Tokyo Metropolitan Government", "source_last_edit_at": ""}}, {"type": "Feature", "geometry": {"type": "Point", "coordinates": [139.7088784000002, 35.65197816994481]}, "properties": {"id": "shibuya-ward-305-0-125651978-319708878", "species_group": "cherry", "scientific_name": "Prunus species", "common_name": "シダレザクラ", "subtype_name": "シダレザクラ", "zip_code": null, "ownership": "public", "ownership_raw": "Tokyo Metropolitan Government", "city": "Shibuya Ward", "source_dataset": "Street Trees / 街路樹", "source_department": "Tokyo Metropolitan Government", "source_last_edit_at": ""}}, {"type": "Feature", "geometry": {"type": "Point", "coordinates": [139.7090844000001, 35.65203816994477]}, "properties": {"id": "shibuya-ward-305-0-125652038-319709084", "species_group": "cherry", "scientific_name": "Prunus species", "common_name": "シダレザクラ", "subtype_name": "シダレザクラ", "zip_code": null, "ownership": "public", "ownership_raw": "Tokyo Metropolitan Government", "city": "Shibuya Ward", "source_dataset": "Street Trees / 街路樹", "source_department": "Tokyo Metropolitan Government", "source_last_edit_at": ""}}, {"type": "Feature", "geometry": {"type": "Point", "coordinates": [139.70907840000015, 35.652087169944814]}, "properties": {"id": "shibuya-ward-305-0-125652087-319709078", "species_group": "cherry", "scientific_name": "Prunus species", "common_name": "シダレザクラ", "subtype_name": "シダレザクラ", "zip_code": null, "ownership": "public", "ownership_raw": "Tokyo Metropolitan Government", "city": "Shibuya Ward", "source_dataset": "Street Trees / 街路樹", "source_department": "Tokyo Metropolitan Government", "source_last_edit_at": ""}}, {"type": "Feature", "geometry": {"type": "Point", "coordinates": [139.70907840000015, 35.652087169944814]}, "properties": {"id": "shibuya-ward-305-0-125652087-319709078", "species_group": "cherry", "scientific_name": "Prunus species", "common_name": "シダレザクラ", "subtype_name": "シダレザクラ", "zip_code": null, "ownership": "public", "ownership_raw": "Tokyo Metropolitan Government", "city": "Shibuya Ward", "source_dataset": "Street Trees / 街路樹", "source_department": "Tokyo Metropolitan Government", "source_last_edit_at": ""}}, {"type": "Feature", "geometry": {"type": "Point", "coordinates": [139.70886440000012, 35.6521181699448]}, "properties": {"id": "shibuya-ward-305-0-125652118-319708864", "species_group": "cherry", "scientific_name": "Prunus species", "common_name": "シダレザクラ", "subtype_name": "シダレザクラ", "zip_code": null, "ownership": "public", "ownership_raw": "Tokyo Metropolitan Government", "city": "Shibuya Ward", "source_dataset": "Street Trees / 街路樹", "source_department": "Tokyo Metropolitan Government", "source_last_edit_at": ""}}, {"type": "Feature", "geometry": {"type": "Point", "coordinates": [139.70886440000012, 35.6521181699448]}, "properties": {"id": "shibuya-ward-305-0-125652118-319708864", "species_group": "cherry", "scientific_name": "Prunus species", "common_name": "シダレザクラ", "subtype_name": "シダレザクラ", "zip_code": null, "ownership": "public", "ownership_raw": "Tokyo Metropolitan Government", "city": "Shibuya Ward", "source_dataset": "Street Trees / 街路樹", "source_department": "Tokyo Metropolitan Government", "source_last_edit_at": ""}}, {"type": "Feature", "geometry": {"type": "Point", "coordinates": [139.7090504000001, 35.65239216994479]}, "properties": {"id": "shibuya-ward-305-0-125652392-319709050", "species_group": "cherry", "scientific_name": "Prunus species", "common_name": "シダレザクラ", "subtype_name": "シダレザクラ", "zip_code": null, "ownership": "public", "ownership_raw": "Tokyo Metropolitan Government", "city": "Shibuya Ward", "source_dataset": "Street Trees / 街路樹", "source_department": "Tokyo Metropolitan Government", "source_last_edit_at": ""}}, {"type": "Feature", "geometry": {"type": "Point", "coordinates": [139.70884040000018, 35.65241947994478]}, "properties": {"id": "shibuya-ward-305-0-125652419-319708840", "species_group": "cherry", "scientific_name": "Prunus species", "common_name": "シダレザクラ", "subtype_name": "シダレザクラ", "zip_code": null, "ownership": "public", "ownership_raw": "Tokyo Metropolitan Government", "city": "Shibuya Ward", "source_dataset": "Street Trees / 街路樹", "source_department": "Tokyo Metropolitan Government", "source_last_edit_at": ""}}, {"type": "Feature", "geometry": {"type": "Point", "coordinates": [139.70904770000013, 35.65245818994479]}, "properties": {"id": "shibuya-ward-305-0-125652458-319709048", "species_group": "cherry", "scientific_name": "Prunus species", "common_name": "シダレザクラ", "subtype_name": "シダレザクラ", "zip_code": null, "ownership": "public", "ownership_raw": "Tokyo Metropolitan Government", "city": "Shibuya Ward", "source_dataset": "Street Trees / 街路樹", "source_department": "Tokyo Metropolitan Government", "source_last_edit_at": ""}}, {"type": "Feature", "geometry": {"type": "Point", "coordinates": [139.70904770000013, 35.65245818994479]}, "properties": {"id": "shibuya-ward-305-0-125652458-319709048", "species_group": "cherry", "scientific_name": "Prunus species", "common_name": "シダレザクラ", "subtype_name": "シダレザクラ", "zip_code": null, "ownership": "public", "ownership_raw": "Tokyo Metropolitan Government", "city": "Shibuya Ward", "source_dataset": "Street Trees / 街路樹", "source_department": "Tokyo Metropolitan Government", "source_last_edit_at": ""}}, {"type": "Feature", "geometry": {"type": "Point", "coordinates": [139.70883490000014, 35.65247166994481]}, "properties": {"id": "shibuya-ward-305-0-125652472-319708835", "species_group": "cherry", "scientific_name": "Prunus species", "common_name": "シダレザクラ", "subtype_name": "シダレザクラ", "zip_code": null, "ownership": "public", "ownership_raw": "Tokyo Metropolitan Government", "city": "Shibuya Ward", "source_dataset": "Street Trees / 街路樹", "source_department": "Tokyo Metropolitan Government", "source_last_edit_at": ""}}, {"type": "Feature", "geometry": {"type": "Point", "coordinates": [139.70903740000014, 35.65254716994478]}, "properties": {"id": "shibuya-ward-305-0-125652547-319709037", "species_group": "cherry", "scientific_name": "Prunus species", "common_name": "シダレザクラ", "subtype_name": "シダレザクラ", "zip_code": null, "ownership": "public", "ownership_raw": "Tokyo Metropolitan Government", "city": "Shibuya Ward", "source_dataset": "Street Trees / 街路樹", "source_department": "Tokyo Metropolitan Government", "source_last_edit_at": ""}}, {"type": "Feature", "geometry": {"type": "Point", "coordinates": [139.7090319000001, 35.652605509944785]}, "properties": {"id": "shibuya-ward-305-0-125652606-319709032", "species_group": "cherry", "scientific_name": "Prunus species", "common_name": "シダレザクラ", "subtype_name": "シダレザクラ", "zip_code": null, "ownership": "public", "ownership_raw": "Tokyo Metropolitan Government", "city": "Shibuya Ward", "source_dataset": "Street Trees / 街路樹", "source_department": "Tokyo Metropolitan Government", "source_last_edit_at": ""}}, {"type": "Feature", "geometry": {"type": "Point", "coordinates": [139.70902940000016, 35.652628169944805]}, "properties": {"id": "shibuya-ward-305-0-125652628-319709029", "species_group": "cherry", "scientific_name": "Prunus species", "common_name": "シダレザクラ", "subtype_name": "シダレザクラ", "zip_code": null, "ownership": "public", "ownership_raw": "Tokyo Metropolitan Government", "city": "Shibuya Ward", "source_dataset": "Street Trees / 街路樹", "source_department": "Tokyo Metropolitan Government", "source_last_edit_at": ""}}, {"type": "Feature", "geometry": {"type": "Point", "coordinates": [139.70879740000018, 35.65270116994479]}, "properties": {"id": "shibuya-ward-305-0-125652701-319708797", "species_group": "cherry", "scientific_name": "Prunus species", "common_name": "シダレザクラ", "subtype_name": "シダレザクラ", "zip_code": null, "ownership": "public", "ownership_raw": "Tokyo Metropolitan Government", "city": "Shibuya Ward", "source_dataset": "Street Trees / 街路樹", "source_department": "Tokyo Metropolitan Government", "source_last_edit_at": ""}}, {"type": "Feature", "geometry": {"type": "Point", "coordinates": [139.7090124000002, 35.65274616994479]}, "properties": {"id": "shibuya-ward-305-0-125652746-319709012", "species_group": "cherry", "scientific_name": "Prunus species", "common_name": "シダレザクラ", "subtype_name": "シダレザクラ", "zip_code": null, "ownership": "public", "ownership_raw": "Tokyo Metropolitan Government", "city": "Shibuya Ward", "source_dataset": "Street Trees / 街路樹", "source_department": "Tokyo Metropolitan Government", "source_last_edit_at": ""}}, {"type": "Feature", "geometry": {"type": "Point", "coordinates": [139.7087546000001, 35.65286266994478]}, "properties": {"id": "shibuya-ward-305-0-125652863-319708755", "species_group": "cherry", "scientific_name": "Prunus species", "common_name": "シダレザクラ", "subtype_name": "シダレザクラ", "zip_code": null, "ownership": "public", "ownership_raw": "Tokyo Metropolitan Government", "city": "Shibuya Ward", "source_dataset": "Street Trees / 街路樹", "source_department": "Tokyo Metropolitan Government", "source_last_edit_at": ""}}, {"type": "Feature", "geometry": {"type": "Point", "coordinates": [139.7087450000001, 35.652901929944775]}, "properties": {"id": "shibuya-ward-305-0-125652902-319708745", "species_group": "cherry", "scientific_name": "Prunus species", "common_name": "シダレザクラ", "subtype_name": "シダレザクラ", "zip_code": null, "ownership": "public", "ownership_raw": "Tokyo Metropolitan Government", "city": "Shibuya Ward", "source_dataset": "Street Trees / 街路樹", "source_department": "Tokyo Metropolitan Government", "source_last_edit_at": ""}}, {"type": "Feature", "geometry": {"type": "Point", "coordinates": [139.70867240000015, 35.653077169944794]}, "properties": {"id": "shibuya-ward-305-0-125653077-319708672", "species_group": "cherry", "scientific_name": "Prunus species", "common_name": "シダレザクラ", "subtype_name": "シダレザクラ", "zip_code": null, "ownership": "public", "ownership_raw": "Tokyo Metropolitan Government", "city": "Shibuya Ward", "source_dataset": "Street Trees / 街路樹", "source_department": "Tokyo Metropolitan Government", "source_last_edit_at": ""}}, {"type": "Feature", "geometry": {"type": "Point", "coordinates": [139.70890740000013, 35.65309316994476]}, "properties": {"id": "shibuya-ward-305-0-125653093-319708907", "species_group": "cherry", "scientific_name": "Prunus species", "common_name": "シダレザクラ", "subtype_name": "シダレザクラ", "zip_code": null, "ownership": "public", "ownership_raw": "Tokyo Metropolitan Government", "city": "Shibuya Ward", "source_dataset": "Street Trees / 街路樹", "source_department": "Tokyo Metropolitan Government", "source_last_edit_at": ""}}, {"type": "Feature", "geometry": {"type": "Point", "coordinates": [139.7086534000002, 35.653119169944745]}, "properties": {"id": "shibuya-ward-305-0-125653119-319708653", "species_group": "cherry", "scientific_name": "Prunus species", "common_name": "シダレザクラ", "subtype_name": "シダレザクラ", "zip_code": null, "ownership": "public", "ownership_raw": "Tokyo Metropolitan Government", "city": "Shibuya Ward", "source_dataset": "Street Trees / 街路樹", "source_department": "Tokyo Metropolitan Government", "source_last_edit_at": ""}}, {"type": "Feature", "geometry": {"type": "Point", "coordinates": [139.7086375000001, 35.65316418994476]}, "properties": {"id": "shibuya-ward-305-0-125653164-319708638", "species_group": "cherry", "scientific_name": "Prunus species", "common_name": "シダレザクラ", "subtype_name": "シダレザクラ", "zip_code": null, "ownership": "public", "ownership_raw": "Tokyo Metropolitan Government", "city": "Shibuya Ward", "source_dataset": "Street Trees / 街路樹", "source_department": "Tokyo Metropolitan Government", "source_last_edit_at": ""}}, {"type": "Feature", "geometry": {"type": "Point", "coordinates": [139.70861740000018, 35.65321160994474]}, "properties": {"id": "shibuya-ward-305-0-125653212-319708617", "species_group": "cherry", "scientific_name": "Prunus species", "common_name": "シダレザクラ", "subtype_name": "シダレザクラ", "zip_code": null, "ownership": "public", "ownership_raw": "Tokyo Metropolitan Government", "city": "Shibuya Ward", "source_dataset": "Street Trees / 街路樹", "source_department": "Tokyo Metropolitan Government", "source_last_edit_at": ""}}, {"type": "Feature", "geometry": {"type": "Point", "coordinates": [139.7085884000001, 35.65327011994478]}, "properties": {"id": "shibuya-ward-305-0-125653270-319708588", "species_group": "cherry", "scientific_name": "Prunus species", "common_name": "シダレザクラ", "subtype_name": "シダレザクラ", "zip_code": null, "ownership": "public", "ownership_raw": "Tokyo Metropolitan Government", "city": "Shibuya Ward", "source_dataset": "Street Trees / 街路樹", "source_department": "Tokyo Metropolitan Government", "source_last_edit_at": ""}}, {"type": "Feature", "geometry": {"type": "Point", "coordinates": [139.70855040000012, 35.653324169944796]}, "properties": {"id": "shibuya-ward-305-0-125653324-319708550", "species_group": "cherry", "scientific_name": "Prunus species", "common_name": "シダレザクラ", "subtype_name": "シダレザクラ", "zip_code": null, "ownership": "public", "ownership_raw": "Tokyo Metropolitan Government", "city": "Shibuya Ward", "source_dataset": "Street Trees / 街路樹", "source_department": "Tokyo Metropolitan Government", "source_last_edit_at": ""}}, {"type": "Feature", "geometry": {"type": "Point", "coordinates": [139.7085214000002, 35.65337116994478]}, "properties": {"id": "shibuya-ward-305-0-125653371-319708521", "species_group": "cherry", "scientific_name": "Prunus species", "common_name": "シダレザクラ", "subtype_name": "シダレザクラ", "zip_code": null, "ownership": "public", "ownership_raw": "Tokyo Metropolitan Government", "city": "Shibuya Ward", "source_dataset": "Street Trees / 街路樹", "source_department": "Tokyo Metropolitan Government", "source_last_edit_at": ""}}, {"type": "Feature", "geometry": {"type": "Point", "coordinates": [139.7087414000001, 35.65339616994478]}, "properties": {"id": "shibuya-ward-305-0-125653396-319708741", "species_group": "cherry", "scientific_name": "Prunus species", "common_name": "シダレザクラ", "subtype_name": "シダレザクラ", "zip_code": null, "ownership": "public", "ownership_raw": "Tokyo Metropolitan Government", "city": "Shibuya Ward", "source_dataset": "Street Trees / 街路樹", "source_department": "Tokyo Metropolitan Government", "source_last_edit_at": ""}}, {"type": "Feature", "geometry": {"type": "Point", "coordinates": [139.70842090000016, 35.65350129994479]}, "properties": {"id": "shibuya-ward-305-0-125653501-319708421", "species_group": "cherry", "scientific_name": "Prunus species", "common_name": "シダレザクラ", "subtype_name": "シダレザクラ", "zip_code": null, "ownership": "public", "ownership_raw": "Tokyo Metropolitan Government", "city": "Shibuya Ward", "source_dataset": "Street Trees / 街路樹", "source_department": "Tokyo Metropolitan Government", "source_last_edit_at": ""}}, {"type": "Feature", "geometry": {"type": "Point", "coordinates": [139.7083205000001, 35.65361240994477]}, "properties": {"id": "shibuya-ward-305-0-125653612-319708321", "species_group": "cherry", "scientific_name": "Prunus species", "common_name": "シダレザクラ", "subtype_name": "シダレザクラ", "zip_code": null, "ownership": "public", "ownership_raw": "Tokyo Metropolitan Government", "city": "Shibuya Ward", "source_dataset": "Street Trees / 街路樹", "source_department": "Tokyo Metropolitan Government", "source_last_edit_at": ""}}, {"type": "Feature", "geometry": {"type": "Point", "coordinates": [139.7082934000002, 35.65363719994475]}, "properties": {"id": "shibuya-ward-305-0-125653637-319708293", "species_group": "cherry", "scientific_name": "Prunus species", "common_name": "シダレザクラ", "subtype_name": "シダレザクラ", "zip_code": null, "ownership": "public", "ownership_raw": "Tokyo Metropolitan Government", "city": "Shibuya Ward", "source_dataset": "Street Trees / 街路樹", "source_department": "Tokyo Metropolitan Government", "source_last_edit_at": ""}}, {"type": "Feature", "geometry": {"type": "Point", "coordinates": [139.70855540000008, 35.65364216994478]}, "properties": {"id": "shibuya-ward-305-0-125653642-319708555", "species_group": "cherry", "scientific_name": "Prunus species", "common_name": "シダレザクラ", "subtype_name": "シダレザクラ", "zip_code": null, "ownership": "public", "ownership_raw": "Tokyo Metropolitan Government", "city": "Shibuya Ward", "source_dataset": "Street Trees / 街路樹", "source_department": "Tokyo Metropolitan Government", "source_last_edit_at": ""}}, {"type": "Feature", "geometry": {"type": "Point", "coordinates": [139.70855540000008, 35.65364216994478]}, "properties": {"id": "shibuya-ward-305-0-125653642-319708555", "species_group": "cherry", "scientific_name": "Prunus species", "common_name": "シダレザクラ", "subtype_name": "シダレザクラ", "zip_code": null, "ownership": "public", "ownership_raw": "Tokyo Metropolitan Government", "city": "Shibuya Ward", "source_dataset": "Street Trees / 街路樹", "source_department": "Tokyo Metropolitan Government", "source_last_edit_at": ""}}, {"type": "Feature", "geometry": {"type": "Point", "coordinates": [139.70853040000017, 35.65366916994477]}, "properties": {"id": "shibuya-ward-305-0-125653669-319708530", "species_group": "cherry", "scientific_name": "Prunus species", "common_name": "シダレザクラ", "subtype_name": "シダレザクラ", "zip_code": null, "ownership": "public", "ownership_raw": "Tokyo Metropolitan Government", "city": "Shibuya Ward", "source_dataset": "Street Trees / 街路樹", "source_department": "Tokyo Metropolitan Government", "source_last_edit_at": ""}}, {"type": "Feature", "geometry": {"type": "Point", "coordinates": [139.70819040000012, 35.65372616994474]}, "properties": {"id": "shibuya-ward-305-0-125653726-319708190", "species_group": "cherry", "scientific_name": "Prunus species", "common_name": "シダレザクラ", "subtype_name": "シダレザクラ", "zip_code": null, "ownership": "public", "ownership_raw": "Tokyo Metropolitan Government", "city": "Shibuya Ward", "source_dataset": "Street Trees / 街路樹", "source_department": "Tokyo Metropolitan Government", "source_last_edit_at": ""}}, {"type": "Feature", "geometry": {"type": "Point", "coordinates": [139.70813740000014, 35.65376816994474]}, "properties": {"id": "shibuya-ward-305-0-125653768-319708137", "species_group": "cherry", "scientific_name": "Prunus species", "common_name": "シダレザクラ", "subtype_name": "シダレザクラ", "zip_code": null, "ownership": "public", "ownership_raw": "Tokyo Metropolitan Government", "city": "Shibuya Ward", "source_dataset": "Street Trees / 街路樹", "source_department": "Tokyo Metropolitan Government", "source_last_edit_at": ""}}, {"type": "Feature", "geometry": {"type": "Point", "coordinates": [139.70813740000014, 35.65376816994474]}, "properties": {"id": "shibuya-ward-305-0-125653768-319708137", "species_group": "cherry", "scientific_name": "Prunus species", "common_name": "シダレザクラ", "subtype_name": "シダレザクラ", "zip_code": null, "ownership": "public", "ownership_raw": "Tokyo Metropolitan Government", "city": "Shibuya Ward", "source_dataset": "Street Trees / 街路樹", "source_department": "Tokyo Metropolitan Government", "source_last_edit_at": ""}}, {"type": "Feature", "geometry": {"type": "Point", "coordinates": [139.7084124000001, 35.653784169944764]}, "properties": {"id": "shibuya-ward-305-0-125653784-319708412", "species_group": "cherry", "scientific_name": "Prunus species", "common_name": "シダレザクラ", "subtype_name": "シダレザクラ", "zip_code": null, "ownership": "public", "ownership_raw": "Tokyo Metropolitan Government", "city": "Shibuya Ward", "source_dataset": "Street Trees / 街路樹", "source_department": "Tokyo Metropolitan Government", "source_last_edit_at": ""}}, {"type": "Feature", "geometry": {"type": "Point", "coordinates": [139.70807320000014, 35.65381866994479]}, "properties": {"id": "shibuya-ward-305-0-125653819-319708073", "species_group": "cherry", "scientific_name": "Prunus species", "common_name": "シダレザクラ", "subtype_name": "シダレザクラ", "zip_code": null, "ownership": "public", "ownership_raw": "Tokyo Metropolitan Government", "city": "Shibuya Ward", "source_dataset": "Street Trees / 街路樹", "source_department": "Tokyo Metropolitan Government", "source_last_edit_at": ""}}, {"type": "Feature", "geometry": {"type": "Point", "coordinates": [139.70835140000014, 35.65384016994473]}, "properties": {"id": "shibuya-ward-305-0-125653840-319708351", "species_group": "cherry", "scientific_name": "Prunus species", "common_name": "シダレザクラ", "subtype_name": "シダレザクラ", "zip_code": null, "ownership": "public", "ownership_raw": "Tokyo Metropolitan Government", "city": "Shibuya Ward", "source_dataset": "Street Trees / 街路樹", "source_department": "Tokyo Metropolitan Government", "source_last_edit_at": ""}}, {"type": "Feature", "geometry": {"type": "Point", "coordinates": [139.70804070000017, 35.653840559944754]}, "properties": {"id": "shibuya-ward-305-0-125653841-319708041", "species_group": "cherry", "scientific_name": "Prunus species", "common_name": "シダレザクラ", "subtype_name": "シダレザクラ", "zip_code": null, "ownership": "public", "ownership_raw": "Tokyo Metropolitan Government", "city": "Shibuya Ward", "source_dataset": "Street Trees / 街路樹", "source_department": "Tokyo Metropolitan Government", "source_last_edit_at": ""}}, {"type": "Feature", "geometry": {"type": "Point", "coordinates": [139.70830840000016, 35.65387216994477]}, "properties": {"id": "shibuya-ward-305-0-125653872-319708308", "species_group": "cherry", "scientific_name": "Prunus species", "common_name": "シダレザクラ", "subtype_name": "シダレザクラ", "zip_code": null, "ownership": "public", "ownership_raw": "Tokyo Metropolitan Government", "city": "Shibuya Ward", "source_dataset": "Street Trees / 街路樹", "source_department": "Tokyo Metropolitan Government", "source_last_edit_at": ""}}, {"type": "Feature", "geometry": {"type": "Point", "coordinates": [139.7079754000001, 35.65388316994474]}, "properties": {"id": "shibuya-ward-305-0-125653883-319707975", "species_group": "cherry", "scientific_name": "Prunus species", "common_name": "シダレザクラ", "subtype_name": "シダレザクラ", "zip_code": null, "ownership": "public", "ownership_raw": "Tokyo Metropolitan Government", "city": "Shibuya Ward", "source_dataset": "Street Trees / 街路樹", "source_department": "Tokyo Metropolitan Government", "source_last_edit_at": ""}}, {"type": "Feature", "geometry": {"type": "Point", "coordinates": [139.7082464000002, 35.65392016994477]}, "properties": {"id": "shibuya-ward-305-0-125653920-319708246", "species_group": "cherry", "scientific_name": "Prunus species", "common_name": "シダレザクラ", "subtype_name": "シダレザクラ", "zip_code": null, "ownership": "public", "ownership_raw": "Tokyo Metropolitan Government", "city": "Shibuya Ward", "source_dataset": "Street Trees / 街路樹", "source_department": "Tokyo Metropolitan Government", "source_last_edit_at": ""}}, {"type": "Feature", "geometry": {"type": "Point", "coordinates": [139.70751240000013, 35.654207169944755]}, "properties": {"id": "shibuya-ward-305-0-125654207-319707512", "species_group": "cherry", "scientific_name": "Prunus species", "common_name": "サクラ", "subtype_name": "サクラ", "zip_code": null, "ownership": "public", "ownership_raw": "Tokyo Metropolitan Government", "city": "Shibuya Ward", "source_dataset": "Street Trees / 街路樹", "source_department": "Tokyo Metropolitan Government", "source_last_edit_at": ""}}, {"type": "Feature", "geometry": {"type": "Point", "coordinates": [139.7077564000002, 35.65426516994473]}, "properties": {"id": "shibuya-ward-305-0-125654265-319707756", "species_group": "cherry", "scientific_name": "Prunus species", "common_name": "シダレザクラ", "subtype_name": "シダレザクラ", "zip_code": null, "ownership": "public", "ownership_raw": "Tokyo Metropolitan Government", "city": "Shibuya Ward", "source_dataset": "Street Trees / 街路樹", "source_department": "Tokyo Metropolitan Government", "source_last_edit_at": ""}}, {"type": "Feature", "geometry": {"type": "Point", "coordinates": [139.7077564000002, 35.65426516994473]}, "properties": {"id": "shibuya-ward-305-0-125654265-319707756", "species_group": "cherry", "scientific_name": "Prunus species", "common_name": "シダレザクラ", "subtype_name": "シダレザクラ", "zip_code": null, "ownership": "public", "ownership_raw": "Tokyo Metropolitan Government", "city": "Shibuya Ward", "source_dataset": "Street Trees / 街路樹", "source_department": "Tokyo Metropolitan Government", "source_last_edit_at": ""}}, {"type": "Feature", "geometry": {"type": "Point", "coordinates": [139.70736840000012, 35.65431316994478]}, "properties": {"id": "shibuya-ward-305-0-125654313-319707368", "species_group": "cherry", "scientific_name": "Prunus species", "common_name": "シダレザクラ", "subtype_name": "シダレザクラ", "zip_code": null, "ownership": "public", "ownership_raw": "Tokyo Metropolitan Government", "city": "Shibuya Ward", "source_dataset": "Street Trees / 街路樹", "source_department": "Tokyo Metropolitan Government", "source_last_edit_at": ""}}, {"type": "Feature", "geometry": {"type": "Point", "coordinates": [139.70763740000015, 35.65435116994474]}, "properties": {"id": "shibuya-ward-305-0-125654351-319707637", "species_group": "cherry", "scientific_name": "Prunus species", "common_name": "シダレザクラ", "subtype_name": "シダレザクラ", "zip_code": null, "ownership": "public", "ownership_raw": "Tokyo Metropolitan Government", "city": "Shibuya Ward", "source_dataset": "Street Trees / 街路樹", "source_department": "Tokyo Metropolitan Government", "source_last_edit_at": ""}}, {"type": "Feature", "geometry": {"type": "Point", "coordinates": [139.70745860000017, 35.65448541994477]}, "properties": {"id": "shibuya-ward-305-0-125654485-319707459", "species_group": "cherry", "scientific_name": "Prunus species", "common_name": "シダレザクラ", "subtype_name": "シダレザクラ", "zip_code": null, "ownership": "public", "ownership_raw": "Tokyo Metropolitan Government", "city": "Shibuya Ward", "source_dataset": "Street Trees / 街路樹", "source_department": "Tokyo Metropolitan Government", "source_last_edit_at": ""}}, {"type": "Feature", "geometry": {"type": "Point", "coordinates": [139.7071654000001, 35.654488169944734]}, "properties": {"id": "shibuya-ward-305-0-125654488-319707165", "species_group": "cherry", "scientific_name": "Prunus species", "common_name": "シダレザクラ", "subtype_name": "シダレザクラ", "zip_code": null, "ownership": "public", "ownership_raw": "Tokyo Metropolitan Government", "city": "Shibuya Ward", "source_dataset": "Street Trees / 街路樹", "source_department": "Tokyo Metropolitan Government", "source_last_edit_at": ""}}, {"type": "Feature", "geometry": {"type": "Point", "coordinates": [139.70736140000017, 35.654567169944755]}, "properties": {"id": "shibuya-ward-305-0-125654567-319707361", "species_group": "cherry", "scientific_name": "Prunus species", "common_name": "シダレザクラ", "subtype_name": "シダレザクラ", "zip_code": null, "ownership": "public", "ownership_raw": "Tokyo Metropolitan Government", "city": "Shibuya Ward", "source_dataset": "Street Trees / 街路樹", "source_department": "Tokyo Metropolitan Government", "source_last_edit_at": ""}}, {"type": "Feature", "geometry": {"type": "Point", "coordinates": [139.7070674000001, 35.654597879944724]}, "properties": {"id": "shibuya-ward-305-0-125654598-319707067", "species_group": "cherry", "scientific_name": "Prunus species", "common_name": "シダレザクラ", "subtype_name": "シダレザクラ", "zip_code": null, "ownership": "public", "ownership_raw": "Tokyo Metropolitan Government", "city": "Shibuya Ward", "source_dataset": "Street Trees / 街路樹", "source_department": "Tokyo Metropolitan Government", "source_last_edit_at": ""}}, {"type": "Feature", "geometry": {"type": "Point", "coordinates": [139.7069824000001, 35.654691169944726]}, "properties": {"id": "shibuya-ward-305-0-125654691-319706982", "species_group": "cherry", "scientific_name": "Prunus species", "common_name": "シダレザクラ", "subtype_name": "シダレザクラ", "zip_code": null, "ownership": "public", "ownership_raw": "Tokyo Metropolitan Government", "city": "Shibuya Ward", "source_dataset": "Street Trees / 街路樹", "source_department": "Tokyo Metropolitan Government", "source_last_edit_at": ""}}, {"type": "Feature", "geometry": {"type": "Point", "coordinates": [139.70691530000016, 35.65477378994472]}, "properties": {"id": "shibuya-ward-305-0-125654774-319706915", "species_group": "cherry", "scientific_name": "Prunus species", "common_name": "シダレザクラ", "subtype_name": "シダレザクラ", "zip_code": null, "ownership": "public", "ownership_raw": "Tokyo Metropolitan Government", "city": "Shibuya Ward", "source_dataset": "Street Trees / 街路樹", "source_department": "Tokyo Metropolitan Government", "source_last_edit_at": ""}}, {"type": "Feature", "geometry": {"type": "Point", "coordinates": [139.7071541000001, 35.65479565994473]}, "properties": {"id": "shibuya-ward-305-0-125654796-319707154", "species_group": "cherry", "scientific_name": "Prunus species", "common_name": "シダレザクラ", "subtype_name": "シダレザクラ", "zip_code": null, "ownership": "public", "ownership_raw": "Tokyo Metropolitan Government", "city": "Shibuya Ward", "source_dataset": "Street Trees / 街路樹", "source_department": "Tokyo Metropolitan Government", "source_last_edit_at": ""}}, {"type": "Feature", "geometry": {"type": "Point", "coordinates": [139.7068510000001, 35.65484773994472]}, "properties": {"id": "shibuya-ward-305-0-125654848-319706851", "species_group": "cherry", "scientific_name": "Prunus species", "common_name": "シダレザクラ", "subtype_name": "シダレザクラ", "zip_code": null, "ownership": "public", "ownership_raw": "Tokyo Metropolitan Government", "city": "Shibuya Ward", "source_dataset": "Street Trees / 街路樹", "source_department": "Tokyo Metropolitan Government", "source_last_edit_at": ""}}, {"type": "Feature", "geometry": {"type": "Point", "coordinates": [139.7070714000001, 35.65488516994474]}, "properties": {"id": "shibuya-ward-305-0-125654885-319707071", "species_group": "cherry", "scientific_name": "Prunus species", "common_name": "シダレザクラ", "subtype_name": "シダレザクラ", "zip_code": null, "ownership": "public", "ownership_raw": "Tokyo Metropolitan Government", "city": "Shibuya Ward", "source_dataset": "Street Trees / 街路樹", "source_department": "Tokyo Metropolitan Government", "source_last_edit_at": ""}}, {"type": "Feature", "geometry": {"type": "Point", "coordinates": [139.7070274000001, 35.654936169944726]}, "properties": {"id": "shibuya-ward-305-0-125654936-319707027", "species_group": "cherry", "scientific_name": "Prunus species", "common_name": "シダレザクラ", "subtype_name": "シダレザクラ", "zip_code": null, "ownership": "public", "ownership_raw": "Tokyo Metropolitan Government", "city": "Shibuya Ward", "source_dataset": "Street Trees / 街路樹", "source_department": "Tokyo Metropolitan Government", "source_last_edit_at": ""}}, {"type": "Feature", "geometry": {"type": "Point", "coordinates": [139.7069864000002, 35.65498516994471]}, "properties": {"id": "shibuya-ward-305-0-125654985-319706986", "species_group": "cherry", "scientific_name": "Prunus species", "common_name": "シダレザクラ", "subtype_name": "シダレザクラ", "zip_code": null, "ownership": "public", "ownership_raw": "Tokyo Metropolitan Government", "city": "Shibuya Ward", "source_dataset": "Street Trees / 街路樹", "source_department": "Tokyo Metropolitan Government", "source_last_edit_at": ""}}, {"type": "Feature", "geometry": {"type": "Point", "coordinates": [139.70671220000017, 35.654999929944715]}, "properties": {"id": "shibuya-ward-305-0-125655000-319706712", "species_group": "cherry", "scientific_name": "Prunus species", "common_name": "シダレザクラ", "subtype_name": "シダレザクラ", "zip_code": null, "ownership": "public", "ownership_raw": "Tokyo Metropolitan Government", "city": "Shibuya Ward", "source_dataset": "Street Trees / 街路樹", "source_department": "Tokyo Metropolitan Government", "source_last_edit_at": ""}}, {"type": "Feature", "geometry": {"type": "Point", "coordinates": [139.7068994000002, 35.65508116994476]}, "properties": {"id": "shibuya-ward-305-0-125655081-319706899", "species_group": "cherry", "scientific_name": "Prunus species", "common_name": "シダレザクラ", "subtype_name": "シダレザクラ", "zip_code": null, "ownership": "public", "ownership_raw": "Tokyo Metropolitan Government", "city": "Shibuya Ward", "source_dataset": "Street Trees / 街路樹", "source_department": "Tokyo Metropolitan Government", "source_last_edit_at": ""}}, {"type": "Feature", "geometry": {"type": "Point", "coordinates": [139.7068994000002, 35.65508116994476]}, "properties": {"id": "shibuya-ward-305-0-125655081-319706899", "species_group": "cherry", "scientific_name": "Prunus species", "common_name": "シダレザクラ", "subtype_name": "シダレザクラ", "zip_code": null, "ownership": "public", "ownership_raw": "Tokyo Metropolitan Government", "city": "Shibuya Ward", "source_dataset": "Street Trees / 街路樹", "source_department": "Tokyo Metropolitan Government", "source_last_edit_at": ""}}, {"type": "Feature", "geometry": {"type": "Point", "coordinates": [139.70681170000017, 35.65516957994474]}, "properties": {"id": "shibuya-ward-305-0-125655170-319706812", "species_group": "cherry", "scientific_name": "Prunus species", "common_name": "サクラ", "subtype_name": "サクラ", "zip_code": null, "ownership": "public", "ownership_raw": "Tokyo Metropolitan Government", "city": "Shibuya Ward", "source_dataset": "Street Trees / 街路樹", "source_department": "Tokyo Metropolitan Government", "source_last_edit_at": ""}}, {"type": "Feature", "geometry": {"type": "Point", "coordinates": [139.70609940000017, 35.65556216994472]}, "properties": {"id": "shibuya-ward-305-0-125655562-319706099", "species_group": "cherry", "scientific_name": "Prunus species", "common_name": "サクラ", "subtype_name": "サクラ", "zip_code": null, "ownership": "public", "ownership_raw": "Tokyo Metropolitan Government", "city": "Shibuya Ward", "source_dataset": "Street Trees / 街路樹", "source_department": "Tokyo Metropolitan Government", "source_last_edit_at": ""}}, {"type": "Feature", "geometry": {"type": "Point", "coordinates": [139.70605140000018, 35.65560516994472]}, "properties": {"id": "shibuya-ward-305-0-125655605-319706051", "species_group": "cherry", "scientific_name": "Prunus species", "common_name": "サクラ", "subtype_name": "サクラ", "zip_code": null, "ownership": "public", "ownership_raw": "Tokyo Metropolitan Government", "city": "Shibuya Ward", "source_dataset": "Street Trees / 街路樹", "source_department": "Tokyo Metropolitan Government", "source_last_edit_at": ""}}, {"type": "Feature", "geometry": {"type": "Point", "coordinates": [139.7058852000001, 35.65576378994469]}, "properties": {"id": "shibuya-ward-305-0-125655764-319705885", "species_group": "cherry", "scientific_name": "Prunus species", "common_name": "サクラ", "subtype_name": "サクラ", "zip_code": null, "ownership": "public", "ownership_raw": "Tokyo Metropolitan Government", "city": "Shibuya Ward", "source_dataset": "Street Trees / 街路樹", "source_department": "Tokyo Metropolitan Government", "source_last_edit_at": ""}}, {"type": "Feature", "geometry": {"type": "Point", "coordinates": [139.70581590000015, 35.65581497994473]}, "properties": {"id": "shibuya-ward-305-0-125655815-319705816", "species_group": "cherry", "scientific_name": "Prunus species", "common_name": "サクラ", "subtype_name": "サクラ", "zip_code": null, "ownership": "public", "ownership_raw": "Tokyo Metropolitan Government", "city": "Shibuya Ward", "source_dataset": "Street Trees / 街路樹", "source_department": "Tokyo Metropolitan Government", "source_last_edit_at": ""}}, {"type": "Feature", "geometry": {"type": "Point", "coordinates": [139.70577050000017, 35.655850689944735]}, "properties": {"id": "shibuya-ward-305-0-125655851-319705771", "species_group": "cherry", "scientific_name": "Prunus species", "common_name": "サクラ", "subtype_name": "サクラ", "zip_code": null, "ownership": "public", "ownership_raw": "Tokyo Metropolitan Government", "city": "Shibuya Ward", "source_dataset": "Street Trees / 街路樹", "source_department": "Tokyo Metropolitan Government", "source_last_edit_at": ""}}, {"type": "Feature", "geometry": {"type": "Point", "coordinates": [139.70572620000016, 35.655883639944726]}, "properties": {"id": "shibuya-ward-305-0-125655884-319705726", "species_group": "cherry", "scientific_name": "Prunus species", "common_name": "サクラ", "subtype_name": "サクラ", "zip_code": null, "ownership": "public", "ownership_raw": "Tokyo Metropolitan Government", "city": "Shibuya Ward", "source_dataset": "Street Trees / 街路樹", "source_department": "Tokyo Metropolitan Government", "source_last_edit_at": ""}}, {"type": "Feature", "geometry": {"type": "Point", "coordinates": [139.7056804000002, 35.65591216994473]}, "properties": {"id": "shibuya-ward-305-0-125655912-319705680", "species_group": "cherry", "scientific_name": "Prunus species", "common_name": "サクラ", "subtype_name": "サクラ", "zip_code": null, "ownership": "public", "ownership_raw": "Tokyo Metropolitan Government", "city": "Shibuya Ward", "source_dataset": "Street Trees / 街路樹", "source_department": "Tokyo Metropolitan Government", "source_last_edit_at": ""}}, {"type": "Feature", "geometry": {"type": "Point", "coordinates": [139.70561540000014, 35.655961169944725]}, "properties": {"id": "shibuya-ward-305-0-125655961-319705615", "species_group": "cherry", "scientific_name": "Prunus species", "common_name": "サクラ", "subtype_name": "サクラ", "zip_code": null, "ownership": "public", "ownership_raw": "Tokyo Metropolitan Government", "city": "Shibuya Ward", "source_dataset": "Street Trees / 街路樹", "source_department": "Tokyo Metropolitan Government", "source_last_edit_at": ""}}, {"type": "Feature", "geometry": {"type": "Point", "coordinates": [139.7055504000002, 35.65600916994472]}, "properties": {"id": "shibuya-ward-305-0-125656009-319705550", "species_group": "cherry", "scientific_name": "Prunus species", "common_name": "サクラ", "subtype_name": "サクラ", "zip_code": null, "ownership": "public", "ownership_raw": "Tokyo Metropolitan Government", "city": "Shibuya Ward", "source_dataset": "Street Trees / 街路樹", "source_department": "Tokyo Metropolitan Government", "source_last_edit_at": ""}}, {"type": "Feature", "geometry": {"type": "Point", "coordinates": [139.70534040000015, 35.65616816994471]}, "properties": {"id": "shibuya-ward-305-0-125656168-319705340", "species_group": "cherry", "scientific_name": "Prunus species", "common_name": "サクラ", "subtype_name": "サクラ", "zip_code": null, "ownership": "public", "ownership_raw": "Tokyo Metropolitan Government", "city": "Shibuya Ward", "source_dataset": "Street Trees / 街路樹", "source_department": "Tokyo Metropolitan Government", "source_last_edit_at": ""}}, {"type": "Feature", "geometry": {"type": "Point", "coordinates": [139.70521540000013, 35.656258169944714]}, "properties": {"id": "shibuya-ward-305-0-125656258-319705215", "species_group": "cherry", "scientific_name": "Prunus species", "common_name": "サクラ", "subtype_name": "サクラ", "zip_code": null, "ownership": "public", "ownership_raw": "Tokyo Metropolitan Government", "city": "Shibuya Ward", "source_dataset": "Street Trees / 街路樹", "source_department": "Tokyo Metropolitan Government", "source_last_edit_at": ""}}, {"type": "Feature", "geometry": {"type": "Point", "coordinates": [139.7051454000002, 35.6563071699447]}, "properties": {"id": "shibuya-ward-305-0-125656307-319705145", "species_group": "cherry", "scientific_name": "Prunus species", "common_name": "サクラ", "subtype_name": "サクラ", "zip_code": null, "ownership": "public", "ownership_raw": "Tokyo Metropolitan Government", "city": "Shibuya Ward", "source_dataset": "Street Trees / 街路樹", "source_department": "Tokyo Metropolitan Government", "source_last_edit_at": ""}}, {"type": "Feature", "geometry": {"type": "Point", "coordinates": [139.7050754000001, 35.6563501699447]}, "properties": {"id": "shibuya-ward-305-0-125656350-319705075", "species_group": "cherry", "scientific_name": "Prunus species", "common_name": "サクラ", "subtype_name": "サクラ", "zip_code": null, "ownership": "public", "ownership_raw": "Tokyo Metropolitan Government", "city": "Shibuya Ward", "source_dataset": "Street Trees / 街路樹", "source_department": "Tokyo Metropolitan Government", "source_last_edit_at": ""}}, {"type": "Feature", "geometry": {"type": "Point", "coordinates": [139.7050064000002, 35.656390169944714]}, "properties": {"id": "shibuya-ward-305-0-125656390-319705006", "species_group": "cherry", "scientific_name": "Prunus species", "common_name": "サクラ", "subtype_name": "サクラ", "zip_code": null, "ownership": "public", "ownership_raw": "Tokyo Metropolitan Government", "city": "Shibuya Ward", "source_dataset": "Street Trees / 街路樹", "source_department": "Tokyo Metropolitan Government", "source_last_edit_at": ""}}, {"type": "Feature", "geometry": {"type": "Point", "coordinates": [139.70466040000017, 35.656596169944706]}, "properties": {"id": "shibuya-ward-305-0-125656596-319704660", "species_group": "cherry", "scientific_name": "Prunus species", "common_name": "サクラ", "subtype_name": "サクラ", "zip_code": null, "ownership": "public", "ownership_raw": "Tokyo Metropolitan Government", "city": "Shibuya Ward", "source_dataset": "Street Trees / 街路樹", "source_department": "Tokyo Metropolitan Government", "source_last_edit_at": ""}}, {"type": "Feature", "geometry": {"type": "Point", "coordinates": [139.70458940000012, 35.65664016994471]}, "properties": {"id": "shibuya-ward-305-0-125656640-319704589", "species_group": "cherry", "scientific_name": "Prunus species", "common_name": "サクラ", "subtype_name": "サクラ", "zip_code": null, "ownership": "public", "ownership_raw": "Tokyo Metropolitan Government", "city": "Shibuya Ward", "source_dataset": "Street Trees / 街路樹", "source_department": "Tokyo Metropolitan Government", "source_last_edit_at": ""}}, {"type": "Feature", "geometry": {"type": "Point", "coordinates": [139.70454540000011, 35.6566671799447]}, "properties": {"id": "shibuya-ward-305-0-125656667-319704545", "species_group": "cherry", "scientific_name": "Prunus species", "common_name": "サクラ", "subtype_name": "サクラ", "zip_code": null, "ownership": "public", "ownership_raw": "Tokyo Metropolitan Government", "city": "Shibuya Ward", "source_dataset": "Street Trees / 街路樹", "source_department": "Tokyo Metropolitan Government", "source_last_edit_at": ""}}, {"type": "Feature", "geometry": {"type": "Point", "coordinates": [139.7044564000001, 35.656737169944684]}, "properties": {"id": "shibuya-ward-305-0-125656737-319704456", "species_group": "cherry", "scientific_name": "Prunus species", "common_name": "サクラ", "subtype_name": "サクラ", "zip_code": null, "ownership": "public", "ownership_raw": "Tokyo Metropolitan Government", "city": "Shibuya Ward", "source_dataset": "Street Trees / 街路樹", "source_department": "Tokyo Metropolitan Government", "source_last_edit_at": ""}}, {"type": "Feature", "geometry": {"type": "Point", "coordinates": [139.70439540000015, 35.65679116994472]}, "properties": {"id": "shibuya-ward-305-0-125656791-319704395", "species_group": "cherry", "scientific_name": "Prunus species", "common_name": "サクラ", "subtype_name": "サクラ", "zip_code": null, "ownership": "public", "ownership_raw": "Tokyo Metropolitan Government", "city": "Shibuya Ward", "source_dataset": "Street Trees / 街路樹", "source_department": "Tokyo Metropolitan Government", "source_last_edit_at": ""}}, {"type": "Feature", "geometry": {"type": "Point", "coordinates": [139.70433940000015, 35.65684117994472]}, "properties": {"id": "shibuya-ward-305-0-125656841-319704339", "species_group": "cherry", "scientific_name": "Prunus species", "common_name": "サクラ", "subtype_name": "サクラ", "zip_code": null, "ownership": "public", "ownership_raw": "Tokyo Metropolitan Government", "city": "Shibuya Ward", "source_dataset": "Street Trees / 街路樹", "source_department": "Tokyo Metropolitan Government", "source_last_edit_at": ""}}, {"type": "Feature", "geometry": {"type": "Point", "coordinates": [139.70427840000013, 35.65689316994469]}, "properties": {"id": "shibuya-ward-305-0-125656893-319704278", "species_group": "cherry", "scientific_name": "Prunus species", "common_name": "サクラ", "subtype_name": "サクラ", "zip_code": null, "ownership": "public", "ownership_raw": "Tokyo Metropolitan Government", "city": "Shibuya Ward", "source_dataset": "Street Trees / 街路樹", "source_department": "Tokyo Metropolitan Government", "source_last_edit_at": ""}}, {"type": "Feature", "geometry": {"type": "Point", "coordinates": [139.70405940000023, 35.65708116994467]}, "properties": {"id": "shibuya-ward-305-0-125657081-319704059", "species_group": "cherry", "scientific_name": "Prunus species", "common_name": "サクラ", "subtype_name": "サクラ", "zip_code": null, "ownership": "public", "ownership_raw": "Tokyo Metropolitan Government", "city": "Shibuya Ward", "source_dataset": "Street Trees / 街路樹", "source_department": "Tokyo Metropolitan Government", "source_last_edit_at": ""}}, {"type": "Feature", "geometry": {"type": "Point", "coordinates": [139.70399740000016, 35.657135179944696]}, "properties": {"id": "shibuya-ward-305-0-125657135-319703997", "species_group": "cherry", "scientific_name": "Prunus species", "common_name": "サクラ", "subtype_name": "サクラ", "zip_code": null, "ownership": "public", "ownership_raw": "Tokyo Metropolitan Government", "city": "Shibuya Ward", "source_dataset": "Street Trees / 街路樹", "source_department": "Tokyo Metropolitan Government", "source_last_edit_at": ""}}, {"type": "Feature", "geometry": {"type": "Point", "coordinates": [139.70393840000017, 35.65718616994468]}, "properties": {"id": "shibuya-ward-305-0-125657186-319703938", "species_group": "cherry", "scientific_name": "Prunus species", "common_name": "サクラ", "subtype_name": "サクラ", "zip_code": null, "ownership": "public", "ownership_raw": "Tokyo Metropolitan Government", "city": "Shibuya Ward", "source_dataset": "Street Trees / 街路樹", "source_department": "Tokyo Metropolitan Government", "source_last_edit_at": ""}}, {"type": "Feature", "geometry": {"type": "Point", "coordinates": [139.7042474000002, 35.65723417994468]}, "properties": {"id": "shibuya-ward-305-0-125657234-319704247", "species_group": "cherry", "scientific_name": "Prunus species", "common_name": "サクラ", "subtype_name": "サクラ", "zip_code": null, "ownership": "public", "ownership_raw": "Tokyo Metropolitan Government", "city": "Shibuya Ward", "source_dataset": "Street Trees / 街路樹", "source_department": "Tokyo Metropolitan Government", "source_last_edit_at": ""}}, {"type": "Feature", "geometry": {"type": "Point", "coordinates": [139.70387940000023, 35.657242169944695]}, "properties": {"id": "shibuya-ward-305-0-125657242-319703879", "species_group": "cherry", "scientific_name": "Prunus species", "common_name": "サクラ", "subtype_name": "サクラ", "zip_code": null, "ownership": "public", "ownership_raw": "Tokyo Metropolitan Government", "city": "Shibuya Ward", "source_dataset": "Street Trees / 街路樹", "source_department": "Tokyo Metropolitan Government", "source_last_edit_at": ""}}, {"type": "Feature", "geometry": {"type": "Point", "coordinates": [139.70382000000018, 35.65729184994468]}, "properties": {"id": "shibuya-ward-305-0-125657292-319703820", "species_group": "cherry", "scientific_name": "Prunus species", "common_name": "サクラ", "subtype_name": "サクラ", "zip_code": null, "ownership": "public", "ownership_raw": "Tokyo Metropolitan Government", "city": "Shibuya Ward", "source_dataset": "Street Trees / 街路樹", "source_department": "Tokyo Metropolitan Government", "source_last_edit_at": ""}}, {"type": "Feature", "geometry": {"type": "Point", "coordinates": [139.70377150000013, 35.65733478994469]}, "properties": {"id": "shibuya-ward-305-0-125657335-319703772", "species_group": "cherry", "scientific_name": "Prunus species", "common_name": "サクラ", "subtype_name": "サクラ", "zip_code": null, "ownership": "public", "ownership_raw": "Tokyo Metropolitan Government", "city": "Shibuya Ward", "source_dataset": "Street Trees / 街路樹", "source_department": "Tokyo Metropolitan Government", "source_last_edit_at": ""}}, {"type": "Feature", "geometry": {"type": "Point", "coordinates": [139.70373330000015, 35.65736715994467]}, "properties": {"id": "shibuya-ward-305-0-125657367-319703733", "species_group": "cherry", "scientific_name": "Prunus species", "common_name": "サクラ", "subtype_name": "サクラ", "zip_code": null, "ownership": "public", "ownership_raw": "Tokyo Metropolitan Government", "city": "Shibuya Ward", "source_dataset": "Street Trees / 街路樹", "source_department": "Tokyo Metropolitan Government", "source_last_edit_at": ""}}, {"type": "Feature", "geometry": {"type": "Point", "coordinates": [139.70369260000018, 35.65740602994469]}, "properties": {"id": "shibuya-ward-305-0-125657406-319703693", "species_group": "cherry", "scientific_name": "Prunus species", "common_name": "サクラ", "subtype_name": "サクラ", "zip_code": null, "ownership": "public", "ownership_raw": "Tokyo Metropolitan Government", "city": "Shibuya Ward", "source_dataset": "Street Trees / 街路樹", "source_department": "Tokyo Metropolitan Government", "source_last_edit_at": ""}}, {"type": "Feature", "geometry": {"type": "Point", "coordinates": [139.70364340000015, 35.657447379944685]}, "properties": {"id": "shibuya-ward-305-0-125657447-319703643", "species_group": "cherry", "scientific_name": "Prunus species", "common_name": "サクラ", "subtype_name": "サクラ", "zip_code": null, "ownership": "public", "ownership_raw": "Tokyo Metropolitan Government", "city": "Shibuya Ward", "source_dataset": "Street Trees / 街路樹", "source_department": "Tokyo Metropolitan Government", "source_last_edit_at": ""}}, {"type": "Feature", "geometry": {"type": "Point", "coordinates": [139.70358800000017, 35.657492609944704]}, "properties": {"id": "shibuya-ward-305-0-125657493-319703588", "species_group": "cherry", "scientific_name": "Prunus species", "common_name": "サクラ", "subtype_name": "サクラ", "zip_code": null, "ownership": "public", "ownership_raw": "Tokyo Metropolitan Government", "city": "Shibuya Ward", "source_dataset": "Street Trees / 街路樹", "source_department": "Tokyo Metropolitan Government", "source_last_edit_at": ""}}, {"type": "Feature", "geometry": {"type": "Point", "coordinates": [139.70351430000017, 35.657562519944676]}, "properties": {"id": "shibuya-ward-305-0-125657563-319703514", "species_group": "cherry", "scientific_name": "Prunus species", "common_name": "サクラ", "subtype_name": "サクラ", "zip_code": null, "ownership": "public", "ownership_raw": "Tokyo Metropolitan Government", "city": "Shibuya Ward", "source_dataset": "Street Trees / 街路樹", "source_department": "Tokyo Metropolitan Government", "source_last_edit_at": ""}}, {"type": "Feature", "geometry": {"type": "Point", "coordinates": [139.69106650000015, 35.66755696994448]}, "properties": {"id": "shibuya-ward-413-0-125667557-319691067", "species_group": "crabapple", "scientific_name": "Malus species", "common_name": "ハナカイドウ", "subtype_name": "ハナカイドウ", "zip_code": null, "ownership": "public", "ownership_raw": "Tokyo Metropolitan Government", "city": "Shibuya Ward", "source_dataset": "Street Trees / 街路樹", "source_department": "Tokyo Metropolitan Government", "source_last_edit_at": ""}}, {"type": "Feature", "geometry": {"type": "Point", "coordinates": [139.68854340000019, 35.667651269944486]}, "properties": {"id": "shibuya-ward-413-0-125667651-319688543", "species_group": "magnolia", "scientific_name": "Magnolia species", "common_name": "モクレン", "subtype_name": "モクレン", "zip_code": null, "ownership": "public", "ownership_raw": "Tokyo Metropolitan Government", "city": "Shibuya Ward", "source_dataset": "Street Trees / 街路樹", "source_department": "Tokyo Metropolitan Government", "source_last_edit_at": ""}}, {"type": "Feature", "geometry": {"type": "Point", "coordinates": [139.68969140000013, 35.66777155994447]}, "properties": {"id": "shibuya-ward-413-0-125667772-319689691", "species_group": "magnolia", "scientific_name": "Magnolia species", "common_name": "モクレン", "subtype_name": "モクレン", "zip_code": null, "ownership": "public", "ownership_raw": "Tokyo Metropolitan Government", "city": "Shibuya Ward", "source_dataset": "Street Trees / 街路樹", "source_department": "Tokyo Metropolitan Government", "source_last_edit_at": ""}}, {"type": "Feature", "geometry": {"type": "Point", "coordinates": [139.6888903000001, 35.667876989944425]}, "properties": {"id": "shibuya-ward-413-0-125667877-319688890", "species_group": "magnolia", "scientific_name": "Magnolia species", "common_name": "モクレン", "subtype_name": "モクレン", "zip_code": null, "ownership": "public", "ownership_raw": "Tokyo Metropolitan Government", "city": "Shibuya Ward", "source_dataset": "Street Trees / 街路樹", "source_department": "Tokyo Metropolitan Government", "source_last_edit_at": ""}}, {"type": "Feature", "geometry": {"type": "Point", "coordinates": [139.68879300000012, 35.66788170994447]}, "properties": {"id": "shibuya-ward-413-0-125667882-319688793", "species_group": "magnolia", "scientific_name": "Magnolia species", "common_name": "モクレン", "subtype_name": "モクレン", "zip_code": null, "ownership": "public", "ownership_raw": "Tokyo Metropolitan Government", "city": "Shibuya Ward", "source_dataset": "Street Trees / 街路樹", "source_department": "Tokyo Metropolitan Government", "source_last_edit_at": ""}}, {"type": "Feature", "geometry": {"type": "Point", "coordinates": [139.68867130000012, 35.66789468994442]}, "properties": {"id": "shibuya-ward-413-0-125667895-319688671", "species_group": "magnolia", "scientific_name": "Magnolia species", "common_name": "モクレン", "subtype_name": "モクレン", "zip_code": null, "ownership": "public", "ownership_raw": "Tokyo Metropolitan Government", "city": "Shibuya Ward", "source_dataset": "Street Trees / 街路樹", "source_department": "Tokyo Metropolitan Government", "source_last_edit_at": ""}}, {"type": "Feature", "geometry": {"type": "Point", "coordinates": [139.68330880000016, 35.66795451994449]}, "properties": {"id": "shibuya-ward-413-0-125667955-319683309", "species_group": "magnolia", "scientific_name": "Magnolia species", "common_name": "モクレン属", "subtype_name": "モクレン属", "zip_code": null, "ownership": "public", "ownership_raw": "Tokyo Metropolitan Government", "city": "Shibuya Ward", "source_dataset": "Street Trees / 街路樹", "source_department": "Tokyo Metropolitan Government", "source_last_edit_at": ""}}, {"type": "Feature", "geometry": {"type": "Point", "coordinates": [139.6835314000002, 35.66810745994443]}, "properties": {"id": "shibuya-ward-413-0-125668107-319683531", "species_group": "magnolia", "scientific_name": "Magnolia species", "common_name": "モクレン属", "subtype_name": "モクレン属", "zip_code": null, "ownership": "public", "ownership_raw": "Tokyo Metropolitan Government", "city": "Shibuya Ward", "source_dataset": "Street Trees / 街路樹", "source_department": "Tokyo Metropolitan Government", "source_last_edit_at": ""}}, {"type": "Feature", "geometry": {"type": "Point", "coordinates": [139.68268000000023, 35.668149729944425]}, "properties": {"id": "shibuya-ward-413-0-125668150-319682680", "species_group": "magnolia", "scientific_name": "Magnolia species", "common_name": "モクレン属", "subtype_name": "モクレン属", "zip_code": null, "ownership": "public", "ownership_raw": "Tokyo Metropolitan Government", "city": "Shibuya Ward", "source_dataset": "Street Trees / 街路樹", "source_department": "Tokyo Metropolitan Government", "source_last_edit_at": ""}}, {"type": "Feature", "geometry": {"type": "Point", "coordinates": [139.68247010000016, 35.668164889944464]}, "properties": {"id": "shibuya-ward-413-0-125668165-319682470", "species_group": "magnolia", "scientific_name": "Magnolia species", "common_name": "モクレン属", "subtype_name": "モクレン属", "zip_code": null, "ownership": "public", "ownership_raw": "Tokyo Metropolitan Government", "city": "Shibuya Ward", "source_dataset": "Street Trees / 街路樹", "source_department": "Tokyo Metropolitan Government", "source_last_edit_at": ""}}, {"type": "Feature", "geometry": {"type": "Point", "coordinates": [139.68001420000016, 35.668284649944425]}, "properties": {"id": "shibuya-ward-413-0-125668285-319680014", "species_group": "magnolia", "scientific_name": "Magnolia species", "common_name": "モクレン属", "subtype_name": "モクレン属", "zip_code": null, "ownership": "public", "ownership_raw": "Tokyo Metropolitan Government", "city": "Shibuya Ward", "source_dataset": "Street Trees / 街路樹", "source_department": "Tokyo Metropolitan Government", "source_last_edit_at": ""}}, {"type": "Feature", "geometry": {"type": "Point", "coordinates": [139.69598000000016, 35.668419319944434]}, "properties": {"id": "shibuya-ward-413-0-125668419-319695980", "species_group": "cherry", "scientific_name": "Prunus species", "common_name": "ソメイヨシノ", "subtype_name": "ソメイヨシノ", "zip_code": null, "ownership": "public", "ownership_raw": "Tokyo Metropolitan Government", "city": "Shibuya Ward", "source_dataset": "Street Trees / 街路樹", "source_department": "Tokyo Metropolitan Government", "source_last_edit_at": ""}}, {"type": "Feature", "geometry": {"type": "Point", "coordinates": [139.69888830000014, 35.66853954994443]}, "properties": {"id": "shibuya-ward-413-0-125668540-319698888", "species_group": "crabapple", "scientific_name": "Malus species", "common_name": "ハナカイドウ", "subtype_name": "ハナカイドウ", "zip_code": null, "ownership": "public", "ownership_raw": "Tokyo Metropolitan Government", "city": "Shibuya Ward", "source_dataset": "Street Trees / 街路樹", "source_department": "Tokyo Metropolitan Government", "source_last_edit_at": ""}}, {"type": "Feature", "geometry": {"type": "Point", "coordinates": [139.69884820000013, 35.668549439944435]}, "properties": {"id": "shibuya-ward-413-0-125668549-319698848", "species_group": "crabapple", "scientific_name": "Malus species", "common_name": "ハナカイドウ", "subtype_name": "ハナカイドウ", "zip_code": null, "ownership": "public", "ownership_raw": "Tokyo Metropolitan Government", "city": "Shibuya Ward", "source_dataset": "Street Trees / 街路樹", "source_department": "Tokyo Metropolitan Government", "source_last_edit_at": ""}}, {"type": "Feature", "geometry": {"type": "Point", "coordinates": [139.6992774000001, 35.66855785994445]}, "properties": {"id": "shibuya-ward-413-0-125668558-319699277", "species_group": "plum", "scientific_name": "Prunus species", "common_name": "ウメ", "subtype_name": "ウメ", "zip_code": null, "ownership": "public", "ownership_raw": "Tokyo Metropolitan Government", "city": "Shibuya Ward", "source_dataset": "Street Trees / 街路樹", "source_department": "Tokyo Metropolitan Government", "source_last_edit_at": ""}}, {"type": "Feature", "geometry": {"type": "Point", "coordinates": [139.69892010000012, 35.66858882994442]}, "properties": {"id": "shibuya-ward-413-0-125668589-319698920", "species_group": "plum", "scientific_name": "Prunus species", "common_name": "ウメ", "subtype_name": "ウメ", "zip_code": null, "ownership": "public", "ownership_raw": "Tokyo Metropolitan Government", "city": "Shibuya Ward", "source_dataset": "Street Trees / 街路樹", "source_department": "Tokyo Metropolitan Government", "source_last_edit_at": ""}}, {"type": "Feature", "geometry": {"type": "Point", "coordinates": [139.70083030000023, 35.66876347994443]}, "properties": {"id": "shibuya-ward-413-0-125668763-319700830", "species_group": "crabapple", "scientific_name": "Malus species", "common_name": "ハナカイドウ", "subtype_name": "ハナカイドウ", "zip_code": null, "ownership": "public", "ownership_raw": "Tokyo Metropolitan Government", "city": "Shibuya Ward", "source_dataset": "Street Trees / 街路樹", "source_department": "Tokyo Metropolitan Government", "source_last_edit_at": ""}}, {"type": "Feature", "geometry": {"type": "Point", "coordinates": [139.70117520000016, 35.66890957994442]}, "properties": {"id": "shibuya-ward-413-0-125668910-319701175", "species_group": "plum", "scientific_name": "Prunus species", "common_name": "ウメ", "subtype_name": "ウメ", "zip_code": null, "ownership": "public", "ownership_raw": "Tokyo Metropolitan Government", "city": "Shibuya Ward", "source_dataset": "Street Trees / 街路樹", "source_department": "Tokyo Metropolitan Government", "source_last_edit_at": ""}}, {"type": "Feature", "geometry": {"type": "Point", "coordinates": [139.70124310000017, 35.66893564994441]}, "properties": {"id": "shibuya-ward-413-0-125668936-319701243", "species_group": "plum", "scientific_name": "Prunus species", "common_name": "ウメ", "subtype_name": "ウメ", "zip_code": null, "ownership": "public", "ownership_raw": "Tokyo Metropolitan Government", "city": "Shibuya Ward", "source_dataset": "Street Trees / 街路樹", "source_department": "Tokyo Metropolitan Government", "source_last_edit_at": ""}}, {"type": "Feature", "geometry": {"type": "Point", "coordinates": [139.7013426000002, 35.66897319994442]}, "properties": {"id": "shibuya-ward-413-0-125668973-319701343", "species_group": "plum", "scientific_name": "Prunus species", "common_name": "ウメ", "subtype_name": "ウメ", "zip_code": null, "ownership": "public", "ownership_raw": "Tokyo Metropolitan Government", "city": "Shibuya Ward", "source_dataset": "Street Trees / 街路樹", "source_department": "Tokyo Metropolitan Government", "source_last_edit_at": ""}}, {"type": "Feature", "geometry": {"type": "Point", "coordinates": [139.70141050000015, 35.669004999944406]}, "properties": {"id": "shibuya-ward-413-0-125669005-319701411", "species_group": "plum", "scientific_name": "Prunus species", "common_name": "ウメ", "subtype_name": "ウメ", "zip_code": null, "ownership": "public", "ownership_raw": "Tokyo Metropolitan Government", "city": "Shibuya Ward", "source_dataset": "Street Trees / 街路樹", "source_department": "Tokyo Metropolitan Government", "source_last_edit_at": ""}}, {"type": "Feature", "geometry": {"type": "Point", "coordinates": [139.70149280000018, 35.66904063994442]}, "properties": {"id": "shibuya-ward-413-0-125669041-319701493", "species_group": "plum", "scientific_name": "Prunus species", "common_name": "ウメ", "subtype_name": "ウメ", "zip_code": null, "ownership": "public", "ownership_raw": "Tokyo Metropolitan Government", "city": "Shibuya Ward", "source_dataset": "Street Trees / 街路樹", "source_department": "Tokyo Metropolitan Government", "source_last_edit_at": ""}}, {"type": "Feature", "geometry": {"type": "Point", "coordinates": [139.70301240000012, 35.66971988994441]}, "properties": {"id": "shibuya-ward-413-0-125669720-319703012", "species_group": "magnolia", "scientific_name": "Magnolia species", "common_name": "コブシ", "subtype_name": "コブシ", "zip_code": null, "ownership": "public", "ownership_raw": "Tokyo Metropolitan Government", "city": "Shibuya Ward", "source_dataset": "Street Trees / 街路樹", "source_department": "Tokyo Metropolitan Government", "source_last_edit_at": ""}}, {"type": "Feature", "geometry": {"type": "Point", "coordinates": [139.7029765000002, 35.66977968994439]}, "properties": {"id": "shibuya-ward-413-0-125669780-319702977", "species_group": "cherry", "scientific_name": "Prunus species", "common_name": "シダレザクラ", "subtype_name": "シダレザクラ", "zip_code": null, "ownership": "public", "ownership_raw": "Tokyo Metropolitan Government", "city": "Shibuya Ward", "source_dataset": "Street Trees / 街路樹", "source_department": "Tokyo Metropolitan Government", "source_last_edit_at": ""}}, {"type": "Feature", "geometry": {"type": "Point", "coordinates": [139.7029765000002, 35.66977968994439]}, "properties": {"id": "shibuya-ward-413-0-125669780-319702977", "species_group": "cherry", "scientific_name": "Prunus species", "common_name": "シダレザクラ", "subtype_name": "シダレザクラ", "zip_code": null, "ownership": "public", "ownership_raw": "Tokyo Metropolitan Government", "city": "Shibuya Ward", "source_dataset": "Street Trees / 街路樹", "source_department": "Tokyo Metropolitan Government", "source_last_edit_at": ""}}, {"type": "Feature", "geometry": {"type": "Point", "coordinates": [139.70505680000016, 35.64651445994492]}, "properties": {"id": "shibuya-ward-416-0-125646514-319705057", "species_group": "cherry", "scientific_name": "Prunus species", "common_name": "サクラ", "subtype_name": "サクラ", "zip_code": null, "ownership": "public", "ownership_raw": "Tokyo Metropolitan Government", "city": "Shibuya Ward", "source_dataset": "Street Trees / 街路樹", "source_department": "Tokyo Metropolitan Government", "source_last_edit_at": ""}}, {"type": "Feature", "geometry": {"type": "Point", "coordinates": [139.7124403000001, 35.67308466994432]}, "properties": {"id": "shibuya-ward-418-0-125673085-319712440", "species_group": "cherry", "scientific_name": "Prunus species", "common_name": "ソメイヨシノ", "subtype_name": "ソメイヨシノ", "zip_code": null, "ownership": "public", "ownership_raw": "Tokyo Metropolitan Government", "city": "Shibuya Ward", "source_dataset": "Street Trees / 街路樹", "source_department": "Tokyo Metropolitan Government", "source_last_edit_at": ""}}]}