{"type": "FeatureCollection", "features": [{"type": "Feature", "geometry": {"type": "Point", "coordinates": [139.4942346, 35.63572199]}, "properties": {"id": "inagi-1664f1d46f0d5d1c", "species_group": "cherry", "scientific_name": "Prunus species", "common_name": "サクラ", "subtype_name": "サクラ", "zip_code": null, "ownership": "unknown", "ownership_raw": "", "city": "Inagi", "source_dataset": "Protected Trees / 保護指定樹木", "source_department": "Inagi City", "source_last_edit_at": ""}}, {"type": "Feature", "geometry": {"type": "Point", "coordinates": [139.5015855, 35.63675419]}, "properties": {"id": "inagi-2e5ff3248e902798", "species_group": "cherry", "scientific_name": "Prunus species", "common_name": "サクラ", "subtype_name": "サクラ", "zip_code": null, "ownership": "unknown", "ownership_raw": "", "city": "Inagi", "source_dataset": "Protected Trees / 保護指定樹木", "source_department": "Inagi City", "source_last_edit_at": ""}}, {"type": "Feature", "geometry": {"type": "Point", "coordinates": [139.493591, 35.63502149]}, "properties": {"id": "inagi-3eba764849e3232d", "species_group": "cherry", "scientific_name": "Prunus species", "common_name": "サクラ", "subtype_name": "サクラ", "zip_code": null, "ownership": "unknown", "ownership_raw": "", "city": "Inagi", "source_dataset": "Protected Trees / 保護指定樹木", "source_department": "Inagi City", "source_last_edit_at": ""}}, {"type": "Feature", "geometry": {"type": "Point", "coordinates": [139.5011977, 35.63642639]}, "properties": {"id": "inagi-6f0d774af6cd522d", "species_group": "cherry", "scientific_name": "Prunus species", "common_name": "サクラ", "subtype_name": "サクラ", "zip_code": null, "ownership": "unknown", "ownership_raw": "", "city": "Inagi", "source_dataset": "Protected Trees / 保護指定樹木", "source_department": "Inagi City", "source_last_edit_at": ""}}, {"type": "Feature", "geometry": {"type": "Point", "coordinates": [139.4879275, 35.62576816]}, "properties": {"id": "inagi-8610ac4e5f196cf2", "species_group": "cherry", "scientific_name": "Prunus species", "common_name": "ヤマザクラ", "subtype_name": "ヤマザクラ", "zip_code": null, "ownership": "unknown", "ownership_raw": "", "city": "Inagi", "source_dataset": "Protected Trees / 保護指定樹木", "source_department": "Inagi City", "source_last_edit_at": ""}}, {"type": "Feature", "geometry": {"type": "Point", "coordinates": [139.4941699, 35.63568463]}, "properties": {"id": "inagi-c6e5d1edc2b559ac", "species_group": "cherry", "scientific_name": "Prunus species", "common_name": "サクラ", "subtype_name": "サクラ", "zip_code": null, "ownership": "unknown", "ownership_raw": "", "city": "Inagi", "source_dataset": "Protected Trees / 保護指定樹木", "source_department": "Inagi City", "source_last_edit_at": ""}}, {"type": "Feature", "geometry": {"type": "Point", "coordinates": [139.493739, 35.63525625]}, "properties": {"id": "inagi-c976a5ec1808b630", "species_group": "cherry", "scientific_name": "Prunus species", "common_name": "サクラ", "subtype_name": "サクラ", "zip_code": null, "ownership": "unknown", "ownership_raw": "", "city": "Inagi", "source_dataset": "Protected Trees / 保護指定樹木", "source_department": "Inagi City", "source_last_edit_at": ""}}, {"type": "Feature", "geometry": {"type": "Point", "coordinates": [139.4792413, 35.62750107]}, "properties": {"id": "inagi-de63a34bbe37cb38", "species_group": "cherry", "scientific_name": "Prunus species", "common_name": "シダレザクラ", "subtype_name": "シダレザクラ", "zip_code": null, "ownership": "unknown", "ownership_raw": "", "city": "Inagi", "source_dataset": "Protected Trees / 保護指定樹木", "source_department": "Inagi City", "source_last_edit_at": ""}}]}