{"type": "FeatureCollection", "features": [{"type": "Feature", "geometry": {"type": "Point", "coordinates": [139.69374570000014, 35.75823019994246]}, "properties": {"id": "itabashi-ward-318-0-125758230-319693746", "species_group": "magnolia", "scientific_name": "Magnolia species", "common_name": "ハクモクレン", "subtype_name": "ハクモクレン", "zip_code": null, "ownership": "public", "ownership_raw": "Tokyo Metropolitan Government", "city": "Itabashi Ward", "source_dataset": "Street Trees / 街路樹", "source_department": "Tokyo Metropolitan Government", "source_last_edit_at": ""}}, {"type": "Feature", "geometry": {"type": "Point", "coordinates": [139.69636370000023, 35.759069019942395]}, "properties": {"id": "itabashi-ward-318-0-125759069-319696364", "species_group": "magnolia", "scientific_name": "Magnolia species", "common_name": "コブシ", "subtype_name": "コブシ", "zip_code": null, "ownership": "public", "ownership_raw": "Tokyo Metropolitan Government", "city": "Itabashi Ward", "source_dataset": "Street Trees / 街路樹", "source_department": "Tokyo Metropolitan Government", "source_last_edit_at": ""}}, {"type": "Feature", "geometry": {"type": "Point", "coordinates": [139.69758530000013, 35.759209799942425]}, "properties": {"id": "itabashi-ward-318-0-125759210-319697585", "species_group": "magnolia", "scientific_name": "Magnolia species", "common_name": "ハクモクレン", "subtype_name": "ハクモクレン", "zip_code": null, "ownership": "public", "ownership_raw": "Tokyo Metropolitan Government", "city": "Itabashi Ward", "source_dataset": "Street Trees / 街路樹", "source_department": "Tokyo Metropolitan Government", "source_last_edit_at": ""}}, {"type": "Feature", "geometry": {"type": "Point", "coordinates": [139.69847260000017, 35.75943421994242]}, "properties": {"id": "itabashi-ward-318-0-125759434-319698473", "species_group": "magnolia", "scientific_name": "Magnolia species", "common_name": "コブシ", "subtype_name": "コブシ", "zip_code": null, "ownership": "public", "ownership_raw": "Tokyo Metropolitan Government", "city": "Itabashi Ward", "source_dataset": "Street Trees / 街路樹", "source_department": "Tokyo Metropolitan Government", "source_last_edit_at": ""}}, {"type": "Feature", "geometry": {"type": "Point", "coordinates": [139.7004836000002, 35.760133039942374]}, "properties": {"id": "itabashi-ward-318-0-125760133-319700484", "species_group": "magnolia", "scientific_name": "Magnolia species", "common_name": "コブシ", "subtype_name": "コブシ", "zip_code": null, "ownership": "public", "ownership_raw": "Tokyo Metropolitan Government", "city": "Itabashi Ward", "source_dataset": "Street Trees / 街路樹", "source_department": "Tokyo Metropolitan Government", "source_last_edit_at": ""}}, {"type": "Feature", "geometry": {"type": "Point", "coordinates": [139.7031868000001, 35.7608245699424]}, "properties": {"id": "itabashi-ward-318-0-125760825-319703187", "species_group": "magnolia", "scientific_name": "Magnolia species", "common_name": "コブシ", "subtype_name": "コブシ", "zip_code": null, "ownership": "public", "ownership_raw": "Tokyo Metropolitan Government", "city": "Itabashi Ward", "source_dataset": "Street Trees / 街路樹", "source_department": "Tokyo Metropolitan Government", "source_last_edit_at": ""}}, {"type": "Feature", "geometry": {"type": "Point", "coordinates": [139.70379750000018, 35.76101430994239]}, "properties": {"id": "itabashi-ward-318-0-125761014-319703798", "species_group": "magnolia", "scientific_name": "Magnolia species", "common_name": "コブシ", "subtype_name": "コブシ", "zip_code": null, "ownership": "public", "ownership_raw": "Tokyo Metropolitan Government", "city": "Itabashi Ward", "source_dataset": "Street Trees / 街路樹", "source_department": "Tokyo Metropolitan Government", "source_last_edit_at": ""}}, {"type": "Feature", "geometry": {"type": "Point", "coordinates": [139.70635000000016, 35.76159030994235]}, "properties": {"id": "itabashi-ward-318-0-125761590-319706350", "species_group": "magnolia", "scientific_name": "Magnolia species", "common_name": "コブシ", "subtype_name": "コブシ", "zip_code": null, "ownership": "public", "ownership_raw": "Tokyo Metropolitan Government", "city": "Itabashi Ward", "source_dataset": "Street Trees / 街路樹", "source_department": "Tokyo Metropolitan Government", "source_last_edit_at": ""}}, {"type": "Feature", "geometry": {"type": "Point", "coordinates": [139.70750380000015, 35.76188099994238]}, "properties": {"id": "itabashi-ward-318-0-125761881-319707504", "species_group": "magnolia", "scientific_name": "Magnolia species", "common_name": "コブシ", "subtype_name": "コブシ", "zip_code": null, "ownership": "public", "ownership_raw": "Tokyo Metropolitan Government", "city": "Itabashi Ward", "source_dataset": "Street Trees / 街路樹", "source_department": "Tokyo Metropolitan Government", "source_last_edit_at": ""}}, {"type": "Feature", "geometry": {"type": "Point", "coordinates": [139.70965920000015, 35.76248155994232]}, "properties": {"id": "itabashi-ward-318-0-125762482-319709659", "species_group": "magnolia", "scientific_name": "Magnolia species", "common_name": "コブシ", "subtype_name": "コブシ", "zip_code": null, "ownership": "public", "ownership_raw": "Tokyo Metropolitan Government", "city": "Itabashi Ward", "source_dataset": "Street Trees / 街路樹", "source_department": "Tokyo Metropolitan Government", "source_last_edit_at": ""}}, {"type": "Feature", "geometry": {"type": "Point", "coordinates": [139.71077060000013, 35.76282362994236]}, "properties": {"id": "itabashi-ward-318-0-125762824-319710771", "species_group": "magnolia", "scientific_name": "Magnolia species", "common_name": "コブシ", "subtype_name": "コブシ", "zip_code": null, "ownership": "public", "ownership_raw": "Tokyo Metropolitan Government", "city": "Itabashi Ward", "source_dataset": "Street Trees / 街路樹", "source_department": "Tokyo Metropolitan Government", "source_last_edit_at": ""}}, {"type": "Feature", "geometry": {"type": "Point", "coordinates": [139.70211170000016, 35.74986283994262]}, "properties": {"id": "itabashi-ward-420-0-125749863-319702112", "species_group": "peach", "scientific_name": "Prunus species", "common_name": "ハナモモ", "subtype_name": "ハナモモ", "zip_code": null, "ownership": "public", "ownership_raw": "Tokyo Metropolitan Government", "city": "Itabashi Ward", "source_dataset": "Street Trees / 街路樹", "source_department": "Tokyo Metropolitan Government", "source_last_edit_at": ""}}, {"type": "Feature", "geometry": {"type": "Point", "coordinates": [139.70182410000018, 35.749865169942666]}, "properties": {"id": "itabashi-ward-420-0-125749865-319701824", "species_group": "peach", "scientific_name": "Prunus species", "common_name": "ハナモモ", "subtype_name": "ハナモモ", "zip_code": null, "ownership": "public", "ownership_raw": "Tokyo Metropolitan Government", "city": "Itabashi Ward", "source_dataset": "Street Trees / 街路樹", "source_department": "Tokyo Metropolitan Government", "source_last_edit_at": ""}}, {"type": "Feature", "geometry": {"type": "Point", "coordinates": [139.70183410000013, 35.74986951994265]}, "properties": {"id": "itabashi-ward-420-0-125749870-319701834", "species_group": "peach", "scientific_name": "Prunus species", "common_name": "ハナモモ", "subtype_name": "ハナモモ", "zip_code": null, "ownership": "public", "ownership_raw": "Tokyo Metropolitan Government", "city": "Itabashi Ward", "source_dataset": "Street Trees / 街路樹", "source_department": "Tokyo Metropolitan Government", "source_last_edit_at": ""}}, {"type": "Feature", "geometry": {"type": "Point", "coordinates": [139.70190250000016, 35.749903809942616]}, "properties": {"id": "itabashi-ward-420-0-125749904-319701903", "species_group": "peach", "scientific_name": "Prunus species", "common_name": "ハナモモ", "subtype_name": "ハナモモ", "zip_code": null, "ownership": "public", "ownership_raw": "Tokyo Metropolitan Government", "city": "Itabashi Ward", "source_dataset": "Street Trees / 街路樹", "source_department": "Tokyo Metropolitan Government", "source_last_edit_at": ""}}, {"type": "Feature", "geometry": {"type": "Point", "coordinates": [139.70236310000016, 35.74998172994263]}, "properties": {"id": "itabashi-ward-420-0-125749982-319702363", "species_group": "peach", "scientific_name": "Prunus species", "common_name": "ハナモモ", "subtype_name": "ハナモモ", "zip_code": null, "ownership": "public", "ownership_raw": "Tokyo Metropolitan Government", "city": "Itabashi Ward", "source_dataset": "Street Trees / 街路樹", "source_department": "Tokyo Metropolitan Government", "source_last_edit_at": ""}}, {"type": "Feature", "geometry": {"type": "Point", "coordinates": [139.7024054000002, 35.75000307994263]}, "properties": {"id": "itabashi-ward-420-0-125750003-319702405", "species_group": "peach", "scientific_name": "Prunus species", "common_name": "ハナモモ", "subtype_name": "ハナモモ", "zip_code": null, "ownership": "public", "ownership_raw": "Tokyo Metropolitan Government", "city": "Itabashi Ward", "source_dataset": "Street Trees / 街路樹", "source_department": "Tokyo Metropolitan Government", "source_last_edit_at": ""}}, {"type": "Feature", "geometry": {"type": "Point", "coordinates": [139.70218880000016, 35.75003804994263]}, "properties": {"id": "itabashi-ward-420-0-125750038-319702189", "species_group": "peach", "scientific_name": "Prunus species", "common_name": "ハナモモ", "subtype_name": "ハナモモ", "zip_code": null, "ownership": "public", "ownership_raw": "Tokyo Metropolitan Government", "city": "Itabashi Ward", "source_dataset": "Street Trees / 街路樹", "source_department": "Tokyo Metropolitan Government", "source_last_edit_at": ""}}, {"type": "Feature", "geometry": {"type": "Point", "coordinates": [139.70223150000015, 35.75005932994263]}, "properties": {"id": "itabashi-ward-420-0-125750059-319702232", "species_group": "peach", "scientific_name": "Prunus species", "common_name": "ハナモモ", "subtype_name": "ハナモモ", "zip_code": null, "ownership": "public", "ownership_raw": "Tokyo Metropolitan Government", "city": "Itabashi Ward", "source_dataset": "Street Trees / 街路樹", "source_department": "Tokyo Metropolitan Government", "source_last_edit_at": ""}}, {"type": "Feature", "geometry": {"type": "Point", "coordinates": [139.70228640000016, 35.75008429994261]}, "properties": {"id": "itabashi-ward-420-0-125750084-319702286", "species_group": "peach", "scientific_name": "Prunus species", "common_name": "ハナモモ", "subtype_name": "ハナモモ", "zip_code": null, "ownership": "public", "ownership_raw": "Tokyo Metropolitan Government", "city": "Itabashi Ward", "source_dataset": "Street Trees / 街路樹", "source_department": "Tokyo Metropolitan Government", "source_last_edit_at": ""}}, {"type": "Feature", "geometry": {"type": "Point", "coordinates": [139.70230750000016, 35.750092739942644]}, "properties": {"id": "itabashi-ward-420-0-125750093-319702308", "species_group": "peach", "scientific_name": "Prunus species", "common_name": "ハナモモ", "subtype_name": "ハナモモ", "zip_code": null, "ownership": "public", "ownership_raw": "Tokyo Metropolitan Government", "city": "Itabashi Ward", "source_dataset": "Street Trees / 街路樹", "source_department": "Tokyo Metropolitan Government", "source_last_edit_at": ""}}, {"type": "Feature", "geometry": {"type": "Point", "coordinates": [139.70236350000016, 35.75011715994263]}, "properties": {"id": "itabashi-ward-420-0-125750117-319702364", "species_group": "peach", "scientific_name": "Prunus species", "common_name": "ハナモモ", "subtype_name": "ハナモモ", "zip_code": null, "ownership": "public", "ownership_raw": "Tokyo Metropolitan Government", "city": "Itabashi Ward", "source_dataset": "Street Trees / 街路樹", "source_department": "Tokyo Metropolitan Government", "source_last_edit_at": ""}}, {"type": "Feature", "geometry": {"type": "Point", "coordinates": [139.70238320000018, 35.75012518994263]}, "properties": {"id": "itabashi-ward-420-0-125750125-319702383", "species_group": "peach", "scientific_name": "Prunus species", "common_name": "ハナモモ", "subtype_name": "ハナモモ", "zip_code": null, "ownership": "public", "ownership_raw": "Tokyo Metropolitan Government", "city": "Itabashi Ward", "source_dataset": "Street Trees / 街路樹", "source_department": "Tokyo Metropolitan Government", "source_last_edit_at": ""}}, {"type": "Feature", "geometry": {"type": "Point", "coordinates": [139.70244800000023, 35.75015076994263]}, "properties": {"id": "itabashi-ward-420-0-125750151-319702448", "species_group": "peach", "scientific_name": "Prunus species", "common_name": "ハナモモ", "subtype_name": "ハナモモ", "zip_code": null, "ownership": "public", "ownership_raw": "Tokyo Metropolitan Government", "city": "Itabashi Ward", "source_dataset": "Street Trees / 街路樹", "source_department": "Tokyo Metropolitan Government", "source_last_edit_at": ""}}, {"type": "Feature", "geometry": {"type": "Point", "coordinates": [139.7028094000002, 35.75015435994263]}, "properties": {"id": "itabashi-ward-420-0-125750154-319702809", "species_group": "peach", "scientific_name": "Prunus species", "common_name": "ハナモモ", "subtype_name": "ハナモモ", "zip_code": null, "ownership": "public", "ownership_raw": "Tokyo Metropolitan Government", "city": "Itabashi Ward", "source_dataset": "Street Trees / 街路樹", "source_department": "Tokyo Metropolitan Government", "source_last_edit_at": ""}}, {"type": "Feature", "geometry": {"type": "Point", "coordinates": [139.70247450000022, 35.7501621299426]}, "properties": {"id": "itabashi-ward-420-0-125750162-319702475", "species_group": "peach", "scientific_name": "Prunus species", "common_name": "ハナモモ", "subtype_name": "ハナモモ", "zip_code": null, "ownership": "public", "ownership_raw": "Tokyo Metropolitan Government", "city": "Itabashi Ward", "source_dataset": "Street Trees / 街路樹", "source_department": "Tokyo Metropolitan Government", "source_last_edit_at": ""}}, {"type": "Feature", "geometry": {"type": "Point", "coordinates": [139.70289970000022, 35.75018550994262]}, "properties": {"id": "itabashi-ward-420-0-125750186-319702900", "species_group": "peach", "scientific_name": "Prunus species", "common_name": "ハナモモ", "subtype_name": "ハナモモ", "zip_code": null, "ownership": "public", "ownership_raw": "Tokyo Metropolitan Government", "city": "Itabashi Ward", "source_dataset": "Street Trees / 街路樹", "source_department": "Tokyo Metropolitan Government", "source_last_edit_at": ""}}, {"type": "Feature", "geometry": {"type": "Point", "coordinates": [139.70314970000013, 35.7502610799426]}, "properties": {"id": "itabashi-ward-420-0-125750261-319703150", "species_group": "peach", "scientific_name": "Prunus species", "common_name": "ハナモモ", "subtype_name": "ハナモモ", "zip_code": null, "ownership": "public", "ownership_raw": "Tokyo Metropolitan Government", "city": "Itabashi Ward", "source_dataset": "Street Trees / 街路樹", "source_department": "Tokyo Metropolitan Government", "source_last_edit_at": ""}}, {"type": "Feature", "geometry": {"type": "Point", "coordinates": [139.70318160000022, 35.750270599942645]}, "properties": {"id": "itabashi-ward-420-0-125750271-319703182", "species_group": "peach", "scientific_name": "Prunus species", "common_name": "ハナモモ", "subtype_name": "ハナモモ", "zip_code": null, "ownership": "public", "ownership_raw": "Tokyo Metropolitan Government", "city": "Itabashi Ward", "source_dataset": "Street Trees / 街路樹", "source_department": "Tokyo Metropolitan Government", "source_last_edit_at": ""}}, {"type": "Feature", "geometry": {"type": "Point", "coordinates": [139.7030357000002, 35.750358219942626]}, "properties": {"id": "itabashi-ward-420-0-125750358-319703036", "species_group": "peach", "scientific_name": "Prunus species", "common_name": "ハナモモ", "subtype_name": "ハナモモ", "zip_code": null, "ownership": "public", "ownership_raw": "Tokyo Metropolitan Government", "city": "Itabashi Ward", "source_dataset": "Street Trees / 街路樹", "source_department": "Tokyo Metropolitan Government", "source_last_edit_at": ""}}, {"type": "Feature", "geometry": {"type": "Point", "coordinates": [139.70310180000013, 35.75037861994261]}, "properties": {"id": "itabashi-ward-420-0-125750379-319703102", "species_group": "peach", "scientific_name": "Prunus species", "common_name": "ハナモモ", "subtype_name": "ハナモモ", "zip_code": null, "ownership": "public", "ownership_raw": "Tokyo Metropolitan Government", "city": "Itabashi Ward", "source_dataset": "Street Trees / 街路樹", "source_department": "Tokyo Metropolitan Government", "source_last_edit_at": ""}}, {"type": "Feature", "geometry": {"type": "Point", "coordinates": [139.7031283000002, 35.750387879942615]}, "properties": {"id": "itabashi-ward-420-0-125750388-319703128", "species_group": "peach", "scientific_name": "Prunus species", "common_name": "ハナモモ", "subtype_name": "ハナモモ", "zip_code": null, "ownership": "public", "ownership_raw": "Tokyo Metropolitan Government", "city": "Itabashi Ward", "source_dataset": "Street Trees / 街路樹", "source_department": "Tokyo Metropolitan Government", "source_last_edit_at": ""}}, {"type": "Feature", "geometry": {"type": "Point", "coordinates": [139.70320100000015, 35.75040909994264]}, "properties": {"id": "itabashi-ward-420-0-125750409-319703201", "species_group": "peach", "scientific_name": "Prunus species", "common_name": "ハナモモ", "subtype_name": "ハナモモ", "zip_code": null, "ownership": "public", "ownership_raw": "Tokyo Metropolitan Government", "city": "Itabashi Ward", "source_dataset": "Street Trees / 街路樹", "source_department": "Tokyo Metropolitan Government", "source_last_edit_at": ""}}, {"type": "Feature", "geometry": {"type": "Point", "coordinates": [139.70333200000016, 35.75044506994264]}, "properties": {"id": "itabashi-ward-420-0-125750445-319703332", "species_group": "peach", "scientific_name": "Prunus species", "common_name": "ハナモモ", "subtype_name": "ハナモモ", "zip_code": null, "ownership": "public", "ownership_raw": "Tokyo Metropolitan Government", "city": "Itabashi Ward", "source_dataset": "Street Trees / 街路樹", "source_department": "Tokyo Metropolitan Government", "source_last_edit_at": ""}}, {"type": "Feature", "geometry": {"type": "Point", "coordinates": [139.7033547000002, 35.750451749942584]}, "properties": {"id": "itabashi-ward-420-0-125750452-319703355", "species_group": "peach", "scientific_name": "Prunus species", "common_name": "ハナモモ", "subtype_name": "ハナモモ", "zip_code": null, "ownership": "public", "ownership_raw": "Tokyo Metropolitan Government", "city": "Itabashi Ward", "source_dataset": "Street Trees / 街路樹", "source_department": "Tokyo Metropolitan Government", "source_last_edit_at": ""}}, {"type": "Feature", "geometry": {"type": "Point", "coordinates": [139.70341010000013, 35.7504688099426]}, "properties": {"id": "itabashi-ward-420-0-125750469-319703410", "species_group": "peach", "scientific_name": "Prunus species", "common_name": "ハナモモ", "subtype_name": "ハナモモ", "zip_code": null, "ownership": "public", "ownership_raw": "Tokyo Metropolitan Government", "city": "Itabashi Ward", "source_dataset": "Street Trees / 街路樹", "source_department": "Tokyo Metropolitan Government", "source_last_edit_at": ""}}, {"type": "Feature", "geometry": {"type": "Point", "coordinates": [139.7034298000002, 35.750472889942586]}, "properties": {"id": "itabashi-ward-420-0-125750473-319703430", "species_group": "peach", "scientific_name": "Prunus species", "common_name": "ハナモモ", "subtype_name": "ハナモモ", "zip_code": null, "ownership": "public", "ownership_raw": "Tokyo Metropolitan Government", "city": "Itabashi Ward", "source_dataset": "Street Trees / 街路樹", "source_department": "Tokyo Metropolitan Government", "source_last_edit_at": ""}}, {"type": "Feature", "geometry": {"type": "Point", "coordinates": [139.70349120000012, 35.7504911199426]}, "properties": {"id": "itabashi-ward-420-0-125750491-319703491", "species_group": "peach", "scientific_name": "Prunus species", "common_name": "ハナモモ", "subtype_name": "ハナモモ", "zip_code": null, "ownership": "public", "ownership_raw": "Tokyo Metropolitan Government", "city": "Itabashi Ward", "source_dataset": "Street Trees / 街路樹", "source_department": "Tokyo Metropolitan Government", "source_last_edit_at": ""}}, {"type": "Feature", "geometry": {"type": "Point", "coordinates": [139.7035056000002, 35.75049465994263]}, "properties": {"id": "itabashi-ward-420-0-125750495-319703506", "species_group": "peach", "scientific_name": "Prunus species", "common_name": "ハナモモ", "subtype_name": "ハナモモ", "zip_code": null, "ownership": "public", "ownership_raw": "Tokyo Metropolitan Government", "city": "Itabashi Ward", "source_dataset": "Street Trees / 街路樹", "source_department": "Tokyo Metropolitan Government", "source_last_edit_at": ""}}, {"type": "Feature", "geometry": {"type": "Point", "coordinates": [139.70358470000016, 35.75051533994261]}, "properties": {"id": "itabashi-ward-420-0-125750515-319703585", "species_group": "peach", "scientific_name": "Prunus species", "common_name": "ハナモモ", "subtype_name": "ハナモモ", "zip_code": null, "ownership": "public", "ownership_raw": "Tokyo Metropolitan Government", "city": "Itabashi Ward", "source_dataset": "Street Trees / 街路樹", "source_department": "Tokyo Metropolitan Government", "source_last_edit_at": ""}}, {"type": "Feature", "geometry": {"type": "Point", "coordinates": [139.7036042000002, 35.750521329942586]}, "properties": {"id": "itabashi-ward-420-0-125750521-319703604", "species_group": "peach", "scientific_name": "Prunus species", "common_name": "ハナモモ", "subtype_name": "ハナモモ", "zip_code": null, "ownership": "public", "ownership_raw": "Tokyo Metropolitan Government", "city": "Itabashi Ward", "source_dataset": "Street Trees / 街路樹", "source_department": "Tokyo Metropolitan Government", "source_last_edit_at": ""}}, {"type": "Feature", "geometry": {"type": "Point", "coordinates": [139.70364740000014, 35.75053220994263]}, "properties": {"id": "itabashi-ward-420-0-125750532-319703647", "species_group": "peach", "scientific_name": "Prunus species", "common_name": "ハナモモ", "subtype_name": "ハナモモ", "zip_code": null, "ownership": "public", "ownership_raw": "Tokyo Metropolitan Government", "city": "Itabashi Ward", "source_dataset": "Street Trees / 街路樹", "source_department": "Tokyo Metropolitan Government", "source_last_edit_at": ""}}, {"type": "Feature", "geometry": {"type": "Point", "coordinates": [139.70366760000013, 35.75053819994261]}, "properties": {"id": "itabashi-ward-420-0-125750538-319703668", "species_group": "peach", "scientific_name": "Prunus species", "common_name": "ハナモモ", "subtype_name": "ハナモモ", "zip_code": null, "ownership": "public", "ownership_raw": "Tokyo Metropolitan Government", "city": "Itabashi Ward", "source_dataset": "Street Trees / 街路樹", "source_department": "Tokyo Metropolitan Government", "source_last_edit_at": ""}}, {"type": "Feature", "geometry": {"type": "Point", "coordinates": [139.70374000000015, 35.75055887994258]}, "properties": {"id": "itabashi-ward-420-0-125750559-319703740", "species_group": "peach", "scientific_name": "Prunus species", "common_name": "ハナモモ", "subtype_name": "ハナモモ", "zip_code": null, "ownership": "public", "ownership_raw": "Tokyo Metropolitan Government", "city": "Itabashi Ward", "source_dataset": "Street Trees / 街路樹", "source_department": "Tokyo Metropolitan Government", "source_last_edit_at": ""}}, {"type": "Feature", "geometry": {"type": "Point", "coordinates": [139.70376080000017, 35.7505651399426]}, "properties": {"id": "itabashi-ward-420-0-125750565-319703761", "species_group": "peach", "scientific_name": "Prunus species", "common_name": "ハナモモ", "subtype_name": "ハナモモ", "zip_code": null, "ownership": "public", "ownership_raw": "Tokyo Metropolitan Government", "city": "Itabashi Ward", "source_dataset": "Street Trees / 街路樹", "source_department": "Tokyo Metropolitan Government", "source_last_edit_at": ""}}, {"type": "Feature", "geometry": {"type": "Point", "coordinates": [139.70435320000013, 35.75064620994263]}, "properties": {"id": "itabashi-ward-420-0-125750646-319704353", "species_group": "peach", "scientific_name": "Prunus species", "common_name": "ハナモモ", "subtype_name": "ハナモモ", "zip_code": null, "ownership": "public", "ownership_raw": "Tokyo Metropolitan Government", "city": "Itabashi Ward", "source_dataset": "Street Trees / 街路樹", "source_department": "Tokyo Metropolitan Government", "source_last_edit_at": ""}}, {"type": "Feature", "geometry": {"type": "Point", "coordinates": [139.70436710000013, 35.750652229942624]}, "properties": {"id": "itabashi-ward-420-0-125750652-319704367", "species_group": "peach", "scientific_name": "Prunus species", "common_name": "ハナモモ", "subtype_name": "ハナモモ", "zip_code": null, "ownership": "public", "ownership_raw": "Tokyo Metropolitan Government", "city": "Itabashi Ward", "source_dataset": "Street Trees / 街路樹", "source_department": "Tokyo Metropolitan Government", "source_last_edit_at": ""}}, {"type": "Feature", "geometry": {"type": "Point", "coordinates": [139.70443020000013, 35.75068224994263]}, "properties": {"id": "itabashi-ward-420-0-125750682-319704430", "species_group": "peach", "scientific_name": "Prunus species", "common_name": "ハナモモ", "subtype_name": "ハナモモ", "zip_code": null, "ownership": "public", "ownership_raw": "Tokyo Metropolitan Government", "city": "Itabashi Ward", "source_dataset": "Street Trees / 街路樹", "source_department": "Tokyo Metropolitan Government", "source_last_edit_at": ""}}, {"type": "Feature", "geometry": {"type": "Point", "coordinates": [139.70444290000023, 35.750687459942604]}, "properties": {"id": "itabashi-ward-420-0-125750687-319704443", "species_group": "peach", "scientific_name": "Prunus species", "common_name": "ハナモモ", "subtype_name": "ハナモモ", "zip_code": null, "ownership": "public", "ownership_raw": "Tokyo Metropolitan Government", "city": "Itabashi Ward", "source_dataset": "Street Trees / 街路樹", "source_department": "Tokyo Metropolitan Government", "source_last_edit_at": ""}}, {"type": "Feature", "geometry": {"type": "Point", "coordinates": [139.7045154000002, 35.75072223994263]}, "properties": {"id": "itabashi-ward-420-0-125750722-319704515", "species_group": "peach", "scientific_name": "Prunus species", "common_name": "ハナモモ", "subtype_name": "ハナモモ", "zip_code": null, "ownership": "public", "ownership_raw": "Tokyo Metropolitan Government", "city": "Itabashi Ward", "source_dataset": "Street Trees / 街路樹", "source_department": "Tokyo Metropolitan Government", "source_last_edit_at": ""}}, {"type": "Feature", "geometry": {"type": "Point", "coordinates": [139.70453050000012, 35.7507282999426]}, "properties": {"id": "itabashi-ward-420-0-125750728-319704531", "species_group": "peach", "scientific_name": "Prunus species", "common_name": "ハナモモ", "subtype_name": "ハナモモ", "zip_code": null, "ownership": "public", "ownership_raw": "Tokyo Metropolitan Government", "city": "Itabashi Ward", "source_dataset": "Street Trees / 街路樹", "source_department": "Tokyo Metropolitan Government", "source_last_edit_at": ""}}, {"type": "Feature", "geometry": {"type": "Point", "coordinates": [139.70459820000016, 35.75075985994262]}, "properties": {"id": "itabashi-ward-420-0-125750760-319704598", "species_group": "peach", "scientific_name": "Prunus species", "common_name": "ハナモモ", "subtype_name": "ハナモモ", "zip_code": null, "ownership": "public", "ownership_raw": "Tokyo Metropolitan Government", "city": "Itabashi Ward", "source_dataset": "Street Trees / 街路樹", "source_department": "Tokyo Metropolitan Government", "source_last_edit_at": ""}}, {"type": "Feature", "geometry": {"type": "Point", "coordinates": [139.70461130000012, 35.75076579994263]}, "properties": {"id": "itabashi-ward-420-0-125750766-319704611", "species_group": "peach", "scientific_name": "Prunus species", "common_name": "ハナモモ", "subtype_name": "ハナモモ", "zip_code": null, "ownership": "public", "ownership_raw": "Tokyo Metropolitan Government", "city": "Itabashi Ward", "source_dataset": "Street Trees / 街路樹", "source_department": "Tokyo Metropolitan Government", "source_last_edit_at": ""}}, {"type": "Feature", "geometry": {"type": "Point", "coordinates": [139.70430980000015, 35.7507707199426]}, "properties": {"id": "itabashi-ward-420-0-125750771-319704310", "species_group": "peach", "scientific_name": "Prunus species", "common_name": "ハナモモ", "subtype_name": "ハナモモ", "zip_code": null, "ownership": "public", "ownership_raw": "Tokyo Metropolitan Government", "city": "Itabashi Ward", "source_dataset": "Street Trees / 街路樹", "source_department": "Tokyo Metropolitan Government", "source_last_edit_at": ""}}, {"type": "Feature", "geometry": {"type": "Point", "coordinates": [139.70433560000015, 35.75078295994259]}, "properties": {"id": "itabashi-ward-420-0-125750783-319704336", "species_group": "peach", "scientific_name": "Prunus species", "common_name": "ハナモモ", "subtype_name": "ハナモモ", "zip_code": null, "ownership": "public", "ownership_raw": "Tokyo Metropolitan Government", "city": "Itabashi Ward", "source_dataset": "Street Trees / 街路樹", "source_department": "Tokyo Metropolitan Government", "source_last_edit_at": ""}}, {"type": "Feature", "geometry": {"type": "Point", "coordinates": [139.70467440000013, 35.75079295994263]}, "properties": {"id": "itabashi-ward-420-0-125750793-319704674", "species_group": "peach", "scientific_name": "Prunus species", "common_name": "ハナモモ", "subtype_name": "ハナモモ", "zip_code": null, "ownership": "public", "ownership_raw": "Tokyo Metropolitan Government", "city": "Itabashi Ward", "source_dataset": "Street Trees / 街路樹", "source_department": "Tokyo Metropolitan Government", "source_last_edit_at": ""}}, {"type": "Feature", "geometry": {"type": "Point", "coordinates": [139.70439430000022, 35.750807719942614]}, "properties": {"id": "itabashi-ward-420-0-125750808-319704394", "species_group": "peach", "scientific_name": "Prunus species", "common_name": "ハナモモ", "subtype_name": "ハナモモ", "zip_code": null, "ownership": "public", "ownership_raw": "Tokyo Metropolitan Government", "city": "Itabashi Ward", "source_dataset": "Street Trees / 街路樹", "source_department": "Tokyo Metropolitan Government", "source_last_edit_at": ""}}, {"type": "Feature", "geometry": {"type": "Point", "coordinates": [139.70441000000014, 35.75081479994262]}, "properties": {"id": "itabashi-ward-420-0-125750815-319704410", "species_group": "peach", "scientific_name": "Prunus species", "common_name": "ハナモモ", "subtype_name": "ハナモモ", "zip_code": null, "ownership": "public", "ownership_raw": "Tokyo Metropolitan Government", "city": "Itabashi Ward", "source_dataset": "Street Trees / 街路樹", "source_department": "Tokyo Metropolitan Government", "source_last_edit_at": ""}}, {"type": "Feature", "geometry": {"type": "Point", "coordinates": [139.7047497000002, 35.75082478994258]}, "properties": {"id": "itabashi-ward-420-0-125750825-319704750", "species_group": "peach", "scientific_name": "Prunus species", "common_name": "ハナモモ", "subtype_name": "ハナモモ", "zip_code": null, "ownership": "public", "ownership_raw": "Tokyo Metropolitan Government", "city": "Itabashi Ward", "source_dataset": "Street Trees / 街路樹", "source_department": "Tokyo Metropolitan Government", "source_last_edit_at": ""}}, {"type": "Feature", "geometry": {"type": "Point", "coordinates": [139.70476470000017, 35.750833769942595]}, "properties": {"id": "itabashi-ward-420-0-125750834-319704765", "species_group": "peach", "scientific_name": "Prunus species", "common_name": "ハナモモ", "subtype_name": "ハナモモ", "zip_code": null, "ownership": "public", "ownership_raw": "Tokyo Metropolitan Government", "city": "Itabashi Ward", "source_dataset": "Street Trees / 街路樹", "source_department": "Tokyo Metropolitan Government", "source_last_edit_at": ""}}, {"type": "Feature", "geometry": {"type": "Point", "coordinates": [139.70446300000012, 35.75083846994263]}, "properties": {"id": "itabashi-ward-420-0-125750838-319704463", "species_group": "peach", "scientific_name": "Prunus species", "common_name": "ハナモモ", "subtype_name": "ハナモモ", "zip_code": null, "ownership": "public", "ownership_raw": "Tokyo Metropolitan Government", "city": "Itabashi Ward", "source_dataset": "Street Trees / 街路樹", "source_department": "Tokyo Metropolitan Government", "source_last_edit_at": ""}}, {"type": "Feature", "geometry": {"type": "Point", "coordinates": [139.70448180000017, 35.75084608994259]}, "properties": {"id": "itabashi-ward-420-0-125750846-319704482", "species_group": "peach", "scientific_name": "Prunus species", "common_name": "ハナモモ", "subtype_name": "ハナモモ", "zip_code": null, "ownership": "public", "ownership_raw": "Tokyo Metropolitan Government", "city": "Itabashi Ward", "source_dataset": "Street Trees / 街路樹", "source_department": "Tokyo Metropolitan Government", "source_last_edit_at": ""}}, {"type": "Feature", "geometry": {"type": "Point", "coordinates": [139.7048212000002, 35.750858979942585]}, "properties": {"id": "itabashi-ward-420-0-125750859-319704821", "species_group": "peach", "scientific_name": "Prunus species", "common_name": "ハナモモ", "subtype_name": "ハナモモ", "zip_code": null, "ownership": "public", "ownership_raw": "Tokyo Metropolitan Government", "city": "Itabashi Ward", "source_dataset": "Street Trees / 街路樹", "source_department": "Tokyo Metropolitan Government", "source_last_edit_at": ""}}, {"type": "Feature", "geometry": {"type": "Point", "coordinates": [139.70484890000023, 35.75086594994259]}, "properties": {"id": "itabashi-ward-420-0-125750866-319704849", "species_group": "peach", "scientific_name": "Prunus species", "common_name": "ハナモモ", "subtype_name": "ハナモモ", "zip_code": null, "ownership": "public", "ownership_raw": "Tokyo Metropolitan Government", "city": "Itabashi Ward", "source_dataset": "Street Trees / 街路樹", "source_department": "Tokyo Metropolitan Government", "source_last_edit_at": ""}}, {"type": "Feature", "geometry": {"type": "Point", "coordinates": [139.70456360000014, 35.75088445994262]}, "properties": {"id": "itabashi-ward-420-0-125750884-319704564", "species_group": "peach", "scientific_name": "Prunus species", "common_name": "ハナモモ", "subtype_name": "ハナモモ", "zip_code": null, "ownership": "public", "ownership_raw": "Tokyo Metropolitan Government", "city": "Itabashi Ward", "source_dataset": "Street Trees / 街路樹", "source_department": "Tokyo Metropolitan Government", "source_last_edit_at": ""}}, {"type": "Feature", "geometry": {"type": "Point", "coordinates": [139.70489470000015, 35.750884999942585]}, "properties": {"id": "itabashi-ward-420-0-125750885-319704895", "species_group": "peach", "scientific_name": "Prunus species", "common_name": "ハナモモ", "subtype_name": "ハナモモ", "zip_code": null, "ownership": "public", "ownership_raw": "Tokyo Metropolitan Government", "city": "Itabashi Ward", "source_dataset": "Street Trees / 街路樹", "source_department": "Tokyo Metropolitan Government", "source_last_edit_at": ""}}, {"type": "Feature", "geometry": {"type": "Point", "coordinates": [139.70457970000015, 35.750891799942586]}, "properties": {"id": "itabashi-ward-420-0-125750892-319704580", "species_group": "peach", "scientific_name": "Prunus species", "common_name": "ハナモモ", "subtype_name": "ハナモモ", "zip_code": null, "ownership": "public", "ownership_raw": "Tokyo Metropolitan Government", "city": "Itabashi Ward", "source_dataset": "Street Trees / 街路樹", "source_department": "Tokyo Metropolitan Government", "source_last_edit_at": ""}}, {"type": "Feature", "geometry": {"type": "Point", "coordinates": [139.70463170000016, 35.750913029942595]}, "properties": {"id": "itabashi-ward-420-0-125750913-319704632", "species_group": "peach", "scientific_name": "Prunus species", "common_name": "ハナモモ", "subtype_name": "ハナモモ", "zip_code": null, "ownership": "public", "ownership_raw": "Tokyo Metropolitan Government", "city": "Itabashi Ward", "source_dataset": "Street Trees / 街路樹", "source_department": "Tokyo Metropolitan Government", "source_last_edit_at": ""}}, {"type": "Feature", "geometry": {"type": "Point", "coordinates": [139.70464810000018, 35.75092118994259]}, "properties": {"id": "itabashi-ward-420-0-125750921-319704648", "species_group": "peach", "scientific_name": "Prunus species", "common_name": "ハナモモ", "subtype_name": "ハナモモ", "zip_code": null, "ownership": "public", "ownership_raw": "Tokyo Metropolitan Government", "city": "Itabashi Ward", "source_dataset": "Street Trees / 街路樹", "source_department": "Tokyo Metropolitan Government", "source_last_edit_at": ""}}, {"type": "Feature", "geometry": {"type": "Point", "coordinates": [139.7049562000002, 35.750921729942625]}, "properties": {"id": "itabashi-ward-420-0-125750922-319704956", "species_group": "peach", "scientific_name": "Prunus species", "common_name": "ハナモモ", "subtype_name": "ハナモモ", "zip_code": null, "ownership": "public", "ownership_raw": "Tokyo Metropolitan Government", "city": "Itabashi Ward", "source_dataset": "Street Trees / 街路樹", "source_department": "Tokyo Metropolitan Government", "source_last_edit_at": ""}}, {"type": "Feature", "geometry": {"type": "Point", "coordinates": [139.70499760000015, 35.75093847994261]}, "properties": {"id": "itabashi-ward-420-0-125750938-319704998", "species_group": "peach", "scientific_name": "Prunus species", "common_name": "ハナモモ", "subtype_name": "ハナモモ", "zip_code": null, "ownership": "public", "ownership_raw": "Tokyo Metropolitan Government", "city": "Itabashi Ward", "source_dataset": "Street Trees / 街路樹", "source_department": "Tokyo Metropolitan Government", "source_last_edit_at": ""}}, {"type": "Feature", "geometry": {"type": "Point", "coordinates": [139.70470440000017, 35.7509464899426]}, "properties": {"id": "itabashi-ward-420-0-125750946-319704704", "species_group": "peach", "scientific_name": "Prunus species", "common_name": "ハナモモ", "subtype_name": "ハナモモ", "zip_code": null, "ownership": "public", "ownership_raw": "Tokyo Metropolitan Government", "city": "Itabashi Ward", "source_dataset": "Street Trees / 街路樹", "source_department": "Tokyo Metropolitan Government", "source_last_edit_at": ""}}, {"type": "Feature", "geometry": {"type": "Point", "coordinates": [139.70471880000014, 35.75095302994262]}, "properties": {"id": "itabashi-ward-420-0-125750953-319704719", "species_group": "peach", "scientific_name": "Prunus species", "common_name": "ハナモモ", "subtype_name": "ハナモモ", "zip_code": null, "ownership": "public", "ownership_raw": "Tokyo Metropolitan Government", "city": "Itabashi Ward", "source_dataset": "Street Trees / 街路樹", "source_department": "Tokyo Metropolitan Government", "source_last_edit_at": ""}}, {"type": "Feature", "geometry": {"type": "Point", "coordinates": [139.70504420000017, 35.75095618994262]}, "properties": {"id": "itabashi-ward-420-0-125750956-319705044", "species_group": "peach", "scientific_name": "Prunus species", "common_name": "ハナモモ", "subtype_name": "ハナモモ", "zip_code": null, "ownership": "public", "ownership_raw": "Tokyo Metropolitan Government", "city": "Itabashi Ward", "source_dataset": "Street Trees / 街路樹", "source_department": "Tokyo Metropolitan Government", "source_last_edit_at": ""}}, {"type": "Feature", "geometry": {"type": "Point", "coordinates": [139.7050601000002, 35.750960919942614]}, "properties": {"id": "itabashi-ward-420-0-125750961-319705060", "species_group": "peach", "scientific_name": "Prunus species", "common_name": "ハナモモ", "subtype_name": "ハナモモ", "zip_code": null, "ownership": "public", "ownership_raw": "Tokyo Metropolitan Government", "city": "Itabashi Ward", "source_dataset": "Street Trees / 街路樹", "source_department": "Tokyo Metropolitan Government", "source_last_edit_at": ""}}, {"type": "Feature", "geometry": {"type": "Point", "coordinates": [139.7047792000002, 35.75097941994263]}, "properties": {"id": "itabashi-ward-420-0-125750979-319704779", "species_group": "peach", "scientific_name": "Prunus species", "common_name": "ハナモモ", "subtype_name": "ハナモモ", "zip_code": null, "ownership": "public", "ownership_raw": "Tokyo Metropolitan Government", "city": "Itabashi Ward", "source_dataset": "Street Trees / 街路樹", "source_department": "Tokyo Metropolitan Government", "source_last_edit_at": ""}}, {"type": "Feature", "geometry": {"type": "Point", "coordinates": [139.70479020000013, 35.750984859942626]}, "properties": {"id": "itabashi-ward-420-0-125750985-319704790", "species_group": "peach", "scientific_name": "Prunus species", "common_name": "ハナモモ", "subtype_name": "ハナモモ", "zip_code": null, "ownership": "public", "ownership_raw": "Tokyo Metropolitan Government", "city": "Itabashi Ward", "source_dataset": "Street Trees / 街路樹", "source_department": "Tokyo Metropolitan Government", "source_last_edit_at": ""}}, {"type": "Feature", "geometry": {"type": "Point", "coordinates": [139.70511780000015, 35.75098893994262]}, "properties": {"id": "itabashi-ward-420-0-125750989-319705118", "species_group": "peach", "scientific_name": "Prunus species", "common_name": "ハナモモ", "subtype_name": "ハナモモ", "zip_code": null, "ownership": "public", "ownership_raw": "Tokyo Metropolitan Government", "city": "Itabashi Ward", "source_dataset": "Street Trees / 街路樹", "source_department": "Tokyo Metropolitan Government", "source_last_edit_at": ""}}, {"type": "Feature", "geometry": {"type": "Point", "coordinates": [139.70514730000014, 35.751000369942595]}, "properties": {"id": "itabashi-ward-420-0-125751000-319705147", "species_group": "peach", "scientific_name": "Prunus species", "common_name": "ハナモモ", "subtype_name": "ハナモモ", "zip_code": null, "ownership": "public", "ownership_raw": "Tokyo Metropolitan Government", "city": "Itabashi Ward", "source_dataset": "Street Trees / 街路樹", "source_department": "Tokyo Metropolitan Government", "source_last_edit_at": ""}}, {"type": "Feature", "geometry": {"type": "Point", "coordinates": [139.70486230000017, 35.75101723994262]}, "properties": {"id": "itabashi-ward-420-0-125751017-319704862", "species_group": "peach", "scientific_name": "Prunus species", "common_name": "ハナモモ", "subtype_name": "ハナモモ", "zip_code": null, "ownership": "public", "ownership_raw": "Tokyo Metropolitan Government", "city": "Itabashi Ward", "source_dataset": "Street Trees / 街路樹", "source_department": "Tokyo Metropolitan Government", "source_last_edit_at": ""}}, {"type": "Feature", "geometry": {"type": "Point", "coordinates": [139.70519790000014, 35.75102349994258]}, "properties": {"id": "itabashi-ward-420-0-125751023-319705198", "species_group": "peach", "scientific_name": "Prunus species", "common_name": "ハナモモ", "subtype_name": "ハナモモ", "zip_code": null, "ownership": "public", "ownership_raw": "Tokyo Metropolitan Government", "city": "Itabashi Ward", "source_dataset": "Street Trees / 街路樹", "source_department": "Tokyo Metropolitan Government", "source_last_edit_at": ""}}, {"type": "Feature", "geometry": {"type": "Point", "coordinates": [139.70488410000019, 35.751027849942616]}, "properties": {"id": "itabashi-ward-420-0-125751028-319704884", "species_group": "peach", "scientific_name": "Prunus species", "common_name": "ハナモモ", "subtype_name": "ハナモモ", "zip_code": null, "ownership": "public", "ownership_raw": "Tokyo Metropolitan Government", "city": "Itabashi Ward", "source_dataset": "Street Trees / 街路樹", "source_department": "Tokyo Metropolitan Government", "source_last_edit_at": ""}}, {"type": "Feature", "geometry": {"type": "Point", "coordinates": [139.7052447000002, 35.75104335994259]}, "properties": {"id": "itabashi-ward-420-0-125751043-319705245", "species_group": "peach", "scientific_name": "Prunus species", "common_name": "ハナモモ", "subtype_name": "ハナモモ", "zip_code": null, "ownership": "public", "ownership_raw": "Tokyo Metropolitan Government", "city": "Itabashi Ward", "source_dataset": "Street Trees / 街路樹", "source_department": "Tokyo Metropolitan Government", "source_last_edit_at": ""}}, {"type": "Feature", "geometry": {"type": "Point", "coordinates": [139.70501890000014, 35.7510874399426]}, "properties": {"id": "itabashi-ward-420-0-125751087-319705019", "species_group": "peach", "scientific_name": "Prunus species", "common_name": "ハナモモ", "subtype_name": "ハナモモ", "zip_code": null, "ownership": "public", "ownership_raw": "Tokyo Metropolitan Government", "city": "Itabashi Ward", "source_dataset": "Street Trees / 街路樹", "source_department": "Tokyo Metropolitan Government", "source_last_edit_at": ""}}, {"type": "Feature", "geometry": {"type": "Point", "coordinates": [139.70513540000013, 35.75113859994259]}, "properties": {"id": "itabashi-ward-420-0-125751139-319705135", "species_group": "peach", "scientific_name": "Prunus species", "common_name": "ハナモモ", "subtype_name": "ハナモモ", "zip_code": null, "ownership": "public", "ownership_raw": "Tokyo Metropolitan Government", "city": "Itabashi Ward", "source_dataset": "Street Trees / 街路樹", "source_department": "Tokyo Metropolitan Government", "source_last_edit_at": ""}}, {"type": "Feature", "geometry": {"type": "Point", "coordinates": [139.7051622000001, 35.75115110994262]}, "properties": {"id": "itabashi-ward-420-0-125751151-319705162", "species_group": "peach", "scientific_name": "Prunus species", "common_name": "ハナモモ", "subtype_name": "ハナモモ", "zip_code": null, "ownership": "public", "ownership_raw": "Tokyo Metropolitan Government", "city": "Itabashi Ward", "source_dataset": "Street Trees / 街路樹", "source_department": "Tokyo Metropolitan Government", "source_last_edit_at": ""}}, {"type": "Feature", "geometry": {"type": "Point", "coordinates": [139.70519380000016, 35.75116416994259]}, "properties": {"id": "itabashi-ward-420-0-125751164-319705194", "species_group": "peach", "scientific_name": "Prunus species", "common_name": "ハナモモ", "subtype_name": "ハナモモ", "zip_code": null, "ownership": "public", "ownership_raw": "Tokyo Metropolitan Government", "city": "Itabashi Ward", "source_dataset": "Street Trees / 街路樹", "source_department": "Tokyo Metropolitan Government", "source_last_edit_at": ""}}, {"type": "Feature", "geometry": {"type": "Point", "coordinates": [139.7052447000002, 35.75118702994259]}, "properties": {"id": "itabashi-ward-420-0-125751187-319705245", "species_group": "peach", "scientific_name": "Prunus species", "common_name": "ハナモモ", "subtype_name": "ハナモモ", "zip_code": null, "ownership": "public", "ownership_raw": "Tokyo Metropolitan Government", "city": "Itabashi Ward", "source_dataset": "Street Trees / 街路樹", "source_department": "Tokyo Metropolitan Government", "source_last_edit_at": ""}}, {"type": "Feature", "geometry": {"type": "Point", "coordinates": [139.70525410000016, 35.75119137994263]}, "properties": {"id": "itabashi-ward-420-0-125751191-319705254", "species_group": "peach", "scientific_name": "Prunus species", "common_name": "ハナモモ", "subtype_name": "ハナモモ", "zip_code": null, "ownership": "public", "ownership_raw": "Tokyo Metropolitan Government", "city": "Itabashi Ward", "source_dataset": "Street Trees / 街路樹", "source_department": "Tokyo Metropolitan Government", "source_last_edit_at": ""}}, {"type": "Feature", "geometry": {"type": "Point", "coordinates": [139.7056705000002, 35.75123817994257]}, "properties": {"id": "itabashi-ward-420-0-125751238-319705671", "species_group": "peach", "scientific_name": "Prunus species", "common_name": "ハナモモ", "subtype_name": "ハナモモ", "zip_code": null, "ownership": "public", "ownership_raw": "Tokyo Metropolitan Government", "city": "Itabashi Ward", "source_dataset": "Street Trees / 街路樹", "source_department": "Tokyo Metropolitan Government", "source_last_edit_at": ""}}, {"type": "Feature", "geometry": {"type": "Point", "coordinates": [139.7057255000002, 35.75126266994262]}, "properties": {"id": "itabashi-ward-420-0-125751263-319705726", "species_group": "peach", "scientific_name": "Prunus species", "common_name": "ハナモモ", "subtype_name": "ハナモモ", "zip_code": null, "ownership": "public", "ownership_raw": "Tokyo Metropolitan Government", "city": "Itabashi Ward", "source_dataset": "Street Trees / 街路樹", "source_department": "Tokyo Metropolitan Government", "source_last_edit_at": ""}}, {"type": "Feature", "geometry": {"type": "Point", "coordinates": [139.7057376000001, 35.751266479942565]}, "properties": {"id": "itabashi-ward-420-0-125751266-319705738", "species_group": "peach", "scientific_name": "Prunus species", "common_name": "ハナモモ", "subtype_name": "ハナモモ", "zip_code": null, "ownership": "public", "ownership_raw": "Tokyo Metropolitan Government", "city": "Itabashi Ward", "source_dataset": "Street Trees / 街路樹", "source_department": "Tokyo Metropolitan Government", "source_last_edit_at": ""}}, {"type": "Feature", "geometry": {"type": "Point", "coordinates": [139.70596330000012, 35.75137363994259]}, "properties": {"id": "itabashi-ward-420-0-125751374-319705963", "species_group": "peach", "scientific_name": "Prunus species", "common_name": "ハナモモ", "subtype_name": "ハナモモ", "zip_code": null, "ownership": "public", "ownership_raw": "Tokyo Metropolitan Government", "city": "Itabashi Ward", "source_dataset": "Street Trees / 街路樹", "source_department": "Tokyo Metropolitan Government", "source_last_edit_at": ""}}, {"type": "Feature", "geometry": {"type": "Point", "coordinates": [139.70567120000018, 35.7513796699426]}, "properties": {"id": "itabashi-ward-420-0-125751380-319705671", "species_group": "peach", "scientific_name": "Prunus species", "common_name": "ハナモモ", "subtype_name": "ハナモモ", "zip_code": null, "ownership": "public", "ownership_raw": "Tokyo Metropolitan Government", "city": "Itabashi Ward", "source_dataset": "Street Trees / 街路樹", "source_department": "Tokyo Metropolitan Government", "source_last_edit_at": ""}}, {"type": "Feature", "geometry": {"type": "Point", "coordinates": [139.7059851000001, 35.75138360994261]}, "properties": {"id": "itabashi-ward-420-0-125751384-319705985", "species_group": "peach", "scientific_name": "Prunus species", "common_name": "ハナモモ", "subtype_name": "ハナモモ", "zip_code": null, "ownership": "public", "ownership_raw": "Tokyo Metropolitan Government", "city": "Itabashi Ward", "source_dataset": "Street Trees / 街路樹", "source_department": "Tokyo Metropolitan Government", "source_last_edit_at": ""}}, {"type": "Feature", "geometry": {"type": "Point", "coordinates": [139.70573090000016, 35.75140579994258]}, "properties": {"id": "itabashi-ward-420-0-125751406-319705731", "species_group": "peach", "scientific_name": "Prunus species", "common_name": "ハナモモ", "subtype_name": "ハナモモ", "zip_code": null, "ownership": "public", "ownership_raw": "Tokyo Metropolitan Government", "city": "Itabashi Ward", "source_dataset": "Street Trees / 街路樹", "source_department": "Tokyo Metropolitan Government", "source_last_edit_at": ""}}, {"type": "Feature", "geometry": {"type": "Point", "coordinates": [139.70583880000015, 35.751455319942586]}, "properties": {"id": "itabashi-ward-420-0-125751455-319705839", "species_group": "peach", "scientific_name": "Prunus species", "common_name": "ハナモモ", "subtype_name": "ハナモモ", "zip_code": null, "ownership": "public", "ownership_raw": "Tokyo Metropolitan Government", "city": "Itabashi Ward", "source_dataset": "Street Trees / 街路樹", "source_department": "Tokyo Metropolitan Government", "source_last_edit_at": ""}}, {"type": "Feature", "geometry": {"type": "Point", "coordinates": [139.70598900000016, 35.75152279994257]}, "properties": {"id": "itabashi-ward-420-0-125751523-319705989", "species_group": "peach", "scientific_name": "Prunus species", "common_name": "ハナモモ", "subtype_name": "ハナモモ", "zip_code": null, "ownership": "public", "ownership_raw": "Tokyo Metropolitan Government", "city": "Itabashi Ward", "source_dataset": "Street Trees / 街路樹", "source_department": "Tokyo Metropolitan Government", "source_last_edit_at": ""}}, {"type": "Feature", "geometry": {"type": "Point", "coordinates": [139.7060467000002, 35.7515489199426]}, "properties": {"id": "itabashi-ward-420-0-125751549-319706047", "species_group": "peach", "scientific_name": "Prunus species", "common_name": "ハナモモ", "subtype_name": "ハナモモ", "zip_code": null, "ownership": "public", "ownership_raw": "Tokyo Metropolitan Government", "city": "Itabashi Ward", "source_dataset": "Street Trees / 街路樹", "source_department": "Tokyo Metropolitan Government", "source_last_edit_at": ""}}, {"type": "Feature", "geometry": {"type": "Point", "coordinates": [139.7065944000002, 35.75165237994259]}, "properties": {"id": "itabashi-ward-420-0-125751652-319706594", "species_group": "peach", "scientific_name": "Prunus species", "common_name": "ハナモモ", "subtype_name": "ハナモモ", "zip_code": null, "ownership": "public", "ownership_raw": "Tokyo Metropolitan Government", "city": "Itabashi Ward", "source_dataset": "Street Trees / 街路樹", "source_department": "Tokyo Metropolitan Government", "source_last_edit_at": ""}}, {"type": "Feature", "geometry": {"type": "Point", "coordinates": [139.7066105000001, 35.7516600599426]}, "properties": {"id": "itabashi-ward-420-0-125751660-319706611", "species_group": "peach", "scientific_name": "Prunus species", "common_name": "ハナモモ", "subtype_name": "ハナモモ", "zip_code": null, "ownership": "public", "ownership_raw": "Tokyo Metropolitan Government", "city": "Itabashi Ward", "source_dataset": "Street Trees / 街路樹", "source_department": "Tokyo Metropolitan Government", "source_last_edit_at": ""}}, {"type": "Feature", "geometry": {"type": "Point", "coordinates": [139.70643230000016, 35.7517219699426]}, "properties": {"id": "itabashi-ward-420-0-125751722-319706432", "species_group": "peach", "scientific_name": "Prunus species", "common_name": "ハナモモ", "subtype_name": "ハナモモ", "zip_code": null, "ownership": "public", "ownership_raw": "Tokyo Metropolitan Government", "city": "Itabashi Ward", "source_dataset": "Street Trees / 街路樹", "source_department": "Tokyo Metropolitan Government", "source_last_edit_at": ""}}, {"type": "Feature", "geometry": {"type": "Point", "coordinates": [139.70647850000023, 35.7517431899426]}, "properties": {"id": "itabashi-ward-420-0-125751743-319706479", "species_group": "peach", "scientific_name": "Prunus species", "common_name": "ハナモモ", "subtype_name": "ハナモモ", "zip_code": null, "ownership": "public", "ownership_raw": "Tokyo Metropolitan Government", "city": "Itabashi Ward", "source_dataset": "Street Trees / 街路樹", "source_department": "Tokyo Metropolitan Government", "source_last_edit_at": ""}}, {"type": "Feature", "geometry": {"type": "Point", "coordinates": [139.70653230000016, 35.75176767994259]}, "properties": {"id": "itabashi-ward-420-0-125751768-319706532", "species_group": "peach", "scientific_name": "Prunus species", "common_name": "ハナモモ", "subtype_name": "ハナモモ", "zip_code": null, "ownership": "public", "ownership_raw": "Tokyo Metropolitan Government", "city": "Itabashi Ward", "source_dataset": "Street Trees / 街路樹", "source_department": "Tokyo Metropolitan Government", "source_last_edit_at": ""}}, {"type": "Feature", "geometry": {"type": "Point", "coordinates": [139.7065615000001, 35.75178046994257]}, "properties": {"id": "itabashi-ward-420-0-125751780-319706562", "species_group": "peach", "scientific_name": "Prunus species", "common_name": "ハナモモ", "subtype_name": "ハナモモ", "zip_code": null, "ownership": "public", "ownership_raw": "Tokyo Metropolitan Government", "city": "Itabashi Ward", "source_dataset": "Street Trees / 街路樹", "source_department": "Tokyo Metropolitan Government", "source_last_edit_at": ""}}, {"type": "Feature", "geometry": {"type": "Point", "coordinates": [139.70697470000013, 35.75182503994255]}, "properties": {"id": "itabashi-ward-420-0-125751825-319706975", "species_group": "peach", "scientific_name": "Prunus species", "common_name": "ハナモモ", "subtype_name": "ハナモモ", "zip_code": null, "ownership": "public", "ownership_raw": "Tokyo Metropolitan Government", "city": "Itabashi Ward", "source_dataset": "Street Trees / 街路樹", "source_department": "Tokyo Metropolitan Government", "source_last_edit_at": ""}}, {"type": "Feature", "geometry": {"type": "Point", "coordinates": [139.70699680000018, 35.751837539942564]}, "properties": {"id": "itabashi-ward-420-0-125751838-319706997", "species_group": "peach", "scientific_name": "Prunus species", "common_name": "ハナモモ", "subtype_name": "ハナモモ", "zip_code": null, "ownership": "public", "ownership_raw": "Tokyo Metropolitan Government", "city": "Itabashi Ward", "source_dataset": "Street Trees / 街路樹", "source_department": "Tokyo Metropolitan Government", "source_last_edit_at": ""}}, {"type": "Feature", "geometry": {"type": "Point", "coordinates": [139.70776570000018, 35.75204793994259]}, "properties": {"id": "itabashi-ward-420-0-125752048-319707766", "species_group": "peach", "scientific_name": "Prunus species", "common_name": "ハナモモ", "subtype_name": "ハナモモ", "zip_code": null, "ownership": "public", "ownership_raw": "Tokyo Metropolitan Government", "city": "Itabashi Ward", "source_dataset": "Street Trees / 街路樹", "source_department": "Tokyo Metropolitan Government", "source_last_edit_at": ""}}, {"type": "Feature", "geometry": {"type": "Point", "coordinates": [139.65914400000023, 35.786035169941826]}, "properties": {"id": "itabashi-ward-446-0-125786035-319659144", "species_group": "plum", "scientific_name": "Prunus species", "common_name": "ウメ", "subtype_name": "ウメ", "zip_code": null, "ownership": "public", "ownership_raw": "Tokyo Metropolitan Government", "city": "Itabashi Ward", "source_dataset": "Street Trees / 街路樹", "source_department": "Tokyo Metropolitan Government", "source_last_edit_at": ""}}, {"type": "Feature", "geometry": {"type": "Point", "coordinates": [139.65914750000013, 35.78604604994181]}, "properties": {"id": "itabashi-ward-446-0-125786046-319659148", "species_group": "plum", "scientific_name": "Prunus species", "common_name": "ウメ", "subtype_name": "ウメ", "zip_code": null, "ownership": "public", "ownership_raw": "Tokyo Metropolitan Government", "city": "Itabashi Ward", "source_dataset": "Street Trees / 街路樹", "source_department": "Tokyo Metropolitan Government", "source_last_edit_at": ""}}, {"type": "Feature", "geometry": {"type": "Point", "coordinates": [139.65892410000015, 35.786117449941834]}, "properties": {"id": "itabashi-ward-446-0-125786117-319658924", "species_group": "plum", "scientific_name": "Prunus species", "common_name": "ウメ", "subtype_name": "ウメ", "zip_code": null, "ownership": "public", "ownership_raw": "Tokyo Metropolitan Government", "city": "Itabashi Ward", "source_dataset": "Street Trees / 街路樹", "source_department": "Tokyo Metropolitan Government", "source_last_edit_at": ""}}, {"type": "Feature", "geometry": {"type": "Point", "coordinates": [139.65899500000023, 35.78628617994181]}, "properties": {"id": "itabashi-ward-446-0-125786286-319658995", "species_group": "plum", "scientific_name": "Prunus species", "common_name": "ウメ", "subtype_name": "ウメ", "zip_code": null, "ownership": "public", "ownership_raw": "Tokyo Metropolitan Government", "city": "Itabashi Ward", "source_dataset": "Street Trees / 街路樹", "source_department": "Tokyo Metropolitan Government", "source_last_edit_at": ""}}, {"type": "Feature", "geometry": {"type": "Point", "coordinates": [139.65925760000016, 35.786360049941806]}, "properties": {"id": "itabashi-ward-446-0-125786360-319659258", "species_group": "plum", "scientific_name": "Prunus species", "common_name": "ウメ", "subtype_name": "ウメ", "zip_code": null, "ownership": "public", "ownership_raw": "Tokyo Metropolitan Government", "city": "Itabashi Ward", "source_dataset": "Street Trees / 街路樹", "source_department": "Tokyo Metropolitan Government", "source_last_edit_at": ""}}, {"type": "Feature", "geometry": {"type": "Point", "coordinates": [139.65926390000016, 35.78638318994181]}, "properties": {"id": "itabashi-ward-446-0-125786383-319659264", "species_group": "plum", "scientific_name": "Prunus species", "common_name": "ウメ", "subtype_name": "ウメ", "zip_code": null, "ownership": "public", "ownership_raw": "Tokyo Metropolitan Government", "city": "Itabashi Ward", "source_dataset": "Street Trees / 街路樹", "source_department": "Tokyo Metropolitan Government", "source_last_edit_at": ""}}, {"type": "Feature", "geometry": {"type": "Point", "coordinates": [139.65930330000015, 35.78646946994179]}, "properties": {"id": "itabashi-ward-446-0-125786469-319659303", "species_group": "cherry", "scientific_name": "Prunus species", "common_name": "サクラ", "subtype_name": "サクラ", "zip_code": null, "ownership": "public", "ownership_raw": "Tokyo Metropolitan Government", "city": "Itabashi Ward", "source_dataset": "Street Trees / 街路樹", "source_department": "Tokyo Metropolitan Government", "source_last_edit_at": ""}}, {"type": "Feature", "geometry": {"type": "Point", "coordinates": [139.65912750000018, 35.7866532799418]}, "properties": {"id": "itabashi-ward-446-0-125786653-319659128", "species_group": "cherry", "scientific_name": "Prunus species", "common_name": "サクラ", "subtype_name": "サクラ", "zip_code": null, "ownership": "public", "ownership_raw": "Tokyo Metropolitan Government", "city": "Itabashi Ward", "source_dataset": "Street Trees / 街路樹", "source_department": "Tokyo Metropolitan Government", "source_last_edit_at": ""}}, {"type": "Feature", "geometry": {"type": "Point", "coordinates": [139.65937120000015, 35.78666563994178]}, "properties": {"id": "itabashi-ward-446-0-125786666-319659371", "species_group": "plum", "scientific_name": "Prunus species", "common_name": "ウメ", "subtype_name": "ウメ", "zip_code": null, "ownership": "public", "ownership_raw": "Tokyo Metropolitan Government", "city": "Itabashi Ward", "source_dataset": "Street Trees / 街路樹", "source_department": "Tokyo Metropolitan Government", "source_last_edit_at": ""}}, {"type": "Feature", "geometry": {"type": "Point", "coordinates": [139.65938420000023, 35.786704979941774]}, "properties": {"id": "itabashi-ward-446-0-125786705-319659384", "species_group": "plum", "scientific_name": "Prunus species", "common_name": "ウメ", "subtype_name": "ウメ", "zip_code": null, "ownership": "public", "ownership_raw": "Tokyo Metropolitan Government", "city": "Itabashi Ward", "source_dataset": "Street Trees / 街路樹", "source_department": "Tokyo Metropolitan Government", "source_last_edit_at": ""}}, {"type": "Feature", "geometry": {"type": "Point", "coordinates": [139.65918170000023, 35.786825639941824]}, "properties": {"id": "itabashi-ward-446-0-125786826-319659182", "species_group": "plum", "scientific_name": "Prunus species", "common_name": "ウメ", "subtype_name": "ウメ", "zip_code": null, "ownership": "public", "ownership_raw": "Tokyo Metropolitan Government", "city": "Itabashi Ward", "source_dataset": "Street Trees / 街路樹", "source_department": "Tokyo Metropolitan Government", "source_last_edit_at": ""}}, {"type": "Feature", "geometry": {"type": "Point", "coordinates": [139.65920130000018, 35.78687980994183]}, "properties": {"id": "itabashi-ward-446-0-125786880-319659201", "species_group": "cherry", "scientific_name": "Prunus species", "common_name": "サクラ", "subtype_name": "サクラ", "zip_code": null, "ownership": "public", "ownership_raw": "Tokyo Metropolitan Government", "city": "Itabashi Ward", "source_dataset": "Street Trees / 街路樹", "source_department": "Tokyo Metropolitan Government", "source_last_edit_at": ""}}, {"type": "Feature", "geometry": {"type": "Point", "coordinates": [139.6592695000002, 35.787082359941806]}, "properties": {"id": "itabashi-ward-446-0-125787082-319659270", "species_group": "plum", "scientific_name": "Prunus species", "common_name": "ウメ", "subtype_name": "ウメ", "zip_code": null, "ownership": "public", "ownership_raw": "Tokyo Metropolitan Government", "city": "Itabashi Ward", "source_dataset": "Street Trees / 街路樹", "source_department": "Tokyo Metropolitan Government", "source_last_edit_at": ""}}, {"type": "Feature", "geometry": {"type": "Point", "coordinates": [139.65972420000017, 35.787694519941795]}, "properties": {"id": "itabashi-ward-446-0-125787695-319659724", "species_group": "plum", "scientific_name": "Prunus species", "common_name": "ウメ", "subtype_name": "ウメ", "zip_code": null, "ownership": "public", "ownership_raw": "Tokyo Metropolitan Government", "city": "Itabashi Ward", "source_dataset": "Street Trees / 街路樹", "source_department": "Tokyo Metropolitan Government", "source_last_edit_at": ""}}, {"type": "Feature", "geometry": {"type": "Point", "coordinates": [139.65975260000016, 35.787737079941785]}, "properties": {"id": "itabashi-ward-446-0-125787737-319659753", "species_group": "plum", "scientific_name": "Prunus species", "common_name": "ウメ", "subtype_name": "ウメ", "zip_code": null, "ownership": "public", "ownership_raw": "Tokyo Metropolitan Government", "city": "Itabashi Ward", "source_dataset": "Street Trees / 街路樹", "source_department": "Tokyo Metropolitan Government", "source_last_edit_at": ""}}, {"type": "Feature", "geometry": {"type": "Point", "coordinates": [139.6598855000002, 35.788137279941786]}, "properties": {"id": "itabashi-ward-446-0-125788137-319659886", "species_group": "plum", "scientific_name": "Prunus species", "common_name": "ウメ", "subtype_name": "ウメ", "zip_code": null, "ownership": "public", "ownership_raw": "Tokyo Metropolitan Government", "city": "Itabashi Ward", "source_dataset": "Street Trees / 街路樹", "source_department": "Tokyo Metropolitan Government", "source_last_edit_at": ""}}, {"type": "Feature", "geometry": {"type": "Point", "coordinates": [139.65990160000015, 35.788194419941746]}, "properties": {"id": "itabashi-ward-446-0-125788194-319659902", "species_group": "plum", "scientific_name": "Prunus species", "common_name": "ウメ", "subtype_name": "ウメ", "zip_code": null, "ownership": "public", "ownership_raw": "Tokyo Metropolitan Government", "city": "Itabashi Ward", "source_dataset": "Street Trees / 街路樹", "source_department": "Tokyo Metropolitan Government", "source_last_edit_at": ""}}, {"type": "Feature", "geometry": {"type": "Point", "coordinates": [139.65992970000016, 35.788266259941764]}, "properties": {"id": "itabashi-ward-446-0-125788266-319659930", "species_group": "plum", "scientific_name": "Prunus species", "common_name": "ウメ", "subtype_name": "ウメ", "zip_code": null, "ownership": "public", "ownership_raw": "Tokyo Metropolitan Government", "city": "Itabashi Ward", "source_dataset": "Street Trees / 街路樹", "source_department": "Tokyo Metropolitan Government", "source_last_edit_at": ""}}, {"type": "Feature", "geometry": {"type": "Point", "coordinates": [139.65997900000016, 35.78828739994177]}, "properties": {"id": "itabashi-ward-446-0-125788287-319659979", "species_group": "cherry", "scientific_name": "Prunus species", "common_name": "サクラ", "subtype_name": "サクラ", "zip_code": null, "ownership": "public", "ownership_raw": "Tokyo Metropolitan Government", "city": "Itabashi Ward", "source_dataset": "Street Trees / 街路樹", "source_department": "Tokyo Metropolitan Government", "source_last_edit_at": ""}}, {"type": "Feature", "geometry": {"type": "Point", "coordinates": [139.65995330000024, 35.78831474994176]}, "properties": {"id": "itabashi-ward-446-0-125788315-319659953", "species_group": "plum", "scientific_name": "Prunus species", "common_name": "ウメ", "subtype_name": "ウメ", "zip_code": null, "ownership": "public", "ownership_raw": "Tokyo Metropolitan Government", "city": "Itabashi Ward", "source_dataset": "Street Trees / 街路樹", "source_department": "Tokyo Metropolitan Government", "source_last_edit_at": ""}}, {"type": "Feature", "geometry": {"type": "Point", "coordinates": [139.65996800000016, 35.78834351994179]}, "properties": {"id": "itabashi-ward-446-0-125788344-319659968", "species_group": "cherry", "scientific_name": "Prunus species", "common_name": "サクラ", "subtype_name": "サクラ", "zip_code": null, "ownership": "public", "ownership_raw": "Tokyo Metropolitan Government", "city": "Itabashi Ward", "source_dataset": "Street Trees / 街路樹", "source_department": "Tokyo Metropolitan Government", "source_last_edit_at": ""}}, {"type": "Feature", "geometry": {"type": "Point", "coordinates": [139.6600390000002, 35.78847071994179]}, "properties": {"id": "itabashi-ward-446-0-125788471-319660039", "species_group": "cherry", "scientific_name": "Prunus species", "common_name": "サクラ", "subtype_name": "サクラ", "zip_code": null, "ownership": "public", "ownership_raw": "Tokyo Metropolitan Government", "city": "Itabashi Ward", "source_dataset": "Street Trees / 街路樹", "source_department": "Tokyo Metropolitan Government", "source_last_edit_at": ""}}]}