{"type": "FeatureCollection", "features": [{"type": "Feature", "geometry": {"type": "Point", "coordinates": [-80.05267176697737, 26.653424119930325]}, "properties": {"id": "west-palm-beach-10087", "species_group": "magnolia", "scientific_name": "Magnolia grandiflora", "common_name": "Southern magnolia", "subtype_name": "Southern Magnolia", "zip_code": "33405", "ownership": "public", "ownership_raw": "City of West Palm Beach", "city": "West Palm Beach", "source_dataset": "Trees", "source_department": "City of West Palm Beach", "source_last_edit_at": ""}}, {"type": "Feature", "geometry": {"type": "Point", "coordinates": [-80.05272634504063, 26.653429990877893]}, "properties": {"id": "west-palm-beach-10088", "species_group": "magnolia", "scientific_name": "Magnolia grandiflora", "common_name": "Southern magnolia", "subtype_name": "Southern Magnolia", "zip_code": "33405", "ownership": "public", "ownership_raw": "City of West Palm Beach", "city": "West Palm Beach", "source_dataset": "Trees", "source_department": "City of West Palm Beach", "source_last_edit_at": ""}}, {"type": "Feature", "geometry": {"type": "Point", "coordinates": [-80.05784296663694, 26.661028443126693]}, "properties": {"id": "west-palm-beach-10296", "species_group": "magnolia", "scientific_name": "Magnolia grandiflora", "common_name": "Southern magnolia", "subtype_name": "Southern Magnolia", "zip_code": "33405", "ownership": "public", "ownership_raw": "City of West Palm Beach", "city": "West Palm Beach", "source_dataset": "Trees", "source_department": "City of West Palm Beach", "source_last_edit_at": ""}}, {"type": "Feature", "geometry": {"type": "Point", "coordinates": [-80.05554715469628, 26.65805957359356]}, "properties": {"id": "west-palm-beach-11313", "species_group": "magnolia", "scientific_name": "Magnolia grandiflora", "common_name": "Southern magnolia", "subtype_name": "Southern Magnolia", "zip_code": "33405", "ownership": "public", "ownership_raw": "City of West Palm Beach", "city": "West Palm Beach", "source_dataset": "Trees", "source_department": "City of West Palm Beach", "source_last_edit_at": ""}}, {"type": "Feature", "geometry": {"type": "Point", "coordinates": [-80.05558665587064, 26.658057177274426]}, "properties": {"id": "west-palm-beach-11314", "species_group": "magnolia", "scientific_name": "Magnolia grandiflora", "common_name": "Southern magnolia", "subtype_name": "Southern Magnolia", "zip_code": "33405", "ownership": "public", "ownership_raw": "City of West Palm Beach", "city": "West Palm Beach", "source_dataset": "Trees", "source_department": "City of West Palm Beach", "source_last_edit_at": ""}}, {"type": "Feature", "geometry": {"type": "Point", "coordinates": [-80.05565712926625, 26.65806007878227]}, "properties": {"id": "west-palm-beach-11315", "species_group": "magnolia", "scientific_name": "Magnolia grandiflora", "common_name": "Southern magnolia", "subtype_name": "Southern Magnolia", "zip_code": "33405", "ownership": "public", "ownership_raw": "City of West Palm Beach", "city": "West Palm Beach", "source_dataset": "Trees", "source_department": "City of West Palm Beach", "source_last_edit_at": ""}}, {"type": "Feature", "geometry": {"type": "Point", "coordinates": [-80.05569061945425, 26.658057593755146]}, "properties": {"id": "west-palm-beach-11316", "species_group": "magnolia", "scientific_name": "Magnolia grandiflora", "common_name": "Southern magnolia", "subtype_name": "Southern Magnolia", "zip_code": "33405", "ownership": "public", "ownership_raw": "City of West Palm Beach", "city": "West Palm Beach", "source_dataset": "Trees", "source_department": "City of West Palm Beach", "source_last_edit_at": ""}}, {"type": "Feature", "geometry": {"type": "Point", "coordinates": [-80.05448711175318, 26.694597702750162]}, "properties": {"id": "west-palm-beach-1323", "species_group": "magnolia", "scientific_name": "Magnolia grandiflora", "common_name": "Southern magnolia", "subtype_name": "Southern Magnolia", "zip_code": "33401", "ownership": "public", "ownership_raw": "City of West Palm Beach", "city": "West Palm Beach", "source_dataset": "Trees", "source_department": "City of West Palm Beach", "source_last_edit_at": ""}}, {"type": "Feature", "geometry": {"type": "Point", "coordinates": [-80.05265893280561, 26.734738172527482]}, "properties": {"id": "west-palm-beach-18895", "species_group": "magnolia", "scientific_name": "Magnolia grandiflora", "common_name": "Southern magnolia", "subtype_name": "Southern Magnolia", "zip_code": "33407", "ownership": "public", "ownership_raw": "City of West Palm Beach", "city": "West Palm Beach", "source_dataset": "Trees", "source_department": "City of West Palm Beach", "source_last_edit_at": ""}}, {"type": "Feature", "geometry": {"type": "Point", "coordinates": [-80.05264161897142, 26.735069183797233]}, "properties": {"id": "west-palm-beach-18906", "species_group": "magnolia", "scientific_name": "Magnolia grandiflora", "common_name": "Southern magnolia", "subtype_name": "Southern Magnolia", "zip_code": "33407", "ownership": "public", "ownership_raw": "City of West Palm Beach", "city": "West Palm Beach", "source_dataset": "Trees", "source_department": "City of West Palm Beach", "source_last_edit_at": ""}}, {"type": "Feature", "geometry": {"type": "Point", "coordinates": [-80.0871428847443, 26.753314437257824]}, "properties": {"id": "west-palm-beach-24574", "species_group": "magnolia", "scientific_name": "Magnolia grandiflora", "common_name": "Southern magnolia", "subtype_name": "Southern Magnolia", "zip_code": "33407", "ownership": "public", "ownership_raw": "City of West Palm Beach", "city": "West Palm Beach", "source_dataset": "Trees", "source_department": "City of West Palm Beach", "source_last_edit_at": ""}}, {"type": "Feature", "geometry": {"type": "Point", "coordinates": [-80.08729577038042, 26.752347417101]}, "properties": {"id": "west-palm-beach-24596", "species_group": "magnolia", "scientific_name": "Magnolia grandiflora", "common_name": "Southern magnolia", "subtype_name": "Southern Magnolia", "zip_code": "33407", "ownership": "public", "ownership_raw": "City of West Palm Beach", "city": "West Palm Beach", "source_dataset": "Trees", "source_department": "City of West Palm Beach", "source_last_edit_at": ""}}, {"type": "Feature", "geometry": {"type": "Point", "coordinates": [-80.08736752021643, 26.750918728131055]}, "properties": {"id": "west-palm-beach-24618", "species_group": "magnolia", "scientific_name": "Magnolia grandiflora", "common_name": "Southern magnolia", "subtype_name": "Southern Magnolia", "zip_code": "33407", "ownership": "public", "ownership_raw": "City of West Palm Beach", "city": "West Palm Beach", "source_dataset": "Trees", "source_department": "City of West Palm Beach", "source_last_edit_at": ""}}, {"type": "Feature", "geometry": {"type": "Point", "coordinates": [-80.08737288358246, 26.75073669655387]}, "properties": {"id": "west-palm-beach-24620", "species_group": "magnolia", "scientific_name": "Magnolia grandiflora", "common_name": "Southern magnolia", "subtype_name": "Southern Magnolia", "zip_code": "33407", "ownership": "public", "ownership_raw": "City of West Palm Beach", "city": "West Palm Beach", "source_dataset": "Trees", "source_department": "City of West Palm Beach", "source_last_edit_at": ""}}, {"type": "Feature", "geometry": {"type": "Point", "coordinates": [-80.08737757831207, 26.75066783692104]}, "properties": {"id": "west-palm-beach-24622", "species_group": "magnolia", "scientific_name": "Magnolia grandiflora", "common_name": "Southern magnolia", "subtype_name": "Southern Magnolia", "zip_code": "33407", "ownership": "public", "ownership_raw": "City of West Palm Beach", "city": "West Palm Beach", "source_dataset": "Trees", "source_department": "City of West Palm Beach", "source_last_edit_at": ""}}, {"type": "Feature", "geometry": {"type": "Point", "coordinates": [-80.08752778175774, 26.75043251360968]}, "properties": {"id": "west-palm-beach-24627", "species_group": "magnolia", "scientific_name": "Magnolia grandiflora", "common_name": "Southern magnolia", "subtype_name": "Southern Magnolia", "zip_code": "33407", "ownership": "public", "ownership_raw": "City of West Palm Beach", "city": "West Palm Beach", "source_dataset": "Trees", "source_department": "City of West Palm Beach", "source_last_edit_at": ""}}, {"type": "Feature", "geometry": {"type": "Point", "coordinates": [-80.08823186211767, 26.751989947309653]}, "properties": {"id": "west-palm-beach-24680", "species_group": "magnolia", "scientific_name": "Magnolia grandiflora", "common_name": "Southern magnolia", "subtype_name": "Southern Magnolia", "zip_code": "33407", "ownership": "public", "ownership_raw": "City of West Palm Beach", "city": "West Palm Beach", "source_dataset": "Trees", "source_department": "City of West Palm Beach", "source_last_edit_at": ""}}, {"type": "Feature", "geometry": {"type": "Point", "coordinates": [-80.08823588421619, 26.752062399080145]}, "properties": {"id": "west-palm-beach-24681", "species_group": "magnolia", "scientific_name": "Magnolia grandiflora", "common_name": "Southern magnolia", "subtype_name": "Southern Magnolia", "zip_code": "33407", "ownership": "public", "ownership_raw": "City of West Palm Beach", "city": "West Palm Beach", "source_dataset": "Trees", "source_department": "City of West Palm Beach", "source_last_edit_at": ""}}, {"type": "Feature", "geometry": {"type": "Point", "coordinates": [-80.08835121985175, 26.752074973657983]}, "properties": {"id": "west-palm-beach-24682", "species_group": "magnolia", "scientific_name": "Magnolia grandiflora", "common_name": "Southern magnolia", "subtype_name": "Southern Magnolia", "zip_code": "33407", "ownership": "public", "ownership_raw": "City of West Palm Beach", "city": "West Palm Beach", "source_dataset": "Trees", "source_department": "City of West Palm Beach", "source_last_edit_at": ""}}, {"type": "Feature", "geometry": {"type": "Point", "coordinates": [-80.0881413364172, 26.752936611966053]}, "properties": {"id": "west-palm-beach-24699", "species_group": "magnolia", "scientific_name": "Magnolia grandiflora", "common_name": "Southern magnolia", "subtype_name": "Southern Magnolia", "zip_code": "33407", "ownership": "public", "ownership_raw": "City of West Palm Beach", "city": "West Palm Beach", "source_dataset": "Trees", "source_department": "City of West Palm Beach", "source_last_edit_at": ""}}, {"type": "Feature", "geometry": {"type": "Point", "coordinates": [-80.0514345049612, 26.669693935621673]}, "properties": {"id": "west-palm-beach-4859", "species_group": "magnolia", "scientific_name": "Magnolia grandiflora", "common_name": "Southern magnolia", "subtype_name": "Southern Magnolia", "zip_code": "33405", "ownership": "public", "ownership_raw": "City of West Palm Beach", "city": "West Palm Beach", "source_dataset": "Trees", "source_department": "City of West Palm Beach", "source_last_edit_at": ""}}, {"type": "Feature", "geometry": {"type": "Point", "coordinates": [-80.05302253508734, 26.6633484013502]}, "properties": {"id": "west-palm-beach-6354", "species_group": "magnolia", "scientific_name": "Magnolia champaca", "common_name": null, "subtype_name": "Magnolia champaca", "zip_code": "33405", "ownership": "public", "ownership_raw": "City of West Palm Beach", "city": "West Palm Beach", "source_dataset": "Trees", "source_department": "City of West Palm Beach", "source_last_edit_at": ""}}, {"type": "Feature", "geometry": {"type": "Point", "coordinates": [-80.05796123224451, 26.74176398613166]}, "properties": {"id": "west-palm-beach-7956", "species_group": "magnolia", "scientific_name": "Magnolia grandiflora", "common_name": "Southern magnolia", "subtype_name": "Southern Magnolia", "zip_code": "33407", "ownership": "public", "ownership_raw": "City of West Palm Beach", "city": "West Palm Beach", "source_dataset": "Trees", "source_department": "City of West Palm Beach", "source_last_edit_at": ""}}, {"type": "Feature", "geometry": {"type": "Point", "coordinates": [-80.05838427525003, 26.74167306368332]}, "properties": {"id": "west-palm-beach-7965", "species_group": "magnolia", "scientific_name": "Magnolia grandiflora", "common_name": "Southern magnolia", "subtype_name": "Southern Magnolia", "zip_code": "33407", "ownership": "public", "ownership_raw": "City of West Palm Beach", "city": "West Palm Beach", "source_dataset": "Trees", "source_department": "City of West Palm Beach", "source_last_edit_at": ""}}, {"type": "Feature", "geometry": {"type": "Point", "coordinates": [-80.05812443740226, 26.741668572803412]}, "properties": {"id": "west-palm-beach-7975", "species_group": "magnolia", "scientific_name": "Magnolia grandiflora", "common_name": "Southern magnolia", "subtype_name": "Southern Magnolia", "zip_code": "33407", "ownership": "public", "ownership_raw": "City of West Palm Beach", "city": "West Palm Beach", "source_dataset": "Trees", "source_department": "City of West Palm Beach", "source_last_edit_at": ""}}, {"type": "Feature", "geometry": {"type": "Point", "coordinates": [-80.05769360649288, 26.74165809340767]}, "properties": {"id": "west-palm-beach-7981", "species_group": "magnolia", "scientific_name": "Magnolia grandiflora", "common_name": "Southern magnolia", "subtype_name": "Southern Magnolia", "zip_code": "33407", "ownership": "public", "ownership_raw": "City of West Palm Beach", "city": "West Palm Beach", "source_dataset": "Trees", "source_department": "City of West Palm Beach", "source_last_edit_at": ""}}, {"type": "Feature", "geometry": {"type": "Point", "coordinates": [-80.05591072665322, 26.745772702155826]}, "properties": {"id": "west-palm-beach-8512", "species_group": "magnolia", "scientific_name": "Magnolia grandiflora", "common_name": "Southern magnolia", "subtype_name": "Southern Magnolia", "zip_code": "33407", "ownership": "public", "ownership_raw": "City of West Palm Beach", "city": "West Palm Beach", "source_dataset": "Trees", "source_department": "City of West Palm Beach", "source_last_edit_at": ""}}, {"type": "Feature", "geometry": {"type": "Point", "coordinates": [-80.05482258620846, 26.757348884630442]}, "properties": {"id": "west-palm-beach-9403", "species_group": "magnolia", "scientific_name": "Magnolia grandiflora", "common_name": "Southern magnolia", "subtype_name": "Southern Magnolia", "zip_code": "33407", "ownership": "public", "ownership_raw": "City of West Palm Beach", "city": "West Palm Beach", "source_dataset": "Trees", "source_department": "City of West Palm Beach", "source_last_edit_at": ""}}]}