{"type": "FeatureCollection", "features": [{"type": "Feature", "geometry": {"type": "Point", "coordinates": [-79.49871278128256, 44.01452461529524]}, "properties": {"id": "aurora-15590", "species_group": "crabapple", "scientific_name": "Malus baccata", "common_name": "Siberian Crab-Apple", "subtype_name": "Siberian Crab-Apple", "zip_code": null, "ownership": "public", "ownership_raw": "York Region", "city": "Aurora", "source_dataset": "Street Trees", "source_department": "York Region", "source_last_edit_at": ""}}, {"type": "Feature", "geometry": {"type": "Point", "coordinates": [-79.41326242256488, 43.98592597553431]}, "properties": {"id": "aurora-15960", "species_group": "crabapple", "scientific_name": "Malus sp.", "common_name": "Apple Species", "subtype_name": "Apple", "zip_code": null, "ownership": "public", "ownership_raw": "York Region", "city": "Aurora", "source_dataset": "Street Trees", "source_department": "York Region", "source_last_edit_at": ""}}, {"type": "Feature", "geometry": {"type": "Point", "coordinates": [-79.41326992292919, 43.98599314158275]}, "properties": {"id": "aurora-15963", "species_group": "crabapple", "scientific_name": "Malus sp.", "common_name": "Apple Species", "subtype_name": "Apple", "zip_code": null, "ownership": "public", "ownership_raw": "York Region", "city": "Aurora", "source_dataset": "Street Trees", "source_department": "York Region", "source_last_edit_at": ""}}, {"type": "Feature", "geometry": {"type": "Point", "coordinates": [-79.4149221305789, 43.99342365812039]}, "properties": {"id": "aurora-16255", "species_group": "crabapple", "scientific_name": "Malus sp.", "common_name": "Apple Species", "subtype_name": "Apple", "zip_code": null, "ownership": "public", "ownership_raw": "York Region", "city": "Aurora", "source_dataset": "Street Trees", "source_department": "York Region", "source_last_edit_at": ""}}, {"type": "Feature", "geometry": {"type": "Point", "coordinates": [-79.41502159051308, 43.99390064337945]}, "properties": {"id": "aurora-16256", "species_group": "crabapple", "scientific_name": "Malus sp.", "common_name": "Apple Species", "subtype_name": "Apple", "zip_code": null, "ownership": "public", "ownership_raw": "York Region", "city": "Aurora", "source_dataset": "Street Trees", "source_department": "York Region", "source_last_edit_at": ""}}, {"type": "Feature", "geometry": {"type": "Point", "coordinates": [-79.41717592578227, 44.003660644289944]}, "properties": {"id": "aurora-16385", "species_group": "crabapple", "scientific_name": "Malus sp.", "common_name": "Apple Species", "subtype_name": "Apple", "zip_code": null, "ownership": "public", "ownership_raw": "York Region", "city": "Aurora", "source_dataset": "Street Trees", "source_department": "York Region", "source_last_edit_at": ""}}, {"type": "Feature", "geometry": {"type": "Point", "coordinates": [-79.41486494240708, 43.9909879228914]}, "properties": {"id": "aurora-16821", "species_group": "crabapple", "scientific_name": "Malus sp.", "common_name": "Apple Species", "subtype_name": "Apple", "zip_code": null, "ownership": "public", "ownership_raw": "York Region", "city": "Aurora", "source_dataset": "Street Trees", "source_department": "York Region", "source_last_edit_at": ""}}, {"type": "Feature", "geometry": {"type": "Point", "coordinates": [-79.41111604331394, 43.976287459735765]}, "properties": {"id": "aurora-16865", "species_group": "crabapple", "scientific_name": "Malus sp.", "common_name": "Apple Species", "subtype_name": "Apple", "zip_code": null, "ownership": "public", "ownership_raw": "York Region", "city": "Aurora", "source_dataset": "Street Trees", "source_department": "York Region", "source_last_edit_at": ""}}, {"type": "Feature", "geometry": {"type": "Point", "coordinates": [-79.41224708949834, 43.98115314126567]}, "properties": {"id": "aurora-16866", "species_group": "crabapple", "scientific_name": "Malus sp.", "common_name": "Apple Species", "subtype_name": "Apple", "zip_code": null, "ownership": "public", "ownership_raw": "York Region", "city": "Aurora", "source_dataset": "Street Trees", "source_department": "York Region", "source_last_edit_at": ""}}, {"type": "Feature", "geometry": {"type": "Point", "coordinates": [-79.46117777097187, 43.97162747027513]}, "properties": {"id": "aurora-16893", "species_group": "crabapple", "scientific_name": "Malus sp.", "common_name": "Apple Species", "subtype_name": "Apple", "zip_code": null, "ownership": "public", "ownership_raw": "York Region", "city": "Aurora", "source_dataset": "Street Trees", "source_department": "York Region", "source_last_edit_at": ""}}, {"type": "Feature", "geometry": {"type": "Point", "coordinates": [-79.46117243732077, 43.971575303657595]}, "properties": {"id": "aurora-16894", "species_group": "crabapple", "scientific_name": "Malus sp.", "common_name": "Apple Species", "subtype_name": "Apple", "zip_code": null, "ownership": "public", "ownership_raw": "York Region", "city": "Aurora", "source_dataset": "Street Trees", "source_department": "York Region", "source_last_edit_at": ""}}, {"type": "Feature", "geometry": {"type": "Point", "coordinates": [-79.46113627028794, 43.97151413692602]}, "properties": {"id": "aurora-16895", "species_group": "crabapple", "scientific_name": "Malus sp.", "common_name": "Apple Species", "subtype_name": "Apple", "zip_code": null, "ownership": "public", "ownership_raw": "York Region", "city": "Aurora", "source_dataset": "Street Trees", "source_department": "York Region", "source_last_edit_at": ""}}, {"type": "Feature", "geometry": {"type": "Point", "coordinates": [-79.41233458896735, 43.98135264133135]}, "properties": {"id": "aurora-17039", "species_group": "crabapple", "scientific_name": "Malus sp.", "common_name": "Apple Species", "subtype_name": "Apple", "zip_code": null, "ownership": "public", "ownership_raw": "York Region", "city": "Aurora", "source_dataset": "Street Trees", "source_department": "York Region", "source_last_edit_at": ""}}, {"type": "Feature", "geometry": {"type": "Point", "coordinates": [-79.41258575532204, 43.98258997461471]}, "properties": {"id": "aurora-17040", "species_group": "crabapple", "scientific_name": "Malus sp.", "common_name": "Apple Species", "subtype_name": "Apple", "zip_code": null, "ownership": "public", "ownership_raw": "York Region", "city": "Aurora", "source_dataset": "Street Trees", "source_department": "York Region", "source_last_edit_at": ""}}, {"type": "Feature", "geometry": {"type": "Point", "coordinates": [-79.41258308897937, 43.98260164109685]}, "properties": {"id": "aurora-17041", "species_group": "crabapple", "scientific_name": "Malus sp.", "common_name": "Apple Species", "subtype_name": "Apple", "zip_code": null, "ownership": "public", "ownership_raw": "York Region", "city": "Aurora", "source_dataset": "Street Trees", "source_department": "York Region", "source_last_edit_at": ""}}, {"type": "Feature", "geometry": {"type": "Point", "coordinates": [-79.41257587317457, 43.98259097352307]}, "properties": {"id": "aurora-17042", "species_group": "crabapple", "scientific_name": "Malus sp.", "common_name": "Apple Species", "subtype_name": "Apple", "zip_code": null, "ownership": "public", "ownership_raw": "York Region", "city": "Aurora", "source_dataset": "Street Trees", "source_department": "York Region", "source_last_edit_at": ""}}, {"type": "Feature", "geometry": {"type": "Point", "coordinates": [-79.41489771478095, 43.99329791284119]}, "properties": {"id": "aurora-17052", "species_group": "crabapple", "scientific_name": "Malus sp.", "common_name": "Apple Species", "subtype_name": "Apple", "zip_code": null, "ownership": "public", "ownership_raw": "York Region", "city": "Aurora", "source_dataset": "Street Trees", "source_department": "York Region", "source_last_edit_at": ""}}, {"type": "Feature", "geometry": {"type": "Point", "coordinates": [-79.41490082043649, 43.993297386019826]}, "properties": {"id": "aurora-17053", "species_group": "crabapple", "scientific_name": "Malus sp.", "common_name": "Apple Species", "subtype_name": "Apple", "zip_code": null, "ownership": "public", "ownership_raw": "York Region", "city": "Aurora", "source_dataset": "Street Trees", "source_department": "York Region", "source_last_edit_at": ""}}, {"type": "Feature", "geometry": {"type": "Point", "coordinates": [-79.41327763440384, 43.985999172035456]}, "properties": {"id": "aurora-17114", "species_group": "crabapple", "scientific_name": "Malus sp.", "common_name": "Apple Species", "subtype_name": "Apple", "zip_code": null, "ownership": "public", "ownership_raw": "York Region", "city": "Aurora", "source_dataset": "Street Trees", "source_department": "York Region", "source_last_edit_at": ""}}, {"type": "Feature", "geometry": {"type": "Point", "coordinates": [-79.41360842394893, 43.98734414178874]}, "properties": {"id": "aurora-17171", "species_group": "crabapple", "scientific_name": "Malus sp.", "common_name": "Apple Species", "subtype_name": "Apple", "zip_code": null, "ownership": "public", "ownership_raw": "York Region", "city": "Aurora", "source_dataset": "Street Trees", "source_department": "York Region", "source_last_edit_at": ""}}, {"type": "Feature", "geometry": {"type": "Point", "coordinates": [-79.4130065901624, 43.98452930837421]}, "properties": {"id": "aurora-17233", "species_group": "crabapple", "scientific_name": "Malus sp.", "common_name": "Apple Species", "subtype_name": "Apple", "zip_code": null, "ownership": "public", "ownership_raw": "York Region", "city": "Aurora", "source_dataset": "Street Trees", "source_department": "York Region", "source_last_edit_at": ""}}, {"type": "Feature", "geometry": {"type": "Point", "coordinates": [-79.41304025671529, 43.984635475181385]}, "properties": {"id": "aurora-17271", "species_group": "crabapple", "scientific_name": "Malus sp.", "common_name": "Apple Species", "subtype_name": "Apple", "zip_code": null, "ownership": "public", "ownership_raw": "York Region", "city": "Aurora", "source_dataset": "Street Trees", "source_department": "York Region", "source_last_edit_at": ""}}, {"type": "Feature", "geometry": {"type": "Point", "coordinates": [-79.46165727032117, 43.97362713702887]}, "properties": {"id": "aurora-17673", "species_group": "crabapple", "scientific_name": "Malus sp.", "common_name": "Apple Species", "subtype_name": "Apple", "zip_code": null, "ownership": "public", "ownership_raw": "York Region", "city": "Aurora", "source_dataset": "Street Trees", "source_department": "York Region", "source_last_edit_at": ""}}, {"type": "Feature", "geometry": {"type": "Point", "coordinates": [-79.46166477088913, 43.973702304141604]}, "properties": {"id": "aurora-17699", "species_group": "crabapple", "scientific_name": "Malus sp.", "common_name": "Apple Species", "subtype_name": "Apple", "zip_code": null, "ownership": "public", "ownership_raw": "York Region", "city": "Aurora", "source_dataset": "Street Trees", "source_department": "York Region", "source_last_edit_at": ""}}, {"type": "Feature", "geometry": {"type": "Point", "coordinates": [-79.46169710357304, 43.97377897068085]}, "properties": {"id": "aurora-17700", "species_group": "crabapple", "scientific_name": "Malus sp.", "common_name": "Apple Species", "subtype_name": "Apple", "zip_code": null, "ownership": "public", "ownership_raw": "York Region", "city": "Aurora", "source_dataset": "Street Trees", "source_department": "York Region", "source_last_edit_at": ""}}, {"type": "Feature", "geometry": {"type": "Point", "coordinates": [-79.4617041037179, 43.973874970392544]}, "properties": {"id": "aurora-17701", "species_group": "crabapple", "scientific_name": "Malus sp.", "common_name": "Apple Species", "subtype_name": "Apple", "zip_code": null, "ownership": "public", "ownership_raw": "York Region", "city": "Aurora", "source_dataset": "Street Trees", "source_department": "York Region", "source_last_edit_at": ""}}, {"type": "Feature", "geometry": {"type": "Point", "coordinates": [-79.46176506586379, 43.97407131067838]}, "properties": {"id": "aurora-17702", "species_group": "crabapple", "scientific_name": "Malus sp.", "common_name": "Apple Species", "subtype_name": "Apple", "zip_code": null, "ownership": "public", "ownership_raw": "York Region", "city": "Aurora", "source_dataset": "Street Trees", "source_department": "York Region", "source_last_edit_at": ""}}, {"type": "Feature", "geometry": {"type": "Point", "coordinates": [-79.4617949379207, 43.974199304123964]}, "properties": {"id": "aurora-17703", "species_group": "crabapple", "scientific_name": "Malus sp.", "common_name": "Apple Species", "subtype_name": "Apple", "zip_code": null, "ownership": "public", "ownership_raw": "York Region", "city": "Aurora", "source_dataset": "Street Trees", "source_department": "York Region", "source_last_edit_at": ""}}, {"type": "Feature", "geometry": {"type": "Point", "coordinates": [-79.46204760385844, 43.97517313795496]}, "properties": {"id": "aurora-17705", "species_group": "crabapple", "scientific_name": "Malus sp.", "common_name": "Apple Species", "subtype_name": "Apple", "zip_code": null, "ownership": "public", "ownership_raw": "York Region", "city": "Aurora", "source_dataset": "Street Trees", "source_department": "York Region", "source_last_edit_at": ""}}, {"type": "Feature", "geometry": {"type": "Point", "coordinates": [-79.46205610481209, 43.97527163737324]}, "properties": {"id": "aurora-17706", "species_group": "crabapple", "scientific_name": "Malus sp.", "common_name": "Apple Species", "subtype_name": "Apple", "zip_code": null, "ownership": "public", "ownership_raw": "York Region", "city": "Aurora", "source_dataset": "Street Trees", "source_department": "York Region", "source_last_edit_at": ""}}, {"type": "Feature", "geometry": {"type": "Point", "coordinates": [-79.4628371051055, 43.98160947220863]}, "properties": {"id": "aurora-17715", "species_group": "crabapple", "scientific_name": "Malus sp.", "common_name": "Apple Species", "subtype_name": "Apple", "zip_code": null, "ownership": "public", "ownership_raw": "York Region", "city": "Aurora", "source_dataset": "Street Trees", "source_department": "York Region", "source_last_edit_at": ""}}, {"type": "Feature", "geometry": {"type": "Point", "coordinates": [-79.46206842116499, 43.975353752394234]}, "properties": {"id": "aurora-17752", "species_group": "crabapple", "scientific_name": "Malus sp.", "common_name": "Apple Species", "subtype_name": "Apple", "zip_code": null, "ownership": "public", "ownership_raw": "York Region", "city": "Aurora", "source_dataset": "Street Trees", "source_department": "York Region", "source_last_edit_at": ""}}, {"type": "Feature", "geometry": {"type": "Point", "coordinates": [-79.46207427051836, 43.975434471253145]}, "properties": {"id": "aurora-17753", "species_group": "crabapple", "scientific_name": "Malus sp.", "common_name": "Apple Species", "subtype_name": "Apple", "zip_code": null, "ownership": "public", "ownership_raw": "York Region", "city": "Aurora", "source_dataset": "Street Trees", "source_department": "York Region", "source_last_edit_at": ""}}, {"type": "Feature", "geometry": {"type": "Point", "coordinates": [-79.46210329013162, 43.975512030312245]}, "properties": {"id": "aurora-17754", "species_group": "crabapple", "scientific_name": "Malus sp.", "common_name": "Apple Species", "subtype_name": "Apple", "zip_code": null, "ownership": "public", "ownership_raw": "York Region", "city": "Aurora", "source_dataset": "Street Trees", "source_department": "York Region", "source_last_edit_at": ""}}, {"type": "Feature", "geometry": {"type": "Point", "coordinates": [-79.462116700934, 43.975598890460034]}, "properties": {"id": "aurora-17755", "species_group": "crabapple", "scientific_name": "Malus sp.", "common_name": "Apple Species", "subtype_name": "Apple", "zip_code": null, "ownership": "public", "ownership_raw": "York Region", "city": "Aurora", "source_dataset": "Street Trees", "source_department": "York Region", "source_last_edit_at": ""}}, {"type": "Feature", "geometry": {"type": "Point", "coordinates": [-79.46212993827423, 43.9756958041993]}, "properties": {"id": "aurora-17756", "species_group": "crabapple", "scientific_name": "Malus sp.", "common_name": "Apple Species", "subtype_name": "Apple", "zip_code": null, "ownership": "public", "ownership_raw": "York Region", "city": "Aurora", "source_dataset": "Street Trees", "source_department": "York Region", "source_last_edit_at": ""}}, {"type": "Feature", "geometry": {"type": "Point", "coordinates": [-79.46213480523815, 43.97576874887053]}, "properties": {"id": "aurora-17757", "species_group": "crabapple", "scientific_name": "Malus sp.", "common_name": "Apple Species", "subtype_name": "Apple", "zip_code": null, "ownership": "public", "ownership_raw": "York Region", "city": "Aurora", "source_dataset": "Street Trees", "source_department": "York Region", "source_last_edit_at": ""}}, {"type": "Feature", "geometry": {"type": "Point", "coordinates": [-79.46216095775368, 43.975842097125735]}, "properties": {"id": "aurora-17758", "species_group": "crabapple", "scientific_name": "Malus sp.", "common_name": "Apple Species", "subtype_name": "Apple", "zip_code": null, "ownership": "public", "ownership_raw": "York Region", "city": "Aurora", "source_dataset": "Street Trees", "source_department": "York Region", "source_last_edit_at": ""}}, {"type": "Feature", "geometry": {"type": "Point", "coordinates": [-79.46223877171822, 43.97611080481896]}, "properties": {"id": "aurora-17761", "species_group": "crabapple", "scientific_name": "Malus sp.", "common_name": "Apple Species", "subtype_name": "Apple", "zip_code": null, "ownership": "public", "ownership_raw": "York Region", "city": "Aurora", "source_dataset": "Street Trees", "source_department": "York Region", "source_last_edit_at": ""}}, {"type": "Feature", "geometry": {"type": "Point", "coordinates": [-79.46224093732023, 43.9761629710207]}, "properties": {"id": "aurora-17762", "species_group": "crabapple", "scientific_name": "Malus sp.", "common_name": "Apple Species", "subtype_name": "Apple", "zip_code": null, "ownership": "public", "ownership_raw": "York Region", "city": "Aurora", "source_dataset": "Street Trees", "source_department": "York Region", "source_last_edit_at": ""}}, {"type": "Feature", "geometry": {"type": "Point", "coordinates": [-79.4621547710327, 43.97847947128357]}, "properties": {"id": "aurora-17876", "species_group": "crabapple", "scientific_name": "Malus sp.", "common_name": "Apple Species", "subtype_name": "Apple", "zip_code": null, "ownership": "public", "ownership_raw": "York Region", "city": "Aurora", "source_dataset": "Street Trees", "source_department": "York Region", "source_last_edit_at": ""}}, {"type": "Feature", "geometry": {"type": "Point", "coordinates": [-79.43782146810423, 44.02585509965403]}, "properties": {"id": "aurora-43208", "species_group": "cherry", "scientific_name": "Prunus maackii 'Goldrush'", "common_name": "Goldrush Amur Cherry", "subtype_name": "Goldrush Amur Cherry", "zip_code": null, "ownership": "public", "ownership_raw": "York Region", "city": "Aurora", "source_dataset": "Street Trees", "source_department": "York Region", "source_last_edit_at": ""}}, {"type": "Feature", "geometry": {"type": "Point", "coordinates": [-79.43802866890096, 44.02580833178969]}, "properties": {"id": "aurora-43359", "species_group": "cherry", "scientific_name": "Prunus maackii 'Goldrush'", "common_name": "Goldrush Amur Cherry", "subtype_name": "Goldrush Amur Cherry", "zip_code": null, "ownership": "public", "ownership_raw": "York Region", "city": "Aurora", "source_dataset": "Street Trees", "source_department": "York Region", "source_last_edit_at": ""}}, {"type": "Feature", "geometry": {"type": "Point", "coordinates": [-79.43809706512569, 44.02579531360771]}, "properties": {"id": "aurora-43360", "species_group": "cherry", "scientific_name": "Prunus maackii 'Goldrush'", "common_name": "Goldrush Amur Cherry", "subtype_name": "Goldrush Amur Cherry", "zip_code": null, "ownership": "public", "ownership_raw": "York Region", "city": "Aurora", "source_dataset": "Street Trees", "source_department": "York Region", "source_last_edit_at": ""}}, {"type": "Feature", "geometry": {"type": "Point", "coordinates": [-79.43789187594972, 44.02583870673872]}, "properties": {"id": "aurora-43522", "species_group": "cherry", "scientific_name": "Prunus maackii 'Goldrush'", "common_name": "Goldrush Amur Cherry", "subtype_name": "Goldrush Amur Cherry", "zip_code": null, "ownership": "public", "ownership_raw": "York Region", "city": "Aurora", "source_dataset": "Street Trees", "source_department": "York Region", "source_last_edit_at": ""}}, {"type": "Feature", "geometry": {"type": "Point", "coordinates": [-79.43795960166175, 44.02582375995548]}, "properties": {"id": "aurora-43523", "species_group": "cherry", "scientific_name": "Prunus maackii 'Goldrush'", "common_name": "Goldrush Amur Cherry", "subtype_name": "Goldrush Amur Cherry", "zip_code": null, "ownership": "public", "ownership_raw": "York Region", "city": "Aurora", "source_dataset": "Street Trees", "source_department": "York Region", "source_last_edit_at": ""}}, {"type": "Feature", "geometry": {"type": "Point", "coordinates": [-79.43823050428, 44.02576686699443]}, "properties": {"id": "aurora-43645", "species_group": "cherry", "scientific_name": "Prunus maackii 'Goldrush'", "common_name": "Goldrush Amur Cherry", "subtype_name": "Goldrush Amur Cherry", "zip_code": null, "ownership": "public", "ownership_raw": "York Region", "city": "Aurora", "source_dataset": "Street Trees", "source_department": "York Region", "source_last_edit_at": ""}}, {"type": "Feature", "geometry": {"type": "Point", "coordinates": [-79.43829688930252, 44.02575288484686]}, "properties": {"id": "aurora-43646", "species_group": "cherry", "scientific_name": "Prunus maackii 'Goldrush'", "common_name": "Goldrush Amur Cherry", "subtype_name": "Goldrush Amur Cherry", "zip_code": null, "ownership": "public", "ownership_raw": "York Region", "city": "Aurora", "source_dataset": "Street Trees", "source_department": "York Region", "source_last_edit_at": ""}}, {"type": "Feature", "geometry": {"type": "Point", "coordinates": [-79.4384403874304, 44.0257196164616]}, "properties": {"id": "aurora-43647", "species_group": "cherry", "scientific_name": "Prunus maackii 'Goldrush'", "common_name": "Goldrush Amur Cherry", "subtype_name": "Goldrush Amur Cherry", "zip_code": null, "ownership": "public", "ownership_raw": "York Region", "city": "Aurora", "source_dataset": "Street Trees", "source_department": "York Region", "source_last_edit_at": ""}}, {"type": "Feature", "geometry": {"type": "Point", "coordinates": [-79.43851012502353, 44.02570611668245]}, "properties": {"id": "aurora-43648", "species_group": "cherry", "scientific_name": "Prunus maackii 'Goldrush'", "common_name": "Goldrush Amur Cherry", "subtype_name": "Goldrush Amur Cherry", "zip_code": null, "ownership": "public", "ownership_raw": "York Region", "city": "Aurora", "source_dataset": "Street Trees", "source_department": "York Region", "source_last_edit_at": ""}}, {"type": "Feature", "geometry": {"type": "Point", "coordinates": [-79.43775374194955, 44.025871010608036]}, "properties": {"id": "aurora-51994", "species_group": "cherry", "scientific_name": "Prunus maackii 'Goldrush'", "common_name": "Goldrush Amur Cherry", "subtype_name": "Goldrush Amur Cherry", "zip_code": null, "ownership": "public", "ownership_raw": "York Region", "city": "Aurora", "source_dataset": "Street Trees", "source_department": "York Region", "source_last_edit_at": ""}}, {"type": "Feature", "geometry": {"type": "Point", "coordinates": [-79.43816613141858, 44.02577892108676]}, "properties": {"id": "aurora-51995", "species_group": "cherry", "scientific_name": "Prunus maackii 'Goldrush'", "common_name": "Goldrush Amur Cherry", "subtype_name": "Goldrush Amur Cherry", "zip_code": null, "ownership": "public", "ownership_raw": "York Region", "city": "Aurora", "source_dataset": "Street Trees", "source_department": "York Region", "source_last_edit_at": ""}}, {"type": "Feature", "geometry": {"type": "Point", "coordinates": [-79.46369616447708, 44.01999835296053]}, "properties": {"id": "aurora-52235", "species_group": "crabapple", "scientific_name": "Malus sp.", "common_name": "Apple Species", "subtype_name": "Apple", "zip_code": null, "ownership": "public", "ownership_raw": "York Region", "city": "Aurora", "source_dataset": "Street Trees", "source_department": "York Region", "source_last_edit_at": ""}}, {"type": "Feature", "geometry": {"type": "Point", "coordinates": [-79.47562087929238, 44.01733148151216]}, "properties": {"id": "aurora-52466", "species_group": "crabapple", "scientific_name": "Malus sp.", "common_name": "Apple Species", "subtype_name": "Apple", "zip_code": null, "ownership": "public", "ownership_raw": "York Region", "city": "Aurora", "source_dataset": "Street Trees", "source_department": "York Region", "source_last_edit_at": ""}}, {"type": "Feature", "geometry": {"type": "Point", "coordinates": [-79.45869957454349, 44.021088715554654]}, "properties": {"id": "aurora-52650", "species_group": "crabapple", "scientific_name": "Malus sp.", "common_name": "Apple Species", "subtype_name": "Apple", "zip_code": null, "ownership": "public", "ownership_raw": "York Region", "city": "Aurora", "source_dataset": "Street Trees", "source_department": "York Region", "source_last_edit_at": ""}}, {"type": "Feature", "geometry": {"type": "Point", "coordinates": [-79.4588149785429, 44.02105209294529]}, "properties": {"id": "aurora-52651", "species_group": "crabapple", "scientific_name": "Malus sp.", "common_name": "Apple Species", "subtype_name": "Apple", "zip_code": null, "ownership": "public", "ownership_raw": "York Region", "city": "Aurora", "source_dataset": "Street Trees", "source_department": "York Region", "source_last_edit_at": ""}}, {"type": "Feature", "geometry": {"type": "Point", "coordinates": [-79.45891499685992, 44.021030785351336]}, "properties": {"id": "aurora-52652", "species_group": "crabapple", "scientific_name": "Malus sp.", "common_name": "Apple Species", "subtype_name": "Apple", "zip_code": null, "ownership": "public", "ownership_raw": "York Region", "city": "Aurora", "source_dataset": "Street Trees", "source_department": "York Region", "source_last_edit_at": ""}}, {"type": "Feature", "geometry": {"type": "Point", "coordinates": [-79.45901003553652, 44.0210118360004]}, "properties": {"id": "aurora-52653", "species_group": "crabapple", "scientific_name": "Malus sp.", "common_name": "Apple Species", "subtype_name": "Apple", "zip_code": null, "ownership": "public", "ownership_raw": "York Region", "city": "Aurora", "source_dataset": "Street Trees", "source_department": "York Region", "source_last_edit_at": ""}}, {"type": "Feature", "geometry": {"type": "Point", "coordinates": [-79.4590949741645, 44.020988399004764]}, "properties": {"id": "aurora-52654", "species_group": "crabapple", "scientific_name": "Malus sp.", "common_name": "Apple Species", "subtype_name": "Apple", "zip_code": null, "ownership": "public", "ownership_raw": "York Region", "city": "Aurora", "source_dataset": "Street Trees", "source_department": "York Region", "source_last_edit_at": ""}}, {"type": "Feature", "geometry": {"type": "Point", "coordinates": [-79.49868693851663, 44.0144265971256]}, "properties": {"id": "aurora-53803", "species_group": "crabapple", "scientific_name": "Malus baccata", "common_name": "Siberian Crab-Apple", "subtype_name": "Siberian Crab-Apple", "zip_code": null, "ownership": "public", "ownership_raw": "York Region", "city": "Aurora", "source_dataset": "Street Trees", "source_department": "York Region", "source_last_edit_at": ""}}, {"type": "Feature", "geometry": {"type": "Point", "coordinates": [-79.48917721821546, 44.01430955214901]}, "properties": {"id": "aurora-54008", "species_group": "crabapple", "scientific_name": "Malus sp.", "common_name": "Apple Species", "subtype_name": "Apple", "zip_code": null, "ownership": "public", "ownership_raw": "York Region", "city": "Aurora", "source_dataset": "Street Trees", "source_department": "York Region", "source_last_edit_at": ""}}, {"type": "Feature", "geometry": {"type": "Point", "coordinates": [-79.48943692457487, 44.01423138632938]}, "properties": {"id": "aurora-54057", "species_group": "cherry", "scientific_name": "Prunus sp.", "common_name": "Cherry Species", "subtype_name": null, "zip_code": null, "ownership": "public", "ownership_raw": "York Region", "city": "Aurora", "source_dataset": "Street Trees", "source_department": "York Region", "source_last_edit_at": ""}}, {"type": "Feature", "geometry": {"type": "Point", "coordinates": [-79.49254990911808, 44.01358149872996]}, "properties": {"id": "aurora-54088", "species_group": "crabapple", "scientific_name": "Malus sp.", "common_name": "Apple Species", "subtype_name": "Apple", "zip_code": null, "ownership": "public", "ownership_raw": "York Region", "city": "Aurora", "source_dataset": "Street Trees", "source_department": "York Region", "source_last_edit_at": ""}}, {"type": "Feature", "geometry": {"type": "Point", "coordinates": [-79.49491282560382, 43.997493343084166]}, "properties": {"id": "aurora-54174", "species_group": "crabapple", "scientific_name": "Malus sp.", "common_name": "Apple Species", "subtype_name": "Apple", "zip_code": null, "ownership": "public", "ownership_raw": "York Region", "city": "Aurora", "source_dataset": "Street Trees", "source_department": "York Region", "source_last_edit_at": ""}}, {"type": "Feature", "geometry": {"type": "Point", "coordinates": [-79.49492154333423, 43.997523250196764]}, "properties": {"id": "aurora-54175", "species_group": "crabapple", "scientific_name": "Malus sp.", "common_name": "Apple Species", "subtype_name": "Apple", "zip_code": null, "ownership": "public", "ownership_raw": "York Region", "city": "Aurora", "source_dataset": "Street Trees", "source_department": "York Region", "source_last_edit_at": ""}}, {"type": "Feature", "geometry": {"type": "Point", "coordinates": [-79.49492757869947, 43.99755171113545]}, "properties": {"id": "aurora-54176", "species_group": "crabapple", "scientific_name": "Malus sp.", "common_name": "Apple Species", "subtype_name": "Apple", "zip_code": null, "ownership": "public", "ownership_raw": "York Region", "city": "Aurora", "source_dataset": "Street Trees", "source_department": "York Region", "source_last_edit_at": ""}}, {"type": "Feature", "geometry": {"type": "Point", "coordinates": [-79.49141155729917, 44.01385901803427]}, "properties": {"id": "aurora-54186", "species_group": "cherry", "scientific_name": "Prunus sp.", "common_name": "Cherry Species", "subtype_name": null, "zip_code": null, "ownership": "public", "ownership_raw": "York Region", "city": "Aurora", "source_dataset": "Street Trees", "source_department": "York Region", "source_last_edit_at": ""}}, {"type": "Feature", "geometry": {"type": "Point", "coordinates": [-79.49008814547291, 44.01411910024499]}, "properties": {"id": "aurora-54231", "species_group": "cherry", "scientific_name": "Prunus sp.", "common_name": "Cherry Species", "subtype_name": null, "zip_code": null, "ownership": "public", "ownership_raw": "York Region", "city": "Aurora", "source_dataset": "Street Trees", "source_department": "York Region", "source_last_edit_at": ""}}, {"type": "Feature", "geometry": {"type": "Point", "coordinates": [-79.45825112713806, 44.021177571971364]}, "properties": {"id": "aurora-54713", "species_group": "crabapple", "scientific_name": "Malus sp.", "common_name": "Apple Species", "subtype_name": "Apple", "zip_code": null, "ownership": "public", "ownership_raw": "York Region", "city": "Aurora", "source_dataset": "Street Trees", "source_department": "York Region", "source_last_edit_at": ""}}, {"type": "Feature", "geometry": {"type": "Point", "coordinates": [-79.45917859895903, 44.02097642261005]}, "properties": {"id": "aurora-54831", "species_group": "crabapple", "scientific_name": "Malus sp.", "common_name": "Apple Species", "subtype_name": "Apple", "zip_code": null, "ownership": "public", "ownership_raw": "York Region", "city": "Aurora", "source_dataset": "Street Trees", "source_department": "York Region", "source_last_edit_at": ""}}, {"type": "Feature", "geometry": {"type": "Point", "coordinates": [-79.47291454439545, 43.99859567890613]}, "properties": {"id": "aurora-56760", "species_group": "crabapple", "scientific_name": "Malus 'Hargozam'", "common_name": "Harvest Gold Crabapple", "subtype_name": "Harvest Gold Crabapple", "zip_code": null, "ownership": "public", "ownership_raw": "York Region", "city": "Aurora", "source_dataset": "Street Trees", "source_department": "York Region", "source_last_edit_at": ""}}, {"type": "Feature", "geometry": {"type": "Point", "coordinates": [-79.47303055043398, 43.99857252517321]}, "properties": {"id": "aurora-57019", "species_group": "crabapple", "scientific_name": "Malus sp.", "common_name": "Apple Species", "subtype_name": "Apple", "zip_code": null, "ownership": "public", "ownership_raw": "York Region", "city": "Aurora", "source_dataset": "Street Trees", "source_department": "York Region", "source_last_edit_at": ""}}, {"type": "Feature", "geometry": {"type": "Point", "coordinates": [-79.47372524229395, 43.9984200970472]}, "properties": {"id": "aurora-57020", "species_group": "crabapple", "scientific_name": "Malus sp.", "common_name": "Apple Species", "subtype_name": "Apple", "zip_code": null, "ownership": "public", "ownership_raw": "York Region", "city": "Aurora", "source_dataset": "Street Trees", "source_department": "York Region", "source_last_edit_at": ""}}, {"type": "Feature", "geometry": {"type": "Point", "coordinates": [-79.47394451337661, 43.998372342728885]}, "properties": {"id": "aurora-57021", "species_group": "crabapple", "scientific_name": "Malus sp.", "common_name": "Apple Species", "subtype_name": "Apple", "zip_code": null, "ownership": "public", "ownership_raw": "York Region", "city": "Aurora", "source_dataset": "Street Trees", "source_department": "York Region", "source_last_edit_at": ""}}, {"type": "Feature", "geometry": {"type": "Point", "coordinates": [-79.44800529584506, 44.02309798238372]}, "properties": {"id": "aurora-57131", "species_group": "crabapple", "scientific_name": "Malus sp.", "common_name": "Apple Species", "subtype_name": "Apple", "zip_code": null, "ownership": "public", "ownership_raw": "York Region", "city": "Aurora", "source_dataset": "Street Trees", "source_department": "York Region", "source_last_edit_at": ""}}, {"type": "Feature", "geometry": {"type": "Point", "coordinates": [-79.44799456701033, 44.023020353728214]}, "properties": {"id": "aurora-57132", "species_group": "crabapple", "scientific_name": "Malus sp.", "common_name": "Apple Species", "subtype_name": "Apple", "zip_code": null, "ownership": "public", "ownership_raw": "York Region", "city": "Aurora", "source_dataset": "Street Trees", "source_department": "York Region", "source_last_edit_at": ""}}, {"type": "Feature", "geometry": {"type": "Point", "coordinates": [-79.44797378023603, 44.02293066977387]}, "properties": {"id": "aurora-57133", "species_group": "crabapple", "scientific_name": "Malus sp.", "common_name": "Apple Species", "subtype_name": "Apple", "zip_code": null, "ownership": "public", "ownership_raw": "York Region", "city": "Aurora", "source_dataset": "Street Trees", "source_department": "York Region", "source_last_edit_at": ""}}, {"type": "Feature", "geometry": {"type": "Point", "coordinates": [-79.48746028002313, 43.9955535970808]}, "properties": {"id": "aurora-57275", "species_group": "crabapple", "scientific_name": "Malus sp.", "common_name": "Apple Species", "subtype_name": "Apple", "zip_code": null, "ownership": "public", "ownership_raw": "York Region", "city": "Aurora", "source_dataset": "Street Trees", "source_department": "York Region", "source_last_edit_at": ""}}, {"type": "Feature", "geometry": {"type": "Point", "coordinates": [-79.48767728154453, 43.99549894190883]}, "properties": {"id": "aurora-57276", "species_group": "crabapple", "scientific_name": "Malus sp.", "common_name": "Apple Species", "subtype_name": "Apple", "zip_code": null, "ownership": "public", "ownership_raw": "York Region", "city": "Aurora", "source_dataset": "Street Trees", "source_department": "York Region", "source_last_edit_at": ""}}, {"type": "Feature", "geometry": {"type": "Point", "coordinates": [-79.48806042393566, 43.995439270009925]}, "properties": {"id": "aurora-57277", "species_group": "crabapple", "scientific_name": "Malus sp.", "common_name": "Apple Species", "subtype_name": "Apple", "zip_code": null, "ownership": "public", "ownership_raw": "York Region", "city": "Aurora", "source_dataset": "Street Trees", "source_department": "York Region", "source_last_edit_at": ""}}, {"type": "Feature", "geometry": {"type": "Point", "coordinates": [-79.48847013183357, 43.995364016806334]}, "properties": {"id": "aurora-57279", "species_group": "crabapple", "scientific_name": "Malus sp.", "common_name": "Apple Species", "subtype_name": "Apple", "zip_code": null, "ownership": "public", "ownership_raw": "York Region", "city": "Aurora", "source_dataset": "Street Trees", "source_department": "York Region", "source_last_edit_at": ""}}, {"type": "Feature", "geometry": {"type": "Point", "coordinates": [-79.48882753596476, 43.99530178873441]}, "properties": {"id": "aurora-57280", "species_group": "crabapple", "scientific_name": "Malus sp.", "common_name": "Apple Species", "subtype_name": "Apple", "zip_code": null, "ownership": "public", "ownership_raw": "York Region", "city": "Aurora", "source_dataset": "Street Trees", "source_department": "York Region", "source_last_edit_at": ""}}, {"type": "Feature", "geometry": {"type": "Point", "coordinates": [-79.4889395189778, 43.99527959828516]}, "properties": {"id": "aurora-57281", "species_group": "crabapple", "scientific_name": "Malus sp.", "common_name": "Apple Species", "subtype_name": "Apple", "zip_code": null, "ownership": "public", "ownership_raw": "York Region", "city": "Aurora", "source_dataset": "Street Trees", "source_department": "York Region", "source_last_edit_at": ""}}, {"type": "Feature", "geometry": {"type": "Point", "coordinates": [-79.4443306689532, 44.006509595747474]}, "properties": {"id": "aurora-57309", "species_group": "crabapple", "scientific_name": "Malus sp.", "common_name": "Apple Species", "subtype_name": "Apple", "zip_code": null, "ownership": "public", "ownership_raw": "York Region", "city": "Aurora", "source_dataset": "Street Trees", "source_department": "York Region", "source_last_edit_at": ""}}, {"type": "Feature", "geometry": {"type": "Point", "coordinates": [-79.444353468383, 44.006597374976316]}, "properties": {"id": "aurora-57310", "species_group": "crabapple", "scientific_name": "Malus sp.", "common_name": "Apple Species", "subtype_name": "Apple", "zip_code": null, "ownership": "public", "ownership_raw": "York Region", "city": "Aurora", "source_dataset": "Street Trees", "source_department": "York Region", "source_last_edit_at": ""}}, {"type": "Feature", "geometry": {"type": "Point", "coordinates": [-79.47385362666324, 43.99838287708986]}, "properties": {"id": "aurora-57357", "species_group": "crabapple", "scientific_name": "Malus sp.", "common_name": "Apple Species", "subtype_name": "Apple", "zip_code": null, "ownership": "public", "ownership_raw": "York Region", "city": "Aurora", "source_dataset": "Street Trees", "source_department": "York Region", "source_last_edit_at": ""}}, {"type": "Feature", "geometry": {"type": "Point", "coordinates": [-79.47339334353808, 43.9984943779631]}, "properties": {"id": "aurora-57365", "species_group": "crabapple", "scientific_name": "Malus sp.", "common_name": "Apple Species", "subtype_name": "Apple", "zip_code": null, "ownership": "public", "ownership_raw": "York Region", "city": "Aurora", "source_dataset": "Street Trees", "source_department": "York Region", "source_last_edit_at": ""}}, {"type": "Feature", "geometry": {"type": "Point", "coordinates": [-79.47326142698164, 43.99851854478826]}, "properties": {"id": "aurora-57366", "species_group": "crabapple", "scientific_name": "Malus sp.", "common_name": "Apple Species", "subtype_name": "Apple", "zip_code": null, "ownership": "public", "ownership_raw": "York Region", "city": "Aurora", "source_dataset": "Street Trees", "source_department": "York Region", "source_last_edit_at": ""}}, {"type": "Feature", "geometry": {"type": "Point", "coordinates": [-79.47280829371626, 43.99862492768843]}, "properties": {"id": "aurora-57367", "species_group": "crabapple", "scientific_name": "Malus sp.", "common_name": "Apple Species", "subtype_name": "Apple", "zip_code": null, "ownership": "public", "ownership_raw": "York Region", "city": "Aurora", "source_dataset": "Street Trees", "source_department": "York Region", "source_last_edit_at": ""}}, {"type": "Feature", "geometry": {"type": "Point", "coordinates": [-79.47244714274102, 43.99867946017886]}, "properties": {"id": "aurora-57368", "species_group": "crabapple", "scientific_name": "Malus sp.", "common_name": "Apple Species", "subtype_name": "Apple", "zip_code": null, "ownership": "public", "ownership_raw": "York Region", "city": "Aurora", "source_dataset": "Street Trees", "source_department": "York Region", "source_last_edit_at": ""}}, {"type": "Feature", "geometry": {"type": "Point", "coordinates": [-79.44610428319542, 44.01456460013533]}, "properties": {"id": "aurora-57376", "species_group": "crabapple", "scientific_name": "Malus sp.", "common_name": "Apple Species", "subtype_name": "Apple", "zip_code": null, "ownership": "public", "ownership_raw": "York Region", "city": "Aurora", "source_dataset": "Street Trees", "source_department": "York Region", "source_last_edit_at": ""}}, {"type": "Feature", "geometry": {"type": "Point", "coordinates": [-79.44612708200368, 44.01465767197275]}, "properties": {"id": "aurora-57377", "species_group": "crabapple", "scientific_name": "Malus sp.", "common_name": "Apple Species", "subtype_name": "Apple", "zip_code": null, "ownership": "public", "ownership_raw": "York Region", "city": "Aurora", "source_dataset": "Street Trees", "source_department": "York Region", "source_last_edit_at": ""}}, {"type": "Feature", "geometry": {"type": "Point", "coordinates": [-79.44614585740003, 44.01474592089182]}, "properties": {"id": "aurora-57378", "species_group": "crabapple", "scientific_name": "Malus sp.", "common_name": "Apple Species", "subtype_name": "Apple", "zip_code": null, "ownership": "public", "ownership_raw": "York Region", "city": "Aurora", "source_dataset": "Street Trees", "source_department": "York Region", "source_last_edit_at": ""}}, {"type": "Feature", "geometry": {"type": "Point", "coordinates": [-79.44615993905379, 44.01483079362136]}, "properties": {"id": "aurora-57379", "species_group": "crabapple", "scientific_name": "Malus sp.", "common_name": "Apple Species", "subtype_name": "Apple", "zip_code": null, "ownership": "public", "ownership_raw": "York Region", "city": "Aurora", "source_dataset": "Street Trees", "source_department": "York Region", "source_last_edit_at": ""}}, {"type": "Feature", "geometry": {"type": "Point", "coordinates": [-79.44617476996073, 44.01492581523289]}, "properties": {"id": "aurora-57380", "species_group": "crabapple", "scientific_name": "Malus sp.", "common_name": "Apple Species", "subtype_name": "Apple", "zip_code": null, "ownership": "public", "ownership_raw": "York Region", "city": "Aurora", "source_dataset": "Street Trees", "source_department": "York Region", "source_last_edit_at": ""}}, {"type": "Feature", "geometry": {"type": "Point", "coordinates": [-79.44747421824633, 44.02067407884977]}, "properties": {"id": "aurora-57391", "species_group": "crabapple", "scientific_name": "Malus sp.", "common_name": "Apple Species", "subtype_name": "Apple", "zip_code": null, "ownership": "public", "ownership_raw": "York Region", "city": "Aurora", "source_dataset": "Street Trees", "source_department": "York Region", "source_last_edit_at": ""}}, {"type": "Feature", "geometry": {"type": "Point", "coordinates": [-79.44744806694972, 44.02059982204339]}, "properties": {"id": "aurora-57392", "species_group": "crabapple", "scientific_name": "Malus sp.", "common_name": "Apple Species", "subtype_name": "Apple", "zip_code": null, "ownership": "public", "ownership_raw": "York Region", "city": "Aurora", "source_dataset": "Street Trees", "source_department": "York Region", "source_last_edit_at": ""}}, {"type": "Feature", "geometry": {"type": "Point", "coordinates": [-79.44743666687465, 44.02053279824384]}, "properties": {"id": "aurora-57393", "species_group": "crabapple", "scientific_name": "Malus sp.", "common_name": "Apple Species", "subtype_name": "Apple", "zip_code": null, "ownership": "public", "ownership_raw": "York Region", "city": "Aurora", "source_dataset": "Street Trees", "source_department": "York Region", "source_last_edit_at": ""}}, {"type": "Feature", "geometry": {"type": "Point", "coordinates": [-79.44741252700238, 44.02044745051542]}, "properties": {"id": "aurora-57394", "species_group": "crabapple", "scientific_name": "Malus sp.", "common_name": "Apple Species", "subtype_name": "Apple", "zip_code": null, "ownership": "public", "ownership_raw": "York Region", "city": "Aurora", "source_dataset": "Street Trees", "source_department": "York Region", "source_last_edit_at": ""}}, {"type": "Feature", "geometry": {"type": "Point", "coordinates": [-79.44690007620534, 44.01819698248486]}, "properties": {"id": "aurora-57464", "species_group": "crabapple", "scientific_name": "Malus sp.", "common_name": "Apple Species", "subtype_name": "Apple", "zip_code": null, "ownership": "public", "ownership_raw": "York Region", "city": "Aurora", "source_dataset": "Street Trees", "source_department": "York Region", "source_last_edit_at": ""}}, {"type": "Feature", "geometry": {"type": "Point", "coordinates": [-79.44688480307023, 44.018093358591685]}, "properties": {"id": "aurora-57465", "species_group": "crabapple", "scientific_name": "Malus sp.", "common_name": "Apple Species", "subtype_name": "Apple", "zip_code": null, "ownership": "public", "ownership_raw": "York Region", "city": "Aurora", "source_dataset": "Street Trees", "source_department": "York Region", "source_last_edit_at": ""}}, {"type": "Feature", "geometry": {"type": "Point", "coordinates": [-79.44685769010123, 44.01800821698355]}, "properties": {"id": "aurora-57466", "species_group": "crabapple", "scientific_name": "Malus sp.", "common_name": "Apple Species", "subtype_name": "Apple", "zip_code": null, "ownership": "public", "ownership_raw": "York Region", "city": "Aurora", "source_dataset": "Street Trees", "source_department": "York Region", "source_last_edit_at": ""}}, {"type": "Feature", "geometry": {"type": "Point", "coordinates": [-79.44683342521981, 44.0179260996076]}, "properties": {"id": "aurora-57467", "species_group": "crabapple", "scientific_name": "Malus sp.", "common_name": "Apple Species", "subtype_name": "Apple", "zip_code": null, "ownership": "public", "ownership_raw": "York Region", "city": "Aurora", "source_dataset": "Street Trees", "source_department": "York Region", "source_last_edit_at": ""}}, {"type": "Feature", "geometry": {"type": "Point", "coordinates": [-79.44681975923906, 44.01783537686575]}, "properties": {"id": "aurora-57468", "species_group": "crabapple", "scientific_name": "Malus sp.", "common_name": "Apple Species", "subtype_name": "Apple", "zip_code": null, "ownership": "public", "ownership_raw": "York Region", "city": "Aurora", "source_dataset": "Street Trees", "source_department": "York Region", "source_last_edit_at": ""}}, {"type": "Feature", "geometry": {"type": "Point", "coordinates": [-79.44660891060072, 44.0168935939153]}, "properties": {"id": "aurora-57504", "species_group": "crabapple", "scientific_name": "Malus sp.", "common_name": "Apple Species", "subtype_name": "Apple", "zip_code": null, "ownership": "public", "ownership_raw": "York Region", "city": "Aurora", "source_dataset": "Street Trees", "source_department": "York Region", "source_last_edit_at": ""}}, {"type": "Feature", "geometry": {"type": "Point", "coordinates": [-79.4465713599227, 44.01671083264395]}, "properties": {"id": "aurora-57505", "species_group": "crabapple", "scientific_name": "Malus sp.", "common_name": "Apple Species", "subtype_name": "Apple", "zip_code": null, "ownership": "public", "ownership_raw": "York Region", "city": "Aurora", "source_dataset": "Street Trees", "source_department": "York Region", "source_last_edit_at": ""}}, {"type": "Feature", "geometry": {"type": "Point", "coordinates": [-79.44655660832552, 44.016642357713685]}, "properties": {"id": "aurora-57506", "species_group": "crabapple", "scientific_name": "Malus sp.", "common_name": "Apple Species", "subtype_name": "Apple", "zip_code": null, "ownership": "public", "ownership_raw": "York Region", "city": "Aurora", "source_dataset": "Street Trees", "source_department": "York Region", "source_last_edit_at": ""}}, {"type": "Feature", "geometry": {"type": "Point", "coordinates": [-79.42124037980672, 44.021542218341914]}, "properties": {"id": "aurora-62546", "species_group": "crabapple", "scientific_name": "Malus sp.", "common_name": "Apple Species", "subtype_name": "Apple", "zip_code": null, "ownership": "public", "ownership_raw": "York Region", "city": "Aurora", "source_dataset": "Street Trees", "source_department": "York Region", "source_last_edit_at": ""}}, {"type": "Feature", "geometry": {"type": "Point", "coordinates": [-79.43837132020076, 44.025735527456646]}, "properties": {"id": "aurora-63306", "species_group": "cherry", "scientific_name": "Prunus maackii 'Goldrush'", "common_name": "Goldrush Amur Cherry", "subtype_name": "Goldrush Amur Cherry", "zip_code": null, "ownership": "public", "ownership_raw": "York Region", "city": "Aurora", "source_dataset": "Street Trees", "source_department": "York Region", "source_last_edit_at": ""}}, {"type": "Feature", "geometry": {"type": "Point", "coordinates": [-79.42122495696867, 44.0214875411902]}, "properties": {"id": "aurora-74249", "species_group": "crabapple", "scientific_name": "Malus 'Hargozam'", "common_name": "Harvest Gold Crabapple", "subtype_name": "Harvest Gold Crabapple", "zip_code": null, "ownership": "public", "ownership_raw": "York Region", "city": "Aurora", "source_dataset": "Street Trees", "source_department": "York Region", "source_last_edit_at": ""}}, {"type": "Feature", "geometry": {"type": "Point", "coordinates": [-79.42121691027675, 44.02143353679405]}, "properties": {"id": "aurora-74250", "species_group": "crabapple", "scientific_name": "Malus 'Hargozam'", "common_name": "Harvest Gold Crabapple", "subtype_name": "Harvest Gold Crabapple", "zip_code": null, "ownership": "public", "ownership_raw": "York Region", "city": "Aurora", "source_dataset": "Street Trees", "source_department": "York Region", "source_last_edit_at": ""}}, {"type": "Feature", "geometry": {"type": "Point", "coordinates": [-79.4212061809196, 44.02138339017124]}, "properties": {"id": "aurora-74251", "species_group": "crabapple", "scientific_name": "Malus 'Hargozam'", "common_name": "Harvest Gold Crabapple", "subtype_name": "Harvest Gold Crabapple", "zip_code": null, "ownership": "public", "ownership_raw": "York Region", "city": "Aurora", "source_dataset": "Street Trees", "source_department": "York Region", "source_last_edit_at": ""}}, {"type": "Feature", "geometry": {"type": "Point", "coordinates": [-79.42119277033419, 44.021329385465414]}, "properties": {"id": "aurora-74252", "species_group": "crabapple", "scientific_name": "Malus 'Hargozam'", "common_name": "Harvest Gold Crabapple", "subtype_name": "Harvest Gold Crabapple", "zip_code": null, "ownership": "public", "ownership_raw": "York Region", "city": "Aurora", "source_dataset": "Street Trees", "source_department": "York Region", "source_last_edit_at": ""}}, {"type": "Feature", "geometry": {"type": "Point", "coordinates": [-79.42117399454878, 44.021277309850234]}, "properties": {"id": "aurora-74253", "species_group": "crabapple", "scientific_name": "Malus 'Hargozam'", "common_name": "Harvest Gold Crabapple", "subtype_name": "Harvest Gold Crabapple", "zip_code": null, "ownership": "public", "ownership_raw": "York Region", "city": "Aurora", "source_dataset": "Street Trees", "source_department": "York Region", "source_last_edit_at": ""}}, {"type": "Feature", "geometry": {"type": "Point", "coordinates": [-79.47315795569432, 43.99854117122999]}, "properties": {"id": "aurora-7522", "species_group": "crabapple", "scientific_name": "Malus sp.", "common_name": "Apple Species", "subtype_name": "Apple", "zip_code": null, "ownership": "public", "ownership_raw": "York Region", "city": "Aurora", "source_dataset": "Street Trees", "source_department": "York Region", "source_last_edit_at": ""}}]}