{"type": "FeatureCollection", "features": [{"type": "Feature", "geometry": {"type": "Point", "coordinates": [-80.10102354034304, 43.924735234745214]}, "properties": {"id": "orangeville-1000", "species_group": "crabapple", "scientific_name": "Malus spp. (apple species)", "common_name": null, "subtype_name": "Malus spp. (apple species)", "zip_code": null, "ownership": "public", "ownership_raw": "Town of Orangeville", "city": "Orangeville", "source_dataset": "Street Tree", "source_department": "Town of Orangeville", "source_last_edit_at": ""}}, {"type": "Feature", "geometry": {"type": "Point", "coordinates": [-80.12161947155337, 43.92172250873643]}, "properties": {"id": "orangeville-114", "species_group": "crabapple", "scientific_name": "Malus spp. (apple species)", "common_name": null, "subtype_name": "Malus spp. (apple species)", "zip_code": null, "ownership": "public", "ownership_raw": "Town of Orangeville", "city": "Orangeville", "source_dataset": "Street Tree", "source_department": "Town of Orangeville", "source_last_edit_at": ""}}, {"type": "Feature", "geometry": {"type": "Point", "coordinates": [-80.12763141104348, 43.90804756653751]}, "properties": {"id": "orangeville-1187", "species_group": "crabapple", "scientific_name": "Malus spp. (apple species)", "common_name": null, "subtype_name": "Malus spp. (apple species)", "zip_code": null, "ownership": "public", "ownership_raw": "Town of Orangeville", "city": "Orangeville", "source_dataset": "Street Tree", "source_department": "Town of Orangeville", "source_last_edit_at": ""}}, {"type": "Feature", "geometry": {"type": "Point", "coordinates": [-80.10176134230026, 43.92147359912324]}, "properties": {"id": "orangeville-1225", "species_group": "crabapple", "scientific_name": "Malus spp. (apple species)", "common_name": null, "subtype_name": "Malus spp. (apple species)", "zip_code": null, "ownership": "public", "ownership_raw": "Town of Orangeville", "city": "Orangeville", "source_dataset": "Street Tree", "source_department": "Town of Orangeville", "source_last_edit_at": ""}}, {"type": "Feature", "geometry": {"type": "Point", "coordinates": [-80.11113047012331, 43.92631951526776]}, "properties": {"id": "orangeville-1256", "species_group": "magnolia", "scientific_name": "Magnolia x soulangiana (saucer magnolia)", "common_name": null, "subtype_name": "Saucer Magnolia", "zip_code": null, "ownership": "public", "ownership_raw": "Town of Orangeville", "city": "Orangeville", "source_dataset": "Street Tree", "source_department": "Town of Orangeville", "source_last_edit_at": ""}}, {"type": "Feature", "geometry": {"type": "Point", "coordinates": [-80.12081837693431, 43.930268406378424]}, "properties": {"id": "orangeville-1292", "species_group": "crabapple", "scientific_name": "Malus sylvestris (apple crab)", "common_name": null, "subtype_name": "Malus sylvestris (apple crab)", "zip_code": null, "ownership": "public", "ownership_raw": "Town of Orangeville", "city": "Orangeville", "source_dataset": "Street Tree", "source_department": "Town of Orangeville", "source_last_edit_at": ""}}, {"type": "Feature", "geometry": {"type": "Point", "coordinates": [-80.09809573478357, 43.922446447203754]}, "properties": {"id": "orangeville-1332", "species_group": "crabapple", "scientific_name": "Malus sylvestris (apple crab)", "common_name": null, "subtype_name": "Malus sylvestris (apple crab)", "zip_code": null, "ownership": "public", "ownership_raw": "Town of Orangeville", "city": "Orangeville", "source_dataset": "Street Tree", "source_department": "Town of Orangeville", "source_last_edit_at": ""}}, {"type": "Feature", "geometry": {"type": "Point", "coordinates": [-80.10860184398231, 43.91849217213075]}, "properties": {"id": "orangeville-1380", "species_group": "crabapple", "scientific_name": "Malus sylvestris (apple crab)", "common_name": null, "subtype_name": "Malus sylvestris (apple crab)", "zip_code": null, "ownership": "public", "ownership_raw": "Town of Orangeville", "city": "Orangeville", "source_dataset": "Street Tree", "source_department": "Town of Orangeville", "source_last_edit_at": ""}}, {"type": "Feature", "geometry": {"type": "Point", "coordinates": [-80.11845863318217, 43.930359759283235]}, "properties": {"id": "orangeville-1573", "species_group": "crabapple", "scientific_name": "Malus sylvestris (apple crab)", "common_name": null, "subtype_name": "Malus sylvestris (apple crab)", "zip_code": null, "ownership": "public", "ownership_raw": "Town of Orangeville", "city": "Orangeville", "source_dataset": "Street Tree", "source_department": "Town of Orangeville", "source_last_edit_at": ""}}, {"type": "Feature", "geometry": {"type": "Point", "coordinates": [-80.08714476233547, 43.92171308921012]}, "properties": {"id": "orangeville-2022", "species_group": "crabapple", "scientific_name": "Malus spp. (apple species)", "common_name": null, "subtype_name": "Malus spp. (apple species)", "zip_code": null, "ownership": "public", "ownership_raw": "Town of Orangeville", "city": "Orangeville", "source_dataset": "Street Tree", "source_department": "Town of Orangeville", "source_last_edit_at": ""}}, {"type": "Feature", "geometry": {"type": "Point", "coordinates": [-80.12417598337964, 43.907291374212285]}, "properties": {"id": "orangeville-2053", "species_group": "crabapple", "scientific_name": "Malus spp. (apple species)", "common_name": null, "subtype_name": "Malus spp. (apple species)", "zip_code": null, "ownership": "public", "ownership_raw": "Town of Orangeville", "city": "Orangeville", "source_dataset": "Street Tree", "source_department": "Town of Orangeville", "source_last_edit_at": ""}}, {"type": "Feature", "geometry": {"type": "Point", "coordinates": [-80.11049883278669, 43.92508153911343]}, "properties": {"id": "orangeville-2082", "species_group": "crabapple", "scientific_name": "Malus sylvestris (apple crab)", "common_name": null, "subtype_name": "Malus sylvestris (apple crab)", "zip_code": null, "ownership": "public", "ownership_raw": "Town of Orangeville", "city": "Orangeville", "source_dataset": "Street Tree", "source_department": "Town of Orangeville", "source_last_edit_at": ""}}, {"type": "Feature", "geometry": {"type": "Point", "coordinates": [-80.11907725048765, 43.930955963718596]}, "properties": {"id": "orangeville-2270", "species_group": "crabapple", "scientific_name": "Malus sylvestris (apple crab)", "common_name": null, "subtype_name": "Malus sylvestris (apple crab)", "zip_code": null, "ownership": "public", "ownership_raw": "Town of Orangeville", "city": "Orangeville", "source_dataset": "Street Tree", "source_department": "Town of Orangeville", "source_last_edit_at": ""}}, {"type": "Feature", "geometry": {"type": "Point", "coordinates": [-80.09855513800372, 43.910187113882365]}, "properties": {"id": "orangeville-2286", "species_group": "crabapple", "scientific_name": "Malus sylvestris (apple crab)", "common_name": null, "subtype_name": "Malus sylvestris (apple crab)", "zip_code": null, "ownership": "public", "ownership_raw": "Town of Orangeville", "city": "Orangeville", "source_dataset": "Street Tree", "source_department": "Town of Orangeville", "source_last_edit_at": ""}}, {"type": "Feature", "geometry": {"type": "Point", "coordinates": [-80.1210961647315, 43.93050445952593]}, "properties": {"id": "orangeville-237", "species_group": "magnolia", "scientific_name": "Magnolia x soulangiana (saucer magnolia)", "common_name": null, "subtype_name": "Saucer Magnolia", "zip_code": null, "ownership": "public", "ownership_raw": "Town of Orangeville", "city": "Orangeville", "source_dataset": "Street Tree", "source_department": "Town of Orangeville", "source_last_edit_at": ""}}, {"type": "Feature", "geometry": {"type": "Point", "coordinates": [-80.09516494120469, 43.923286621831544]}, "properties": {"id": "orangeville-2401", "species_group": "crabapple", "scientific_name": "Malus spp. (apple species)", "common_name": null, "subtype_name": "Malus spp. (apple species)", "zip_code": null, "ownership": "public", "ownership_raw": "Town of Orangeville", "city": "Orangeville", "source_dataset": "Street Tree", "source_department": "Town of Orangeville", "source_last_edit_at": ""}}, {"type": "Feature", "geometry": {"type": "Point", "coordinates": [-80.09605785974702, 43.927458447144026]}, "properties": {"id": "orangeville-2429", "species_group": "crabapple", "scientific_name": "Malus sylvestris (apple crab)", "common_name": null, "subtype_name": "Malus sylvestris (apple crab)", "zip_code": null, "ownership": "public", "ownership_raw": "Town of Orangeville", "city": "Orangeville", "source_dataset": "Street Tree", "source_department": "Town of Orangeville", "source_last_edit_at": ""}}, {"type": "Feature", "geometry": {"type": "Point", "coordinates": [-80.12506191900354, 43.90789781591556]}, "properties": {"id": "orangeville-2455", "species_group": "crabapple", "scientific_name": "Malus spp. (apple species)", "common_name": null, "subtype_name": "Malus spp. (apple species)", "zip_code": null, "ownership": "public", "ownership_raw": "Town of Orangeville", "city": "Orangeville", "source_dataset": "Street Tree", "source_department": "Town of Orangeville", "source_last_edit_at": ""}}, {"type": "Feature", "geometry": {"type": "Point", "coordinates": [-80.12602863322823, 43.912110069269794]}, "properties": {"id": "orangeville-2515", "species_group": "crabapple", "scientific_name": "Malus sylvestris (apple crab)", "common_name": null, "subtype_name": "Malus sylvestris (apple crab)", "zip_code": null, "ownership": "public", "ownership_raw": "Town of Orangeville", "city": "Orangeville", "source_dataset": "Street Tree", "source_department": "Town of Orangeville", "source_last_edit_at": ""}}, {"type": "Feature", "geometry": {"type": "Point", "coordinates": [-80.09491795650321, 43.92840101755097]}, "properties": {"id": "orangeville-2657", "species_group": "crabapple", "scientific_name": "Malus sylvestris (apple crab)", "common_name": null, "subtype_name": "Malus sylvestris (apple crab)", "zip_code": null, "ownership": "public", "ownership_raw": "Town of Orangeville", "city": "Orangeville", "source_dataset": "Street Tree", "source_department": "Town of Orangeville", "source_last_edit_at": ""}}, {"type": "Feature", "geometry": {"type": "Point", "coordinates": [-80.10294170741214, 43.91549319080411]}, "properties": {"id": "orangeville-2764", "species_group": "crabapple", "scientific_name": "Malus spp. (apple species)", "common_name": null, "subtype_name": "Malus spp. (apple species)", "zip_code": null, "ownership": "public", "ownership_raw": "Town of Orangeville", "city": "Orangeville", "source_dataset": "Street Tree", "source_department": "Town of Orangeville", "source_last_edit_at": ""}}, {"type": "Feature", "geometry": {"type": "Point", "coordinates": [-80.12583042513475, 43.91197207473878]}, "properties": {"id": "orangeville-2813", "species_group": "crabapple", "scientific_name": "Malus sylvestris (apple crab)", "common_name": null, "subtype_name": "Malus sylvestris (apple crab)", "zip_code": null, "ownership": "public", "ownership_raw": "Town of Orangeville", "city": "Orangeville", "source_dataset": "Street Tree", "source_department": "Town of Orangeville", "source_last_edit_at": ""}}, {"type": "Feature", "geometry": {"type": "Point", "coordinates": [-80.10747907935475, 43.91825389551004]}, "properties": {"id": "orangeville-3308", "species_group": "cherry", "scientific_name": "Prunus serrulata (flowering cherry)", "common_name": null, "subtype_name": "Prunus serrulata (flowering cherry)", "zip_code": null, "ownership": "public", "ownership_raw": "Town of Orangeville", "city": "Orangeville", "source_dataset": "Street Tree", "source_department": "Town of Orangeville", "source_last_edit_at": ""}}, {"type": "Feature", "geometry": {"type": "Point", "coordinates": [-80.08895728489453, 43.915242805045914]}, "properties": {"id": "orangeville-3478", "species_group": "crabapple", "scientific_name": "Malus spp. (apple species)", "common_name": null, "subtype_name": "Malus spp. (apple species)", "zip_code": null, "ownership": "public", "ownership_raw": "Town of Orangeville", "city": "Orangeville", "source_dataset": "Street Tree", "source_department": "Town of Orangeville", "source_last_edit_at": ""}}, {"type": "Feature", "geometry": {"type": "Point", "coordinates": [-80.11335532005565, 43.91696259249868]}, "properties": {"id": "orangeville-3554", "species_group": "crabapple", "scientific_name": "Malus spp. (apple species)", "common_name": null, "subtype_name": "Malus spp. (apple species)", "zip_code": null, "ownership": "public", "ownership_raw": "Town of Orangeville", "city": "Orangeville", "source_dataset": "Street Tree", "source_department": "Town of Orangeville", "source_last_edit_at": ""}}, {"type": "Feature", "geometry": {"type": "Point", "coordinates": [-80.11332867976317, 43.92387442964941]}, "properties": {"id": "orangeville-3571", "species_group": "crabapple", "scientific_name": "Malus spp. (apple species)", "common_name": null, "subtype_name": "Malus spp. (apple species)", "zip_code": null, "ownership": "public", "ownership_raw": "Town of Orangeville", "city": "Orangeville", "source_dataset": "Street Tree", "source_department": "Town of Orangeville", "source_last_edit_at": ""}}, {"type": "Feature", "geometry": {"type": "Point", "coordinates": [-80.0919724975061, 43.91806261752549]}, "properties": {"id": "orangeville-3639", "species_group": "crabapple", "scientific_name": "Malus spp. (apple species)", "common_name": null, "subtype_name": "Malus spp. (apple species)", "zip_code": null, "ownership": "public", "ownership_raw": "Town of Orangeville", "city": "Orangeville", "source_dataset": "Street Tree", "source_department": "Town of Orangeville", "source_last_edit_at": ""}}, {"type": "Feature", "geometry": {"type": "Point", "coordinates": [-80.1048348590742, 43.91883008504531]}, "properties": {"id": "orangeville-3661", "species_group": "crabapple", "scientific_name": "Malus spp. (apple species)", "common_name": null, "subtype_name": "Malus spp. (apple species)", "zip_code": null, "ownership": "public", "ownership_raw": "Town of Orangeville", "city": "Orangeville", "source_dataset": "Street Tree", "source_department": "Town of Orangeville", "source_last_edit_at": ""}}, {"type": "Feature", "geometry": {"type": "Point", "coordinates": [-80.09388220712249, 43.92237303193536]}, "properties": {"id": "orangeville-3695", "species_group": "crabapple", "scientific_name": "Malus spp. (apple species)", "common_name": null, "subtype_name": "Malus spp. (apple species)", "zip_code": null, "ownership": "public", "ownership_raw": "Town of Orangeville", "city": "Orangeville", "source_dataset": "Street Tree", "source_department": "Town of Orangeville", "source_last_edit_at": ""}}, {"type": "Feature", "geometry": {"type": "Point", "coordinates": [-80.06990927398141, 43.9226894510706]}, "properties": {"id": "orangeville-3953", "species_group": "magnolia", "scientific_name": "Magnolia x soulangiana (saucer magnolia)", "common_name": null, "subtype_name": "Saucer Magnolia", "zip_code": null, "ownership": "public", "ownership_raw": "Town of Orangeville", "city": "Orangeville", "source_dataset": "Street Tree", "source_department": "Town of Orangeville", "source_last_edit_at": ""}}, {"type": "Feature", "geometry": {"type": "Point", "coordinates": [-80.09634389844061, 43.92608760826346]}, "properties": {"id": "orangeville-396", "species_group": "magnolia", "scientific_name": "Magnolia x soulangiana (saucer magnolia)", "common_name": null, "subtype_name": "Saucer Magnolia", "zip_code": null, "ownership": "public", "ownership_raw": "Town of Orangeville", "city": "Orangeville", "source_dataset": "Street Tree", "source_department": "Town of Orangeville", "source_last_edit_at": ""}}, {"type": "Feature", "geometry": {"type": "Point", "coordinates": [-80.1003859200961, 43.91957820876166]}, "properties": {"id": "orangeville-398", "species_group": "crabapple", "scientific_name": "Malus spp. (apple species)", "common_name": null, "subtype_name": "Malus spp. (apple species)", "zip_code": null, "ownership": "public", "ownership_raw": "Town of Orangeville", "city": "Orangeville", "source_dataset": "Street Tree", "source_department": "Town of Orangeville", "source_last_edit_at": ""}}, {"type": "Feature", "geometry": {"type": "Point", "coordinates": [-80.11429115268221, 43.91798034627732]}, "properties": {"id": "orangeville-3982", "species_group": "crabapple", "scientific_name": "Malus spp. (apple species)", "common_name": null, "subtype_name": "Malus spp. (apple species)", "zip_code": null, "ownership": "public", "ownership_raw": "Town of Orangeville", "city": "Orangeville", "source_dataset": "Street Tree", "source_department": "Town of Orangeville", "source_last_edit_at": ""}}, {"type": "Feature", "geometry": {"type": "Point", "coordinates": [-80.11019936215595, 43.93074033216096]}, "properties": {"id": "orangeville-4041", "species_group": "crabapple", "scientific_name": "Malus spp. (apple species)", "common_name": null, "subtype_name": "Malus spp. (apple species)", "zip_code": null, "ownership": "public", "ownership_raw": "Town of Orangeville", "city": "Orangeville", "source_dataset": "Street Tree", "source_department": "Town of Orangeville", "source_last_edit_at": ""}}, {"type": "Feature", "geometry": {"type": "Point", "coordinates": [-80.10891972382338, 43.92195528142739]}, "properties": {"id": "orangeville-4092", "species_group": "crabapple", "scientific_name": "Malus sylvestris (apple crab)", "common_name": null, "subtype_name": "Malus sylvestris (apple crab)", "zip_code": null, "ownership": "public", "ownership_raw": "Town of Orangeville", "city": "Orangeville", "source_dataset": "Street Tree", "source_department": "Town of Orangeville", "source_last_edit_at": ""}}, {"type": "Feature", "geometry": {"type": "Point", "coordinates": [-80.0894685118729, 43.921111456312914]}, "properties": {"id": "orangeville-4300", "species_group": "crabapple", "scientific_name": "Malus spp. (apple species)", "common_name": null, "subtype_name": "Malus spp. (apple species)", "zip_code": null, "ownership": "public", "ownership_raw": "Town of Orangeville", "city": "Orangeville", "source_dataset": "Street Tree", "source_department": "Town of Orangeville", "source_last_edit_at": ""}}, {"type": "Feature", "geometry": {"type": "Point", "coordinates": [-80.09236415643352, 43.91867755107561]}, "properties": {"id": "orangeville-4382", "species_group": "crabapple", "scientific_name": "Malus spp. (apple species)", "common_name": null, "subtype_name": "Malus spp. (apple species)", "zip_code": null, "ownership": "public", "ownership_raw": "Town of Orangeville", "city": "Orangeville", "source_dataset": "Street Tree", "source_department": "Town of Orangeville", "source_last_edit_at": ""}}, {"type": "Feature", "geometry": {"type": "Point", "coordinates": [-80.09630086680917, 43.927613339442914]}, "properties": {"id": "orangeville-4486", "species_group": "crabapple", "scientific_name": "Malus spp. (apple species)", "common_name": null, "subtype_name": "Malus spp. (apple species)", "zip_code": null, "ownership": "public", "ownership_raw": "Town of Orangeville", "city": "Orangeville", "source_dataset": "Street Tree", "source_department": "Town of Orangeville", "source_last_edit_at": ""}}, {"type": "Feature", "geometry": {"type": "Point", "coordinates": [-80.09145009164517, 43.91643006323351]}, "properties": {"id": "orangeville-4541", "species_group": "crabapple", "scientific_name": "Malus sylvestris (apple crab)", "common_name": null, "subtype_name": "Malus sylvestris (apple crab)", "zip_code": null, "ownership": "public", "ownership_raw": "Town of Orangeville", "city": "Orangeville", "source_dataset": "Street Tree", "source_department": "Town of Orangeville", "source_last_edit_at": ""}}, {"type": "Feature", "geometry": {"type": "Point", "coordinates": [-80.10747282921812, 43.9198540271115]}, "properties": {"id": "orangeville-4571", "species_group": "crabapple", "scientific_name": "Malus spp. (apple species)", "common_name": null, "subtype_name": "Malus spp. (apple species)", "zip_code": null, "ownership": "public", "ownership_raw": "Town of Orangeville", "city": "Orangeville", "source_dataset": "Street Tree", "source_department": "Town of Orangeville", "source_last_edit_at": ""}}, {"type": "Feature", "geometry": {"type": "Point", "coordinates": [-80.08972204314006, 43.92121092063422]}, "properties": {"id": "orangeville-4942", "species_group": "crabapple", "scientific_name": "Malus spp. (apple species)", "common_name": null, "subtype_name": "Malus spp. (apple species)", "zip_code": null, "ownership": "public", "ownership_raw": "Town of Orangeville", "city": "Orangeville", "source_dataset": "Street Tree", "source_department": "Town of Orangeville", "source_last_edit_at": ""}}, {"type": "Feature", "geometry": {"type": "Point", "coordinates": [-80.12586197458928, 43.91199417626625]}, "properties": {"id": "orangeville-4993", "species_group": "crabapple", "scientific_name": "Malus sylvestris (apple crab)", "common_name": null, "subtype_name": "Malus sylvestris (apple crab)", "zip_code": null, "ownership": "public", "ownership_raw": "Town of Orangeville", "city": "Orangeville", "source_dataset": "Street Tree", "source_department": "Town of Orangeville", "source_last_edit_at": ""}}, {"type": "Feature", "geometry": {"type": "Point", "coordinates": [-80.11387369926237, 43.916847796211115]}, "properties": {"id": "orangeville-5111", "species_group": "crabapple", "scientific_name": "Malus spp. (apple species)", "common_name": null, "subtype_name": "Malus spp. (apple species)", "zip_code": null, "ownership": "public", "ownership_raw": "Town of Orangeville", "city": "Orangeville", "source_dataset": "Street Tree", "source_department": "Town of Orangeville", "source_last_edit_at": ""}}, {"type": "Feature", "geometry": {"type": "Point", "coordinates": [-80.114209436082, 43.91751619348248]}, "properties": {"id": "orangeville-5288", "species_group": "crabapple", "scientific_name": "Malus spp. (apple species)", "common_name": null, "subtype_name": "Malus spp. (apple species)", "zip_code": null, "ownership": "public", "ownership_raw": "Town of Orangeville", "city": "Orangeville", "source_dataset": "Street Tree", "source_department": "Town of Orangeville", "source_last_edit_at": ""}}, {"type": "Feature", "geometry": {"type": "Point", "coordinates": [-80.11527924180231, 43.919117002124885]}, "properties": {"id": "orangeville-5323", "species_group": "crabapple", "scientific_name": "Malus spp. (apple species)", "common_name": null, "subtype_name": "Malus spp. (apple species)", "zip_code": null, "ownership": "public", "ownership_raw": "Town of Orangeville", "city": "Orangeville", "source_dataset": "Street Tree", "source_department": "Town of Orangeville", "source_last_edit_at": ""}}, {"type": "Feature", "geometry": {"type": "Point", "coordinates": [-80.06975921693635, 43.91727694684447]}, "properties": {"id": "orangeville-5420", "species_group": "crabapple", "scientific_name": "Malus sylvestris (apple crab)", "common_name": null, "subtype_name": "Malus sylvestris (apple crab)", "zip_code": null, "ownership": "public", "ownership_raw": "Town of Orangeville", "city": "Orangeville", "source_dataset": "Street Tree", "source_department": "Town of Orangeville", "source_last_edit_at": ""}}, {"type": "Feature", "geometry": {"type": "Point", "coordinates": [-80.13583739751844, 43.90476035951304]}, "properties": {"id": "orangeville-5531", "species_group": "crabapple", "scientific_name": "Malus sylvestris (apple crab)", "common_name": null, "subtype_name": "Malus sylvestris (apple crab)", "zip_code": null, "ownership": "public", "ownership_raw": "Town of Orangeville", "city": "Orangeville", "source_dataset": "Street Tree", "source_department": "Town of Orangeville", "source_last_edit_at": ""}}, {"type": "Feature", "geometry": {"type": "Point", "coordinates": [-80.11144191750486, 43.92158700080757]}, "properties": {"id": "orangeville-5698", "species_group": "crabapple", "scientific_name": "Malus spp. (apple species)", "common_name": null, "subtype_name": "Malus spp. (apple species)", "zip_code": null, "ownership": "public", "ownership_raw": "Town of Orangeville", "city": "Orangeville", "source_dataset": "Street Tree", "source_department": "Town of Orangeville", "source_last_edit_at": ""}}, {"type": "Feature", "geometry": {"type": "Point", "coordinates": [-80.09764493555758, 43.90955703449914]}, "properties": {"id": "orangeville-5708", "species_group": "crabapple", "scientific_name": "Malus sylvestris (apple crab)", "common_name": null, "subtype_name": "Malus sylvestris (apple crab)", "zip_code": null, "ownership": "public", "ownership_raw": "Town of Orangeville", "city": "Orangeville", "source_dataset": "Street Tree", "source_department": "Town of Orangeville", "source_last_edit_at": ""}}, {"type": "Feature", "geometry": {"type": "Point", "coordinates": [-80.11074950519928, 43.92070855575584]}, "properties": {"id": "orangeville-5763", "species_group": "crabapple", "scientific_name": "Malus sylvestris (apple crab)", "common_name": null, "subtype_name": "Malus sylvestris (apple crab)", "zip_code": null, "ownership": "public", "ownership_raw": "Town of Orangeville", "city": "Orangeville", "source_dataset": "Street Tree", "source_department": "Town of Orangeville", "source_last_edit_at": ""}}, {"type": "Feature", "geometry": {"type": "Point", "coordinates": [-80.09052488160721, 43.91775689526022]}, "properties": {"id": "orangeville-5918", "species_group": "crabapple", "scientific_name": "Malus sylvestris (apple crab)", "common_name": null, "subtype_name": "Malus sylvestris (apple crab)", "zip_code": null, "ownership": "public", "ownership_raw": "Town of Orangeville", "city": "Orangeville", "source_dataset": "Street Tree", "source_department": "Town of Orangeville", "source_last_edit_at": ""}}, {"type": "Feature", "geometry": {"type": "Point", "coordinates": [-80.09618246967537, 43.92706298547151]}, "properties": {"id": "orangeville-6046", "species_group": "cherry", "scientific_name": "Prunus serrulata (flowering cherry)", "common_name": null, "subtype_name": "Prunus serrulata (flowering cherry)", "zip_code": null, "ownership": "public", "ownership_raw": "Town of Orangeville", "city": "Orangeville", "source_dataset": "Street Tree", "source_department": "Town of Orangeville", "source_last_edit_at": ""}}, {"type": "Feature", "geometry": {"type": "Point", "coordinates": [-80.0930431259188, 43.90991383971131]}, "properties": {"id": "orangeville-6243", "species_group": "crabapple", "scientific_name": "Malus spp. (apple species)", "common_name": null, "subtype_name": "Malus spp. (apple species)", "zip_code": null, "ownership": "public", "ownership_raw": "Town of Orangeville", "city": "Orangeville", "source_dataset": "Street Tree", "source_department": "Town of Orangeville", "source_last_edit_at": ""}}, {"type": "Feature", "geometry": {"type": "Point", "coordinates": [-80.07799684419486, 43.922105172791895]}, "properties": {"id": "orangeville-6318", "species_group": "crabapple", "scientific_name": "Malus spp. (apple species)", "common_name": null, "subtype_name": "Malus spp. (apple species)", "zip_code": null, "ownership": "public", "ownership_raw": "Town of Orangeville", "city": "Orangeville", "source_dataset": "Street Tree", "source_department": "Town of Orangeville", "source_last_edit_at": ""}}, {"type": "Feature", "geometry": {"type": "Point", "coordinates": [-80.09406728474703, 43.90813045375214]}, "properties": {"id": "orangeville-6347", "species_group": "crabapple", "scientific_name": "Malus spp. (apple species)", "common_name": null, "subtype_name": "Malus spp. (apple species)", "zip_code": null, "ownership": "public", "ownership_raw": "Town of Orangeville", "city": "Orangeville", "source_dataset": "Street Tree", "source_department": "Town of Orangeville", "source_last_edit_at": ""}}, {"type": "Feature", "geometry": {"type": "Point", "coordinates": [-80.09882442316939, 43.91992611640956]}, "properties": {"id": "orangeville-6493", "species_group": "crabapple", "scientific_name": "Malus sylvestris (apple crab)", "common_name": null, "subtype_name": "Malus sylvestris (apple crab)", "zip_code": null, "ownership": "public", "ownership_raw": "Town of Orangeville", "city": "Orangeville", "source_dataset": "Street Tree", "source_department": "Town of Orangeville", "source_last_edit_at": ""}}, {"type": "Feature", "geometry": {"type": "Point", "coordinates": [-80.12588839557819, 43.908183847864386]}, "properties": {"id": "orangeville-6591", "species_group": "crabapple", "scientific_name": "Malus sylvestris (apple crab)", "common_name": null, "subtype_name": "Malus sylvestris (apple crab)", "zip_code": null, "ownership": "public", "ownership_raw": "Town of Orangeville", "city": "Orangeville", "source_dataset": "Street Tree", "source_department": "Town of Orangeville", "source_last_edit_at": ""}}, {"type": "Feature", "geometry": {"type": "Point", "coordinates": [-80.10619637077208, 43.919365131071515]}, "properties": {"id": "orangeville-6627", "species_group": "crabapple", "scientific_name": "Malus spp. (apple species)", "common_name": null, "subtype_name": "Malus spp. (apple species)", "zip_code": null, "ownership": "public", "ownership_raw": "Town of Orangeville", "city": "Orangeville", "source_dataset": "Street Tree", "source_department": "Town of Orangeville", "source_last_edit_at": ""}}, {"type": "Feature", "geometry": {"type": "Point", "coordinates": [-80.1127305568116, 43.91666721137758]}, "properties": {"id": "orangeville-6850", "species_group": "crabapple", "scientific_name": "Malus spp. (apple species)", "common_name": null, "subtype_name": "Malus spp. (apple species)", "zip_code": null, "ownership": "public", "ownership_raw": "Town of Orangeville", "city": "Orangeville", "source_dataset": "Street Tree", "source_department": "Town of Orangeville", "source_last_edit_at": ""}}, {"type": "Feature", "geometry": {"type": "Point", "coordinates": [-80.08967538450632, 43.92084491481837]}, "properties": {"id": "orangeville-6931", "species_group": "crabapple", "scientific_name": "Malus spp. (apple species)", "common_name": null, "subtype_name": "Malus spp. (apple species)", "zip_code": null, "ownership": "public", "ownership_raw": "Town of Orangeville", "city": "Orangeville", "source_dataset": "Street Tree", "source_department": "Town of Orangeville", "source_last_edit_at": ""}}, {"type": "Feature", "geometry": {"type": "Point", "coordinates": [-80.1353502850499, 43.90419065289984]}, "properties": {"id": "orangeville-7097", "species_group": "magnolia", "scientific_name": "Magnolia spp. (magnolia species)", "common_name": null, "subtype_name": "Magnolia spp. (magnolia species)", "zip_code": null, "ownership": "public", "ownership_raw": "Town of Orangeville", "city": "Orangeville", "source_dataset": "Street Tree", "source_department": "Town of Orangeville", "source_last_edit_at": ""}}, {"type": "Feature", "geometry": {"type": "Point", "coordinates": [-80.10269287726432, 43.92147906013245]}, "properties": {"id": "orangeville-7261", "species_group": "crabapple", "scientific_name": "Malus spp. (apple species)", "common_name": null, "subtype_name": "Malus spp. (apple species)", "zip_code": null, "ownership": "public", "ownership_raw": "Town of Orangeville", "city": "Orangeville", "source_dataset": "Street Tree", "source_department": "Town of Orangeville", "source_last_edit_at": ""}}, {"type": "Feature", "geometry": {"type": "Point", "coordinates": [-80.07009939075702, 43.916973757973366]}, "properties": {"id": "orangeville-7282", "species_group": "crabapple", "scientific_name": "Malus sylvestris (apple crab)", "common_name": null, "subtype_name": "Malus sylvestris (apple crab)", "zip_code": null, "ownership": "public", "ownership_raw": "Town of Orangeville", "city": "Orangeville", "source_dataset": "Street Tree", "source_department": "Town of Orangeville", "source_last_edit_at": ""}}, {"type": "Feature", "geometry": {"type": "Point", "coordinates": [-80.09895414610985, 43.91353999424287]}, "properties": {"id": "orangeville-7430", "species_group": "crabapple", "scientific_name": "Malus sylvestris (apple crab)", "common_name": null, "subtype_name": "Malus sylvestris (apple crab)", "zip_code": null, "ownership": "public", "ownership_raw": "Town of Orangeville", "city": "Orangeville", "source_dataset": "Street Tree", "source_department": "Town of Orangeville", "source_last_edit_at": ""}}, {"type": "Feature", "geometry": {"type": "Point", "coordinates": [-80.08923081215167, 43.92115174636894]}, "properties": {"id": "orangeville-749", "species_group": "crabapple", "scientific_name": "Malus spp. (apple species)", "common_name": null, "subtype_name": "Malus spp. (apple species)", "zip_code": null, "ownership": "public", "ownership_raw": "Town of Orangeville", "city": "Orangeville", "source_dataset": "Street Tree", "source_department": "Town of Orangeville", "source_last_edit_at": ""}}, {"type": "Feature", "geometry": {"type": "Point", "coordinates": [-80.09810111886922, 43.92247727106576]}, "properties": {"id": "orangeville-7540", "species_group": "crabapple", "scientific_name": "Malus sylvestris (apple crab)", "common_name": null, "subtype_name": "Malus sylvestris (apple crab)", "zip_code": null, "ownership": "public", "ownership_raw": "Town of Orangeville", "city": "Orangeville", "source_dataset": "Street Tree", "source_department": "Town of Orangeville", "source_last_edit_at": ""}}, {"type": "Feature", "geometry": {"type": "Point", "coordinates": [-80.12435847518866, 43.89911688854156]}, "properties": {"id": "orangeville-7651", "species_group": "crabapple", "scientific_name": "Malus spp. (apple species)", "common_name": null, "subtype_name": "Malus spp. (apple species)", "zip_code": null, "ownership": "public", "ownership_raw": "Town of Orangeville", "city": "Orangeville", "source_dataset": "Street Tree", "source_department": "Town of Orangeville", "source_last_edit_at": ""}}, {"type": "Feature", "geometry": {"type": "Point", "coordinates": [-80.13180226955043, 43.90880135304248]}, "properties": {"id": "orangeville-7687", "species_group": "crabapple", "scientific_name": "Malus spp. (apple species)", "common_name": null, "subtype_name": "Malus spp. (apple species)", "zip_code": null, "ownership": "public", "ownership_raw": "Town of Orangeville", "city": "Orangeville", "source_dataset": "Street Tree", "source_department": "Town of Orangeville", "source_last_edit_at": ""}}, {"type": "Feature", "geometry": {"type": "Point", "coordinates": [-80.11325878120957, 43.92569677834831]}, "properties": {"id": "orangeville-7709", "species_group": "crabapple", "scientific_name": "Malus sylvestris (apple crab)", "common_name": null, "subtype_name": "Malus sylvestris (apple crab)", "zip_code": null, "ownership": "public", "ownership_raw": "Town of Orangeville", "city": "Orangeville", "source_dataset": "Street Tree", "source_department": "Town of Orangeville", "source_last_edit_at": ""}}, {"type": "Feature", "geometry": {"type": "Point", "coordinates": [-80.11849381805175, 43.929268156972306]}, "properties": {"id": "orangeville-780", "species_group": "crabapple", "scientific_name": "Malus sylvestris (apple crab)", "common_name": null, "subtype_name": "Malus sylvestris (apple crab)", "zip_code": null, "ownership": "public", "ownership_raw": "Town of Orangeville", "city": "Orangeville", "source_dataset": "Street Tree", "source_department": "Town of Orangeville", "source_last_edit_at": ""}}, {"type": "Feature", "geometry": {"type": "Point", "coordinates": [-80.09535373317135, 43.913437267294384]}, "properties": {"id": "orangeville-7865", "species_group": "crabapple", "scientific_name": "Malus sylvestris (apple crab)", "common_name": null, "subtype_name": "Malus sylvestris (apple crab)", "zip_code": null, "ownership": "public", "ownership_raw": "Town of Orangeville", "city": "Orangeville", "source_dataset": "Street Tree", "source_department": "Town of Orangeville", "source_last_edit_at": ""}}, {"type": "Feature", "geometry": {"type": "Point", "coordinates": [-80.11095181653339, 43.92366120696703]}, "properties": {"id": "orangeville-7959", "species_group": "magnolia", "scientific_name": "Magnolia x soulangiana (saucer magnolia)", "common_name": null, "subtype_name": "Saucer Magnolia", "zip_code": null, "ownership": "public", "ownership_raw": "Town of Orangeville", "city": "Orangeville", "source_dataset": "Street Tree", "source_department": "Town of Orangeville", "source_last_edit_at": ""}}, {"type": "Feature", "geometry": {"type": "Point", "coordinates": [-80.09485691684813, 43.90780059728047]}, "properties": {"id": "orangeville-8036", "species_group": "crabapple", "scientific_name": "Malus spp. (apple species)", "common_name": null, "subtype_name": "Malus spp. (apple species)", "zip_code": null, "ownership": "public", "ownership_raw": "Town of Orangeville", "city": "Orangeville", "source_dataset": "Street Tree", "source_department": "Town of Orangeville", "source_last_edit_at": ""}}, {"type": "Feature", "geometry": {"type": "Point", "coordinates": [-80.11255317473523, 43.91684448518168]}, "properties": {"id": "orangeville-8105", "species_group": "crabapple", "scientific_name": "Malus sylvestris (apple crab)", "common_name": null, "subtype_name": "Malus sylvestris (apple crab)", "zip_code": null, "ownership": "public", "ownership_raw": "Town of Orangeville", "city": "Orangeville", "source_dataset": "Street Tree", "source_department": "Town of Orangeville", "source_last_edit_at": ""}}, {"type": "Feature", "geometry": {"type": "Point", "coordinates": [-80.10844158481115, 43.91888284510404]}, "properties": {"id": "orangeville-8111", "species_group": "crabapple", "scientific_name": "Malus spp. (apple species)", "common_name": null, "subtype_name": "Malus spp. (apple species)", "zip_code": null, "ownership": "public", "ownership_raw": "Town of Orangeville", "city": "Orangeville", "source_dataset": "Street Tree", "source_department": "Town of Orangeville", "source_last_edit_at": ""}}, {"type": "Feature", "geometry": {"type": "Point", "coordinates": [-80.1008757127343, 43.90774440195125]}, "properties": {"id": "orangeville-8140", "species_group": "crabapple", "scientific_name": "Malus sylvestris (apple crab)", "common_name": null, "subtype_name": "Malus sylvestris (apple crab)", "zip_code": null, "ownership": "public", "ownership_raw": "Town of Orangeville", "city": "Orangeville", "source_dataset": "Street Tree", "source_department": "Town of Orangeville", "source_last_edit_at": ""}}, {"type": "Feature", "geometry": {"type": "Point", "coordinates": [-80.09923058404186, 43.91984825921935]}, "properties": {"id": "orangeville-8187", "species_group": "crabapple", "scientific_name": "Malus spp. (apple species)", "common_name": null, "subtype_name": "Malus spp. (apple species)", "zip_code": null, "ownership": "public", "ownership_raw": "Town of Orangeville", "city": "Orangeville", "source_dataset": "Street Tree", "source_department": "Town of Orangeville", "source_last_edit_at": ""}}, {"type": "Feature", "geometry": {"type": "Point", "coordinates": [-80.09337221707662, 43.912225986405]}, "properties": {"id": "orangeville-8242", "species_group": "crabapple", "scientific_name": "Malus sylvestris (apple crab)", "common_name": null, "subtype_name": "Malus sylvestris (apple crab)", "zip_code": null, "ownership": "public", "ownership_raw": "Town of Orangeville", "city": "Orangeville", "source_dataset": "Street Tree", "source_department": "Town of Orangeville", "source_last_edit_at": ""}}, {"type": "Feature", "geometry": {"type": "Point", "coordinates": [-80.10734790550075, 43.91912219185535]}, "properties": {"id": "orangeville-8339", "species_group": "crabapple", "scientific_name": "Malus spp. (apple species)", "common_name": null, "subtype_name": "Malus spp. (apple species)", "zip_code": null, "ownership": "public", "ownership_raw": "Town of Orangeville", "city": "Orangeville", "source_dataset": "Street Tree", "source_department": "Town of Orangeville", "source_last_edit_at": ""}}, {"type": "Feature", "geometry": {"type": "Point", "coordinates": [-80.09598031860494, 43.90844239908952]}, "properties": {"id": "orangeville-8362", "species_group": "crabapple", "scientific_name": "Malus sylvestris (apple crab)", "common_name": null, "subtype_name": "Malus sylvestris (apple crab)", "zip_code": null, "ownership": "public", "ownership_raw": "Town of Orangeville", "city": "Orangeville", "source_dataset": "Street Tree", "source_department": "Town of Orangeville", "source_last_edit_at": ""}}, {"type": "Feature", "geometry": {"type": "Point", "coordinates": [-80.09293533546831, 43.91001274849555]}, "properties": {"id": "orangeville-8424", "species_group": "crabapple", "scientific_name": "Malus sylvestris (apple crab)", "common_name": null, "subtype_name": "Malus sylvestris (apple crab)", "zip_code": null, "ownership": "public", "ownership_raw": "Town of Orangeville", "city": "Orangeville", "source_dataset": "Street Tree", "source_department": "Town of Orangeville", "source_last_edit_at": ""}}, {"type": "Feature", "geometry": {"type": "Point", "coordinates": [-80.10868781450897, 43.918078003041536]}, "properties": {"id": "orangeville-8437", "species_group": "crabapple", "scientific_name": "Malus spp. (apple species)", "common_name": null, "subtype_name": "Malus spp. (apple species)", "zip_code": null, "ownership": "public", "ownership_raw": "Town of Orangeville", "city": "Orangeville", "source_dataset": "Street Tree", "source_department": "Town of Orangeville", "source_last_edit_at": ""}}, {"type": "Feature", "geometry": {"type": "Point", "coordinates": [-80.10043802411887, 43.90693255926399]}, "properties": {"id": "orangeville-8467", "species_group": "crabapple", "scientific_name": "Malus sylvestris (apple crab)", "common_name": null, "subtype_name": "Malus sylvestris (apple crab)", "zip_code": null, "ownership": "public", "ownership_raw": "Town of Orangeville", "city": "Orangeville", "source_dataset": "Street Tree", "source_department": "Town of Orangeville", "source_last_edit_at": ""}}, {"type": "Feature", "geometry": {"type": "Point", "coordinates": [-80.09394365326462, 43.90828336141136]}, "properties": {"id": "orangeville-8552", "species_group": "crabapple", "scientific_name": "Malus spp. (apple species)", "common_name": null, "subtype_name": "Malus spp. (apple species)", "zip_code": null, "ownership": "public", "ownership_raw": "Town of Orangeville", "city": "Orangeville", "source_dataset": "Street Tree", "source_department": "Town of Orangeville", "source_last_edit_at": ""}}, {"type": "Feature", "geometry": {"type": "Point", "coordinates": [-80.12001240961338, 43.917593892573784]}, "properties": {"id": "orangeville-8796", "species_group": "crabapple", "scientific_name": "Malus sylvestris (apple crab)", "common_name": null, "subtype_name": "Malus sylvestris (apple crab)", "zip_code": null, "ownership": "public", "ownership_raw": "Town of Orangeville", "city": "Orangeville", "source_dataset": "Street Tree", "source_department": "Town of Orangeville", "source_last_edit_at": ""}}, {"type": "Feature", "geometry": {"type": "Point", "coordinates": [-80.10982882615757, 43.92664903700849]}, "properties": {"id": "orangeville-8872", "species_group": "magnolia", "scientific_name": "Magnolia x soulangiana (saucer magnolia)", "common_name": null, "subtype_name": "Saucer Magnolia", "zip_code": null, "ownership": "public", "ownership_raw": "Town of Orangeville", "city": "Orangeville", "source_dataset": "Street Tree", "source_department": "Town of Orangeville", "source_last_edit_at": ""}}, {"type": "Feature", "geometry": {"type": "Point", "coordinates": [-80.10500188268054, 43.92505051184481]}, "properties": {"id": "orangeville-8891", "species_group": "crabapple", "scientific_name": "Malus sylvestris (apple crab)", "common_name": null, "subtype_name": "Malus sylvestris (apple crab)", "zip_code": null, "ownership": "public", "ownership_raw": "Town of Orangeville", "city": "Orangeville", "source_dataset": "Street Tree", "source_department": "Town of Orangeville", "source_last_edit_at": ""}}, {"type": "Feature", "geometry": {"type": "Point", "coordinates": [-80.0883276556194, 43.91488992539615]}, "properties": {"id": "orangeville-8957", "species_group": "crabapple", "scientific_name": "Malus spp. (apple species)", "common_name": null, "subtype_name": "Malus spp. (apple species)", "zip_code": null, "ownership": "public", "ownership_raw": "Town of Orangeville", "city": "Orangeville", "source_dataset": "Street Tree", "source_department": "Town of Orangeville", "source_last_edit_at": ""}}, {"type": "Feature", "geometry": {"type": "Point", "coordinates": [-80.08975559603243, 43.92128835144924]}, "properties": {"id": "orangeville-9163", "species_group": "crabapple", "scientific_name": "Malus spp. (apple species)", "common_name": null, "subtype_name": "Malus spp. (apple species)", "zip_code": null, "ownership": "public", "ownership_raw": "Town of Orangeville", "city": "Orangeville", "source_dataset": "Street Tree", "source_department": "Town of Orangeville", "source_last_edit_at": ""}}, {"type": "Feature", "geometry": {"type": "Point", "coordinates": [-80.09533868855463, 43.91049633663991]}, "properties": {"id": "orangeville-9218", "species_group": "crabapple", "scientific_name": "Malus spp. (apple species)", "common_name": null, "subtype_name": "Malus spp. (apple species)", "zip_code": null, "ownership": "public", "ownership_raw": "Town of Orangeville", "city": "Orangeville", "source_dataset": "Street Tree", "source_department": "Town of Orangeville", "source_last_edit_at": ""}}, {"type": "Feature", "geometry": {"type": "Point", "coordinates": [-80.12528633531208, 43.89975294543934]}, "properties": {"id": "orangeville-9304", "species_group": "crabapple", "scientific_name": "Malus spp. (apple species)", "common_name": null, "subtype_name": "Malus spp. (apple species)", "zip_code": null, "ownership": "public", "ownership_raw": "Town of Orangeville", "city": "Orangeville", "source_dataset": "Street Tree", "source_department": "Town of Orangeville", "source_last_edit_at": ""}}, {"type": "Feature", "geometry": {"type": "Point", "coordinates": [-80.09860158599624, 43.92347812765943]}, "properties": {"id": "orangeville-9405", "species_group": "crabapple", "scientific_name": "Malus sylvestris (apple crab)", "common_name": null, "subtype_name": "Malus sylvestris (apple crab)", "zip_code": null, "ownership": "public", "ownership_raw": "Town of Orangeville", "city": "Orangeville", "source_dataset": "Street Tree", "source_department": "Town of Orangeville", "source_last_edit_at": ""}}, {"type": "Feature", "geometry": {"type": "Point", "coordinates": [-80.11892866431326, 43.930968294666776]}, "properties": {"id": "orangeville-9454", "species_group": "magnolia", "scientific_name": "Magnolia x soulangiana (saucer magnolia)", "common_name": null, "subtype_name": "Saucer Magnolia", "zip_code": null, "ownership": "public", "ownership_raw": "Town of Orangeville", "city": "Orangeville", "source_dataset": "Street Tree", "source_department": "Town of Orangeville", "source_last_edit_at": ""}}, {"type": "Feature", "geometry": {"type": "Point", "coordinates": [-80.08978329898939, 43.921352687007925]}, "properties": {"id": "orangeville-9476", "species_group": "crabapple", "scientific_name": "Malus spp. (apple species)", "common_name": null, "subtype_name": "Malus spp. (apple species)", "zip_code": null, "ownership": "public", "ownership_raw": "Town of Orangeville", "city": "Orangeville", "source_dataset": "Street Tree", "source_department": "Town of Orangeville", "source_last_edit_at": ""}}, {"type": "Feature", "geometry": {"type": "Point", "coordinates": [-80.12595340630988, 43.912056911299025]}, "properties": {"id": "orangeville-9610", "species_group": "crabapple", "scientific_name": "Malus sylvestris (apple crab)", "common_name": null, "subtype_name": "Malus sylvestris (apple crab)", "zip_code": null, "ownership": "public", "ownership_raw": "Town of Orangeville", "city": "Orangeville", "source_dataset": "Street Tree", "source_department": "Town of Orangeville", "source_last_edit_at": ""}}, {"type": "Feature", "geometry": {"type": "Point", "coordinates": [-80.10047312273741, 43.91956443852507]}, "properties": {"id": "orangeville-979", "species_group": "magnolia", "scientific_name": "Magnolia x soulangiana (saucer magnolia)", "common_name": null, "subtype_name": "Saucer Magnolia", "zip_code": null, "ownership": "public", "ownership_raw": "Town of Orangeville", "city": "Orangeville", "source_dataset": "Street Tree", "source_department": "Town of Orangeville", "source_last_edit_at": ""}}, {"type": "Feature", "geometry": {"type": "Point", "coordinates": [-80.09415576252275, 43.90604321391081]}, "properties": {"id": "orangeville-9819", "species_group": "crabapple", "scientific_name": "Malus sylvestris (apple crab)", "common_name": null, "subtype_name": "Malus sylvestris (apple crab)", "zip_code": null, "ownership": "public", "ownership_raw": "Town of Orangeville", "city": "Orangeville", "source_dataset": "Street Tree", "source_department": "Town of Orangeville", "source_last_edit_at": ""}}, {"type": "Feature", "geometry": {"type": "Point", "coordinates": [-80.09810285464265, 43.92245873229656]}, "properties": {"id": "orangeville-9889", "species_group": "crabapple", "scientific_name": "Malus sylvestris (apple crab)", "common_name": null, "subtype_name": "Malus sylvestris (apple crab)", "zip_code": null, "ownership": "public", "ownership_raw": "Town of Orangeville", "city": "Orangeville", "source_dataset": "Street Tree", "source_department": "Town of Orangeville", "source_last_edit_at": ""}}, {"type": "Feature", "geometry": {"type": "Point", "coordinates": [-80.09809892346094, 43.92246835888192]}, "properties": {"id": "orangeville-9897", "species_group": "crabapple", "scientific_name": "Malus sylvestris (apple crab)", "common_name": null, "subtype_name": "Malus sylvestris (apple crab)", "zip_code": null, "ownership": "public", "ownership_raw": "Town of Orangeville", "city": "Orangeville", "source_dataset": "Street Tree", "source_department": "Town of Orangeville", "source_last_edit_at": ""}}]}