{"type": "FeatureCollection", "features": [{"type": "Feature", "geometry": {"type": "Point", "coordinates": [139.6783263000002, 35.61931948994553]}, "properties": {"id": "meguro-ward-312-0-125619319-319678326", "species_group": "cherry", "scientific_name": "Prunus species", "common_name": "サクラ", "subtype_name": "サクラ", "zip_code": null, "ownership": "public", "ownership_raw": "Tokyo Metropolitan Government", "city": "Meguro Ward", "source_dataset": "Street Trees / 街路樹", "source_department": "Tokyo Metropolitan Government", "source_last_edit_at": ""}}, {"type": "Feature", "geometry": {"type": "Point", "coordinates": [139.67846390000022, 35.61938133994555]}, "properties": {"id": "meguro-ward-312-0-125619381-319678464", "species_group": "cherry", "scientific_name": "Prunus species", "common_name": "サクラ", "subtype_name": "サクラ", "zip_code": null, "ownership": "public", "ownership_raw": "Tokyo Metropolitan Government", "city": "Meguro Ward", "source_dataset": "Street Trees / 街路樹", "source_department": "Tokyo Metropolitan Government", "source_last_edit_at": ""}}, {"type": "Feature", "geometry": {"type": "Point", "coordinates": [139.6809545000002, 35.620800609945505]}, "properties": {"id": "meguro-ward-312-0-125620801-319680955", "species_group": "crabapple", "scientific_name": "Malus species", "common_name": "ハナカイドウ", "subtype_name": "ハナカイドウ", "zip_code": null, "ownership": "public", "ownership_raw": "Tokyo Metropolitan Government", "city": "Meguro Ward", "source_dataset": "Street Trees / 街路樹", "source_department": "Tokyo Metropolitan Government", "source_last_edit_at": ""}}, {"type": "Feature", "geometry": {"type": "Point", "coordinates": [139.68126350000023, 35.62100222994548]}, "properties": {"id": "meguro-ward-312-0-125621002-319681264", "species_group": "crabapple", "scientific_name": "Malus species", "common_name": "ハナカイドウ", "subtype_name": "ハナカイドウ", "zip_code": null, "ownership": "public", "ownership_raw": "Tokyo Metropolitan Government", "city": "Meguro Ward", "source_dataset": "Street Trees / 街路樹", "source_department": "Tokyo Metropolitan Government", "source_last_edit_at": ""}}, {"type": "Feature", "geometry": {"type": "Point", "coordinates": [139.68201530000022, 35.62142170994549]}, "properties": {"id": "meguro-ward-312-0-125621422-319682015", "species_group": "crabapple", "scientific_name": "Malus species", "common_name": "ハナカイドウ", "subtype_name": "ハナカイドウ", "zip_code": null, "ownership": "public", "ownership_raw": "Tokyo Metropolitan Government", "city": "Meguro Ward", "source_dataset": "Street Trees / 街路樹", "source_department": "Tokyo Metropolitan Government", "source_last_edit_at": ""}}, {"type": "Feature", "geometry": {"type": "Point", "coordinates": [139.68235930000012, 35.62161411994549]}, "properties": {"id": "meguro-ward-312-0-125621614-319682359", "species_group": "crabapple", "scientific_name": "Malus species", "common_name": "ハナカイドウ", "subtype_name": "ハナカイドウ", "zip_code": null, "ownership": "public", "ownership_raw": "Tokyo Metropolitan Government", "city": "Meguro Ward", "source_dataset": "Street Trees / 街路樹", "source_department": "Tokyo Metropolitan Government", "source_last_edit_at": ""}}, {"type": "Feature", "geometry": {"type": "Point", "coordinates": [139.68238440000013, 35.621628029945484]}, "properties": {"id": "meguro-ward-312-0-125621628-319682384", "species_group": "crabapple", "scientific_name": "Malus species", "common_name": "ハナカイドウ", "subtype_name": "ハナカイドウ", "zip_code": null, "ownership": "public", "ownership_raw": "Tokyo Metropolitan Government", "city": "Meguro Ward", "source_dataset": "Street Trees / 街路樹", "source_department": "Tokyo Metropolitan Government", "source_last_edit_at": ""}}, {"type": "Feature", "geometry": {"type": "Point", "coordinates": [139.69287390000022, 35.62762451994533]}, "properties": {"id": "meguro-ward-312-0-125627625-319692874", "species_group": "cherry", "scientific_name": "Prunus species", "common_name": "サクラ", "subtype_name": "サクラ", "zip_code": null, "ownership": "public", "ownership_raw": "Tokyo Metropolitan Government", "city": "Meguro Ward", "source_dataset": "Street Trees / 街路樹", "source_department": "Tokyo Metropolitan Government", "source_last_edit_at": ""}}, {"type": "Feature", "geometry": {"type": "Point", "coordinates": [139.6979179000002, 35.629434469945295]}, "properties": {"id": "meguro-ward-312-0-125629434-319697918", "species_group": "cherry", "scientific_name": "Prunus species", "common_name": "サクラ", "subtype_name": "サクラ", "zip_code": null, "ownership": "public", "ownership_raw": "Tokyo Metropolitan Government", "city": "Meguro Ward", "source_dataset": "Street Trees / 街路樹", "source_department": "Tokyo Metropolitan Government", "source_last_edit_at": ""}}, {"type": "Feature", "geometry": {"type": "Point", "coordinates": [139.6979302000002, 35.62943574994528]}, "properties": {"id": "meguro-ward-312-0-125629436-319697930", "species_group": "cherry", "scientific_name": "Prunus species", "common_name": "シダレザクラ", "subtype_name": "シダレザクラ", "zip_code": null, "ownership": "public", "ownership_raw": "Tokyo Metropolitan Government", "city": "Meguro Ward", "source_dataset": "Street Trees / 街路樹", "source_department": "Tokyo Metropolitan Government", "source_last_edit_at": ""}}, {"type": "Feature", "geometry": {"type": "Point", "coordinates": [139.70744640000018, 35.633800459945185]}, "properties": {"id": "meguro-ward-317-0-125633800-319707446", "species_group": "cherry", "scientific_name": "Prunus species", "common_name": "サクラ", "subtype_name": "サクラ", "zip_code": null, "ownership": "public", "ownership_raw": "Tokyo Metropolitan Government", "city": "Meguro Ward", "source_dataset": "Street Trees / 街路樹", "source_department": "Tokyo Metropolitan Government", "source_last_edit_at": ""}}, {"type": "Feature", "geometry": {"type": "Point", "coordinates": [139.70706440000012, 35.63448501994519]}, "properties": {"id": "meguro-ward-317-0-125634485-319707064", "species_group": "peach", "scientific_name": "Prunus species", "common_name": "モモ", "subtype_name": "モモ", "zip_code": null, "ownership": "public", "ownership_raw": "Tokyo Metropolitan Government", "city": "Meguro Ward", "source_dataset": "Street Trees / 街路樹", "source_department": "Tokyo Metropolitan Government", "source_last_edit_at": ""}}, {"type": "Feature", "geometry": {"type": "Point", "coordinates": [139.7049567000001, 35.6376891499451]}, "properties": {"id": "meguro-ward-317-0-125637689-319704957", "species_group": "peach", "scientific_name": "Prunus species", "common_name": "モモ", "subtype_name": "モモ", "zip_code": null, "ownership": "public", "ownership_raw": "Tokyo Metropolitan Government", "city": "Meguro Ward", "source_dataset": "Street Trees / 街路樹", "source_department": "Tokyo Metropolitan Government", "source_last_edit_at": ""}}, {"type": "Feature", "geometry": {"type": "Point", "coordinates": [139.70288510000023, 35.639963109945064]}, "properties": {"id": "meguro-ward-317-0-125639963-319702885", "species_group": "peach", "scientific_name": "Prunus species", "common_name": "モモ", "subtype_name": "モモ", "zip_code": null, "ownership": "public", "ownership_raw": "Tokyo Metropolitan Government", "city": "Meguro Ward", "source_dataset": "Street Trees / 街路樹", "source_department": "Tokyo Metropolitan Government", "source_last_edit_at": ""}}, {"type": "Feature", "geometry": {"type": "Point", "coordinates": [139.7005809000002, 35.64316449994501]}, "properties": {"id": "meguro-ward-317-0-125643164-319700581", "species_group": "plum", "scientific_name": "Prunus species", "common_name": "ウメ類", "subtype_name": "ウメ類", "zip_code": null, "ownership": "public", "ownership_raw": "Tokyo Metropolitan Government", "city": "Meguro Ward", "source_dataset": "Street Trees / 街路樹", "source_department": "Tokyo Metropolitan Government", "source_last_edit_at": ""}}, {"type": "Feature", "geometry": {"type": "Point", "coordinates": [139.69693000000015, 35.64609807994495]}, "properties": {"id": "meguro-ward-317-0-125646098-319696930", "species_group": "cherry", "scientific_name": "Prunus species", "common_name": "サクラ", "subtype_name": "サクラ", "zip_code": null, "ownership": "public", "ownership_raw": "Tokyo Metropolitan Government", "city": "Meguro Ward", "source_dataset": "Street Trees / 街路樹", "source_department": "Tokyo Metropolitan Government", "source_last_edit_at": ""}}, {"type": "Feature", "geometry": {"type": "Point", "coordinates": [139.69672520000017, 35.64621986994492]}, "properties": {"id": "meguro-ward-317-0-125646220-319696725", "species_group": "cherry", "scientific_name": "Prunus species", "common_name": "サクラ", "subtype_name": "サクラ", "zip_code": null, "ownership": "public", "ownership_raw": "Tokyo Metropolitan Government", "city": "Meguro Ward", "source_dataset": "Street Trees / 街路樹", "source_department": "Tokyo Metropolitan Government", "source_last_edit_at": ""}}, {"type": "Feature", "geometry": {"type": "Point", "coordinates": [139.69658510000022, 35.64630374994494]}, "properties": {"id": "meguro-ward-317-0-125646304-319696585", "species_group": "cherry", "scientific_name": "Prunus species", "common_name": "サクラ", "subtype_name": "サクラ", "zip_code": null, "ownership": "public", "ownership_raw": "Tokyo Metropolitan Government", "city": "Meguro Ward", "source_dataset": "Street Trees / 街路樹", "source_department": "Tokyo Metropolitan Government", "source_last_edit_at": ""}}, {"type": "Feature", "geometry": {"type": "Point", "coordinates": [139.69591990000015, 35.646694739944905]}, "properties": {"id": "meguro-ward-317-0-125646695-319695920", "species_group": "cherry", "scientific_name": "Prunus species", "common_name": "サクラ", "subtype_name": "サクラ", "zip_code": null, "ownership": "public", "ownership_raw": "Tokyo Metropolitan Government", "city": "Meguro Ward", "source_dataset": "Street Trees / 街路樹", "source_department": "Tokyo Metropolitan Government", "source_last_edit_at": ""}}, {"type": "Feature", "geometry": {"type": "Point", "coordinates": [139.6956742000002, 35.646863579944906]}, "properties": {"id": "meguro-ward-317-0-125646864-319695674", "species_group": "cherry", "scientific_name": "Prunus species", "common_name": "サクラ", "subtype_name": "サクラ", "zip_code": null, "ownership": "public", "ownership_raw": "Tokyo Metropolitan Government", "city": "Meguro Ward", "source_dataset": "Street Trees / 街路樹", "source_department": "Tokyo Metropolitan Government", "source_last_edit_at": ""}}, {"type": "Feature", "geometry": {"type": "Point", "coordinates": [139.69525290000013, 35.647100119944916]}, "properties": {"id": "meguro-ward-317-0-125647100-319695253", "species_group": "cherry", "scientific_name": "Prunus species", "common_name": "サクラ", "subtype_name": "サクラ", "zip_code": null, "ownership": "public", "ownership_raw": "Tokyo Metropolitan Government", "city": "Meguro Ward", "source_dataset": "Street Trees / 街路樹", "source_department": "Tokyo Metropolitan Government", "source_last_edit_at": ""}}, {"type": "Feature", "geometry": {"type": "Point", "coordinates": [139.6950001000001, 35.647251749944914]}, "properties": {"id": "meguro-ward-317-0-125647252-319695000", "species_group": "cherry", "scientific_name": "Prunus species", "common_name": "サクラ", "subtype_name": "サクラ", "zip_code": null, "ownership": "public", "ownership_raw": "Tokyo Metropolitan Government", "city": "Meguro Ward", "source_dataset": "Street Trees / 街路樹", "source_department": "Tokyo Metropolitan Government", "source_last_edit_at": ""}}, {"type": "Feature", "geometry": {"type": "Point", "coordinates": [139.69413960000017, 35.64776885994488]}, "properties": {"id": "meguro-ward-317-0-125647769-319694140", "species_group": "cherry", "scientific_name": "Prunus species", "common_name": "サクラ", "subtype_name": "サクラ", "zip_code": null, "ownership": "public", "ownership_raw": "Tokyo Metropolitan Government", "city": "Meguro Ward", "source_dataset": "Street Trees / 街路樹", "source_department": "Tokyo Metropolitan Government", "source_last_edit_at": ""}}, {"type": "Feature", "geometry": {"type": "Point", "coordinates": [139.6937008000002, 35.64804172994488]}, "properties": {"id": "meguro-ward-317-0-125648042-319693701", "species_group": "cherry", "scientific_name": "Prunus species", "common_name": "サクラ", "subtype_name": "サクラ", "zip_code": null, "ownership": "public", "ownership_raw": "Tokyo Metropolitan Government", "city": "Meguro Ward", "source_dataset": "Street Trees / 街路樹", "source_department": "Tokyo Metropolitan Government", "source_last_edit_at": ""}}, {"type": "Feature", "geometry": {"type": "Point", "coordinates": [139.69357450000015, 35.64811930994486]}, "properties": {"id": "meguro-ward-317-0-125648119-319693575", "species_group": "cherry", "scientific_name": "Prunus species", "common_name": "サクラ", "subtype_name": "サクラ", "zip_code": null, "ownership": "public", "ownership_raw": "Tokyo Metropolitan Government", "city": "Meguro Ward", "source_dataset": "Street Trees / 街路樹", "source_department": "Tokyo Metropolitan Government", "source_last_edit_at": ""}}, {"type": "Feature", "geometry": {"type": "Point", "coordinates": [139.69337630000018, 35.648240779944864]}, "properties": {"id": "meguro-ward-317-0-125648241-319693376", "species_group": "cherry", "scientific_name": "Prunus species", "common_name": "サクラ", "subtype_name": "サクラ", "zip_code": null, "ownership": "public", "ownership_raw": "Tokyo Metropolitan Government", "city": "Meguro Ward", "source_dataset": "Street Trees / 街路樹", "source_department": "Tokyo Metropolitan Government", "source_last_edit_at": ""}}, {"type": "Feature", "geometry": {"type": "Point", "coordinates": [139.6930145000002, 35.64844571994487]}, "properties": {"id": "meguro-ward-317-0-125648446-319693015", "species_group": "cherry", "scientific_name": "Prunus species", "common_name": "サクラ", "subtype_name": "サクラ", "zip_code": null, "ownership": "public", "ownership_raw": "Tokyo Metropolitan Government", "city": "Meguro Ward", "source_dataset": "Street Trees / 街路樹", "source_department": "Tokyo Metropolitan Government", "source_last_edit_at": ""}}, {"type": "Feature", "geometry": {"type": "Point", "coordinates": [139.6928187000002, 35.64856477994489]}, "properties": {"id": "meguro-ward-317-0-125648565-319692819", "species_group": "cherry", "scientific_name": "Prunus species", "common_name": "サクラ", "subtype_name": "サクラ", "zip_code": null, "ownership": "public", "ownership_raw": "Tokyo Metropolitan Government", "city": "Meguro Ward", "source_dataset": "Street Trees / 街路樹", "source_department": "Tokyo Metropolitan Government", "source_last_edit_at": ""}}, {"type": "Feature", "geometry": {"type": "Point", "coordinates": [139.6926215000002, 35.64867938994487]}, "properties": {"id": "meguro-ward-317-0-125648679-319692622", "species_group": "cherry", "scientific_name": "Prunus species", "common_name": "サクラ", "subtype_name": "サクラ", "zip_code": null, "ownership": "public", "ownership_raw": "Tokyo Metropolitan Government", "city": "Meguro Ward", "source_dataset": "Street Trees / 街路樹", "source_department": "Tokyo Metropolitan Government", "source_last_edit_at": ""}}, {"type": "Feature", "geometry": {"type": "Point", "coordinates": [139.6884920000002, 35.612057069945685]}, "properties": {"id": "meguro-ward-318-0-125612057-319688492", "species_group": "crabapple", "scientific_name": "Malus species", "common_name": "ハナカイドウ", "subtype_name": "ハナカイドウ", "zip_code": null, "ownership": "public", "ownership_raw": "Tokyo Metropolitan Government", "city": "Meguro Ward", "source_dataset": "Street Trees / 街路樹", "source_department": "Tokyo Metropolitan Government", "source_last_edit_at": ""}}, {"type": "Feature", "geometry": {"type": "Point", "coordinates": [139.6881218000002, 35.61230419994566]}, "properties": {"id": "meguro-ward-318-0-125612304-319688122", "species_group": "crabapple", "scientific_name": "Malus species", "common_name": "ハナカイドウ", "subtype_name": "ハナカイドウ", "zip_code": null, "ownership": "public", "ownership_raw": "Tokyo Metropolitan Government", "city": "Meguro Ward", "source_dataset": "Street Trees / 街路樹", "source_department": "Tokyo Metropolitan Government", "source_last_edit_at": ""}}, {"type": "Feature", "geometry": {"type": "Point", "coordinates": [139.6880950000002, 35.61232346994566]}, "properties": {"id": "meguro-ward-318-0-125612323-319688095", "species_group": "crabapple", "scientific_name": "Malus species", "common_name": "ハナカイドウ", "subtype_name": "ハナカイドウ", "zip_code": null, "ownership": "public", "ownership_raw": "Tokyo Metropolitan Government", "city": "Meguro Ward", "source_dataset": "Street Trees / 街路樹", "source_department": "Tokyo Metropolitan Government", "source_last_edit_at": ""}}, {"type": "Feature", "geometry": {"type": "Point", "coordinates": [139.68841820000023, 35.61237211994566]}, "properties": {"id": "meguro-ward-318-0-125612372-319688418", "species_group": "crabapple", "scientific_name": "Malus species", "common_name": "ハナカイドウ", "subtype_name": "ハナカイドウ", "zip_code": null, "ownership": "public", "ownership_raw": "Tokyo Metropolitan Government", "city": "Meguro Ward", "source_dataset": "Street Trees / 街路樹", "source_department": "Tokyo Metropolitan Government", "source_last_edit_at": ""}}, {"type": "Feature", "geometry": {"type": "Point", "coordinates": [139.68837740000015, 35.61239397994566]}, "properties": {"id": "meguro-ward-318-0-125612394-319688377", "species_group": "crabapple", "scientific_name": "Malus species", "common_name": "ハナカイドウ", "subtype_name": "ハナカイドウ", "zip_code": null, "ownership": "public", "ownership_raw": "Tokyo Metropolitan Government", "city": "Meguro Ward", "source_dataset": "Street Trees / 街路樹", "source_department": "Tokyo Metropolitan Government", "source_last_edit_at": ""}}, {"type": "Feature", "geometry": {"type": "Point", "coordinates": [139.68788540000014, 35.61246196994566]}, "properties": {"id": "meguro-ward-318-0-125612462-319687885", "species_group": "crabapple", "scientific_name": "Malus species", "common_name": "ハナカイドウ", "subtype_name": "ハナカイドウ", "zip_code": null, "ownership": "public", "ownership_raw": "Tokyo Metropolitan Government", "city": "Meguro Ward", "source_dataset": "Street Trees / 街路樹", "source_department": "Tokyo Metropolitan Government", "source_last_edit_at": ""}}, {"type": "Feature", "geometry": {"type": "Point", "coordinates": [139.68786960000023, 35.61247159994567]}, "properties": {"id": "meguro-ward-318-0-125612472-319687870", "species_group": "crabapple", "scientific_name": "Malus species", "common_name": "ハナカイドウ", "subtype_name": "ハナカイドウ", "zip_code": null, "ownership": "public", "ownership_raw": "Tokyo Metropolitan Government", "city": "Meguro Ward", "source_dataset": "Street Trees / 街路樹", "source_department": "Tokyo Metropolitan Government", "source_last_edit_at": ""}}, {"type": "Feature", "geometry": {"type": "Point", "coordinates": [139.68786180000018, 35.61247595994566]}, "properties": {"id": "meguro-ward-318-0-125612476-319687862", "species_group": "crabapple", "scientific_name": "Malus species", "common_name": "ハナカイドウ", "subtype_name": "ハナカイドウ", "zip_code": null, "ownership": "public", "ownership_raw": "Tokyo Metropolitan Government", "city": "Meguro Ward", "source_dataset": "Street Trees / 街路樹", "source_department": "Tokyo Metropolitan Government", "source_last_edit_at": ""}}, {"type": "Feature", "geometry": {"type": "Point", "coordinates": [139.6875721000001, 35.61264527994567]}, "properties": {"id": "meguro-ward-318-0-125612645-319687572", "species_group": "crabapple", "scientific_name": "Malus species", "common_name": "ハナカイドウ", "subtype_name": "ハナカイドウ", "zip_code": null, "ownership": "public", "ownership_raw": "Tokyo Metropolitan Government", "city": "Meguro Ward", "source_dataset": "Street Trees / 街路樹", "source_department": "Tokyo Metropolitan Government", "source_last_edit_at": ""}}, {"type": "Feature", "geometry": {"type": "Point", "coordinates": [139.68758090000017, 35.61264616994567]}, "properties": {"id": "meguro-ward-318-0-125612646-319687581", "species_group": "crabapple", "scientific_name": "Malus species", "common_name": "ハナカイドウ", "subtype_name": "ハナカイドウ", "zip_code": null, "ownership": "public", "ownership_raw": "Tokyo Metropolitan Government", "city": "Meguro Ward", "source_dataset": "Street Trees / 街路樹", "source_department": "Tokyo Metropolitan Government", "source_last_edit_at": ""}}, {"type": "Feature", "geometry": {"type": "Point", "coordinates": [139.68736750000016, 35.61277162994567]}, "properties": {"id": "meguro-ward-318-0-125612772-319687368", "species_group": "cherry", "scientific_name": "Prunus species", "common_name": "サクラ", "subtype_name": "サクラ", "zip_code": null, "ownership": "public", "ownership_raw": "Tokyo Metropolitan Government", "city": "Meguro Ward", "source_dataset": "Street Trees / 街路樹", "source_department": "Tokyo Metropolitan Government", "source_last_edit_at": ""}}, {"type": "Feature", "geometry": {"type": "Point", "coordinates": [139.68712860000014, 35.61290771994568]}, "properties": {"id": "meguro-ward-318-0-125612908-319687129", "species_group": "crabapple", "scientific_name": "Malus species", "common_name": "ハナカイドウ", "subtype_name": "ハナカイドウ", "zip_code": null, "ownership": "public", "ownership_raw": "Tokyo Metropolitan Government", "city": "Meguro Ward", "source_dataset": "Street Trees / 街路樹", "source_department": "Tokyo Metropolitan Government", "source_last_edit_at": ""}}, {"type": "Feature", "geometry": {"type": "Point", "coordinates": [139.6869904000001, 35.61322956994566]}, "properties": {"id": "meguro-ward-318-0-125613230-319686990", "species_group": "cherry", "scientific_name": "Prunus species", "common_name": "サクラ", "subtype_name": "サクラ", "zip_code": null, "ownership": "public", "ownership_raw": "Tokyo Metropolitan Government", "city": "Meguro Ward", "source_dataset": "Street Trees / 街路樹", "source_department": "Tokyo Metropolitan Government", "source_last_edit_at": ""}}, {"type": "Feature", "geometry": {"type": "Point", "coordinates": [139.68616850000012, 35.613841609945666]}, "properties": {"id": "meguro-ward-318-0-125613842-319686169", "species_group": "crabapple", "scientific_name": "Malus species", "common_name": "ハナカイドウ", "subtype_name": "ハナカイドウ", "zip_code": null, "ownership": "public", "ownership_raw": "Tokyo Metropolitan Government", "city": "Meguro Ward", "source_dataset": "Street Trees / 街路樹", "source_department": "Tokyo Metropolitan Government", "source_last_edit_at": ""}}, {"type": "Feature", "geometry": {"type": "Point", "coordinates": [139.68569800000023, 35.613891409945666]}, "properties": {"id": "meguro-ward-318-0-125613891-319685698", "species_group": "crabapple", "scientific_name": "Malus species", "common_name": "ハナカイドウ", "subtype_name": "ハナカイドウ", "zip_code": null, "ownership": "public", "ownership_raw": "Tokyo Metropolitan Government", "city": "Meguro Ward", "source_dataset": "Street Trees / 街路樹", "source_department": "Tokyo Metropolitan Government", "source_last_edit_at": ""}}, {"type": "Feature", "geometry": {"type": "Point", "coordinates": [139.68557040000016, 35.61398567994564]}, "properties": {"id": "meguro-ward-318-0-125613986-319685570", "species_group": "crabapple", "scientific_name": "Malus species", "common_name": "ハナカイドウ", "subtype_name": "ハナカイドウ", "zip_code": null, "ownership": "public", "ownership_raw": "Tokyo Metropolitan Government", "city": "Meguro Ward", "source_dataset": "Street Trees / 街路樹", "source_department": "Tokyo Metropolitan Government", "source_last_edit_at": ""}}, {"type": "Feature", "geometry": {"type": "Point", "coordinates": [139.6855131000002, 35.61401886994565]}, "properties": {"id": "meguro-ward-318-0-125614019-319685513", "species_group": "crabapple", "scientific_name": "Malus species", "common_name": "ハナカイドウ", "subtype_name": "ハナカイドウ", "zip_code": null, "ownership": "public", "ownership_raw": "Tokyo Metropolitan Government", "city": "Meguro Ward", "source_dataset": "Street Trees / 街路樹", "source_department": "Tokyo Metropolitan Government", "source_last_edit_at": ""}}, {"type": "Feature", "geometry": {"type": "Point", "coordinates": [139.68551850000017, 35.614022029945644]}, "properties": {"id": "meguro-ward-318-0-125614022-319685519", "species_group": "crabapple", "scientific_name": "Malus species", "common_name": "ハナカイドウ", "subtype_name": "ハナカイドウ", "zip_code": null, "ownership": "public", "ownership_raw": "Tokyo Metropolitan Government", "city": "Meguro Ward", "source_dataset": "Street Trees / 街路樹", "source_department": "Tokyo Metropolitan Government", "source_last_edit_at": ""}}, {"type": "Feature", "geometry": {"type": "Point", "coordinates": [139.6854836000002, 35.61405491994564]}, "properties": {"id": "meguro-ward-318-0-125614055-319685484", "species_group": "crabapple", "scientific_name": "Malus species", "common_name": "ハナカイドウ", "subtype_name": "ハナカイドウ", "zip_code": null, "ownership": "public", "ownership_raw": "Tokyo Metropolitan Government", "city": "Meguro Ward", "source_dataset": "Street Trees / 街路樹", "source_department": "Tokyo Metropolitan Government", "source_last_edit_at": ""}}, {"type": "Feature", "geometry": {"type": "Point", "coordinates": [139.68526380000014, 35.61420151994564]}, "properties": {"id": "meguro-ward-318-0-125614202-319685264", "species_group": "crabapple", "scientific_name": "Malus species", "common_name": "ハナカイドウ", "subtype_name": "ハナカイドウ", "zip_code": null, "ownership": "public", "ownership_raw": "Tokyo Metropolitan Government", "city": "Meguro Ward", "source_dataset": "Street Trees / 街路樹", "source_department": "Tokyo Metropolitan Government", "source_last_edit_at": ""}}, {"type": "Feature", "geometry": {"type": "Point", "coordinates": [139.68567900000016, 35.61420751994562]}, "properties": {"id": "meguro-ward-318-0-125614208-319685679", "species_group": "crabapple", "scientific_name": "Malus species", "common_name": "ハナカイドウ", "subtype_name": "ハナカイドウ", "zip_code": null, "ownership": "public", "ownership_raw": "Tokyo Metropolitan Government", "city": "Meguro Ward", "source_dataset": "Street Trees / 街路樹", "source_department": "Tokyo Metropolitan Government", "source_last_edit_at": ""}}, {"type": "Feature", "geometry": {"type": "Point", "coordinates": [139.68552750000012, 35.61432307994566]}, "properties": {"id": "meguro-ward-318-0-125614323-319685528", "species_group": "crabapple", "scientific_name": "Malus species", "common_name": "ハナカイドウ", "subtype_name": "ハナカイドウ", "zip_code": null, "ownership": "public", "ownership_raw": "Tokyo Metropolitan Government", "city": "Meguro Ward", "source_dataset": "Street Trees / 街路樹", "source_department": "Tokyo Metropolitan Government", "source_last_edit_at": ""}}, {"type": "Feature", "geometry": {"type": "Point", "coordinates": [139.6852663000002, 35.61450531994561]}, "properties": {"id": "meguro-ward-318-0-125614505-319685266", "species_group": "crabapple", "scientific_name": "Malus species", "common_name": "ハナカイドウ", "subtype_name": "ハナカイドウ", "zip_code": null, "ownership": "public", "ownership_raw": "Tokyo Metropolitan Government", "city": "Meguro Ward", "source_dataset": "Street Trees / 街路樹", "source_department": "Tokyo Metropolitan Government", "source_last_edit_at": ""}}, {"type": "Feature", "geometry": {"type": "Point", "coordinates": [139.68501370000013, 35.614697459945624]}, "properties": {"id": "meguro-ward-318-0-125614697-319685014", "species_group": "crabapple", "scientific_name": "Malus species", "common_name": "ハナカイドウ", "subtype_name": "ハナカイドウ", "zip_code": null, "ownership": "public", "ownership_raw": "Tokyo Metropolitan Government", "city": "Meguro Ward", "source_dataset": "Street Trees / 街路樹", "source_department": "Tokyo Metropolitan Government", "source_last_edit_at": ""}}, {"type": "Feature", "geometry": {"type": "Point", "coordinates": [139.68429770000023, 35.615187859945614]}, "properties": {"id": "meguro-ward-318-0-125615188-319684298", "species_group": "crabapple", "scientific_name": "Malus species", "common_name": "ハナカイドウ", "subtype_name": "ハナカイドウ", "zip_code": null, "ownership": "public", "ownership_raw": "Tokyo Metropolitan Government", "city": "Meguro Ward", "source_dataset": "Street Trees / 街路樹", "source_department": "Tokyo Metropolitan Government", "source_last_edit_at": ""}}, {"type": "Feature", "geometry": {"type": "Point", "coordinates": [139.68395050000015, 35.61523191994561]}, "properties": {"id": "meguro-ward-318-0-125615232-319683951", "species_group": "crabapple", "scientific_name": "Malus species", "common_name": "ハナカイドウ", "subtype_name": "ハナカイドウ", "zip_code": null, "ownership": "public", "ownership_raw": "Tokyo Metropolitan Government", "city": "Meguro Ward", "source_dataset": "Street Trees / 街路樹", "source_department": "Tokyo Metropolitan Government", "source_last_edit_at": ""}}, {"type": "Feature", "geometry": {"type": "Point", "coordinates": [139.6832607000002, 35.61580956994561]}, "properties": {"id": "meguro-ward-318-0-125615810-319683261", "species_group": "crabapple", "scientific_name": "Malus species", "common_name": "ハナカイドウ", "subtype_name": "ハナカイドウ", "zip_code": null, "ownership": "public", "ownership_raw": "Tokyo Metropolitan Government", "city": "Meguro Ward", "source_dataset": "Street Trees / 街路樹", "source_department": "Tokyo Metropolitan Government", "source_last_edit_at": ""}}, {"type": "Feature", "geometry": {"type": "Point", "coordinates": [139.6826175000002, 35.6167691199456]}, "properties": {"id": "meguro-ward-318-0-125616769-319682618", "species_group": "crabapple", "scientific_name": "Malus species", "common_name": "ハナカイドウ", "subtype_name": "ハナカイドウ", "zip_code": null, "ownership": "public", "ownership_raw": "Tokyo Metropolitan Government", "city": "Meguro Ward", "source_dataset": "Street Trees / 街路樹", "source_department": "Tokyo Metropolitan Government", "source_last_edit_at": ""}}, {"type": "Feature", "geometry": {"type": "Point", "coordinates": [139.68260040000018, 35.61679638994557]}, "properties": {"id": "meguro-ward-318-0-125616796-319682600", "species_group": "crabapple", "scientific_name": "Malus species", "common_name": "ハナカイドウ", "subtype_name": "ハナカイドウ", "zip_code": null, "ownership": "public", "ownership_raw": "Tokyo Metropolitan Government", "city": "Meguro Ward", "source_dataset": "Street Trees / 街路樹", "source_department": "Tokyo Metropolitan Government", "source_last_edit_at": ""}}, {"type": "Feature", "geometry": {"type": "Point", "coordinates": [139.68124600000021, 35.618983219945555]}, "properties": {"id": "meguro-ward-318-0-125618983-319681246", "species_group": "crabapple", "scientific_name": "Malus species", "common_name": "ハナカイドウ", "subtype_name": "ハナカイドウ", "zip_code": null, "ownership": "public", "ownership_raw": "Tokyo Metropolitan Government", "city": "Meguro Ward", "source_dataset": "Street Trees / 街路樹", "source_department": "Tokyo Metropolitan Government", "source_last_edit_at": ""}}, {"type": "Feature", "geometry": {"type": "Point", "coordinates": [139.68002020000017, 35.621244999945475]}, "properties": {"id": "meguro-ward-318-0-125621245-319680020", "species_group": "crabapple", "scientific_name": "Malus species", "common_name": "ハナカイドウ", "subtype_name": "ハナカイドウ", "zip_code": null, "ownership": "public", "ownership_raw": "Tokyo Metropolitan Government", "city": "Meguro Ward", "source_dataset": "Street Trees / 街路樹", "source_department": "Tokyo Metropolitan Government", "source_last_edit_at": ""}}, {"type": "Feature", "geometry": {"type": "Point", "coordinates": [139.6799844000002, 35.621328219945504]}, "properties": {"id": "meguro-ward-318-0-125621328-319679984", "species_group": "crabapple", "scientific_name": "Malus species", "common_name": "ハナカイドウ", "subtype_name": "ハナカイドウ", "zip_code": null, "ownership": "public", "ownership_raw": "Tokyo Metropolitan Government", "city": "Meguro Ward", "source_dataset": "Street Trees / 街路樹", "source_department": "Tokyo Metropolitan Government", "source_last_edit_at": ""}}, {"type": "Feature", "geometry": {"type": "Point", "coordinates": [139.67948020000017, 35.62268557994544]}, "properties": {"id": "meguro-ward-318-0-125622686-319679480", "species_group": "crabapple", "scientific_name": "Malus species", "common_name": "ハナカイドウ", "subtype_name": "ハナカイドウ", "zip_code": null, "ownership": "public", "ownership_raw": "Tokyo Metropolitan Government", "city": "Meguro Ward", "source_dataset": "Street Trees / 街路樹", "source_department": "Tokyo Metropolitan Government", "source_last_edit_at": ""}}, {"type": "Feature", "geometry": {"type": "Point", "coordinates": [139.67925140000023, 35.62322414994545]}, "properties": {"id": "meguro-ward-318-0-125623224-319679251", "species_group": "crabapple", "scientific_name": "Malus species", "common_name": "ハナカイドウ", "subtype_name": "ハナカイドウ", "zip_code": null, "ownership": "public", "ownership_raw": "Tokyo Metropolitan Government", "city": "Meguro Ward", "source_dataset": "Street Trees / 街路樹", "source_department": "Tokyo Metropolitan Government", "source_last_edit_at": ""}}, {"type": "Feature", "geometry": {"type": "Point", "coordinates": [139.68390890000023, 35.63073943994529]}, "properties": {"id": "meguro-ward-416-0-125630739-319683909", "species_group": "crabapple", "scientific_name": "Malus species", "common_name": "ハナカイドウ", "subtype_name": "ハナカイドウ", "zip_code": null, "ownership": "public", "ownership_raw": "Tokyo Metropolitan Government", "city": "Meguro Ward", "source_dataset": "Street Trees / 街路樹", "source_department": "Tokyo Metropolitan Government", "source_last_edit_at": ""}}, {"type": "Feature", "geometry": {"type": "Point", "coordinates": [139.6841163000001, 35.63074499994527]}, "properties": {"id": "meguro-ward-416-0-125630745-319684116", "species_group": "crabapple", "scientific_name": "Malus species", "common_name": "ハナカイドウ", "subtype_name": "ハナカイドウ", "zip_code": null, "ownership": "public", "ownership_raw": "Tokyo Metropolitan Government", "city": "Meguro Ward", "source_dataset": "Street Trees / 街路樹", "source_department": "Tokyo Metropolitan Government", "source_last_edit_at": ""}}, {"type": "Feature", "geometry": {"type": "Point", "coordinates": [139.6841326000002, 35.63075553994527]}, "properties": {"id": "meguro-ward-416-0-125630756-319684133", "species_group": "crabapple", "scientific_name": "Malus species", "common_name": "ハナカイドウ", "subtype_name": "ハナカイドウ", "zip_code": null, "ownership": "public", "ownership_raw": "Tokyo Metropolitan Government", "city": "Meguro Ward", "source_dataset": "Street Trees / 街路樹", "source_department": "Tokyo Metropolitan Government", "source_last_edit_at": ""}}, {"type": "Feature", "geometry": {"type": "Point", "coordinates": [139.6841555000002, 35.630767349945266]}, "properties": {"id": "meguro-ward-416-0-125630767-319684156", "species_group": "crabapple", "scientific_name": "Malus species", "common_name": "ハナカイドウ", "subtype_name": "ハナカイドウ", "zip_code": null, "ownership": "public", "ownership_raw": "Tokyo Metropolitan Government", "city": "Meguro Ward", "source_dataset": "Street Trees / 街路樹", "source_department": "Tokyo Metropolitan Government", "source_last_edit_at": ""}}, {"type": "Feature", "geometry": {"type": "Point", "coordinates": [139.68416340000022, 35.630771159945276]}, "properties": {"id": "meguro-ward-416-0-125630771-319684163", "species_group": "crabapple", "scientific_name": "Malus species", "common_name": "ハナカイドウ", "subtype_name": "ハナカイドウ", "zip_code": null, "ownership": "public", "ownership_raw": "Tokyo Metropolitan Government", "city": "Meguro Ward", "source_dataset": "Street Trees / 街路樹", "source_department": "Tokyo Metropolitan Government", "source_last_edit_at": ""}}, {"type": "Feature", "geometry": {"type": "Point", "coordinates": [139.6843328000002, 35.63086882994528]}, "properties": {"id": "meguro-ward-416-0-125630869-319684333", "species_group": "crabapple", "scientific_name": "Malus species", "common_name": "ハナカイドウ", "subtype_name": "ハナカイドウ", "zip_code": null, "ownership": "public", "ownership_raw": "Tokyo Metropolitan Government", "city": "Meguro Ward", "source_dataset": "Street Trees / 街路樹", "source_department": "Tokyo Metropolitan Government", "source_last_edit_at": ""}}, {"type": "Feature", "geometry": {"type": "Point", "coordinates": [139.68454400000016, 35.630983599945246]}, "properties": {"id": "meguro-ward-416-0-125630984-319684544", "species_group": "crabapple", "scientific_name": "Malus species", "common_name": "ハナカイドウ", "subtype_name": "ハナカイドウ", "zip_code": null, "ownership": "public", "ownership_raw": "Tokyo Metropolitan Government", "city": "Meguro Ward", "source_dataset": "Street Trees / 街路樹", "source_department": "Tokyo Metropolitan Government", "source_last_edit_at": ""}}, {"type": "Feature", "geometry": {"type": "Point", "coordinates": [139.68456820000017, 35.63099867994527]}, "properties": {"id": "meguro-ward-416-0-125630999-319684568", "species_group": "crabapple", "scientific_name": "Malus species", "common_name": "ハナカイドウ", "subtype_name": "ハナカイドウ", "zip_code": null, "ownership": "public", "ownership_raw": "Tokyo Metropolitan Government", "city": "Meguro Ward", "source_dataset": "Street Trees / 街路樹", "source_department": "Tokyo Metropolitan Government", "source_last_edit_at": ""}}, {"type": "Feature", "geometry": {"type": "Point", "coordinates": [139.6845886000002, 35.63100953994526]}, "properties": {"id": "meguro-ward-416-0-125631010-319684589", "species_group": "crabapple", "scientific_name": "Malus species", "common_name": "ハナカイドウ", "subtype_name": "ハナカイドウ", "zip_code": null, "ownership": "public", "ownership_raw": "Tokyo Metropolitan Government", "city": "Meguro Ward", "source_dataset": "Street Trees / 街路樹", "source_department": "Tokyo Metropolitan Government", "source_last_edit_at": ""}}, {"type": "Feature", "geometry": {"type": "Point", "coordinates": [139.68461730000013, 35.631025339945275]}, "properties": {"id": "meguro-ward-416-0-125631025-319684617", "species_group": "crabapple", "scientific_name": "Malus species", "common_name": "ハナカイドウ", "subtype_name": "ハナカイドウ", "zip_code": null, "ownership": "public", "ownership_raw": "Tokyo Metropolitan Government", "city": "Meguro Ward", "source_dataset": "Street Trees / 街路樹", "source_department": "Tokyo Metropolitan Government", "source_last_edit_at": ""}}, {"type": "Feature", "geometry": {"type": "Point", "coordinates": [139.68462880000016, 35.631032289945274]}, "properties": {"id": "meguro-ward-416-0-125631032-319684629", "species_group": "crabapple", "scientific_name": "Malus species", "common_name": "ハナカイドウ", "subtype_name": "ハナカイドウ", "zip_code": null, "ownership": "public", "ownership_raw": "Tokyo Metropolitan Government", "city": "Meguro Ward", "source_dataset": "Street Trees / 街路樹", "source_department": "Tokyo Metropolitan Government", "source_last_edit_at": ""}}, {"type": "Feature", "geometry": {"type": "Point", "coordinates": [139.68510250000017, 35.63130047994525]}, "properties": {"id": "meguro-ward-416-0-125631300-319685103", "species_group": "cherry", "scientific_name": "Prunus species", "common_name": "サクラ", "subtype_name": "サクラ", "zip_code": null, "ownership": "public", "ownership_raw": "Tokyo Metropolitan Government", "city": "Meguro Ward", "source_dataset": "Street Trees / 街路樹", "source_department": "Tokyo Metropolitan Government", "source_last_edit_at": ""}}, {"type": "Feature", "geometry": {"type": "Point", "coordinates": [139.6849403000002, 35.631319259945265]}, "properties": {"id": "meguro-ward-416-0-125631319-319684940", "species_group": "crabapple", "scientific_name": "Malus species", "common_name": "ハナカイドウ", "subtype_name": "ハナカイドウ", "zip_code": null, "ownership": "public", "ownership_raw": "Tokyo Metropolitan Government", "city": "Meguro Ward", "source_dataset": "Street Trees / 街路樹", "source_department": "Tokyo Metropolitan Government", "source_last_edit_at": ""}}, {"type": "Feature", "geometry": {"type": "Point", "coordinates": [139.6849684000002, 35.63133424994527]}, "properties": {"id": "meguro-ward-416-0-125631334-319684968", "species_group": "crabapple", "scientific_name": "Malus species", "common_name": "ハナカイドウ", "subtype_name": "ハナカイドウ", "zip_code": null, "ownership": "public", "ownership_raw": "Tokyo Metropolitan Government", "city": "Meguro Ward", "source_dataset": "Street Trees / 街路樹", "source_department": "Tokyo Metropolitan Government", "source_last_edit_at": ""}}, {"type": "Feature", "geometry": {"type": "Point", "coordinates": [139.68524690000015, 35.63149026994523]}, "properties": {"id": "meguro-ward-416-0-125631490-319685247", "species_group": "crabapple", "scientific_name": "Malus species", "common_name": "ハナカイドウ", "subtype_name": "ハナカイドウ", "zip_code": null, "ownership": "public", "ownership_raw": "Tokyo Metropolitan Government", "city": "Meguro Ward", "source_dataset": "Street Trees / 街路樹", "source_department": "Tokyo Metropolitan Government", "source_last_edit_at": ""}}, {"type": "Feature", "geometry": {"type": "Point", "coordinates": [139.6865904000002, 35.63416978994519]}, "properties": {"id": "meguro-ward-420-0-125634170-319686590", "species_group": "cherry", "scientific_name": "Prunus species", "common_name": "サクラ", "subtype_name": "サクラ", "zip_code": null, "ownership": "public", "ownership_raw": "Tokyo Metropolitan Government", "city": "Meguro Ward", "source_dataset": "Street Trees / 街路樹", "source_department": "Tokyo Metropolitan Government", "source_last_edit_at": ""}}, {"type": "Feature", "geometry": {"type": "Point", "coordinates": [139.68595830000012, 35.63516968994518]}, "properties": {"id": "meguro-ward-420-0-125635170-319685958", "species_group": "cherry", "scientific_name": "Prunus species", "common_name": "サクラ", "subtype_name": "サクラ", "zip_code": null, "ownership": "public", "ownership_raw": "Tokyo Metropolitan Government", "city": "Meguro Ward", "source_dataset": "Street Trees / 街路樹", "source_department": "Tokyo Metropolitan Government", "source_last_edit_at": ""}}, {"type": "Feature", "geometry": {"type": "Point", "coordinates": [139.6907143000002, 35.655281139944734]}, "properties": {"id": "meguro-ward-423-0-125655281-319690714", "species_group": "crabapple", "scientific_name": "Malus species", "common_name": "ハナカイドウ", "subtype_name": "ハナカイドウ", "zip_code": null, "ownership": "public", "ownership_raw": "Tokyo Metropolitan Government", "city": "Meguro Ward", "source_dataset": "Street Trees / 街路樹", "source_department": "Tokyo Metropolitan Government", "source_last_edit_at": ""}}, {"type": "Feature", "geometry": {"type": "Point", "coordinates": [139.68818850000014, 35.655337959944724]}, "properties": {"id": "meguro-ward-423-0-125655338-319688189", "species_group": "crabapple", "scientific_name": "Malus species", "common_name": "ハナカイドウ", "subtype_name": "ハナカイドウ", "zip_code": null, "ownership": "public", "ownership_raw": "Tokyo Metropolitan Government", "city": "Meguro Ward", "source_dataset": "Street Trees / 街路樹", "source_department": "Tokyo Metropolitan Government", "source_last_edit_at": ""}}, {"type": "Feature", "geometry": {"type": "Point", "coordinates": [139.6882372000002, 35.65534044994471]}, "properties": {"id": "meguro-ward-423-0-125655340-319688237", "species_group": "crabapple", "scientific_name": "Malus species", "common_name": "ハナカイドウ", "subtype_name": "ハナカイドウ", "zip_code": null, "ownership": "public", "ownership_raw": "Tokyo Metropolitan Government", "city": "Meguro Ward", "source_dataset": "Street Trees / 街路樹", "source_department": "Tokyo Metropolitan Government", "source_last_edit_at": ""}}, {"type": "Feature", "geometry": {"type": "Point", "coordinates": [139.6879306000002, 35.65546960994474]}, "properties": {"id": "meguro-ward-423-0-125655470-319687931", "species_group": "crabapple", "scientific_name": "Malus species", "common_name": "ハナカイドウ", "subtype_name": "ハナカイドウ", "zip_code": null, "ownership": "public", "ownership_raw": "Tokyo Metropolitan Government", "city": "Meguro Ward", "source_dataset": "Street Trees / 街路樹", "source_department": "Tokyo Metropolitan Government", "source_last_edit_at": ""}}, {"type": "Feature", "geometry": {"type": "Point", "coordinates": [139.6879543000002, 35.65547296994473]}, "properties": {"id": "meguro-ward-423-0-125655473-319687954", "species_group": "crabapple", "scientific_name": "Malus species", "common_name": "ハナカイドウ", "subtype_name": "ハナカイドウ", "zip_code": null, "ownership": "public", "ownership_raw": "Tokyo Metropolitan Government", "city": "Meguro Ward", "source_dataset": "Street Trees / 街路樹", "source_department": "Tokyo Metropolitan Government", "source_last_edit_at": ""}}, {"type": "Feature", "geometry": {"type": "Point", "coordinates": [139.68798830000014, 35.65547441994473]}, "properties": {"id": "meguro-ward-423-0-125655474-319687988", "species_group": "crabapple", "scientific_name": "Malus species", "common_name": "ハナカイドウ", "subtype_name": "ハナカイドウ", "zip_code": null, "ownership": "public", "ownership_raw": "Tokyo Metropolitan Government", "city": "Meguro Ward", "source_dataset": "Street Trees / 街路樹", "source_department": "Tokyo Metropolitan Government", "source_last_edit_at": ""}}]}