{"type": "FeatureCollection", "features": [{"type": "Feature", "geometry": {"type": "Point", "coordinates": [138.09343, 36.503777]}, "properties": {"id": "chikuma-6a86686c05cff85c", "species_group": "plum", "scientific_name": "Prunus species", "common_name": "シダレウメ", "subtype_name": "シダレウメ", "zip_code": null, "ownership": "private", "ownership_raw": "Private", "city": "Chikuma", "source_dataset": "Preserved Trees / 保存樹木", "source_department": "Chikuma City", "source_last_edit_at": ""}}, {"type": "Feature", "geometry": {"type": "Point", "coordinates": [138.102768, 36.517166]}, "properties": {"id": "chikuma-cb411159c7a7598a", "species_group": "cherry", "scientific_name": "Prunus species", "common_name": "シダレザクラ", "subtype_name": "シダレザクラ", "zip_code": null, "ownership": "private", "ownership_raw": "Private", "city": "Chikuma", "source_dataset": "Preserved Trees / 保存樹木", "source_department": "Chikuma City", "source_last_edit_at": ""}}, {"type": "Feature", "geometry": {"type": "Point", "coordinates": [138.155472, 36.518311]}, "properties": {"id": "chikuma-d7af549ee3f04059", "species_group": "cherry", "scientific_name": "Prunus species", "common_name": "シダレザクラ", "subtype_name": "シダレザクラ", "zip_code": null, "ownership": "unknown", "ownership_raw": "", "city": "Chikuma", "source_dataset": "Preserved Trees / 保存樹木", "source_department": "Chikuma City", "source_last_edit_at": ""}}, {"type": "Feature", "geometry": {"type": "Point", "coordinates": [138.12532, 36.535606]}, "properties": {"id": "chikuma-e61e015a5a709794", "species_group": "cherry", "scientific_name": "Prunus species", "common_name": "サクラ", "subtype_name": "サクラ", "zip_code": null, "ownership": "unknown", "ownership_raw": "", "city": "Chikuma", "source_dataset": "Preserved Trees / 保存樹木", "source_department": "Chikuma City", "source_last_edit_at": ""}}]}