{"type": "FeatureCollection", "features": [{"type": "Feature", "geometry": {"type": "Point", "coordinates": [-113.64052371749135, 37.13308938602996]}, "properties": {"id": "santa-clara-11250", "species_group": "plum", "scientific_name": "Prunus species", "common_name": "Plum-Flowering", "subtype_name": "Plum-Flowering", "zip_code": "84765", "ownership": "public", "ownership_raw": "City of Santa Clara", "city": "Santa Clara", "source_dataset": "Utah Urban Tree Inventory", "source_department": "City of Santa Clara", "source_last_edit_at": "2026-03-28T17:19:55.001000+00:00"}}, {"type": "Feature", "geometry": {"type": "Point", "coordinates": [-113.639041311738, 37.13253666530792]}, "properties": {"id": "santa-clara-11313", "species_group": "crabapple", "scientific_name": "Malus species", "common_name": "Apple", "subtype_name": "Apple", "zip_code": "84765", "ownership": "public", "ownership_raw": "City of Santa Clara", "city": "Santa Clara", "source_dataset": "Utah Urban Tree Inventory", "source_department": "City of Santa Clara", "source_last_edit_at": "2026-03-28T17:19:55.001000+00:00"}}, {"type": "Feature", "geometry": {"type": "Point", "coordinates": [-113.64052371749135, 37.13308938602996]}, "properties": {"id": "santa-clara-11339", "species_group": "plum", "scientific_name": "Prunus species", "common_name": "Plum-Flowering", "subtype_name": "Plum-Flowering", "zip_code": "84765", "ownership": "public", "ownership_raw": "City of Santa Clara", "city": "Santa Clara", "source_dataset": "Utah Urban Tree Inventory", "source_department": "City of Santa Clara", "source_last_edit_at": "2026-03-28T17:19:55.001000+00:00"}}, {"type": "Feature", "geometry": {"type": "Point", "coordinates": [-113.639041311738, 37.13253666530792]}, "properties": {"id": "santa-clara-11402", "species_group": "crabapple", "scientific_name": "Malus species", "common_name": "Apple", "subtype_name": "Apple", "zip_code": "84765", "ownership": "public", "ownership_raw": "City of Santa Clara", "city": "Santa Clara", "source_dataset": "Utah Urban Tree Inventory", "source_department": "City of Santa Clara", "source_last_edit_at": "2026-03-28T17:19:55.001000+00:00"}}, {"type": "Feature", "geometry": {"type": "Point", "coordinates": [-113.66759877360548, 37.141269038020866]}, "properties": {"id": "santa-clara-11406", "species_group": "plum", "scientific_name": "Prunus species", "common_name": "Plum-Flowering", "subtype_name": "Plum-Flowering", "zip_code": "84765", "ownership": "public", "ownership_raw": "City of Santa Clara", "city": "Santa Clara", "source_dataset": "Utah Urban Tree Inventory", "source_department": "City of Santa Clara", "source_last_edit_at": "2026-03-28T17:19:55.001000+00:00"}}, {"type": "Feature", "geometry": {"type": "Point", "coordinates": [-113.66758203436059, 37.14015198310866]}, "properties": {"id": "santa-clara-11430", "species_group": "plum", "scientific_name": "Prunus species", "common_name": "Plum-Flowering", "subtype_name": "Plum-Flowering", "zip_code": "84765", "ownership": "public", "ownership_raw": "City of Santa Clara", "city": "Santa Clara", "source_dataset": "Utah Urban Tree Inventory", "source_department": "City of Santa Clara", "source_last_edit_at": "2026-03-28T17:19:55.001000+00:00"}}, {"type": "Feature", "geometry": {"type": "Point", "coordinates": [-113.66757043997028, 37.14078305257317]}, "properties": {"id": "santa-clara-11443", "species_group": "plum", "scientific_name": "Prunus species", "common_name": "Plum-Flowering", "subtype_name": "Plum-Flowering", "zip_code": "84765", "ownership": "public", "ownership_raw": "City of Santa Clara", "city": "Santa Clara", "source_dataset": "Utah Urban Tree Inventory", "source_department": "City of Santa Clara", "source_last_edit_at": "2026-03-28T17:19:55.001000+00:00"}}, {"type": "Feature", "geometry": {"type": "Point", "coordinates": [-113.66762112551092, 37.14094411893684]}, "properties": {"id": "santa-clara-11447", "species_group": "plum", "scientific_name": "Prunus species", "common_name": "Plum-Flowering", "subtype_name": "Plum-Flowering", "zip_code": "84765", "ownership": "public", "ownership_raw": "City of Santa Clara", "city": "Santa Clara", "source_dataset": "Utah Urban Tree Inventory", "source_department": "City of Santa Clara", "source_last_edit_at": "2026-03-28T17:19:55.001000+00:00"}}, {"type": "Feature", "geometry": {"type": "Point", "coordinates": [-113.66764488629171, 37.140979630001134]}, "properties": {"id": "santa-clara-11448", "species_group": "plum", "scientific_name": "Prunus species", "common_name": "Plum-Flowering", "subtype_name": "Plum-Flowering", "zip_code": "84765", "ownership": "public", "ownership_raw": "City of Santa Clara", "city": "Santa Clara", "source_dataset": "Utah Urban Tree Inventory", "source_department": "City of Santa Clara", "source_last_edit_at": "2026-03-28T17:19:55.001000+00:00"}}, {"type": "Feature", "geometry": {"type": "Point", "coordinates": [-113.66766295158722, 37.1408530614833]}, "properties": {"id": "santa-clara-11449", "species_group": "plum", "scientific_name": "Prunus species", "common_name": "Plum-Flowering", "subtype_name": "Plum-Flowering", "zip_code": "84765", "ownership": "public", "ownership_raw": "City of Santa Clara", "city": "Santa Clara", "source_dataset": "Utah Urban Tree Inventory", "source_department": "City of Santa Clara", "source_last_edit_at": "2026-03-28T17:19:55.001000+00:00"}}, {"type": "Feature", "geometry": {"type": "Point", "coordinates": [-113.66752590908318, 37.14111748268741]}, "properties": {"id": "santa-clara-11464", "species_group": "plum", "scientific_name": "Prunus species", "common_name": "Plum-Flowering", "subtype_name": "Plum-Flowering", "zip_code": "84765", "ownership": "public", "ownership_raw": "City of Santa Clara", "city": "Santa Clara", "source_dataset": "Utah Urban Tree Inventory", "source_department": "City of Santa Clara", "source_last_edit_at": "2026-03-28T17:19:55.001000+00:00"}}, {"type": "Feature", "geometry": {"type": "Point", "coordinates": [-113.66755030269188, 37.14117100261233]}, "properties": {"id": "santa-clara-11465", "species_group": "plum", "scientific_name": "Prunus species", "common_name": "Plum-Flowering", "subtype_name": "Plum-Flowering", "zip_code": "84765", "ownership": "public", "ownership_raw": "City of Santa Clara", "city": "Santa Clara", "source_dataset": "Utah Urban Tree Inventory", "source_department": "City of Santa Clara", "source_last_edit_at": "2026-03-28T17:19:55.001000+00:00"}}, {"type": "Feature", "geometry": {"type": "Point", "coordinates": [-113.66733392527811, 37.140779367279386]}, "properties": {"id": "santa-clara-11470", "species_group": "plum", "scientific_name": "Prunus species", "common_name": "Plum-Flowering", "subtype_name": "Plum-Flowering", "zip_code": "84765", "ownership": "public", "ownership_raw": "City of Santa Clara", "city": "Santa Clara", "source_dataset": "Utah Urban Tree Inventory", "source_department": "City of Santa Clara", "source_last_edit_at": "2026-03-28T17:19:55.001000+00:00"}}, {"type": "Feature", "geometry": {"type": "Point", "coordinates": [-113.66729796805971, 37.14071709614929]}, "properties": {"id": "santa-clara-11471", "species_group": "plum", "scientific_name": "Prunus species", "common_name": "Plum-Flowering", "subtype_name": "Plum-Flowering", "zip_code": "84765", "ownership": "public", "ownership_raw": "City of Santa Clara", "city": "Santa Clara", "source_dataset": "Utah Urban Tree Inventory", "source_department": "City of Santa Clara", "source_last_edit_at": "2026-03-28T17:19:55.001000+00:00"}}, {"type": "Feature", "geometry": {"type": "Point", "coordinates": [-113.66729638620626, 37.14067207402941]}, "properties": {"id": "santa-clara-11472", "species_group": "plum", "scientific_name": "Prunus species", "common_name": "Plum-Flowering", "subtype_name": "Plum-Flowering", "zip_code": "84765", "ownership": "public", "ownership_raw": "City of Santa Clara", "city": "Santa Clara", "source_dataset": "Utah Urban Tree Inventory", "source_department": "City of Santa Clara", "source_last_edit_at": "2026-03-28T17:19:55.001000+00:00"}}, {"type": "Feature", "geometry": {"type": "Point", "coordinates": [-113.66717568572915, 37.14044049168929]}, "properties": {"id": "santa-clara-11476", "species_group": "plum", "scientific_name": "Prunus species", "common_name": "Plum-Flowering", "subtype_name": "Plum-Flowering", "zip_code": "84765", "ownership": "public", "ownership_raw": "City of Santa Clara", "city": "Santa Clara", "source_dataset": "Utah Urban Tree Inventory", "source_department": "City of Santa Clara", "source_last_edit_at": "2026-03-28T17:19:55.001000+00:00"}}, {"type": "Feature", "geometry": {"type": "Point", "coordinates": [-113.66715097629672, 37.14037796723613]}, "properties": {"id": "santa-clara-11477", "species_group": "plum", "scientific_name": "Prunus species", "common_name": "Plum-Flowering", "subtype_name": "Plum-Flowering", "zip_code": "84765", "ownership": "public", "ownership_raw": "City of Santa Clara", "city": "Santa Clara", "source_dataset": "Utah Urban Tree Inventory", "source_department": "City of Santa Clara", "source_last_edit_at": "2026-03-28T17:19:55.001000+00:00"}}, {"type": "Feature", "geometry": {"type": "Point", "coordinates": [-113.66713751437999, 37.140315189516826]}, "properties": {"id": "santa-clara-11478", "species_group": "plum", "scientific_name": "Prunus species", "common_name": "Plum-Flowering", "subtype_name": "Plum-Flowering", "zip_code": "84765", "ownership": "public", "ownership_raw": "City of Santa Clara", "city": "Santa Clara", "source_dataset": "Utah Urban Tree Inventory", "source_department": "City of Santa Clara", "source_last_edit_at": "2026-03-28T17:19:55.001000+00:00"}}, {"type": "Feature", "geometry": {"type": "Point", "coordinates": [-113.66710124122018, 37.14024391388165]}, "properties": {"id": "santa-clara-11479", "species_group": "plum", "scientific_name": "Prunus species", "common_name": "Plum-Flowering", "subtype_name": "Plum-Flowering", "zip_code": "84765", "ownership": "public", "ownership_raw": "City of Santa Clara", "city": "Santa Clara", "source_dataset": "Utah Urban Tree Inventory", "source_department": "City of Santa Clara", "source_last_edit_at": "2026-03-28T17:19:55.001000+00:00"}}, {"type": "Feature", "geometry": {"type": "Point", "coordinates": [-113.66711944827595, 37.14044175799419]}, "properties": {"id": "santa-clara-11489", "species_group": "plum", "scientific_name": "Prunus species", "common_name": "Plum-Flowering", "subtype_name": "Plum-Flowering", "zip_code": "84765", "ownership": "public", "ownership_raw": "City of Santa Clara", "city": "Santa Clara", "source_dataset": "Utah Urban Tree Inventory", "source_department": "City of Santa Clara", "source_last_edit_at": "2026-03-28T17:19:55.001000+00:00"}}, {"type": "Feature", "geometry": {"type": "Point", "coordinates": [-113.66713259385776, 37.14049553128856]}, "properties": {"id": "santa-clara-11490", "species_group": "plum", "scientific_name": "Prunus species", "common_name": "Plum-Flowering", "subtype_name": "Plum-Flowering", "zip_code": "84765", "ownership": "public", "ownership_raw": "City of Santa Clara", "city": "Santa Clara", "source_dataset": "Utah Urban Tree Inventory", "source_department": "City of Santa Clara", "source_last_edit_at": "2026-03-28T17:19:55.001000+00:00"}}, {"type": "Feature", "geometry": {"type": "Point", "coordinates": [-113.66725424340213, 37.14075412694509]}, "properties": {"id": "santa-clara-11495", "species_group": "plum", "scientific_name": "Prunus species", "common_name": "Plum-Flowering", "subtype_name": "Plum-Flowering", "zip_code": "84765", "ownership": "public", "ownership_raw": "City of Santa Clara", "city": "Santa Clara", "source_dataset": "Utah Urban Tree Inventory", "source_department": "City of Santa Clara", "source_last_edit_at": "2026-03-28T17:19:55.001000+00:00"}}, {"type": "Feature", "geometry": {"type": "Point", "coordinates": [-113.66726738914628, 37.140807900216075]}, "properties": {"id": "santa-clara-11496", "species_group": "plum", "scientific_name": "Prunus species", "common_name": "Plum-Flowering", "subtype_name": "Plum-Flowering", "zip_code": "84765", "ownership": "public", "ownership_raw": "City of Santa Clara", "city": "Santa Clara", "source_dataset": "Utah Urban Tree Inventory", "source_department": "City of Santa Clara", "source_last_edit_at": "2026-03-28T17:19:55.001000+00:00"}}, {"type": "Feature", "geometry": {"type": "Point", "coordinates": [-113.667291466091, 37.14085241578408]}, "properties": {"id": "santa-clara-11497", "species_group": "plum", "scientific_name": "Prunus species", "common_name": "Plum-Flowering", "subtype_name": "Plum-Flowering", "zip_code": "84765", "ownership": "public", "ownership_raw": "City of Santa Clara", "city": "Santa Clara", "source_dataset": "Utah Urban Tree Inventory", "source_department": "City of Santa Clara", "source_last_edit_at": "2026-03-28T17:19:55.001000+00:00"}}, {"type": "Feature", "geometry": {"type": "Point", "coordinates": [-113.6673399364478, 37.14095045132446]}, "properties": {"id": "santa-clara-11498", "species_group": "plum", "scientific_name": "Prunus species", "common_name": "Plum-Flowering", "subtype_name": "Plum-Flowering", "zip_code": "84765", "ownership": "public", "ownership_raw": "City of Santa Clara", "city": "Santa Clara", "source_dataset": "Utah Urban Tree Inventory", "source_department": "City of Santa Clara", "source_last_edit_at": "2026-03-28T17:19:55.001000+00:00"}}, {"type": "Feature", "geometry": {"type": "Point", "coordinates": [-113.66736401351623, 37.14099496777373]}, "properties": {"id": "santa-clara-11499", "species_group": "plum", "scientific_name": "Prunus species", "common_name": "Plum-Flowering", "subtype_name": "Plum-Flowering", "zip_code": "84765", "ownership": "public", "ownership_raw": "City of Santa Clara", "city": "Santa Clara", "source_dataset": "Utah Urban Tree Inventory", "source_department": "City of Santa Clara", "source_last_edit_at": "2026-03-28T17:19:55.001000+00:00"}}, {"type": "Feature", "geometry": {"type": "Point", "coordinates": [-113.66735877717298, 37.14116630419372]}, "properties": {"id": "santa-clara-11501", "species_group": "plum", "scientific_name": "Prunus species", "common_name": "Plum-Flowering", "subtype_name": "Plum-Flowering", "zip_code": "84765", "ownership": "public", "ownership_raw": "City of Santa Clara", "city": "Santa Clara", "source_dataset": "Utah Urban Tree Inventory", "source_department": "City of Santa Clara", "source_last_edit_at": "2026-03-28T17:19:55.001000+00:00"}}, {"type": "Feature", "geometry": {"type": "Point", "coordinates": [-113.6674278447055, 37.14120980657457]}, "properties": {"id": "santa-clara-11502", "species_group": "plum", "scientific_name": "Prunus species", "common_name": "Plum-Flowering", "subtype_name": "Plum-Flowering", "zip_code": "84765", "ownership": "public", "ownership_raw": "City of Santa Clara", "city": "Santa Clara", "source_dataset": "Utah Urban Tree Inventory", "source_department": "City of Santa Clara", "source_last_edit_at": "2026-03-28T17:19:55.001000+00:00"}}, {"type": "Feature", "geometry": {"type": "Point", "coordinates": [-113.66745192188442, 37.14125432209851]}, "properties": {"id": "santa-clara-11503", "species_group": "plum", "scientific_name": "Prunus species", "common_name": "Plum-Flowering", "subtype_name": "Plum-Flowering", "zip_code": "84765", "ownership": "public", "ownership_raw": "City of Santa Clara", "city": "Santa Clara", "source_dataset": "Utah Urban Tree Inventory", "source_department": "City of Santa Clara", "source_last_edit_at": "2026-03-28T17:19:55.001000+00:00"}}, {"type": "Feature", "geometry": {"type": "Point", "coordinates": [-113.66745318746733, 37.141290339786345]}, "properties": {"id": "santa-clara-11504", "species_group": "plum", "scientific_name": "Prunus species", "common_name": "Plum-Flowering", "subtype_name": "Plum-Flowering", "zip_code": "84765", "ownership": "public", "ownership_raw": "City of Santa Clara", "city": "Santa Clara", "source_dataset": "Utah Urban Tree Inventory", "source_department": "City of Santa Clara", "source_last_edit_at": "2026-03-28T17:19:55.001000+00:00"}}, {"type": "Feature", "geometry": {"type": "Point", "coordinates": [-113.66747694825833, 37.14132584998088]}, "properties": {"id": "santa-clara-11505", "species_group": "plum", "scientific_name": "Prunus species", "common_name": "Plum-Flowering", "subtype_name": "Plum-Flowering", "zip_code": "84765", "ownership": "public", "ownership_raw": "City of Santa Clara", "city": "Santa Clara", "source_dataset": "Utah Urban Tree Inventory", "source_department": "City of Santa Clara", "source_last_edit_at": "2026-03-28T17:19:55.001000+00:00"}}, {"type": "Feature", "geometry": {"type": "Point", "coordinates": [-113.6666383363541, 37.14052468254943]}, "properties": {"id": "santa-clara-11531", "species_group": "peach", "scientific_name": "Prunus species", "common_name": "Peach", "subtype_name": null, "zip_code": "84765", "ownership": "public", "ownership_raw": "City of Santa Clara", "city": "Santa Clara", "source_dataset": "Utah Urban Tree Inventory", "source_department": "City of Santa Clara", "source_last_edit_at": "2026-03-28T17:19:55.001000+00:00"}}, {"type": "Feature", "geometry": {"type": "Point", "coordinates": [-113.66658255386065, 37.140859365692]}, "properties": {"id": "santa-clara-11533", "species_group": "plum", "scientific_name": "Prunus species", "common_name": "Plum-Flowering", "subtype_name": "Plum-Flowering", "zip_code": "84765", "ownership": "public", "ownership_raw": "City of Santa Clara", "city": "Santa Clara", "source_dataset": "Utah Urban Tree Inventory", "source_department": "City of Santa Clara", "source_last_edit_at": "2026-03-28T17:19:55.001000+00:00"}}, {"type": "Feature", "geometry": {"type": "Point", "coordinates": [-113.66663260479963, 37.14100242370054]}, "properties": {"id": "santa-clara-11535", "species_group": "plum", "scientific_name": "Prunus species", "common_name": "Plum-Flowering", "subtype_name": "Plum-Flowering", "zip_code": "84765", "ownership": "public", "ownership_raw": "City of Santa Clara", "city": "Santa Clara", "source_dataset": "Utah Urban Tree Inventory", "source_department": "City of Santa Clara", "source_last_edit_at": "2026-03-28T17:19:55.001000+00:00"}}, {"type": "Feature", "geometry": {"type": "Point", "coordinates": [-113.66669358723745, 37.14113622402821]}, "properties": {"id": "santa-clara-11537", "species_group": "plum", "scientific_name": "Prunus species", "common_name": "Plum-Flowering", "subtype_name": "Plum-Flowering", "zip_code": "84765", "ownership": "public", "ownership_raw": "City of Santa Clara", "city": "Santa Clara", "source_dataset": "Utah Urban Tree Inventory", "source_department": "City of Santa Clara", "source_last_edit_at": "2026-03-28T17:19:55.001000+00:00"}}, {"type": "Feature", "geometry": {"type": "Point", "coordinates": [-113.66676645018035, 37.14128778083871]}, "properties": {"id": "santa-clara-11539", "species_group": "plum", "scientific_name": "Prunus species", "common_name": "Plum-Flowering", "subtype_name": "Plum-Flowering", "zip_code": "84765", "ownership": "public", "ownership_raw": "City of Santa Clara", "city": "Santa Clara", "source_dataset": "Utah Urban Tree Inventory", "source_department": "City of Santa Clara", "source_last_edit_at": "2026-03-28T17:19:55.001000+00:00"}}, {"type": "Feature", "geometry": {"type": "Point", "coordinates": [-113.66759877360548, 37.141269038020866]}, "properties": {"id": "santa-clara-11583", "species_group": "plum", "scientific_name": "Prunus species", "common_name": "Plum-Flowering", "subtype_name": "Plum-Flowering", "zip_code": "84765", "ownership": "public", "ownership_raw": "City of Santa Clara", "city": "Santa Clara", "source_dataset": "Utah Urban Tree Inventory", "source_department": "City of Santa Clara", "source_last_edit_at": "2026-03-28T17:19:55.001000+00:00"}}, {"type": "Feature", "geometry": {"type": "Point", "coordinates": [-113.66758203436059, 37.14015198310866]}, "properties": {"id": "santa-clara-11607", "species_group": "plum", "scientific_name": "Prunus species", "common_name": "Plum-Flowering", "subtype_name": "Plum-Flowering", "zip_code": "84765", "ownership": "public", "ownership_raw": "City of Santa Clara", "city": "Santa Clara", "source_dataset": "Utah Urban Tree Inventory", "source_department": "City of Santa Clara", "source_last_edit_at": "2026-03-28T17:19:55.001000+00:00"}}, {"type": "Feature", "geometry": {"type": "Point", "coordinates": [-113.66757043997028, 37.14078305257317]}, "properties": {"id": "santa-clara-11620", "species_group": "plum", "scientific_name": "Prunus species", "common_name": "Plum-Flowering", "subtype_name": "Plum-Flowering", "zip_code": "84765", "ownership": "public", "ownership_raw": "City of Santa Clara", "city": "Santa Clara", "source_dataset": "Utah Urban Tree Inventory", "source_department": "City of Santa Clara", "source_last_edit_at": "2026-03-28T17:19:55.001000+00:00"}}, {"type": "Feature", "geometry": {"type": "Point", "coordinates": [-113.66762112551092, 37.14094411893684]}, "properties": {"id": "santa-clara-11624", "species_group": "plum", "scientific_name": "Prunus species", "common_name": "Plum-Flowering", "subtype_name": "Plum-Flowering", "zip_code": "84765", "ownership": "public", "ownership_raw": "City of Santa Clara", "city": "Santa Clara", "source_dataset": "Utah Urban Tree Inventory", "source_department": "City of Santa Clara", "source_last_edit_at": "2026-03-28T17:19:55.001000+00:00"}}, {"type": "Feature", "geometry": {"type": "Point", "coordinates": [-113.66764488629171, 37.140979630001134]}, "properties": {"id": "santa-clara-11625", "species_group": "plum", "scientific_name": "Prunus species", "common_name": "Plum-Flowering", "subtype_name": "Plum-Flowering", "zip_code": "84765", "ownership": "public", "ownership_raw": "City of Santa Clara", "city": "Santa Clara", "source_dataset": "Utah Urban Tree Inventory", "source_department": "City of Santa Clara", "source_last_edit_at": "2026-03-28T17:19:55.001000+00:00"}}, {"type": "Feature", "geometry": {"type": "Point", "coordinates": [-113.66766295158722, 37.1408530614833]}, "properties": {"id": "santa-clara-11626", "species_group": "plum", "scientific_name": "Prunus species", "common_name": "Plum-Flowering", "subtype_name": "Plum-Flowering", "zip_code": "84765", "ownership": "public", "ownership_raw": "City of Santa Clara", "city": "Santa Clara", "source_dataset": "Utah Urban Tree Inventory", "source_department": "City of Santa Clara", "source_last_edit_at": "2026-03-28T17:19:55.001000+00:00"}}, {"type": "Feature", "geometry": {"type": "Point", "coordinates": [-113.66752590908318, 37.14111748268741]}, "properties": {"id": "santa-clara-11641", "species_group": "plum", "scientific_name": "Prunus species", "common_name": "Plum-Flowering", "subtype_name": "Plum-Flowering", "zip_code": "84765", "ownership": "public", "ownership_raw": "City of Santa Clara", "city": "Santa Clara", "source_dataset": "Utah Urban Tree Inventory", "source_department": "City of Santa Clara", "source_last_edit_at": "2026-03-28T17:19:55.001000+00:00"}}, {"type": "Feature", "geometry": {"type": "Point", "coordinates": [-113.66755030269188, 37.14117100261233]}, "properties": {"id": "santa-clara-11642", "species_group": "plum", "scientific_name": "Prunus species", "common_name": "Plum-Flowering", "subtype_name": "Plum-Flowering", "zip_code": "84765", "ownership": "public", "ownership_raw": "City of Santa Clara", "city": "Santa Clara", "source_dataset": "Utah Urban Tree Inventory", "source_department": "City of Santa Clara", "source_last_edit_at": "2026-03-28T17:19:55.001000+00:00"}}, {"type": "Feature", "geometry": {"type": "Point", "coordinates": [-113.66733392527811, 37.140779367279386]}, "properties": {"id": "santa-clara-11647", "species_group": "plum", "scientific_name": "Prunus species", "common_name": "Plum-Flowering", "subtype_name": "Plum-Flowering", "zip_code": "84765", "ownership": "public", "ownership_raw": "City of Santa Clara", "city": "Santa Clara", "source_dataset": "Utah Urban Tree Inventory", "source_department": "City of Santa Clara", "source_last_edit_at": "2026-03-28T17:19:55.001000+00:00"}}, {"type": "Feature", "geometry": {"type": "Point", "coordinates": [-113.66729796805971, 37.14071709614929]}, "properties": {"id": "santa-clara-11648", "species_group": "plum", "scientific_name": "Prunus species", "common_name": "Plum-Flowering", "subtype_name": "Plum-Flowering", "zip_code": "84765", "ownership": "public", "ownership_raw": "City of Santa Clara", "city": "Santa Clara", "source_dataset": "Utah Urban Tree Inventory", "source_department": "City of Santa Clara", "source_last_edit_at": "2026-03-28T17:19:55.001000+00:00"}}, {"type": "Feature", "geometry": {"type": "Point", "coordinates": [-113.66729638620626, 37.14067207402941]}, "properties": {"id": "santa-clara-11649", "species_group": "plum", "scientific_name": "Prunus species", "common_name": "Plum-Flowering", "subtype_name": "Plum-Flowering", "zip_code": "84765", "ownership": "public", "ownership_raw": "City of Santa Clara", "city": "Santa Clara", "source_dataset": "Utah Urban Tree Inventory", "source_department": "City of Santa Clara", "source_last_edit_at": "2026-03-28T17:19:55.001000+00:00"}}, {"type": "Feature", "geometry": {"type": "Point", "coordinates": [-113.66717568572915, 37.14044049168929]}, "properties": {"id": "santa-clara-11653", "species_group": "plum", "scientific_name": "Prunus species", "common_name": "Plum-Flowering", "subtype_name": "Plum-Flowering", "zip_code": "84765", "ownership": "public", "ownership_raw": "City of Santa Clara", "city": "Santa Clara", "source_dataset": "Utah Urban Tree Inventory", "source_department": "City of Santa Clara", "source_last_edit_at": "2026-03-28T17:19:55.001000+00:00"}}, {"type": "Feature", "geometry": {"type": "Point", "coordinates": [-113.66715097629672, 37.14037796723613]}, "properties": {"id": "santa-clara-11654", "species_group": "plum", "scientific_name": "Prunus species", "common_name": "Plum-Flowering", "subtype_name": "Plum-Flowering", "zip_code": "84765", "ownership": "public", "ownership_raw": "City of Santa Clara", "city": "Santa Clara", "source_dataset": "Utah Urban Tree Inventory", "source_department": "City of Santa Clara", "source_last_edit_at": "2026-03-28T17:19:55.001000+00:00"}}, {"type": "Feature", "geometry": {"type": "Point", "coordinates": [-113.66713751437999, 37.140315189516826]}, "properties": {"id": "santa-clara-11655", "species_group": "plum", "scientific_name": "Prunus species", "common_name": "Plum-Flowering", "subtype_name": "Plum-Flowering", "zip_code": "84765", "ownership": "public", "ownership_raw": "City of Santa Clara", "city": "Santa Clara", "source_dataset": "Utah Urban Tree Inventory", "source_department": "City of Santa Clara", "source_last_edit_at": "2026-03-28T17:19:55.001000+00:00"}}, {"type": "Feature", "geometry": {"type": "Point", "coordinates": [-113.66710124122018, 37.14024391388165]}, "properties": {"id": "santa-clara-11656", "species_group": "plum", "scientific_name": "Prunus species", "common_name": "Plum-Flowering", "subtype_name": "Plum-Flowering", "zip_code": "84765", "ownership": "public", "ownership_raw": "City of Santa Clara", "city": "Santa Clara", "source_dataset": "Utah Urban Tree Inventory", "source_department": "City of Santa Clara", "source_last_edit_at": "2026-03-28T17:19:55.001000+00:00"}}, {"type": "Feature", "geometry": {"type": "Point", "coordinates": [-113.66711944827595, 37.14044175799419]}, "properties": {"id": "santa-clara-11666", "species_group": "plum", "scientific_name": "Prunus species", "common_name": "Plum-Flowering", "subtype_name": "Plum-Flowering", "zip_code": "84765", "ownership": "public", "ownership_raw": "City of Santa Clara", "city": "Santa Clara", "source_dataset": "Utah Urban Tree Inventory", "source_department": "City of Santa Clara", "source_last_edit_at": "2026-03-28T17:19:55.001000+00:00"}}, {"type": "Feature", "geometry": {"type": "Point", "coordinates": [-113.66713259385776, 37.14049553128856]}, "properties": {"id": "santa-clara-11667", "species_group": "plum", "scientific_name": "Prunus species", "common_name": "Plum-Flowering", "subtype_name": "Plum-Flowering", "zip_code": "84765", "ownership": "public", "ownership_raw": "City of Santa Clara", "city": "Santa Clara", "source_dataset": "Utah Urban Tree Inventory", "source_department": "City of Santa Clara", "source_last_edit_at": "2026-03-28T17:19:55.001000+00:00"}}, {"type": "Feature", "geometry": {"type": "Point", "coordinates": [-113.66725424340213, 37.14075412694509]}, "properties": {"id": "santa-clara-11672", "species_group": "plum", "scientific_name": "Prunus species", "common_name": "Plum-Flowering", "subtype_name": "Plum-Flowering", "zip_code": "84765", "ownership": "public", "ownership_raw": "City of Santa Clara", "city": "Santa Clara", "source_dataset": "Utah Urban Tree Inventory", "source_department": "City of Santa Clara", "source_last_edit_at": "2026-03-28T17:19:55.001000+00:00"}}, {"type": "Feature", "geometry": {"type": "Point", "coordinates": [-113.66726738914628, 37.140807900216075]}, "properties": {"id": "santa-clara-11673", "species_group": "plum", "scientific_name": "Prunus species", "common_name": "Plum-Flowering", "subtype_name": "Plum-Flowering", "zip_code": "84765", "ownership": "public", "ownership_raw": "City of Santa Clara", "city": "Santa Clara", "source_dataset": "Utah Urban Tree Inventory", "source_department": "City of Santa Clara", "source_last_edit_at": "2026-03-28T17:19:55.001000+00:00"}}, {"type": "Feature", "geometry": {"type": "Point", "coordinates": [-113.667291466091, 37.14085241578408]}, "properties": {"id": "santa-clara-11674", "species_group": "plum", "scientific_name": "Prunus species", "common_name": "Plum-Flowering", "subtype_name": "Plum-Flowering", "zip_code": "84765", "ownership": "public", "ownership_raw": "City of Santa Clara", "city": "Santa Clara", "source_dataset": "Utah Urban Tree Inventory", "source_department": "City of Santa Clara", "source_last_edit_at": "2026-03-28T17:19:55.001000+00:00"}}, {"type": "Feature", "geometry": {"type": "Point", "coordinates": [-113.66732679062184, 37.14089667806568]}, "properties": {"id": "santa-clara-11675", "species_group": "plum", "scientific_name": "Prunus species", "common_name": "Plum-Flowering", "subtype_name": "Plum-Flowering", "zip_code": "84765", "ownership": "public", "ownership_raw": "City of Santa Clara", "city": "Santa Clara", "source_dataset": "Utah Urban Tree Inventory", "source_department": "City of Santa Clara", "source_last_edit_at": "2026-03-28T17:19:55.001000+00:00"}}, {"type": "Feature", "geometry": {"type": "Point", "coordinates": [-113.6673399364478, 37.14095045132446]}, "properties": {"id": "santa-clara-11676", "species_group": "plum", "scientific_name": "Prunus species", "common_name": "Plum-Flowering", "subtype_name": "Plum-Flowering", "zip_code": "84765", "ownership": "public", "ownership_raw": "City of Santa Clara", "city": "Santa Clara", "source_dataset": "Utah Urban Tree Inventory", "source_department": "City of Santa Clara", "source_last_edit_at": "2026-03-28T17:19:55.001000+00:00"}}, {"type": "Feature", "geometry": {"type": "Point", "coordinates": [-113.66735877717298, 37.14116630419372]}, "properties": {"id": "santa-clara-11678", "species_group": "plum", "scientific_name": "Prunus species", "common_name": "Plum-Flowering", "subtype_name": "Plum-Flowering", "zip_code": "84765", "ownership": "public", "ownership_raw": "City of Santa Clara", "city": "Santa Clara", "source_dataset": "Utah Urban Tree Inventory", "source_department": "City of Santa Clara", "source_last_edit_at": "2026-03-28T17:19:55.001000+00:00"}}, {"type": "Feature", "geometry": {"type": "Point", "coordinates": [-113.6674278447055, 37.14120980657457]}, "properties": {"id": "santa-clara-11679", "species_group": "plum", "scientific_name": "Prunus species", "common_name": "Plum-Flowering", "subtype_name": "Plum-Flowering", "zip_code": "84765", "ownership": "public", "ownership_raw": "City of Santa Clara", "city": "Santa Clara", "source_dataset": "Utah Urban Tree Inventory", "source_department": "City of Santa Clara", "source_last_edit_at": "2026-03-28T17:19:55.001000+00:00"}}, {"type": "Feature", "geometry": {"type": "Point", "coordinates": [-113.66745192188442, 37.14125432209851]}, "properties": {"id": "santa-clara-11680", "species_group": "plum", "scientific_name": "Prunus species", "common_name": "Plum-Flowering", "subtype_name": "Plum-Flowering", "zip_code": "84765", "ownership": "public", "ownership_raw": "City of Santa Clara", "city": "Santa Clara", "source_dataset": "Utah Urban Tree Inventory", "source_department": "City of Santa Clara", "source_last_edit_at": "2026-03-28T17:19:55.001000+00:00"}}, {"type": "Feature", "geometry": {"type": "Point", "coordinates": [-113.66745318746733, 37.141290339786345]}, "properties": {"id": "santa-clara-11681", "species_group": "plum", "scientific_name": "Prunus species", "common_name": "Plum-Flowering", "subtype_name": "Plum-Flowering", "zip_code": "84765", "ownership": "public", "ownership_raw": "City of Santa Clara", "city": "Santa Clara", "source_dataset": "Utah Urban Tree Inventory", "source_department": "City of Santa Clara", "source_last_edit_at": "2026-03-28T17:19:55.001000+00:00"}}, {"type": "Feature", "geometry": {"type": "Point", "coordinates": [-113.66747694825833, 37.14132584998088]}, "properties": {"id": "santa-clara-11682", "species_group": "plum", "scientific_name": "Prunus species", "common_name": "Plum-Flowering", "subtype_name": "Plum-Flowering", "zip_code": "84765", "ownership": "public", "ownership_raw": "City of Santa Clara", "city": "Santa Clara", "source_dataset": "Utah Urban Tree Inventory", "source_department": "City of Santa Clara", "source_last_edit_at": "2026-03-28T17:19:55.001000+00:00"}}, {"type": "Feature", "geometry": {"type": "Point", "coordinates": [-113.6666383363541, 37.14052468254943]}, "properties": {"id": "santa-clara-11708", "species_group": "peach", "scientific_name": "Prunus species", "common_name": "Peach", "subtype_name": null, "zip_code": "84765", "ownership": "public", "ownership_raw": "City of Santa Clara", "city": "Santa Clara", "source_dataset": "Utah Urban Tree Inventory", "source_department": "City of Santa Clara", "source_last_edit_at": "2026-03-28T17:19:55.001000+00:00"}}, {"type": "Feature", "geometry": {"type": "Point", "coordinates": [-113.66658255386065, 37.140859365692]}, "properties": {"id": "santa-clara-11710", "species_group": "plum", "scientific_name": "Prunus species", "common_name": "Plum-Flowering", "subtype_name": "Plum-Flowering", "zip_code": "84765", "ownership": "public", "ownership_raw": "City of Santa Clara", "city": "Santa Clara", "source_dataset": "Utah Urban Tree Inventory", "source_department": "City of Santa Clara", "source_last_edit_at": "2026-03-28T17:19:55.001000+00:00"}}, {"type": "Feature", "geometry": {"type": "Point", "coordinates": [-113.66663260479963, 37.14100242370054]}, "properties": {"id": "santa-clara-11712", "species_group": "plum", "scientific_name": "Prunus species", "common_name": "Plum-Flowering", "subtype_name": "Plum-Flowering", "zip_code": "84765", "ownership": "public", "ownership_raw": "City of Santa Clara", "city": "Santa Clara", "source_dataset": "Utah Urban Tree Inventory", "source_department": "City of Santa Clara", "source_last_edit_at": "2026-03-28T17:19:55.001000+00:00"}}, {"type": "Feature", "geometry": {"type": "Point", "coordinates": [-113.66669358723745, 37.14113622402821]}, "properties": {"id": "santa-clara-11714", "species_group": "plum", "scientific_name": "Prunus species", "common_name": "Plum-Flowering", "subtype_name": "Plum-Flowering", "zip_code": "84765", "ownership": "public", "ownership_raw": "City of Santa Clara", "city": "Santa Clara", "source_dataset": "Utah Urban Tree Inventory", "source_department": "City of Santa Clara", "source_last_edit_at": "2026-03-28T17:19:55.001000+00:00"}}, {"type": "Feature", "geometry": {"type": "Point", "coordinates": [-113.66676645018035, 37.14128778083871]}, "properties": {"id": "santa-clara-11716", "species_group": "plum", "scientific_name": "Prunus species", "common_name": "Plum-Flowering", "subtype_name": "Plum-Flowering", "zip_code": "84765", "ownership": "public", "ownership_raw": "City of Santa Clara", "city": "Santa Clara", "source_dataset": "Utah Urban Tree Inventory", "source_department": "City of Santa Clara", "source_last_edit_at": "2026-03-28T17:19:55.001000+00:00"}}, {"type": "Feature", "geometry": {"type": "Point", "coordinates": [-113.66759877360548, 37.141269038020866]}, "properties": {"id": "santa-clara-11753", "species_group": "plum", "scientific_name": "Prunus species", "common_name": "Plum-Flowering", "subtype_name": "Plum-Flowering", "zip_code": "84765", "ownership": "public", "ownership_raw": "City of Santa Clara", "city": "Santa Clara", "source_dataset": "Utah Urban Tree Inventory", "source_department": "City of Santa Clara", "source_last_edit_at": "2026-03-28T17:19:55.001000+00:00"}}, {"type": "Feature", "geometry": {"type": "Point", "coordinates": [-113.66758203436059, 37.14015198310866]}, "properties": {"id": "santa-clara-11777", "species_group": "plum", "scientific_name": "Prunus species", "common_name": "Plum-Flowering", "subtype_name": "Plum-Flowering", "zip_code": "84765", "ownership": "public", "ownership_raw": "City of Santa Clara", "city": "Santa Clara", "source_dataset": "Utah Urban Tree Inventory", "source_department": "City of Santa Clara", "source_last_edit_at": "2026-03-28T17:19:55.001000+00:00"}}, {"type": "Feature", "geometry": {"type": "Point", "coordinates": [-113.66757043997028, 37.14078305257317]}, "properties": {"id": "santa-clara-11790", "species_group": "plum", "scientific_name": "Prunus species", "common_name": "Plum-Flowering", "subtype_name": "Plum-Flowering", "zip_code": "84765", "ownership": "public", "ownership_raw": "City of Santa Clara", "city": "Santa Clara", "source_dataset": "Utah Urban Tree Inventory", "source_department": "City of Santa Clara", "source_last_edit_at": "2026-03-28T17:19:55.001000+00:00"}}, {"type": "Feature", "geometry": {"type": "Point", "coordinates": [-113.66762112551092, 37.14094411893684]}, "properties": {"id": "santa-clara-11794", "species_group": "plum", "scientific_name": "Prunus species", "common_name": "Plum-Flowering", "subtype_name": "Plum-Flowering", "zip_code": "84765", "ownership": "public", "ownership_raw": "City of Santa Clara", "city": "Santa Clara", "source_dataset": "Utah Urban Tree Inventory", "source_department": "City of Santa Clara", "source_last_edit_at": "2026-03-28T17:19:55.001000+00:00"}}, {"type": "Feature", "geometry": {"type": "Point", "coordinates": [-113.66764488629171, 37.140979630001134]}, "properties": {"id": "santa-clara-11795", "species_group": "plum", "scientific_name": "Prunus species", "common_name": "Plum-Flowering", "subtype_name": "Plum-Flowering", "zip_code": "84765", "ownership": "public", "ownership_raw": "City of Santa Clara", "city": "Santa Clara", "source_dataset": "Utah Urban Tree Inventory", "source_department": "City of Santa Clara", "source_last_edit_at": "2026-03-28T17:19:55.001000+00:00"}}, {"type": "Feature", "geometry": {"type": "Point", "coordinates": [-113.66766295158722, 37.1408530614833]}, "properties": {"id": "santa-clara-11796", "species_group": "plum", "scientific_name": "Prunus species", "common_name": "Plum-Flowering", "subtype_name": "Plum-Flowering", "zip_code": "84765", "ownership": "public", "ownership_raw": "City of Santa Clara", "city": "Santa Clara", "source_dataset": "Utah Urban Tree Inventory", "source_department": "City of Santa Clara", "source_last_edit_at": "2026-03-28T17:19:55.001000+00:00"}}, {"type": "Feature", "geometry": {"type": "Point", "coordinates": [-113.66752590908318, 37.14111748268741]}, "properties": {"id": "santa-clara-11811", "species_group": "plum", "scientific_name": "Prunus species", "common_name": "Plum-Flowering", "subtype_name": "Plum-Flowering", "zip_code": "84765", "ownership": "public", "ownership_raw": "City of Santa Clara", "city": "Santa Clara", "source_dataset": "Utah Urban Tree Inventory", "source_department": "City of Santa Clara", "source_last_edit_at": "2026-03-28T17:19:55.001000+00:00"}}, {"type": "Feature", "geometry": {"type": "Point", "coordinates": [-113.66755030269188, 37.14117100261233]}, "properties": {"id": "santa-clara-11812", "species_group": "plum", "scientific_name": "Prunus species", "common_name": "Plum-Flowering", "subtype_name": "Plum-Flowering", "zip_code": "84765", "ownership": "public", "ownership_raw": "City of Santa Clara", "city": "Santa Clara", "source_dataset": "Utah Urban Tree Inventory", "source_department": "City of Santa Clara", "source_last_edit_at": "2026-03-28T17:19:55.001000+00:00"}}, {"type": "Feature", "geometry": {"type": "Point", "coordinates": [-113.66733392527811, 37.140779367279386]}, "properties": {"id": "santa-clara-11817", "species_group": "plum", "scientific_name": "Prunus species", "common_name": "Plum-Flowering", "subtype_name": "Plum-Flowering", "zip_code": "84765", "ownership": "public", "ownership_raw": "City of Santa Clara", "city": "Santa Clara", "source_dataset": "Utah Urban Tree Inventory", "source_department": "City of Santa Clara", "source_last_edit_at": "2026-03-28T17:19:55.001000+00:00"}}, {"type": "Feature", "geometry": {"type": "Point", "coordinates": [-113.66729796805971, 37.14071709614929]}, "properties": {"id": "santa-clara-11818", "species_group": "plum", "scientific_name": "Prunus species", "common_name": "Plum-Flowering", "subtype_name": "Plum-Flowering", "zip_code": "84765", "ownership": "public", "ownership_raw": "City of Santa Clara", "city": "Santa Clara", "source_dataset": "Utah Urban Tree Inventory", "source_department": "City of Santa Clara", "source_last_edit_at": "2026-03-28T17:19:55.001000+00:00"}}, {"type": "Feature", "geometry": {"type": "Point", "coordinates": [-113.66729638620626, 37.14067207402941]}, "properties": {"id": "santa-clara-11819", "species_group": "plum", "scientific_name": "Prunus species", "common_name": "Plum-Flowering", "subtype_name": "Plum-Flowering", "zip_code": "84765", "ownership": "public", "ownership_raw": "City of Santa Clara", "city": "Santa Clara", "source_dataset": "Utah Urban Tree Inventory", "source_department": "City of Santa Clara", "source_last_edit_at": "2026-03-28T17:19:55.001000+00:00"}}, {"type": "Feature", "geometry": {"type": "Point", "coordinates": [-113.66717568572915, 37.14044049168929]}, "properties": {"id": "santa-clara-11823", "species_group": "plum", "scientific_name": "Prunus species", "common_name": "Plum-Flowering", "subtype_name": "Plum-Flowering", "zip_code": "84765", "ownership": "public", "ownership_raw": "City of Santa Clara", "city": "Santa Clara", "source_dataset": "Utah Urban Tree Inventory", "source_department": "City of Santa Clara", "source_last_edit_at": "2026-03-28T17:19:55.001000+00:00"}}, {"type": "Feature", "geometry": {"type": "Point", "coordinates": [-113.66715097629672, 37.14037796723613]}, "properties": {"id": "santa-clara-11824", "species_group": "plum", "scientific_name": "Prunus species", "common_name": "Plum-Flowering", "subtype_name": "Plum-Flowering", "zip_code": "84765", "ownership": "public", "ownership_raw": "City of Santa Clara", "city": "Santa Clara", "source_dataset": "Utah Urban Tree Inventory", "source_department": "City of Santa Clara", "source_last_edit_at": "2026-03-28T17:19:55.001000+00:00"}}, {"type": "Feature", "geometry": {"type": "Point", "coordinates": [-113.66713751437999, 37.140315189516826]}, "properties": {"id": "santa-clara-11825", "species_group": "plum", "scientific_name": "Prunus species", "common_name": "Plum-Flowering", "subtype_name": "Plum-Flowering", "zip_code": "84765", "ownership": "public", "ownership_raw": "City of Santa Clara", "city": "Santa Clara", "source_dataset": "Utah Urban Tree Inventory", "source_department": "City of Santa Clara", "source_last_edit_at": "2026-03-28T17:19:55.001000+00:00"}}, {"type": "Feature", "geometry": {"type": "Point", "coordinates": [-113.66710124122018, 37.14024391388165]}, "properties": {"id": "santa-clara-11826", "species_group": "plum", "scientific_name": "Prunus species", "common_name": "Plum-Flowering", "subtype_name": "Plum-Flowering", "zip_code": "84765", "ownership": "public", "ownership_raw": "City of Santa Clara", "city": "Santa Clara", "source_dataset": "Utah Urban Tree Inventory", "source_department": "City of Santa Clara", "source_last_edit_at": "2026-03-28T17:19:55.001000+00:00"}}, {"type": "Feature", "geometry": {"type": "Point", "coordinates": [-113.66711944827595, 37.14044175799419]}, "properties": {"id": "santa-clara-11836", "species_group": "plum", "scientific_name": "Prunus species", "common_name": "Plum-Flowering", "subtype_name": "Plum-Flowering", "zip_code": "84765", "ownership": "public", "ownership_raw": "City of Santa Clara", "city": "Santa Clara", "source_dataset": "Utah Urban Tree Inventory", "source_department": "City of Santa Clara", "source_last_edit_at": "2026-03-28T17:19:55.001000+00:00"}}, {"type": "Feature", "geometry": {"type": "Point", "coordinates": [-113.66713259385776, 37.14049553128856]}, "properties": {"id": "santa-clara-11837", "species_group": "plum", "scientific_name": "Prunus species", "common_name": "Plum-Flowering", "subtype_name": "Plum-Flowering", "zip_code": "84765", "ownership": "public", "ownership_raw": "City of Santa Clara", "city": "Santa Clara", "source_dataset": "Utah Urban Tree Inventory", "source_department": "City of Santa Clara", "source_last_edit_at": "2026-03-28T17:19:55.001000+00:00"}}, {"type": "Feature", "geometry": {"type": "Point", "coordinates": [-113.66725424340213, 37.14075412694509]}, "properties": {"id": "santa-clara-11842", "species_group": "plum", "scientific_name": "Prunus species", "common_name": "Plum-Flowering", "subtype_name": "Plum-Flowering", "zip_code": "84765", "ownership": "public", "ownership_raw": "City of Santa Clara", "city": "Santa Clara", "source_dataset": "Utah Urban Tree Inventory", "source_department": "City of Santa Clara", "source_last_edit_at": "2026-03-28T17:19:55.001000+00:00"}}, {"type": "Feature", "geometry": {"type": "Point", "coordinates": [-113.66726738914628, 37.140807900216075]}, "properties": {"id": "santa-clara-11843", "species_group": "plum", "scientific_name": "Prunus species", "common_name": "Plum-Flowering", "subtype_name": "Plum-Flowering", "zip_code": "84765", "ownership": "public", "ownership_raw": "City of Santa Clara", "city": "Santa Clara", "source_dataset": "Utah Urban Tree Inventory", "source_department": "City of Santa Clara", "source_last_edit_at": "2026-03-28T17:19:55.001000+00:00"}}, {"type": "Feature", "geometry": {"type": "Point", "coordinates": [-113.667291466091, 37.14085241578408]}, "properties": {"id": "santa-clara-11844", "species_group": "plum", "scientific_name": "Prunus species", "common_name": "Plum-Flowering", "subtype_name": "Plum-Flowering", "zip_code": "84765", "ownership": "public", "ownership_raw": "City of Santa Clara", "city": "Santa Clara", "source_dataset": "Utah Urban Tree Inventory", "source_department": "City of Santa Clara", "source_last_edit_at": "2026-03-28T17:19:55.001000+00:00"}}, {"type": "Feature", "geometry": {"type": "Point", "coordinates": [-113.66732679062184, 37.14089667806568]}, "properties": {"id": "santa-clara-11845", "species_group": "plum", "scientific_name": "Prunus species", "common_name": "Plum-Flowering", "subtype_name": "Plum-Flowering", "zip_code": "84765", "ownership": "public", "ownership_raw": "City of Santa Clara", "city": "Santa Clara", "source_dataset": "Utah Urban Tree Inventory", "source_department": "City of Santa Clara", "source_last_edit_at": "2026-03-28T17:19:55.001000+00:00"}}, {"type": "Feature", "geometry": {"type": "Point", "coordinates": [-113.6673399364478, 37.14095045132446]}, "properties": {"id": "santa-clara-11846", "species_group": "plum", "scientific_name": "Prunus species", "common_name": "Plum-Flowering", "subtype_name": "Plum-Flowering", "zip_code": "84765", "ownership": "public", "ownership_raw": "City of Santa Clara", "city": "Santa Clara", "source_dataset": "Utah Urban Tree Inventory", "source_department": "City of Santa Clara", "source_last_edit_at": "2026-03-28T17:19:55.001000+00:00"}}, {"type": "Feature", "geometry": {"type": "Point", "coordinates": [-113.66736401351623, 37.14099496777373]}, "properties": {"id": "santa-clara-11847", "species_group": "plum", "scientific_name": "Prunus species", "common_name": "Plum-Flowering", "subtype_name": "Plum-Flowering", "zip_code": "84765", "ownership": "public", "ownership_raw": "City of Santa Clara", "city": "Santa Clara", "source_dataset": "Utah Urban Tree Inventory", "source_department": "City of Santa Clara", "source_last_edit_at": "2026-03-28T17:19:55.001000+00:00"}}, {"type": "Feature", "geometry": {"type": "Point", "coordinates": [-113.66735877717298, 37.14116630419372]}, "properties": {"id": "santa-clara-11849", "species_group": "plum", "scientific_name": "Prunus species", "common_name": "Plum-Flowering", "subtype_name": "Plum-Flowering", "zip_code": "84765", "ownership": "public", "ownership_raw": "City of Santa Clara", "city": "Santa Clara", "source_dataset": "Utah Urban Tree Inventory", "source_department": "City of Santa Clara", "source_last_edit_at": "2026-03-28T17:19:55.001000+00:00"}}, {"type": "Feature", "geometry": {"type": "Point", "coordinates": [-113.6674278447055, 37.14120980657457]}, "properties": {"id": "santa-clara-11850", "species_group": "plum", "scientific_name": "Prunus species", "common_name": "Plum-Flowering", "subtype_name": "Plum-Flowering", "zip_code": "84765", "ownership": "public", "ownership_raw": "City of Santa Clara", "city": "Santa Clara", "source_dataset": "Utah Urban Tree Inventory", "source_department": "City of Santa Clara", "source_last_edit_at": "2026-03-28T17:19:55.001000+00:00"}}, {"type": "Feature", "geometry": {"type": "Point", "coordinates": [-113.66745192188442, 37.14125432209851]}, "properties": {"id": "santa-clara-11851", "species_group": "plum", "scientific_name": "Prunus species", "common_name": "Plum-Flowering", "subtype_name": "Plum-Flowering", "zip_code": "84765", "ownership": "public", "ownership_raw": "City of Santa Clara", "city": "Santa Clara", "source_dataset": "Utah Urban Tree Inventory", "source_department": "City of Santa Clara", "source_last_edit_at": "2026-03-28T17:19:55.001000+00:00"}}, {"type": "Feature", "geometry": {"type": "Point", "coordinates": [-113.66745318746733, 37.141290339786345]}, "properties": {"id": "santa-clara-11852", "species_group": "plum", "scientific_name": "Prunus species", "common_name": "Plum-Flowering", "subtype_name": "Plum-Flowering", "zip_code": "84765", "ownership": "public", "ownership_raw": "City of Santa Clara", "city": "Santa Clara", "source_dataset": "Utah Urban Tree Inventory", "source_department": "City of Santa Clara", "source_last_edit_at": "2026-03-28T17:19:55.001000+00:00"}}, {"type": "Feature", "geometry": {"type": "Point", "coordinates": [-113.66747694825833, 37.14132584998088]}, "properties": {"id": "santa-clara-11853", "species_group": "plum", "scientific_name": "Prunus species", "common_name": "Plum-Flowering", "subtype_name": "Plum-Flowering", "zip_code": "84765", "ownership": "public", "ownership_raw": "City of Santa Clara", "city": "Santa Clara", "source_dataset": "Utah Urban Tree Inventory", "source_department": "City of Santa Clara", "source_last_edit_at": "2026-03-28T17:19:55.001000+00:00"}}, {"type": "Feature", "geometry": {"type": "Point", "coordinates": [-113.6666383363541, 37.14052468254943]}, "properties": {"id": "santa-clara-11879", "species_group": "peach", "scientific_name": "Prunus species", "common_name": "Peach", "subtype_name": null, "zip_code": "84765", "ownership": "public", "ownership_raw": "City of Santa Clara", "city": "Santa Clara", "source_dataset": "Utah Urban Tree Inventory", "source_department": "City of Santa Clara", "source_last_edit_at": "2026-03-28T17:19:55.001000+00:00"}}, {"type": "Feature", "geometry": {"type": "Point", "coordinates": [-113.66658255386065, 37.140859365692]}, "properties": {"id": "santa-clara-11881", "species_group": "plum", "scientific_name": "Prunus species", "common_name": "Plum-Flowering", "subtype_name": "Plum-Flowering", "zip_code": "84765", "ownership": "public", "ownership_raw": "City of Santa Clara", "city": "Santa Clara", "source_dataset": "Utah Urban Tree Inventory", "source_department": "City of Santa Clara", "source_last_edit_at": "2026-03-28T17:19:55.001000+00:00"}}, {"type": "Feature", "geometry": {"type": "Point", "coordinates": [-113.66663260479963, 37.14100242370054]}, "properties": {"id": "santa-clara-11883", "species_group": "plum", "scientific_name": "Prunus species", "common_name": "Plum-Flowering", "subtype_name": "Plum-Flowering", "zip_code": "84765", "ownership": "public", "ownership_raw": "City of Santa Clara", "city": "Santa Clara", "source_dataset": "Utah Urban Tree Inventory", "source_department": "City of Santa Clara", "source_last_edit_at": "2026-03-28T17:19:55.001000+00:00"}}, {"type": "Feature", "geometry": {"type": "Point", "coordinates": [-113.66669358723745, 37.14113622402821]}, "properties": {"id": "santa-clara-11885", "species_group": "plum", "scientific_name": "Prunus species", "common_name": "Plum-Flowering", "subtype_name": "Plum-Flowering", "zip_code": "84765", "ownership": "public", "ownership_raw": "City of Santa Clara", "city": "Santa Clara", "source_dataset": "Utah Urban Tree Inventory", "source_department": "City of Santa Clara", "source_last_edit_at": "2026-03-28T17:19:55.001000+00:00"}}, {"type": "Feature", "geometry": {"type": "Point", "coordinates": [-113.66676645018035, 37.14128778083871]}, "properties": {"id": "santa-clara-11887", "species_group": "plum", "scientific_name": "Prunus species", "common_name": "Plum-Flowering", "subtype_name": "Plum-Flowering", "zip_code": "84765", "ownership": "public", "ownership_raw": "City of Santa Clara", "city": "Santa Clara", "source_dataset": "Utah Urban Tree Inventory", "source_department": "City of Santa Clara", "source_last_edit_at": "2026-03-28T17:19:55.001000+00:00"}}, {"type": "Feature", "geometry": {"type": "Point", "coordinates": [-113.66759877360548, 37.141269038020866]}, "properties": {"id": "santa-clara-11924", "species_group": "plum", "scientific_name": "Prunus species", "common_name": "Plum-Flowering", "subtype_name": "Plum-Flowering", "zip_code": "84765", "ownership": "public", "ownership_raw": "City of Santa Clara", "city": "Santa Clara", "source_dataset": "Utah Urban Tree Inventory", "source_department": "City of Santa Clara", "source_last_edit_at": "2026-03-28T17:19:55.001000+00:00"}}, {"type": "Feature", "geometry": {"type": "Point", "coordinates": [-113.66758203436059, 37.14015198310866]}, "properties": {"id": "santa-clara-11948", "species_group": "plum", "scientific_name": "Prunus species", "common_name": "Plum-Flowering", "subtype_name": "Plum-Flowering", "zip_code": "84765", "ownership": "public", "ownership_raw": "City of Santa Clara", "city": "Santa Clara", "source_dataset": "Utah Urban Tree Inventory", "source_department": "City of Santa Clara", "source_last_edit_at": "2026-03-28T17:19:55.001000+00:00"}}, {"type": "Feature", "geometry": {"type": "Point", "coordinates": [-113.66757043997028, 37.14078305257317]}, "properties": {"id": "santa-clara-11961", "species_group": "plum", "scientific_name": "Prunus species", "common_name": "Plum-Flowering", "subtype_name": "Plum-Flowering", "zip_code": "84765", "ownership": "public", "ownership_raw": "City of Santa Clara", "city": "Santa Clara", "source_dataset": "Utah Urban Tree Inventory", "source_department": "City of Santa Clara", "source_last_edit_at": "2026-03-28T17:19:55.001000+00:00"}}, {"type": "Feature", "geometry": {"type": "Point", "coordinates": [-113.66762112551092, 37.14094411893684]}, "properties": {"id": "santa-clara-11965", "species_group": "plum", "scientific_name": "Prunus species", "common_name": "Plum-Flowering", "subtype_name": "Plum-Flowering", "zip_code": "84765", "ownership": "public", "ownership_raw": "City of Santa Clara", "city": "Santa Clara", "source_dataset": "Utah Urban Tree Inventory", "source_department": "City of Santa Clara", "source_last_edit_at": "2026-03-28T17:19:55.001000+00:00"}}, {"type": "Feature", "geometry": {"type": "Point", "coordinates": [-113.66764488629171, 37.140979630001134]}, "properties": {"id": "santa-clara-11966", "species_group": "plum", "scientific_name": "Prunus species", "common_name": "Plum-Flowering", "subtype_name": "Plum-Flowering", "zip_code": "84765", "ownership": "public", "ownership_raw": "City of Santa Clara", "city": "Santa Clara", "source_dataset": "Utah Urban Tree Inventory", "source_department": "City of Santa Clara", "source_last_edit_at": "2026-03-28T17:19:55.001000+00:00"}}, {"type": "Feature", "geometry": {"type": "Point", "coordinates": [-113.66766295158722, 37.1408530614833]}, "properties": {"id": "santa-clara-11967", "species_group": "plum", "scientific_name": "Prunus species", "common_name": "Plum-Flowering", "subtype_name": "Plum-Flowering", "zip_code": "84765", "ownership": "public", "ownership_raw": "City of Santa Clara", "city": "Santa Clara", "source_dataset": "Utah Urban Tree Inventory", "source_department": "City of Santa Clara", "source_last_edit_at": "2026-03-28T17:19:55.001000+00:00"}}, {"type": "Feature", "geometry": {"type": "Point", "coordinates": [-113.66752590908318, 37.14111748268741]}, "properties": {"id": "santa-clara-11982", "species_group": "plum", "scientific_name": "Prunus species", "common_name": "Plum-Flowering", "subtype_name": "Plum-Flowering", "zip_code": "84765", "ownership": "public", "ownership_raw": "City of Santa Clara", "city": "Santa Clara", "source_dataset": "Utah Urban Tree Inventory", "source_department": "City of Santa Clara", "source_last_edit_at": "2026-03-28T17:19:55.001000+00:00"}}, {"type": "Feature", "geometry": {"type": "Point", "coordinates": [-113.66755030269188, 37.14117100261233]}, "properties": {"id": "santa-clara-11983", "species_group": "plum", "scientific_name": "Prunus species", "common_name": "Plum-Flowering", "subtype_name": "Plum-Flowering", "zip_code": "84765", "ownership": "public", "ownership_raw": "City of Santa Clara", "city": "Santa Clara", "source_dataset": "Utah Urban Tree Inventory", "source_department": "City of Santa Clara", "source_last_edit_at": "2026-03-28T17:19:55.001000+00:00"}}, {"type": "Feature", "geometry": {"type": "Point", "coordinates": [-113.66733392527811, 37.140779367279386]}, "properties": {"id": "santa-clara-11988", "species_group": "plum", "scientific_name": "Prunus species", "common_name": "Plum-Flowering", "subtype_name": "Plum-Flowering", "zip_code": "84765", "ownership": "public", "ownership_raw": "City of Santa Clara", "city": "Santa Clara", "source_dataset": "Utah Urban Tree Inventory", "source_department": "City of Santa Clara", "source_last_edit_at": "2026-03-28T17:19:55.001000+00:00"}}, {"type": "Feature", "geometry": {"type": "Point", "coordinates": [-113.66729796805971, 37.14071709614929]}, "properties": {"id": "santa-clara-11989", "species_group": "plum", "scientific_name": "Prunus species", "common_name": "Plum-Flowering", "subtype_name": "Plum-Flowering", "zip_code": "84765", "ownership": "public", "ownership_raw": "City of Santa Clara", "city": "Santa Clara", "source_dataset": "Utah Urban Tree Inventory", "source_department": "City of Santa Clara", "source_last_edit_at": "2026-03-28T17:19:55.001000+00:00"}}, {"type": "Feature", "geometry": {"type": "Point", "coordinates": [-113.66729638620626, 37.14067207402941]}, "properties": {"id": "santa-clara-11990", "species_group": "plum", "scientific_name": "Prunus species", "common_name": "Plum-Flowering", "subtype_name": "Plum-Flowering", "zip_code": "84765", "ownership": "public", "ownership_raw": "City of Santa Clara", "city": "Santa Clara", "source_dataset": "Utah Urban Tree Inventory", "source_department": "City of Santa Clara", "source_last_edit_at": "2026-03-28T17:19:55.001000+00:00"}}, {"type": "Feature", "geometry": {"type": "Point", "coordinates": [-113.66717568572915, 37.14044049168929]}, "properties": {"id": "santa-clara-11994", "species_group": "plum", "scientific_name": "Prunus species", "common_name": "Plum-Flowering", "subtype_name": "Plum-Flowering", "zip_code": "84765", "ownership": "public", "ownership_raw": "City of Santa Clara", "city": "Santa Clara", "source_dataset": "Utah Urban Tree Inventory", "source_department": "City of Santa Clara", "source_last_edit_at": "2026-03-28T17:19:55.001000+00:00"}}, {"type": "Feature", "geometry": {"type": "Point", "coordinates": [-113.66715097629672, 37.14037796723613]}, "properties": {"id": "santa-clara-11995", "species_group": "plum", "scientific_name": "Prunus species", "common_name": "Plum-Flowering", "subtype_name": "Plum-Flowering", "zip_code": "84765", "ownership": "public", "ownership_raw": "City of Santa Clara", "city": "Santa Clara", "source_dataset": "Utah Urban Tree Inventory", "source_department": "City of Santa Clara", "source_last_edit_at": "2026-03-28T17:19:55.001000+00:00"}}, {"type": "Feature", "geometry": {"type": "Point", "coordinates": [-113.66713751437999, 37.140315189516826]}, "properties": {"id": "santa-clara-11996", "species_group": "plum", "scientific_name": "Prunus species", "common_name": "Plum-Flowering", "subtype_name": "Plum-Flowering", "zip_code": "84765", "ownership": "public", "ownership_raw": "City of Santa Clara", "city": "Santa Clara", "source_dataset": "Utah Urban Tree Inventory", "source_department": "City of Santa Clara", "source_last_edit_at": "2026-03-28T17:19:55.001000+00:00"}}, {"type": "Feature", "geometry": {"type": "Point", "coordinates": [-113.66710124122018, 37.14024391388165]}, "properties": {"id": "santa-clara-11997", "species_group": "plum", "scientific_name": "Prunus species", "common_name": "Plum-Flowering", "subtype_name": "Plum-Flowering", "zip_code": "84765", "ownership": "public", "ownership_raw": "City of Santa Clara", "city": "Santa Clara", "source_dataset": "Utah Urban Tree Inventory", "source_department": "City of Santa Clara", "source_last_edit_at": "2026-03-28T17:19:55.001000+00:00"}}, {"type": "Feature", "geometry": {"type": "Point", "coordinates": [-113.66711944827595, 37.14044175799419]}, "properties": {"id": "santa-clara-12007", "species_group": "plum", "scientific_name": "Prunus species", "common_name": "Plum-Flowering", "subtype_name": "Plum-Flowering", "zip_code": "84765", "ownership": "public", "ownership_raw": "City of Santa Clara", "city": "Santa Clara", "source_dataset": "Utah Urban Tree Inventory", "source_department": "City of Santa Clara", "source_last_edit_at": "2026-03-28T17:19:55.001000+00:00"}}, {"type": "Feature", "geometry": {"type": "Point", "coordinates": [-113.66713259385776, 37.14049553128856]}, "properties": {"id": "santa-clara-12008", "species_group": "plum", "scientific_name": "Prunus species", "common_name": "Plum-Flowering", "subtype_name": "Plum-Flowering", "zip_code": "84765", "ownership": "public", "ownership_raw": "City of Santa Clara", "city": "Santa Clara", "source_dataset": "Utah Urban Tree Inventory", "source_department": "City of Santa Clara", "source_last_edit_at": "2026-03-28T17:19:55.001000+00:00"}}, {"type": "Feature", "geometry": {"type": "Point", "coordinates": [-113.66725424340213, 37.14075412694509]}, "properties": {"id": "santa-clara-12013", "species_group": "plum", "scientific_name": "Prunus species", "common_name": "Plum-Flowering", "subtype_name": "Plum-Flowering", "zip_code": "84765", "ownership": "public", "ownership_raw": "City of Santa Clara", "city": "Santa Clara", "source_dataset": "Utah Urban Tree Inventory", "source_department": "City of Santa Clara", "source_last_edit_at": "2026-03-28T17:19:55.001000+00:00"}}, {"type": "Feature", "geometry": {"type": "Point", "coordinates": [-113.66559243410418, 37.14036891047865]}, "properties": {"id": "santa-clara-12014", "species_group": "plum", "scientific_name": "Prunus species", "common_name": "Plum-Flowering", "subtype_name": "Plum-Flowering", "zip_code": "84765", "ownership": "public", "ownership_raw": "City of Santa Clara", "city": "Santa Clara", "source_dataset": "Utah Urban Tree Inventory", "source_department": "City of Santa Clara", "source_last_edit_at": "2026-03-28T17:19:55.001000+00:00"}}, {"type": "Feature", "geometry": {"type": "Point", "coordinates": [-113.667291466091, 37.14085241578408]}, "properties": {"id": "santa-clara-12015", "species_group": "plum", "scientific_name": "Prunus species", "common_name": "Plum-Flowering", "subtype_name": "Plum-Flowering", "zip_code": "84765", "ownership": "public", "ownership_raw": "City of Santa Clara", "city": "Santa Clara", "source_dataset": "Utah Urban Tree Inventory", "source_department": "City of Santa Clara", "source_last_edit_at": "2026-03-28T17:19:55.001000+00:00"}}, {"type": "Feature", "geometry": {"type": "Point", "coordinates": [-113.66732679062184, 37.14089667806568]}, "properties": {"id": "santa-clara-12016", "species_group": "plum", "scientific_name": "Prunus species", "common_name": "Plum-Flowering", "subtype_name": "Plum-Flowering", "zip_code": "84765", "ownership": "public", "ownership_raw": "City of Santa Clara", "city": "Santa Clara", "source_dataset": "Utah Urban Tree Inventory", "source_department": "City of Santa Clara", "source_last_edit_at": "2026-03-28T17:19:55.001000+00:00"}}, {"type": "Feature", "geometry": {"type": "Point", "coordinates": [-113.6673399364478, 37.14095045132446]}, "properties": {"id": "santa-clara-12017", "species_group": "plum", "scientific_name": "Prunus species", "common_name": "Plum-Flowering", "subtype_name": "Plum-Flowering", "zip_code": "84765", "ownership": "public", "ownership_raw": "City of Santa Clara", "city": "Santa Clara", "source_dataset": "Utah Urban Tree Inventory", "source_department": "City of Santa Clara", "source_last_edit_at": "2026-03-28T17:19:55.001000+00:00"}}, {"type": "Feature", "geometry": {"type": "Point", "coordinates": [-113.66736401351623, 37.14099496777373]}, "properties": {"id": "santa-clara-12018", "species_group": "plum", "scientific_name": "Prunus species", "common_name": "Plum-Flowering", "subtype_name": "Plum-Flowering", "zip_code": "84765", "ownership": "public", "ownership_raw": "City of Santa Clara", "city": "Santa Clara", "source_dataset": "Utah Urban Tree Inventory", "source_department": "City of Santa Clara", "source_last_edit_at": "2026-03-28T17:19:55.001000+00:00"}}, {"type": "Feature", "geometry": {"type": "Point", "coordinates": [-113.6674278447055, 37.14120980657457]}, "properties": {"id": "santa-clara-12020", "species_group": "plum", "scientific_name": "Prunus species", "common_name": "Plum-Flowering", "subtype_name": "Plum-Flowering", "zip_code": "84765", "ownership": "public", "ownership_raw": "City of Santa Clara", "city": "Santa Clara", "source_dataset": "Utah Urban Tree Inventory", "source_department": "City of Santa Clara", "source_last_edit_at": "2026-03-28T17:19:55.001000+00:00"}}, {"type": "Feature", "geometry": {"type": "Point", "coordinates": [-113.66745192188442, 37.14125432209851]}, "properties": {"id": "santa-clara-12021", "species_group": "plum", "scientific_name": "Prunus species", "common_name": "Plum-Flowering", "subtype_name": "Plum-Flowering", "zip_code": "84765", "ownership": "public", "ownership_raw": "City of Santa Clara", "city": "Santa Clara", "source_dataset": "Utah Urban Tree Inventory", "source_department": "City of Santa Clara", "source_last_edit_at": "2026-03-28T17:19:55.001000+00:00"}}, {"type": "Feature", "geometry": {"type": "Point", "coordinates": [-113.66745318746733, 37.141290339786345]}, "properties": {"id": "santa-clara-12022", "species_group": "plum", "scientific_name": "Prunus species", "common_name": "Plum-Flowering", "subtype_name": "Plum-Flowering", "zip_code": "84765", "ownership": "public", "ownership_raw": "City of Santa Clara", "city": "Santa Clara", "source_dataset": "Utah Urban Tree Inventory", "source_department": "City of Santa Clara", "source_last_edit_at": "2026-03-28T17:19:55.001000+00:00"}}, {"type": "Feature", "geometry": {"type": "Point", "coordinates": [-113.66747694825833, 37.14132584998088]}, "properties": {"id": "santa-clara-12023", "species_group": "plum", "scientific_name": "Prunus species", "common_name": "Plum-Flowering", "subtype_name": "Plum-Flowering", "zip_code": "84765", "ownership": "public", "ownership_raw": "City of Santa Clara", "city": "Santa Clara", "source_dataset": "Utah Urban Tree Inventory", "source_department": "City of Santa Clara", "source_last_edit_at": "2026-03-28T17:19:55.001000+00:00"}}, {"type": "Feature", "geometry": {"type": "Point", "coordinates": [-113.6666383363541, 37.14052468254943]}, "properties": {"id": "santa-clara-12049", "species_group": "peach", "scientific_name": "Prunus species", "common_name": "Peach", "subtype_name": null, "zip_code": "84765", "ownership": "public", "ownership_raw": "City of Santa Clara", "city": "Santa Clara", "source_dataset": "Utah Urban Tree Inventory", "source_department": "City of Santa Clara", "source_last_edit_at": "2026-03-28T17:19:55.001000+00:00"}}, {"type": "Feature", "geometry": {"type": "Point", "coordinates": [-113.66658255386065, 37.140859365692]}, "properties": {"id": "santa-clara-12051", "species_group": "plum", "scientific_name": "Prunus species", "common_name": "Plum-Flowering", "subtype_name": "Plum-Flowering", "zip_code": "84765", "ownership": "public", "ownership_raw": "City of Santa Clara", "city": "Santa Clara", "source_dataset": "Utah Urban Tree Inventory", "source_department": "City of Santa Clara", "source_last_edit_at": "2026-03-28T17:19:55.001000+00:00"}}, {"type": "Feature", "geometry": {"type": "Point", "coordinates": [-113.66663260479963, 37.14100242370054]}, "properties": {"id": "santa-clara-12053", "species_group": "plum", "scientific_name": "Prunus species", "common_name": "Plum-Flowering", "subtype_name": "Plum-Flowering", "zip_code": "84765", "ownership": "public", "ownership_raw": "City of Santa Clara", "city": "Santa Clara", "source_dataset": "Utah Urban Tree Inventory", "source_department": "City of Santa Clara", "source_last_edit_at": "2026-03-28T17:19:55.001000+00:00"}}, {"type": "Feature", "geometry": {"type": "Point", "coordinates": [-113.66669358723745, 37.14113622402821]}, "properties": {"id": "santa-clara-12055", "species_group": "plum", "scientific_name": "Prunus species", "common_name": "Plum-Flowering", "subtype_name": "Plum-Flowering", "zip_code": "84765", "ownership": "public", "ownership_raw": "City of Santa Clara", "city": "Santa Clara", "source_dataset": "Utah Urban Tree Inventory", "source_department": "City of Santa Clara", "source_last_edit_at": "2026-03-28T17:19:55.001000+00:00"}}, {"type": "Feature", "geometry": {"type": "Point", "coordinates": [-113.66676645018035, 37.14128778083871]}, "properties": {"id": "santa-clara-12056", "species_group": "plum", "scientific_name": "Prunus species", "common_name": "Plum-Flowering", "subtype_name": "Plum-Flowering", "zip_code": "84765", "ownership": "public", "ownership_raw": "City of Santa Clara", "city": "Santa Clara", "source_dataset": "Utah Urban Tree Inventory", "source_department": "City of Santa Clara", "source_last_edit_at": "2026-03-28T17:19:55.001000+00:00"}}, {"type": "Feature", "geometry": {"type": "Point", "coordinates": [-113.65361826074985, 37.13322032321271]}, "properties": {"id": "santa-clara-12805", "species_group": "crabapple", "scientific_name": "Malus species", "common_name": "Crabapple", "subtype_name": null, "zip_code": "84765", "ownership": "public", "ownership_raw": "City of Santa Clara", "city": "Santa Clara", "source_dataset": "Utah Urban Tree Inventory", "source_department": "City of Santa Clara", "source_last_edit_at": "2026-03-28T17:19:55.001000+00:00"}}, {"type": "Feature", "geometry": {"type": "Point", "coordinates": [-113.66759877360548, 37.141269038020866]}, "properties": {"id": "santa-clara-19574", "species_group": "plum", "scientific_name": "Prunus species", "common_name": "Plum-Flowering", "subtype_name": "Plum-Flowering", "zip_code": "84765", "ownership": "public", "ownership_raw": "City of Santa Clara", "city": "Santa Clara", "source_dataset": "Utah Urban Tree Inventory", "source_department": "City of Santa Clara", "source_last_edit_at": "2026-03-28T17:19:55.001000+00:00"}}, {"type": "Feature", "geometry": {"type": "Point", "coordinates": [-113.66762112551092, 37.14094411893684]}, "properties": {"id": "santa-clara-19583", "species_group": "plum", "scientific_name": "Prunus species", "common_name": "Plum-Flowering", "subtype_name": "Plum-Flowering", "zip_code": "84765", "ownership": "public", "ownership_raw": "City of Santa Clara", "city": "Santa Clara", "source_dataset": "Utah Urban Tree Inventory", "source_department": "City of Santa Clara", "source_last_edit_at": "2026-03-28T17:19:55.001000+00:00"}}, {"type": "Feature", "geometry": {"type": "Point", "coordinates": [-113.66764488629171, 37.140979630001134]}, "properties": {"id": "santa-clara-19584", "species_group": "plum", "scientific_name": "Prunus species", "common_name": "Plum-Flowering", "subtype_name": "Plum-Flowering", "zip_code": "84765", "ownership": "public", "ownership_raw": "City of Santa Clara", "city": "Santa Clara", "source_dataset": "Utah Urban Tree Inventory", "source_department": "City of Santa Clara", "source_last_edit_at": "2026-03-28T17:19:55.001000+00:00"}}, {"type": "Feature", "geometry": {"type": "Point", "coordinates": [-113.66766295158722, 37.1408530614833]}, "properties": {"id": "santa-clara-19585", "species_group": "plum", "scientific_name": "Prunus species", "common_name": "Plum-Flowering", "subtype_name": "Plum-Flowering", "zip_code": "84765", "ownership": "public", "ownership_raw": "City of Santa Clara", "city": "Santa Clara", "source_dataset": "Utah Urban Tree Inventory", "source_department": "City of Santa Clara", "source_last_edit_at": "2026-03-28T17:19:55.001000+00:00"}}, {"type": "Feature", "geometry": {"type": "Point", "coordinates": [-113.66733392527811, 37.140779367279386]}, "properties": {"id": "santa-clara-19589", "species_group": "plum", "scientific_name": "Prunus species", "common_name": "Plum-Flowering", "subtype_name": "Plum-Flowering", "zip_code": "84765", "ownership": "public", "ownership_raw": "City of Santa Clara", "city": "Santa Clara", "source_dataset": "Utah Urban Tree Inventory", "source_department": "City of Santa Clara", "source_last_edit_at": "2026-03-28T17:19:55.001000+00:00"}}, {"type": "Feature", "geometry": {"type": "Point", "coordinates": [-113.66729796805971, 37.14071709614929]}, "properties": {"id": "santa-clara-19590", "species_group": "plum", "scientific_name": "Prunus species", "common_name": "Plum-Flowering", "subtype_name": "Plum-Flowering", "zip_code": "84765", "ownership": "public", "ownership_raw": "City of Santa Clara", "city": "Santa Clara", "source_dataset": "Utah Urban Tree Inventory", "source_department": "City of Santa Clara", "source_last_edit_at": "2026-03-28T17:19:55.001000+00:00"}}, {"type": "Feature", "geometry": {"type": "Point", "coordinates": [-113.66711944827595, 37.14044175799419]}, "properties": {"id": "santa-clara-19591", "species_group": "plum", "scientific_name": "Prunus species", "common_name": "Plum-Flowering", "subtype_name": "Plum-Flowering", "zip_code": "84765", "ownership": "public", "ownership_raw": "City of Santa Clara", "city": "Santa Clara", "source_dataset": "Utah Urban Tree Inventory", "source_department": "City of Santa Clara", "source_last_edit_at": "2026-03-28T17:19:55.001000+00:00"}}, {"type": "Feature", "geometry": {"type": "Point", "coordinates": [-113.66713259385776, 37.14049553128856]}, "properties": {"id": "santa-clara-19592", "species_group": "plum", "scientific_name": "Prunus species", "common_name": "Plum-Flowering", "subtype_name": "Plum-Flowering", "zip_code": "84765", "ownership": "public", "ownership_raw": "City of Santa Clara", "city": "Santa Clara", "source_dataset": "Utah Urban Tree Inventory", "source_department": "City of Santa Clara", "source_last_edit_at": "2026-03-28T17:19:55.001000+00:00"}}, {"type": "Feature", "geometry": {"type": "Point", "coordinates": [-113.6666383363541, 37.14052468254943]}, "properties": {"id": "santa-clara-19603", "species_group": "peach", "scientific_name": "Prunus species", "common_name": "Peach", "subtype_name": null, "zip_code": "84765", "ownership": "public", "ownership_raw": "City of Santa Clara", "city": "Santa Clara", "source_dataset": "Utah Urban Tree Inventory", "source_department": "City of Santa Clara", "source_last_edit_at": "2026-03-28T17:19:55.001000+00:00"}}, {"type": "Feature", "geometry": {"type": "Point", "coordinates": [-113.65361826074985, 37.13322032321271]}, "properties": {"id": "santa-clara-19749", "species_group": "crabapple", "scientific_name": "Malus species", "common_name": "Crabapple", "subtype_name": null, "zip_code": "84765", "ownership": "public", "ownership_raw": "City of Santa Clara", "city": "Santa Clara", "source_dataset": "Utah Urban Tree Inventory", "source_department": "City of Santa Clara", "source_last_edit_at": "2026-03-28T17:19:55.001000+00:00"}}, {"type": "Feature", "geometry": {"type": "Point", "coordinates": [-113.66713751437999, 37.140315189516826]}, "properties": {"id": "santa-clara-19762", "species_group": "plum", "scientific_name": "Prunus species", "common_name": "Plum-Flowering", "subtype_name": "Plum-Flowering", "zip_code": "84765", "ownership": "public", "ownership_raw": "City of Santa Clara", "city": "Santa Clara", "source_dataset": "Utah Urban Tree Inventory", "source_department": "City of Santa Clara", "source_last_edit_at": "2026-03-28T17:19:55.001000+00:00"}}, {"type": "Feature", "geometry": {"type": "Point", "coordinates": [-113.66710124122018, 37.14024391388165]}, "properties": {"id": "santa-clara-19763", "species_group": "plum", "scientific_name": "Prunus species", "common_name": "Plum-Flowering", "subtype_name": "Plum-Flowering", "zip_code": "84765", "ownership": "public", "ownership_raw": "City of Santa Clara", "city": "Santa Clara", "source_dataset": "Utah Urban Tree Inventory", "source_department": "City of Santa Clara", "source_last_edit_at": "2026-03-28T17:19:55.001000+00:00"}}, {"type": "Feature", "geometry": {"type": "Point", "coordinates": [-113.64052371749135, 37.13308938602996]}, "properties": {"id": "santa-clara-19786", "species_group": "plum", "scientific_name": "Prunus species", "common_name": "Plum-Flowering", "subtype_name": "Plum-Flowering", "zip_code": "84765", "ownership": "public", "ownership_raw": "City of Santa Clara", "city": "Santa Clara", "source_dataset": "Utah Urban Tree Inventory", "source_department": "City of Santa Clara", "source_last_edit_at": "2026-03-28T17:19:55.001000+00:00"}}, {"type": "Feature", "geometry": {"type": "Point", "coordinates": [-113.66300476663677, 37.14957292238184]}, "properties": {"id": "santa-clara-19799", "species_group": "cherry", "scientific_name": "Prunus species", "common_name": "Cherry-Flowering", "subtype_name": "Flowering Cherry", "zip_code": "84765", "ownership": "public", "ownership_raw": "City of Santa Clara", "city": "Santa Clara", "source_dataset": "Utah Urban Tree Inventory", "source_department": "City of Santa Clara", "source_last_edit_at": "2026-03-28T17:19:55.001000+00:00"}}, {"type": "Feature", "geometry": {"type": "Point", "coordinates": [-113.66732679062184, 37.14089667806568]}, "properties": {"id": "santa-clara-19879", "species_group": "plum", "scientific_name": "Prunus species", "common_name": "Plum-Flowering", "subtype_name": "Plum-Flowering", "zip_code": "84765", "ownership": "public", "ownership_raw": "City of Santa Clara", "city": "Santa Clara", "source_dataset": "Utah Urban Tree Inventory", "source_department": "City of Santa Clara", "source_last_edit_at": "2026-03-28T17:19:55.001000+00:00"}}, {"type": "Feature", "geometry": {"type": "Point", "coordinates": [-113.6673399364478, 37.14095045132446]}, "properties": {"id": "santa-clara-19880", "species_group": "plum", "scientific_name": "Prunus species", "common_name": "Plum-Flowering", "subtype_name": "Plum-Flowering", "zip_code": "84765", "ownership": "public", "ownership_raw": "City of Santa Clara", "city": "Santa Clara", "source_dataset": "Utah Urban Tree Inventory", "source_department": "City of Santa Clara", "source_last_edit_at": "2026-03-28T17:19:55.001000+00:00"}}, {"type": "Feature", "geometry": {"type": "Point", "coordinates": [-113.6673640134846, 37.14099496687331]}, "properties": {"id": "santa-clara-19881", "species_group": "plum", "scientific_name": "Prunus species", "common_name": "Plum-Flowering", "subtype_name": "Plum-Flowering", "zip_code": "84765", "ownership": "public", "ownership_raw": "City of Santa Clara", "city": "Santa Clara", "source_dataset": "Utah Urban Tree Inventory", "source_department": "City of Santa Clara", "source_last_edit_at": "2026-03-28T17:19:55.001000+00:00"}}, {"type": "Feature", "geometry": {"type": "Point", "coordinates": [-113.66735877717298, 37.14116630419372]}, "properties": {"id": "santa-clara-19883", "species_group": "plum", "scientific_name": "Prunus species", "common_name": "Plum-Flowering", "subtype_name": "Plum-Flowering", "zip_code": "84765", "ownership": "public", "ownership_raw": "City of Santa Clara", "city": "Santa Clara", "source_dataset": "Utah Urban Tree Inventory", "source_department": "City of Santa Clara", "source_last_edit_at": "2026-03-28T17:19:55.001000+00:00"}}, {"type": "Feature", "geometry": {"type": "Point", "coordinates": [-113.64052371749135, 37.13308938602996]}, "properties": {"id": "santa-clara-20067", "species_group": "plum", "scientific_name": "Prunus species", "common_name": "Plum-Flowering", "subtype_name": "Plum-Flowering", "zip_code": "84765", "ownership": "public", "ownership_raw": "City of Santa Clara", "city": "Santa Clara", "source_dataset": "Utah Urban Tree Inventory", "source_department": "City of Santa Clara", "source_last_edit_at": "2026-03-28T17:19:55.001000+00:00"}}, {"type": "Feature", "geometry": {"type": "Point", "coordinates": [-113.66757043997028, 37.14078305257317]}, "properties": {"id": "santa-clara-20077", "species_group": "plum", "scientific_name": "Prunus species", "common_name": "Plum-Flowering", "subtype_name": "Plum-Flowering", "zip_code": "84765", "ownership": "public", "ownership_raw": "City of Santa Clara", "city": "Santa Clara", "source_dataset": "Utah Urban Tree Inventory", "source_department": "City of Santa Clara", "source_last_edit_at": "2026-03-28T17:19:55.001000+00:00"}}, {"type": "Feature", "geometry": {"type": "Point", "coordinates": [-113.66752590908318, 37.14111748268741]}, "properties": {"id": "santa-clara-20084", "species_group": "plum", "scientific_name": "Prunus species", "common_name": "Plum-Flowering", "subtype_name": "Plum-Flowering", "zip_code": "84765", "ownership": "public", "ownership_raw": "City of Santa Clara", "city": "Santa Clara", "source_dataset": "Utah Urban Tree Inventory", "source_department": "City of Santa Clara", "source_last_edit_at": "2026-03-28T17:19:55.001000+00:00"}}, {"type": "Feature", "geometry": {"type": "Point", "coordinates": [-113.66755030269188, 37.14117100261233]}, "properties": {"id": "santa-clara-20085", "species_group": "plum", "scientific_name": "Prunus species", "common_name": "Plum-Flowering", "subtype_name": "Plum-Flowering", "zip_code": "84765", "ownership": "public", "ownership_raw": "City of Santa Clara", "city": "Santa Clara", "source_dataset": "Utah Urban Tree Inventory", "source_department": "City of Santa Clara", "source_last_edit_at": "2026-03-28T17:19:55.001000+00:00"}}, {"type": "Feature", "geometry": {"type": "Point", "coordinates": [-113.6674278447055, 37.14120980657457]}, "properties": {"id": "santa-clara-20087", "species_group": "plum", "scientific_name": "Prunus species", "common_name": "Plum-Flowering", "subtype_name": "Plum-Flowering", "zip_code": "84765", "ownership": "public", "ownership_raw": "City of Santa Clara", "city": "Santa Clara", "source_dataset": "Utah Urban Tree Inventory", "source_department": "City of Santa Clara", "source_last_edit_at": "2026-03-28T17:19:55.001000+00:00"}}, {"type": "Feature", "geometry": {"type": "Point", "coordinates": [-113.66745192188442, 37.14125432209851]}, "properties": {"id": "santa-clara-20088", "species_group": "plum", "scientific_name": "Prunus species", "common_name": "Plum-Flowering", "subtype_name": "Plum-Flowering", "zip_code": "84765", "ownership": "public", "ownership_raw": "City of Santa Clara", "city": "Santa Clara", "source_dataset": "Utah Urban Tree Inventory", "source_department": "City of Santa Clara", "source_last_edit_at": "2026-03-28T17:19:55.001000+00:00"}}, {"type": "Feature", "geometry": {"type": "Point", "coordinates": [-113.66745318746733, 37.141290339786345]}, "properties": {"id": "santa-clara-20089", "species_group": "plum", "scientific_name": "Prunus species", "common_name": "Plum-Flowering", "subtype_name": "Plum-Flowering", "zip_code": "84765", "ownership": "public", "ownership_raw": "City of Santa Clara", "city": "Santa Clara", "source_dataset": "Utah Urban Tree Inventory", "source_department": "City of Santa Clara", "source_last_edit_at": "2026-03-28T17:19:55.001000+00:00"}}, {"type": "Feature", "geometry": {"type": "Point", "coordinates": [-113.66747694828997, 37.141325850881316]}, "properties": {"id": "santa-clara-20090", "species_group": "plum", "scientific_name": "Prunus species", "common_name": "Plum-Flowering", "subtype_name": "Plum-Flowering", "zip_code": "84765", "ownership": "public", "ownership_raw": "City of Santa Clara", "city": "Santa Clara", "source_dataset": "Utah Urban Tree Inventory", "source_department": "City of Santa Clara", "source_last_edit_at": "2026-03-28T17:19:55.001000+00:00"}}, {"type": "Feature", "geometry": {"type": "Point", "coordinates": [-113.66676645014871, 37.141287779938274]}, "properties": {"id": "santa-clara-20093", "species_group": "plum", "scientific_name": "Prunus species", "common_name": "Plum-Flowering", "subtype_name": "Plum-Flowering", "zip_code": "84765", "ownership": "public", "ownership_raw": "City of Santa Clara", "city": "Santa Clara", "source_dataset": "Utah Urban Tree Inventory", "source_department": "City of Santa Clara", "source_last_edit_at": "2026-03-28T17:19:55.001000+00:00"}}, {"type": "Feature", "geometry": {"type": "Point", "coordinates": [-113.639041311738, 37.13253666530792]}, "properties": {"id": "santa-clara-20148", "species_group": "crabapple", "scientific_name": "Malus species", "common_name": "Apple", "subtype_name": "Apple", "zip_code": "84765", "ownership": "public", "ownership_raw": "City of Santa Clara", "city": "Santa Clara", "source_dataset": "Utah Urban Tree Inventory", "source_department": "City of Santa Clara", "source_last_edit_at": "2026-03-28T17:19:55.001000+00:00"}}, {"type": "Feature", "geometry": {"type": "Point", "coordinates": [-113.639041311738, 37.13253666530792]}, "properties": {"id": "santa-clara-20327", "species_group": "crabapple", "scientific_name": "Malus species", "common_name": "Apple", "subtype_name": "Apple", "zip_code": "84765", "ownership": "public", "ownership_raw": "City of Santa Clara", "city": "Santa Clara", "source_dataset": "Utah Urban Tree Inventory", "source_department": "City of Santa Clara", "source_last_edit_at": "2026-03-28T17:19:55.001000+00:00"}}, {"type": "Feature", "geometry": {"type": "Point", "coordinates": [-113.66300476663677, 37.14957292238184]}, "properties": {"id": "santa-clara-20369", "species_group": "cherry", "scientific_name": "Prunus species", "common_name": "Cherry-Flowering", "subtype_name": "Flowering Cherry", "zip_code": "84765", "ownership": "public", "ownership_raw": "City of Santa Clara", "city": "Santa Clara", "source_dataset": "Utah Urban Tree Inventory", "source_department": "City of Santa Clara", "source_last_edit_at": "2026-03-28T17:19:55.001000+00:00"}}, {"type": "Feature", "geometry": {"type": "Point", "coordinates": [-113.66300476663677, 37.14957292238184]}, "properties": {"id": "santa-clara-20402", "species_group": "cherry", "scientific_name": "Prunus species", "common_name": "Cherry-Flowering", "subtype_name": "Flowering Cherry", "zip_code": "84765", "ownership": "public", "ownership_raw": "City of Santa Clara", "city": "Santa Clara", "source_dataset": "Utah Urban Tree Inventory", "source_department": "City of Santa Clara", "source_last_edit_at": "2026-03-28T17:19:55.001000+00:00"}}, {"type": "Feature", "geometry": {"type": "Point", "coordinates": [-113.66758203436059, 37.14015198310866]}, "properties": {"id": "santa-clara-20461", "species_group": "plum", "scientific_name": "Prunus species", "common_name": "Plum-Flowering", "subtype_name": "Plum-Flowering", "zip_code": "84765", "ownership": "public", "ownership_raw": "City of Santa Clara", "city": "Santa Clara", "source_dataset": "Utah Urban Tree Inventory", "source_department": "City of Santa Clara", "source_last_edit_at": "2026-03-28T17:19:55.001000+00:00"}}, {"type": "Feature", "geometry": {"type": "Point", "coordinates": [-113.66729638620626, 37.14067207402941]}, "properties": {"id": "santa-clara-20466", "species_group": "plum", "scientific_name": "Prunus species", "common_name": "Plum-Flowering", "subtype_name": "Plum-Flowering", "zip_code": "84765", "ownership": "public", "ownership_raw": "City of Santa Clara", "city": "Santa Clara", "source_dataset": "Utah Urban Tree Inventory", "source_department": "City of Santa Clara", "source_last_edit_at": "2026-03-28T17:19:55.001000+00:00"}}, {"type": "Feature", "geometry": {"type": "Point", "coordinates": [-113.66717568572915, 37.14044049168929]}, "properties": {"id": "santa-clara-20470", "species_group": "plum", "scientific_name": "Prunus species", "common_name": "Plum-Flowering", "subtype_name": "Plum-Flowering", "zip_code": "84765", "ownership": "public", "ownership_raw": "City of Santa Clara", "city": "Santa Clara", "source_dataset": "Utah Urban Tree Inventory", "source_department": "City of Santa Clara", "source_last_edit_at": "2026-03-28T17:19:55.001000+00:00"}}, {"type": "Feature", "geometry": {"type": "Point", "coordinates": [-113.66715097629672, 37.14037796723613]}, "properties": {"id": "santa-clara-20471", "species_group": "plum", "scientific_name": "Prunus species", "common_name": "Plum-Flowering", "subtype_name": "Plum-Flowering", "zip_code": "84765", "ownership": "public", "ownership_raw": "City of Santa Clara", "city": "Santa Clara", "source_dataset": "Utah Urban Tree Inventory", "source_department": "City of Santa Clara", "source_last_edit_at": "2026-03-28T17:19:55.001000+00:00"}}, {"type": "Feature", "geometry": {"type": "Point", "coordinates": [-113.66725424340213, 37.14075412694509]}, "properties": {"id": "santa-clara-20543", "species_group": "plum", "scientific_name": "Prunus species", "common_name": "Plum-Flowering", "subtype_name": "Plum-Flowering", "zip_code": "84765", "ownership": "public", "ownership_raw": "City of Santa Clara", "city": "Santa Clara", "source_dataset": "Utah Urban Tree Inventory", "source_department": "City of Santa Clara", "source_last_edit_at": "2026-03-28T17:19:55.001000+00:00"}}, {"type": "Feature", "geometry": {"type": "Point", "coordinates": [-113.66726738914628, 37.140807900216075]}, "properties": {"id": "santa-clara-20544", "species_group": "plum", "scientific_name": "Prunus species", "common_name": "Plum-Flowering", "subtype_name": "Plum-Flowering", "zip_code": "84765", "ownership": "public", "ownership_raw": "City of Santa Clara", "city": "Santa Clara", "source_dataset": "Utah Urban Tree Inventory", "source_department": "City of Santa Clara", "source_last_edit_at": "2026-03-28T17:19:55.001000+00:00"}}, {"type": "Feature", "geometry": {"type": "Point", "coordinates": [-113.667291466091, 37.14085241578408]}, "properties": {"id": "santa-clara-20545", "species_group": "plum", "scientific_name": "Prunus species", "common_name": "Plum-Flowering", "subtype_name": "Plum-Flowering", "zip_code": "84765", "ownership": "public", "ownership_raw": "City of Santa Clara", "city": "Santa Clara", "source_dataset": "Utah Urban Tree Inventory", "source_department": "City of Santa Clara", "source_last_edit_at": "2026-03-28T17:19:55.001000+00:00"}}, {"type": "Feature", "geometry": {"type": "Point", "coordinates": [-113.66658255386065, 37.140859365692]}, "properties": {"id": "santa-clara-20552", "species_group": "plum", "scientific_name": "Prunus species", "common_name": "Plum-Flowering", "subtype_name": "Plum-Flowering", "zip_code": "84765", "ownership": "public", "ownership_raw": "City of Santa Clara", "city": "Santa Clara", "source_dataset": "Utah Urban Tree Inventory", "source_department": "City of Santa Clara", "source_last_edit_at": "2026-03-28T17:19:55.001000+00:00"}}, {"type": "Feature", "geometry": {"type": "Point", "coordinates": [-113.66663260479963, 37.14100242370054]}, "properties": {"id": "santa-clara-20554", "species_group": "plum", "scientific_name": "Prunus species", "common_name": "Plum-Flowering", "subtype_name": "Plum-Flowering", "zip_code": "84765", "ownership": "public", "ownership_raw": "City of Santa Clara", "city": "Santa Clara", "source_dataset": "Utah Urban Tree Inventory", "source_department": "City of Santa Clara", "source_last_edit_at": "2026-03-28T17:19:55.001000+00:00"}}, {"type": "Feature", "geometry": {"type": "Point", "coordinates": [-113.66669358723745, 37.14113622402821]}, "properties": {"id": "santa-clara-20556", "species_group": "plum", "scientific_name": "Prunus species", "common_name": "Plum-Flowering", "subtype_name": "Plum-Flowering", "zip_code": "84765", "ownership": "public", "ownership_raw": "City of Santa Clara", "city": "Santa Clara", "source_dataset": "Utah Urban Tree Inventory", "source_department": "City of Santa Clara", "source_last_edit_at": "2026-03-28T17:19:55.001000+00:00"}}, {"type": "Feature", "geometry": {"type": "Point", "coordinates": [-113.66300476663677, 37.14957292238184]}, "properties": {"id": "santa-clara-7598", "species_group": "cherry", "scientific_name": "Prunus species", "common_name": "Cherry-Flowering", "subtype_name": "Flowering Cherry", "zip_code": "84765", "ownership": "public", "ownership_raw": "City of Santa Clara", "city": "Santa Clara", "source_dataset": "Utah Urban Tree Inventory", "source_department": "City of Santa Clara", "source_last_edit_at": "2026-03-28T17:19:55.001000+00:00"}}, {"type": "Feature", "geometry": {"type": "Point", "coordinates": [-113.66300476663677, 37.14957292238184]}, "properties": {"id": "santa-clara-7753", "species_group": "cherry", "scientific_name": "Prunus species", "common_name": "Cherry-Flowering", "subtype_name": "Flowering Cherry", "zip_code": "84765", "ownership": "public", "ownership_raw": "City of Santa Clara", "city": "Santa Clara", "source_dataset": "Utah Urban Tree Inventory", "source_department": "City of Santa Clara", "source_last_edit_at": "2026-03-28T17:19:55.001000+00:00"}}, {"type": "Feature", "geometry": {"type": "Point", "coordinates": [-113.66300476663677, 37.14957292238184]}, "properties": {"id": "santa-clara-7908", "species_group": "cherry", "scientific_name": "Prunus species", "common_name": "Cherry-Flowering", "subtype_name": "Flowering Cherry", "zip_code": "84765", "ownership": "public", "ownership_raw": "City of Santa Clara", "city": "Santa Clara", "source_dataset": "Utah Urban Tree Inventory", "source_department": "City of Santa Clara", "source_last_edit_at": "2026-03-28T17:19:55.001000+00:00"}}]}