{"type": "FeatureCollection", "features": [{"type": "Feature", "geometry": {"type": "Point", "coordinates": [-95.97781115920523, 36.152180820938916]}, "properties": {"id": "tulsa-10114", "species_group": "magnolia", "scientific_name": "Magnolia virginiana", "common_name": "Sweetbay magnolia", "subtype_name": "Sweetbay Magnolia", "zip_code": "74120", "ownership": "public", "ownership_raw": "City of Tulsa", "city": "Tulsa", "source_dataset": "Trees", "source_department": "City of Tulsa", "source_last_edit_at": ""}}, {"type": "Feature", "geometry": {"type": "Point", "coordinates": [-95.97925488631941, 36.151307128292196]}, "properties": {"id": "tulsa-10123", "species_group": "magnolia", "scientific_name": "Magnolia virginiana", "common_name": "Sweetbay magnolia", "subtype_name": "Sweetbay Magnolia", "zip_code": "74120", "ownership": "public", "ownership_raw": "City of Tulsa", "city": "Tulsa", "source_dataset": "Trees", "source_department": "City of Tulsa", "source_last_edit_at": ""}}, {"type": "Feature", "geometry": {"type": "Point", "coordinates": [-95.9793020501115, 36.15128423157602]}, "properties": {"id": "tulsa-10124", "species_group": "magnolia", "scientific_name": "Magnolia virginiana", "common_name": "Sweetbay magnolia", "subtype_name": "Sweetbay Magnolia", "zip_code": "74120", "ownership": "public", "ownership_raw": "City of Tulsa", "city": "Tulsa", "source_dataset": "Trees", "source_department": "City of Tulsa", "source_last_edit_at": ""}}, {"type": "Feature", "geometry": {"type": "Point", "coordinates": [-95.97933259711614, 36.151265256904665]}, "properties": {"id": "tulsa-10125", "species_group": "magnolia", "scientific_name": "Magnolia virginiana", "common_name": "Sweetbay magnolia", "subtype_name": "Sweetbay Magnolia", "zip_code": "74120", "ownership": "public", "ownership_raw": "City of Tulsa", "city": "Tulsa", "source_dataset": "Trees", "source_department": "City of Tulsa", "source_last_edit_at": ""}}, {"type": "Feature", "geometry": {"type": "Point", "coordinates": [-95.97938328942845, 36.151258057271775]}, "properties": {"id": "tulsa-10126", "species_group": "magnolia", "scientific_name": "Magnolia virginiana", "common_name": "Sweetbay magnolia", "subtype_name": "Sweetbay Magnolia", "zip_code": "74120", "ownership": "public", "ownership_raw": "City of Tulsa", "city": "Tulsa", "source_dataset": "Trees", "source_department": "City of Tulsa", "source_last_edit_at": ""}}, {"type": "Feature", "geometry": {"type": "Point", "coordinates": [-95.97941647778194, 36.15127700452131]}, "properties": {"id": "tulsa-10127", "species_group": "magnolia", "scientific_name": "Magnolia virginiana", "common_name": "Sweetbay magnolia", "subtype_name": "Sweetbay Magnolia", "zip_code": "74120", "ownership": "public", "ownership_raw": "City of Tulsa", "city": "Tulsa", "source_dataset": "Trees", "source_department": "City of Tulsa", "source_last_edit_at": ""}}, {"type": "Feature", "geometry": {"type": "Point", "coordinates": [-96.00688389978205, 36.15966416103306]}, "properties": {"id": "tulsa-10520", "species_group": "magnolia", "scientific_name": "Magnolia grandiflora", "common_name": "Southern Magnolia", "subtype_name": "Southern Magnolia", "zip_code": "74127", "ownership": "public", "ownership_raw": "City of Tulsa", "city": "Tulsa", "source_dataset": "Trees", "source_department": "City of Tulsa", "source_last_edit_at": ""}}, {"type": "Feature", "geometry": {"type": "Point", "coordinates": [-96.00676441836504, 36.15986715298389]}, "properties": {"id": "tulsa-10522", "species_group": "magnolia", "scientific_name": "Magnolia grandiflora", "common_name": "Southern Magnolia", "subtype_name": "Southern Magnolia", "zip_code": "74127", "ownership": "public", "ownership_raw": "City of Tulsa", "city": "Tulsa", "source_dataset": "Trees", "source_department": "City of Tulsa", "source_last_edit_at": ""}}, {"type": "Feature", "geometry": {"type": "Point", "coordinates": [-96.00331743801787, 36.16119800978097]}, "properties": {"id": "tulsa-10867", "species_group": "crabapple", "scientific_name": "Malus spp", "common_name": "Crabapple", "subtype_name": "Malus spp", "zip_code": "74103", "ownership": "public", "ownership_raw": "City of Tulsa", "city": "Tulsa", "source_dataset": "Trees", "source_department": "City of Tulsa", "source_last_edit_at": ""}}, {"type": "Feature", "geometry": {"type": "Point", "coordinates": [-96.00338799662093, 36.161110984323535]}, "properties": {"id": "tulsa-10868", "species_group": "crabapple", "scientific_name": "Malus spp", "common_name": "Crabapple", "subtype_name": "Malus spp", "zip_code": "74103", "ownership": "public", "ownership_raw": "City of Tulsa", "city": "Tulsa", "source_dataset": "Trees", "source_department": "City of Tulsa", "source_last_edit_at": ""}}, {"type": "Feature", "geometry": {"type": "Point", "coordinates": [-96.00925594061499, 36.15011445861215]}, "properties": {"id": "tulsa-11630", "species_group": "magnolia", "scientific_name": "Magnolia Unknown", "common_name": "Unknown", "subtype_name": "Unknown", "zip_code": "74127", "ownership": "public", "ownership_raw": "City of Tulsa", "city": "Tulsa", "source_dataset": "Trees", "source_department": "City of Tulsa", "source_last_edit_at": ""}}, {"type": "Feature", "geometry": {"type": "Point", "coordinates": [-96.00923728785064, 36.15010314618117]}, "properties": {"id": "tulsa-11631", "species_group": "magnolia", "scientific_name": "Magnolia Unknown", "common_name": "Unknown", "subtype_name": "Unknown", "zip_code": "74127", "ownership": "public", "ownership_raw": "City of Tulsa", "city": "Tulsa", "source_dataset": "Trees", "source_department": "City of Tulsa", "source_last_edit_at": ""}}, {"type": "Feature", "geometry": {"type": "Point", "coordinates": [-96.0092182372475, 36.15007785285488]}, "properties": {"id": "tulsa-11632", "species_group": "magnolia", "scientific_name": "Magnolia Unknown", "common_name": "Unknown", "subtype_name": "Unknown", "zip_code": "74127", "ownership": "public", "ownership_raw": "City of Tulsa", "city": "Tulsa", "source_dataset": "Trees", "source_department": "City of Tulsa", "source_last_edit_at": ""}}, {"type": "Feature", "geometry": {"type": "Point", "coordinates": [-96.00918630315823, 36.15006922398575]}, "properties": {"id": "tulsa-11633", "species_group": "magnolia", "scientific_name": "Magnolia Unknown", "common_name": "Unknown", "subtype_name": "Unknown", "zip_code": "74127", "ownership": "public", "ownership_raw": "City of Tulsa", "city": "Tulsa", "source_dataset": "Trees", "source_department": "City of Tulsa", "source_last_edit_at": ""}}, {"type": "Feature", "geometry": {"type": "Point", "coordinates": [-96.00917135251215, 36.15005440698458]}, "properties": {"id": "tulsa-11634", "species_group": "magnolia", "scientific_name": "Magnolia Unknown", "common_name": "Unknown", "subtype_name": "Unknown", "zip_code": "74127", "ownership": "public", "ownership_raw": "City of Tulsa", "city": "Tulsa", "source_dataset": "Trees", "source_department": "City of Tulsa", "source_last_edit_at": ""}}, {"type": "Feature", "geometry": {"type": "Point", "coordinates": [-95.89186504220078, 36.15060395575483]}, "properties": {"id": "tulsa-12821", "species_group": "magnolia", "scientific_name": "Magnolia virginiana", "common_name": "Sweetbay magnolia", "subtype_name": "Sweetbay Magnolia", "zip_code": "74112", "ownership": "public", "ownership_raw": "City of Tulsa", "city": "Tulsa", "source_dataset": "Trees", "source_department": "City of Tulsa", "source_last_edit_at": ""}}, {"type": "Feature", "geometry": {"type": "Point", "coordinates": [-95.89186092344706, 36.15057516769756]}, "properties": {"id": "tulsa-12822", "species_group": "magnolia", "scientific_name": "Magnolia virginiana", "common_name": "Sweetbay magnolia", "subtype_name": "Sweetbay Magnolia", "zip_code": "74112", "ownership": "public", "ownership_raw": "City of Tulsa", "city": "Tulsa", "source_dataset": "Trees", "source_department": "City of Tulsa", "source_last_edit_at": ""}}, {"type": "Feature", "geometry": {"type": "Point", "coordinates": [-95.89182668703445, 36.150593725487504]}, "properties": {"id": "tulsa-12823", "species_group": "magnolia", "scientific_name": "Magnolia virginiana", "common_name": "Sweetbay magnolia", "subtype_name": "Sweetbay Magnolia", "zip_code": "74112", "ownership": "public", "ownership_raw": "City of Tulsa", "city": "Tulsa", "source_dataset": "Trees", "source_department": "City of Tulsa", "source_last_edit_at": ""}}, {"type": "Feature", "geometry": {"type": "Point", "coordinates": [-95.88952056530238, 36.149672741010946]}, "properties": {"id": "tulsa-13415", "species_group": "plum", "scientific_name": "Prunus americana", "common_name": "Other", "subtype_name": "Other", "zip_code": "74112", "ownership": "public", "ownership_raw": "City of Tulsa", "city": "Tulsa", "source_dataset": "Trees", "source_department": "City of Tulsa", "source_last_edit_at": ""}}, {"type": "Feature", "geometry": {"type": "Point", "coordinates": [-95.88950315401752, 36.14969813230047]}, "properties": {"id": "tulsa-13416", "species_group": "plum", "scientific_name": "Prunus americana", "common_name": "Other", "subtype_name": "Other", "zip_code": "74112", "ownership": "public", "ownership_raw": "City of Tulsa", "city": "Tulsa", "source_dataset": "Trees", "source_department": "City of Tulsa", "source_last_edit_at": ""}}, {"type": "Feature", "geometry": {"type": "Point", "coordinates": [-95.8894939244743, 36.14971133930718]}, "properties": {"id": "tulsa-13417", "species_group": "plum", "scientific_name": "Prunus americana", "common_name": "Other", "subtype_name": "Other", "zip_code": "74112", "ownership": "public", "ownership_raw": "City of Tulsa", "city": "Tulsa", "source_dataset": "Trees", "source_department": "City of Tulsa", "source_last_edit_at": ""}}, {"type": "Feature", "geometry": {"type": "Point", "coordinates": [-95.88951053751657, 36.14966028882914]}, "properties": {"id": "tulsa-13418", "species_group": "plum", "scientific_name": "Prunus americana", "common_name": "Other", "subtype_name": "Other", "zip_code": "74112", "ownership": "public", "ownership_raw": "City of Tulsa", "city": "Tulsa", "source_dataset": "Trees", "source_department": "City of Tulsa", "source_last_edit_at": ""}}, {"type": "Feature", "geometry": {"type": "Point", "coordinates": [-95.88950515410674, 36.14964711532797]}, "properties": {"id": "tulsa-13419", "species_group": "plum", "scientific_name": "Prunus americana", "common_name": "Other", "subtype_name": "Other", "zip_code": "74112", "ownership": "public", "ownership_raw": "City of Tulsa", "city": "Tulsa", "source_dataset": "Trees", "source_department": "City of Tulsa", "source_last_edit_at": ""}}, {"type": "Feature", "geometry": {"type": "Point", "coordinates": [-95.86832797593787, 36.11360703823661]}, "properties": {"id": "tulsa-14126", "species_group": "crabapple", "scientific_name": "Malus Unknown", "common_name": "Crabapple", "subtype_name": "Malus Unknown", "zip_code": "74146", "ownership": "public", "ownership_raw": "City of Tulsa", "city": "Tulsa", "source_dataset": "Trees", "source_department": "City of Tulsa", "source_last_edit_at": ""}}, {"type": "Feature", "geometry": {"type": "Point", "coordinates": [-95.86843802989614, 36.113598049743096]}, "properties": {"id": "tulsa-14127", "species_group": "crabapple", "scientific_name": "Malus Unknown", "common_name": "Crabapple", "subtype_name": "Malus Unknown", "zip_code": "74146", "ownership": "public", "ownership_raw": "City of Tulsa", "city": "Tulsa", "source_dataset": "Trees", "source_department": "City of Tulsa", "source_last_edit_at": ""}}, {"type": "Feature", "geometry": {"type": "Point", "coordinates": [-95.8677136206629, 36.11321837130214]}, "properties": {"id": "tulsa-14174", "species_group": "magnolia", "scientific_name": "Magnolia virginiana", "common_name": "Sweetbay magnolia", "subtype_name": "Sweetbay Magnolia", "zip_code": "74146", "ownership": "public", "ownership_raw": "City of Tulsa", "city": "Tulsa", "source_dataset": "Trees", "source_department": "City of Tulsa", "source_last_edit_at": ""}}, {"type": "Feature", "geometry": {"type": "Point", "coordinates": [-95.86769862572964, 36.1132741294011]}, "properties": {"id": "tulsa-14175", "species_group": "magnolia", "scientific_name": "Magnolia virginiana", "common_name": "Sweetbay magnolia", "subtype_name": "Sweetbay Magnolia", "zip_code": "74146", "ownership": "public", "ownership_raw": "City of Tulsa", "city": "Tulsa", "source_dataset": "Trees", "source_department": "City of Tulsa", "source_last_edit_at": ""}}, {"type": "Feature", "geometry": {"type": "Point", "coordinates": [-95.86757654029599, 36.113501788219224]}, "properties": {"id": "tulsa-14176", "species_group": "magnolia", "scientific_name": "Magnolia virginiana", "common_name": "Sweetbay magnolia", "subtype_name": "Sweetbay Magnolia", "zip_code": "74146", "ownership": "public", "ownership_raw": "City of Tulsa", "city": "Tulsa", "source_dataset": "Trees", "source_department": "City of Tulsa", "source_last_edit_at": ""}}, {"type": "Feature", "geometry": {"type": "Point", "coordinates": [-95.86756117094737, 36.11356648684534]}, "properties": {"id": "tulsa-14178", "species_group": "magnolia", "scientific_name": "Magnolia virginiana", "common_name": "Sweetbay magnolia", "subtype_name": "Sweetbay Magnolia", "zip_code": "74146", "ownership": "public", "ownership_raw": "City of Tulsa", "city": "Tulsa", "source_dataset": "Trees", "source_department": "City of Tulsa", "source_last_edit_at": ""}}, {"type": "Feature", "geometry": {"type": "Point", "coordinates": [-95.86751751006031, 36.1136385105552]}, "properties": {"id": "tulsa-14180", "species_group": "magnolia", "scientific_name": "Magnolia virginiana", "common_name": "Sweetbay magnolia", "subtype_name": "Sweetbay Magnolia", "zip_code": "74146", "ownership": "public", "ownership_raw": "City of Tulsa", "city": "Tulsa", "source_dataset": "Trees", "source_department": "City of Tulsa", "source_last_edit_at": ""}}, {"type": "Feature", "geometry": {"type": "Point", "coordinates": [-96.00326887997049, 36.1318077714055]}, "properties": {"id": "tulsa-18213", "species_group": "crabapple", "scientific_name": "Malus Unknown", "common_name": "Crabapple", "subtype_name": "Malus Unknown", "zip_code": "74107", "ownership": "public", "ownership_raw": "City of Tulsa", "city": "Tulsa", "source_dataset": "Trees", "source_department": "City of Tulsa", "source_last_edit_at": ""}}, {"type": "Feature", "geometry": {"type": "Point", "coordinates": [-96.00327054775494, 36.13190787590658]}, "properties": {"id": "tulsa-18214", "species_group": "crabapple", "scientific_name": "Malus Unknown", "common_name": "Crabapple", "subtype_name": "Malus Unknown", "zip_code": "74107", "ownership": "public", "ownership_raw": "City of Tulsa", "city": "Tulsa", "source_dataset": "Trees", "source_department": "City of Tulsa", "source_last_edit_at": ""}}, {"type": "Feature", "geometry": {"type": "Point", "coordinates": [-96.00325866001859, 36.13199384749395]}, "properties": {"id": "tulsa-18215", "species_group": "crabapple", "scientific_name": "Malus Unknown", "common_name": "Crabapple", "subtype_name": "Malus Unknown", "zip_code": "74107", "ownership": "public", "ownership_raw": "City of Tulsa", "city": "Tulsa", "source_dataset": "Trees", "source_department": "City of Tulsa", "source_last_edit_at": ""}}, {"type": "Feature", "geometry": {"type": "Point", "coordinates": [-96.00326016516752, 36.132094405414165]}, "properties": {"id": "tulsa-18216", "species_group": "crabapple", "scientific_name": "Malus Unknown", "common_name": "Crabapple", "subtype_name": "Malus Unknown", "zip_code": "74107", "ownership": "public", "ownership_raw": "City of Tulsa", "city": "Tulsa", "source_dataset": "Trees", "source_department": "City of Tulsa", "source_last_edit_at": ""}}, {"type": "Feature", "geometry": {"type": "Point", "coordinates": [-96.00326166505553, 36.132293733705275]}, "properties": {"id": "tulsa-18217", "species_group": "crabapple", "scientific_name": "Malus Unknown", "common_name": "Crabapple", "subtype_name": "Malus Unknown", "zip_code": "74107", "ownership": "public", "ownership_raw": "City of Tulsa", "city": "Tulsa", "source_dataset": "Trees", "source_department": "City of Tulsa", "source_last_edit_at": ""}}, {"type": "Feature", "geometry": {"type": "Point", "coordinates": [-96.00325714724681, 36.13235940673488]}, "properties": {"id": "tulsa-18218", "species_group": "crabapple", "scientific_name": "Malus Unknown", "common_name": "Crabapple", "subtype_name": "Malus Unknown", "zip_code": "74107", "ownership": "public", "ownership_raw": "City of Tulsa", "city": "Tulsa", "source_dataset": "Trees", "source_department": "City of Tulsa", "source_last_edit_at": ""}}, {"type": "Feature", "geometry": {"type": "Point", "coordinates": [-96.00275660393798, 36.13177786880926]}, "properties": {"id": "tulsa-18233", "species_group": "peach", "scientific_name": "Prunus persica", "common_name": "Peach", "subtype_name": "Peach", "zip_code": "74107", "ownership": "public", "ownership_raw": "City of Tulsa", "city": "Tulsa", "source_dataset": "Trees", "source_department": "City of Tulsa", "source_last_edit_at": ""}}, {"type": "Feature", "geometry": {"type": "Point", "coordinates": [-96.00277278324343, 36.13181819223645]}, "properties": {"id": "tulsa-18234", "species_group": "crabapple", "scientific_name": "Malus Pumila", "common_name": "Apple", "subtype_name": "Apple", "zip_code": "74107", "ownership": "public", "ownership_raw": "City of Tulsa", "city": "Tulsa", "source_dataset": "Trees", "source_department": "City of Tulsa", "source_last_edit_at": ""}}, {"type": "Feature", "geometry": {"type": "Point", "coordinates": [-96.00272289602005, 36.131859299731445]}, "properties": {"id": "tulsa-18235", "species_group": "crabapple", "scientific_name": "Malus Pumila", "common_name": "Apple", "subtype_name": "Apple", "zip_code": "74107", "ownership": "public", "ownership_raw": "City of Tulsa", "city": "Tulsa", "source_dataset": "Trees", "source_department": "City of Tulsa", "source_last_edit_at": ""}}, {"type": "Feature", "geometry": {"type": "Point", "coordinates": [-96.00269409990719, 36.13182948309589]}, "properties": {"id": "tulsa-18236", "species_group": "crabapple", "scientific_name": "Malus Pumila", "common_name": "Apple", "subtype_name": "Apple", "zip_code": "74107", "ownership": "public", "ownership_raw": "City of Tulsa", "city": "Tulsa", "source_dataset": "Trees", "source_department": "City of Tulsa", "source_last_edit_at": ""}}, {"type": "Feature", "geometry": {"type": "Point", "coordinates": [-96.00266138376026, 36.13179426171284]}, "properties": {"id": "tulsa-18237", "species_group": "peach", "scientific_name": "Prunus persica", "common_name": "Peach", "subtype_name": "Peach", "zip_code": "74107", "ownership": "public", "ownership_raw": "City of Tulsa", "city": "Tulsa", "source_dataset": "Trees", "source_department": "City of Tulsa", "source_last_edit_at": ""}}, {"type": "Feature", "geometry": {"type": "Point", "coordinates": [-96.0026256362455, 36.13186129299976]}, "properties": {"id": "tulsa-18238", "species_group": "peach", "scientific_name": "Prunus persica", "common_name": "Peach", "subtype_name": "Peach", "zip_code": "74107", "ownership": "public", "ownership_raw": "City of Tulsa", "city": "Tulsa", "source_dataset": "Trees", "source_department": "City of Tulsa", "source_last_edit_at": ""}}, {"type": "Feature", "geometry": {"type": "Point", "coordinates": [-96.00256684609774, 36.131784665304]}, "properties": {"id": "tulsa-18239", "species_group": "peach", "scientific_name": "Prunus persica", "common_name": "Peach", "subtype_name": "Peach", "zip_code": "74107", "ownership": "public", "ownership_raw": "City of Tulsa", "city": "Tulsa", "source_dataset": "Trees", "source_department": "City of Tulsa", "source_last_edit_at": ""}}, {"type": "Feature", "geometry": {"type": "Point", "coordinates": [-96.003303360692, 36.13335807327542]}, "properties": {"id": "tulsa-18562", "species_group": "crabapple", "scientific_name": "Malus Unknown", "common_name": "Crabapple", "subtype_name": "Malus Unknown", "zip_code": "74107", "ownership": "public", "ownership_raw": "City of Tulsa", "city": "Tulsa", "source_dataset": "Trees", "source_department": "City of Tulsa", "source_last_edit_at": ""}}, {"type": "Feature", "geometry": {"type": "Point", "coordinates": [-96.00329282848463, 36.13325248338589]}, "properties": {"id": "tulsa-18563", "species_group": "crabapple", "scientific_name": "Malus Unknown", "common_name": "Crabapple", "subtype_name": "Malus Unknown", "zip_code": "74107", "ownership": "public", "ownership_raw": "City of Tulsa", "city": "Tulsa", "source_dataset": "Trees", "source_department": "City of Tulsa", "source_last_edit_at": ""}}, {"type": "Feature", "geometry": {"type": "Point", "coordinates": [-96.00328916256095, 36.13315027673149]}, "properties": {"id": "tulsa-18564", "species_group": "crabapple", "scientific_name": "Malus Unknown", "common_name": "Crabapple", "subtype_name": "Malus Unknown", "zip_code": "74107", "ownership": "public", "ownership_raw": "City of Tulsa", "city": "Tulsa", "source_dataset": "Trees", "source_department": "City of Tulsa", "source_last_edit_at": ""}}, {"type": "Feature", "geometry": {"type": "Point", "coordinates": [-96.00326054437295, 36.13267700582035]}, "properties": {"id": "tulsa-18566", "species_group": "crabapple", "scientific_name": "Malus Unknown", "common_name": "Crabapple", "subtype_name": "Malus Unknown", "zip_code": "74107", "ownership": "public", "ownership_raw": "City of Tulsa", "city": "Tulsa", "source_dataset": "Trees", "source_department": "City of Tulsa", "source_last_edit_at": ""}}, {"type": "Feature", "geometry": {"type": "Point", "coordinates": [-96.003255163656, 36.13257726125753]}, "properties": {"id": "tulsa-18567", "species_group": "crabapple", "scientific_name": "Malus Unknown", "common_name": "Crabapple", "subtype_name": "Malus Unknown", "zip_code": "74107", "ownership": "public", "ownership_raw": "City of Tulsa", "city": "Tulsa", "source_dataset": "Trees", "source_department": "City of Tulsa", "source_last_edit_at": ""}}, {"type": "Feature", "geometry": {"type": "Point", "coordinates": [-96.00326352383092, 36.13252260229913]}, "properties": {"id": "tulsa-18569", "species_group": "crabapple", "scientific_name": "Malus Unknown", "common_name": "Crabapple", "subtype_name": "Malus Unknown", "zip_code": "74107", "ownership": "public", "ownership_raw": "City of Tulsa", "city": "Tulsa", "source_dataset": "Trees", "source_department": "City of Tulsa", "source_last_edit_at": ""}}, {"type": "Feature", "geometry": {"type": "Point", "coordinates": [-96.00241119053612, 36.13234256929865]}, "properties": {"id": "tulsa-18582", "species_group": "crabapple", "scientific_name": "Malus Other", "common_name": "Crabapple", "subtype_name": "Malus Other", "zip_code": "74107", "ownership": "public", "ownership_raw": "City of Tulsa", "city": "Tulsa", "source_dataset": "Trees", "source_department": "City of Tulsa", "source_last_edit_at": ""}}, {"type": "Feature", "geometry": {"type": "Point", "coordinates": [-96.00234212641114, 36.132385542542075]}, "properties": {"id": "tulsa-18583", "species_group": "crabapple", "scientific_name": "Malus Other", "common_name": "Crabapple", "subtype_name": "Malus Other", "zip_code": "74107", "ownership": "public", "ownership_raw": "City of Tulsa", "city": "Tulsa", "source_dataset": "Trees", "source_department": "City of Tulsa", "source_last_edit_at": ""}}, {"type": "Feature", "geometry": {"type": "Point", "coordinates": [-96.00226765191717, 36.132379178107485]}, "properties": {"id": "tulsa-18584", "species_group": "crabapple", "scientific_name": "Malus Other", "common_name": "Crabapple", "subtype_name": "Malus Other", "zip_code": "74107", "ownership": "public", "ownership_raw": "City of Tulsa", "city": "Tulsa", "source_dataset": "Trees", "source_department": "City of Tulsa", "source_last_edit_at": ""}}, {"type": "Feature", "geometry": {"type": "Point", "coordinates": [-95.92954323597739, 36.18433403731914]}, "properties": {"id": "tulsa-18964", "species_group": "crabapple", "scientific_name": "Malus Pumila", "common_name": "Apple", "subtype_name": "Apple", "zip_code": "74115", "ownership": "public", "ownership_raw": "City of Tulsa", "city": "Tulsa", "source_dataset": "Trees", "source_department": "City of Tulsa", "source_last_edit_at": ""}}, {"type": "Feature", "geometry": {"type": "Point", "coordinates": [-95.92961568273893, 36.18433771667926]}, "properties": {"id": "tulsa-18965", "species_group": "crabapple", "scientific_name": "Malus Pumila", "common_name": "Apple", "subtype_name": "Apple", "zip_code": "74115", "ownership": "public", "ownership_raw": "City of Tulsa", "city": "Tulsa", "source_dataset": "Trees", "source_department": "City of Tulsa", "source_last_edit_at": ""}}, {"type": "Feature", "geometry": {"type": "Point", "coordinates": [-95.92948542054887, 36.184318453816616]}, "properties": {"id": "tulsa-18966", "species_group": "crabapple", "scientific_name": "Malus Pumila", "common_name": "Apple", "subtype_name": "Apple", "zip_code": "74115", "ownership": "public", "ownership_raw": "City of Tulsa", "city": "Tulsa", "source_dataset": "Trees", "source_department": "City of Tulsa", "source_last_edit_at": ""}}, {"type": "Feature", "geometry": {"type": "Point", "coordinates": [-95.91597290667208, 36.17393857096341]}, "properties": {"id": "tulsa-19061", "species_group": "crabapple", "scientific_name": "Malus Pumila", "common_name": "Apple", "subtype_name": "Apple", "zip_code": "74115", "ownership": "public", "ownership_raw": "City of Tulsa", "city": "Tulsa", "source_dataset": "Trees", "source_department": "City of Tulsa", "source_last_edit_at": ""}}, {"type": "Feature", "geometry": {"type": "Point", "coordinates": [-95.91609572805193, 36.17388406074693]}, "properties": {"id": "tulsa-19062", "species_group": "crabapple", "scientific_name": "Malus Other", "common_name": "Crabapple", "subtype_name": "Malus Other", "zip_code": "74115", "ownership": "public", "ownership_raw": "City of Tulsa", "city": "Tulsa", "source_dataset": "Trees", "source_department": "City of Tulsa", "source_last_edit_at": ""}}, {"type": "Feature", "geometry": {"type": "Point", "coordinates": [-95.91796275926275, 36.174532505602535]}, "properties": {"id": "tulsa-19093", "species_group": "magnolia", "scientific_name": "Magnolia virginiana", "common_name": "Sweetbay magnolia", "subtype_name": "Sweetbay Magnolia", "zip_code": "74115", "ownership": "public", "ownership_raw": "City of Tulsa", "city": "Tulsa", "source_dataset": "Trees", "source_department": "City of Tulsa", "source_last_edit_at": ""}}, {"type": "Feature", "geometry": {"type": "Point", "coordinates": [-95.9179655239504, 36.1744064361668]}, "properties": {"id": "tulsa-19094", "species_group": "magnolia", "scientific_name": "Magnolia virginiana", "common_name": "Sweetbay magnolia", "subtype_name": "Sweetbay Magnolia", "zip_code": "74115", "ownership": "public", "ownership_raw": "City of Tulsa", "city": "Tulsa", "source_dataset": "Trees", "source_department": "City of Tulsa", "source_last_edit_at": ""}}, {"type": "Feature", "geometry": {"type": "Point", "coordinates": [-95.91858769342697, 36.173792242760065]}, "properties": {"id": "tulsa-19117", "species_group": "magnolia", "scientific_name": "Magnolia virginiana", "common_name": "Sweetbay magnolia", "subtype_name": "Sweetbay Magnolia", "zip_code": "74115", "ownership": "public", "ownership_raw": "City of Tulsa", "city": "Tulsa", "source_dataset": "Trees", "source_department": "City of Tulsa", "source_last_edit_at": ""}}, {"type": "Feature", "geometry": {"type": "Point", "coordinates": [-95.91883220410499, 36.17390671339838]}, "properties": {"id": "tulsa-19121", "species_group": "magnolia", "scientific_name": "Magnolia Virginiana", "common_name": "Sweetbay magnolia", "subtype_name": "Sweetbay Magnolia", "zip_code": "74115", "ownership": "public", "ownership_raw": "City of Tulsa", "city": "Tulsa", "source_dataset": "Trees", "source_department": "City of Tulsa", "source_last_edit_at": ""}}, {"type": "Feature", "geometry": {"type": "Point", "coordinates": [-95.96483586760549, 36.086388613025186]}, "properties": {"id": "tulsa-20118", "species_group": "magnolia", "scientific_name": "Magnolia Other", "common_name": "Other", "subtype_name": "Other", "zip_code": "74105", "ownership": "public", "ownership_raw": "City of Tulsa", "city": "Tulsa", "source_dataset": "Trees", "source_department": "City of Tulsa", "source_last_edit_at": ""}}, {"type": "Feature", "geometry": {"type": "Point", "coordinates": [-95.97768265779628, 36.14752026377741]}, "properties": {"id": "tulsa-20613", "species_group": "peach", "scientific_name": "Prunus persica", "common_name": "Peach", "subtype_name": "Peach", "zip_code": "74120", "ownership": "public", "ownership_raw": "City of Tulsa", "city": "Tulsa", "source_dataset": "Trees", "source_department": "City of Tulsa", "source_last_edit_at": ""}}, {"type": "Feature", "geometry": {"type": "Point", "coordinates": [-95.97760209139379, 36.147500854402836]}, "properties": {"id": "tulsa-20614", "species_group": "peach", "scientific_name": "Prunus persica", "common_name": "Peach", "subtype_name": "Peach", "zip_code": "74120", "ownership": "public", "ownership_raw": "City of Tulsa", "city": "Tulsa", "source_dataset": "Trees", "source_department": "City of Tulsa", "source_last_edit_at": ""}}, {"type": "Feature", "geometry": {"type": "Point", "coordinates": [-95.97758901539419, 36.14755803909142]}, "properties": {"id": "tulsa-20615", "species_group": "peach", "scientific_name": "Prunus persica", "common_name": "Peach", "subtype_name": "Peach", "zip_code": "74120", "ownership": "public", "ownership_raw": "City of Tulsa", "city": "Tulsa", "source_dataset": "Trees", "source_department": "City of Tulsa", "source_last_edit_at": ""}}, {"type": "Feature", "geometry": {"type": "Point", "coordinates": [-95.9776919373192, 36.147566785168074]}, "properties": {"id": "tulsa-20616", "species_group": "peach", "scientific_name": "Prunus persica", "common_name": "Peach", "subtype_name": "Peach", "zip_code": "74120", "ownership": "public", "ownership_raw": "City of Tulsa", "city": "Tulsa", "source_dataset": "Trees", "source_department": "City of Tulsa", "source_last_edit_at": ""}}, {"type": "Feature", "geometry": {"type": "Point", "coordinates": [-95.97769118604614, 36.147616846565725]}, "properties": {"id": "tulsa-20617", "species_group": "peach", "scientific_name": "Prunus persica", "common_name": "Peach", "subtype_name": "Peach", "zip_code": "74120", "ownership": "public", "ownership_raw": "City of Tulsa", "city": "Tulsa", "source_dataset": "Trees", "source_department": "City of Tulsa", "source_last_edit_at": ""}}, {"type": "Feature", "geometry": {"type": "Point", "coordinates": [-95.93774693106029, 36.153165418301306]}, "properties": {"id": "tulsa-20636", "species_group": "crabapple", "scientific_name": "Malus Unknown", "common_name": "Crabapple", "subtype_name": "Malus Unknown", "zip_code": "74112", "ownership": "public", "ownership_raw": "City of Tulsa", "city": "Tulsa", "source_dataset": "Trees", "source_department": "City of Tulsa", "source_last_edit_at": ""}}, {"type": "Feature", "geometry": {"type": "Point", "coordinates": [-95.93770464972116, 36.15314033679803]}, "properties": {"id": "tulsa-20637", "species_group": "crabapple", "scientific_name": "Malus Unknown", "common_name": "Crabapple", "subtype_name": "Malus Unknown", "zip_code": "74112", "ownership": "public", "ownership_raw": "City of Tulsa", "city": "Tulsa", "source_dataset": "Trees", "source_department": "City of Tulsa", "source_last_edit_at": ""}}, {"type": "Feature", "geometry": {"type": "Point", "coordinates": [-95.93766811277762, 36.153098755610586]}, "properties": {"id": "tulsa-20638", "species_group": "crabapple", "scientific_name": "Malus Unknown", "common_name": "Crabapple", "subtype_name": "Malus Unknown", "zip_code": "74112", "ownership": "public", "ownership_raw": "City of Tulsa", "city": "Tulsa", "source_dataset": "Trees", "source_department": "City of Tulsa", "source_last_edit_at": ""}}, {"type": "Feature", "geometry": {"type": "Point", "coordinates": [-95.98682449694373, 36.133702639137226]}, "properties": {"id": "tulsa-26951", "species_group": "peach", "scientific_name": "Prunus persica", "common_name": "Peach", "subtype_name": "Peach", "zip_code": "74119", "ownership": "public", "ownership_raw": "City of Tulsa", "city": "Tulsa", "source_dataset": "Trees", "source_department": "City of Tulsa", "source_last_edit_at": ""}}, {"type": "Feature", "geometry": {"type": "Point", "coordinates": [-95.98773231041964, 36.1359252927668]}, "properties": {"id": "tulsa-26986", "species_group": "magnolia", "scientific_name": "Magnolia grandiflora", "common_name": "Southern Magnolia", "subtype_name": "Southern Magnolia", "zip_code": "74119", "ownership": "public", "ownership_raw": "City of Tulsa", "city": "Tulsa", "source_dataset": "Trees", "source_department": "City of Tulsa", "source_last_edit_at": ""}}, {"type": "Feature", "geometry": {"type": "Point", "coordinates": [-95.98681191601975, 36.133749896381445]}, "properties": {"id": "tulsa-27353", "species_group": "peach", "scientific_name": "Prunus persica", "common_name": "Peach", "subtype_name": "Peach", "zip_code": "74119", "ownership": "public", "ownership_raw": "City of Tulsa", "city": "Tulsa", "source_dataset": "Trees", "source_department": "City of Tulsa", "source_last_edit_at": ""}}, {"type": "Feature", "geometry": {"type": "Point", "coordinates": [-95.98828416479267, 36.13547049873517]}, "properties": {"id": "tulsa-27380", "species_group": "magnolia", "scientific_name": "Magnolia grandiflora", "common_name": "Southern Magnolia", "subtype_name": "Southern Magnolia", "zip_code": "74119", "ownership": "public", "ownership_raw": "City of Tulsa", "city": "Tulsa", "source_dataset": "Trees", "source_department": "City of Tulsa", "source_last_edit_at": ""}}, {"type": "Feature", "geometry": {"type": "Point", "coordinates": [-96.02366121521861, 36.17503993978275]}, "properties": {"id": "tulsa-39319", "species_group": "plum", "scientific_name": "Prunus americana", "common_name": "Other", "subtype_name": "Other", "zip_code": "74127", "ownership": "public", "ownership_raw": "City of Tulsa", "city": "Tulsa", "source_dataset": "Trees", "source_department": "City of Tulsa", "source_last_edit_at": ""}}, {"type": "Feature", "geometry": {"type": "Point", "coordinates": [-96.02293395111242, 36.17545186208368]}, "properties": {"id": "tulsa-39324", "species_group": "crabapple", "scientific_name": "Malus spp", "common_name": "Crabapple", "subtype_name": "Malus spp", "zip_code": "74127", "ownership": "public", "ownership_raw": "City of Tulsa", "city": "Tulsa", "source_dataset": "Trees", "source_department": "City of Tulsa", "source_last_edit_at": ""}}, {"type": "Feature", "geometry": {"type": "Point", "coordinates": [-96.02291400976598, 36.17554787366771]}, "properties": {"id": "tulsa-39325", "species_group": "crabapple", "scientific_name": "Malus Unknown", "common_name": "Crabapple", "subtype_name": "Malus Unknown", "zip_code": "74127", "ownership": "public", "ownership_raw": "City of Tulsa", "city": "Tulsa", "source_dataset": "Trees", "source_department": "City of Tulsa", "source_last_edit_at": ""}}, {"type": "Feature", "geometry": {"type": "Point", "coordinates": [-95.96894253364778, 36.13625047317264]}, "properties": {"id": "tulsa-39377", "species_group": "magnolia", "scientific_name": "Magnolia Other", "common_name": "Other", "subtype_name": "Other", "zip_code": "74120", "ownership": "public", "ownership_raw": "City of Tulsa", "city": "Tulsa", "source_dataset": "Trees", "source_department": "City of Tulsa", "source_last_edit_at": ""}}, {"type": "Feature", "geometry": {"type": "Point", "coordinates": [-96.02308841311985, 36.17488793013547]}, "properties": {"id": "tulsa-39721", "species_group": "magnolia", "scientific_name": "Magnolia grandiflora", "common_name": "Southern Magnolia", "subtype_name": "Southern Magnolia", "zip_code": "74127", "ownership": "public", "ownership_raw": "City of Tulsa", "city": "Tulsa", "source_dataset": "Trees", "source_department": "City of Tulsa", "source_last_edit_at": ""}}, {"type": "Feature", "geometry": {"type": "Point", "coordinates": [-96.02293558341844, 36.17549018776253]}, "properties": {"id": "tulsa-39724", "species_group": "crabapple", "scientific_name": "Malus Unknown", "common_name": "Crabapple", "subtype_name": "Malus Unknown", "zip_code": "74127", "ownership": "public", "ownership_raw": "City of Tulsa", "city": "Tulsa", "source_dataset": "Trees", "source_department": "City of Tulsa", "source_last_edit_at": ""}}, {"type": "Feature", "geometry": {"type": "Point", "coordinates": [-96.02265275274937, 36.17562493086342]}, "properties": {"id": "tulsa-39725", "species_group": "crabapple", "scientific_name": "Malus Unknown", "common_name": "Crabapple", "subtype_name": "Malus Unknown", "zip_code": "74127", "ownership": "public", "ownership_raw": "City of Tulsa", "city": "Tulsa", "source_dataset": "Trees", "source_department": "City of Tulsa", "source_last_edit_at": ""}}, {"type": "Feature", "geometry": {"type": "Point", "coordinates": [-95.87338126317155, 36.01841239080438]}, "properties": {"id": "tulsa-4023", "species_group": "crabapple", "scientific_name": "Malus spp", "common_name": "Crabapple", "subtype_name": "Malus spp", "zip_code": "74133", "ownership": "public", "ownership_raw": "City of Tulsa", "city": "Tulsa", "source_dataset": "Trees", "source_department": "City of Tulsa", "source_last_edit_at": ""}}, {"type": "Feature", "geometry": {"type": "Point", "coordinates": [-95.87335572140795, 36.018366523485106]}, "properties": {"id": "tulsa-4025", "species_group": "crabapple", "scientific_name": "Malus spp", "common_name": "Crabapple", "subtype_name": "Malus spp", "zip_code": "74133", "ownership": "public", "ownership_raw": "City of Tulsa", "city": "Tulsa", "source_dataset": "Trees", "source_department": "City of Tulsa", "source_last_edit_at": ""}}, {"type": "Feature", "geometry": {"type": "Point", "coordinates": [-95.87337241846348, 36.01832587572586]}, "properties": {"id": "tulsa-4026", "species_group": "crabapple", "scientific_name": "Malus spp", "common_name": "Crabapple", "subtype_name": "Malus spp", "zip_code": "74133", "ownership": "public", "ownership_raw": "City of Tulsa", "city": "Tulsa", "source_dataset": "Trees", "source_department": "City of Tulsa", "source_last_edit_at": ""}}, {"type": "Feature", "geometry": {"type": "Point", "coordinates": [-95.97176613417857, 36.14652734261331]}, "properties": {"id": "tulsa-43323", "species_group": "magnolia", "scientific_name": "Magnolia grandiflora", "common_name": "Southern Magnolia", "subtype_name": "Southern Magnolia", "zip_code": "74120", "ownership": "public", "ownership_raw": "City of Tulsa", "city": "Tulsa", "source_dataset": "Trees", "source_department": "City of Tulsa", "source_last_edit_at": ""}}, {"type": "Feature", "geometry": {"type": "Point", "coordinates": [-95.93048357314906, 36.10450388003079]}, "properties": {"id": "tulsa-5616", "species_group": "crabapple", "scientific_name": "Malus Unknown", "common_name": "Crabapple", "subtype_name": "Malus Unknown", "zip_code": "74135", "ownership": "public", "ownership_raw": "City of Tulsa", "city": "Tulsa", "source_dataset": "Trees", "source_department": "City of Tulsa", "source_last_edit_at": ""}}, {"type": "Feature", "geometry": {"type": "Point", "coordinates": [-95.92984025206812, 36.10617307967215]}, "properties": {"id": "tulsa-5655", "species_group": "magnolia", "scientific_name": "Magnolia x soulangeana", "common_name": "Saucer Magnolia", "subtype_name": "Saucer Magnolia", "zip_code": "74135", "ownership": "public", "ownership_raw": "City of Tulsa", "city": "Tulsa", "source_dataset": "Trees", "source_department": "City of Tulsa", "source_last_edit_at": ""}}, {"type": "Feature", "geometry": {"type": "Point", "coordinates": [-95.93830289564498, 36.094669878468714]}, "properties": {"id": "tulsa-6063", "species_group": "magnolia", "scientific_name": "Magnolia grandiflora", "common_name": "Southern Magnolia", "subtype_name": "Southern Magnolia", "zip_code": "74135", "ownership": "public", "ownership_raw": "City of Tulsa", "city": "Tulsa", "source_dataset": "Trees", "source_department": "City of Tulsa", "source_last_edit_at": ""}}, {"type": "Feature", "geometry": {"type": "Point", "coordinates": [-95.93878527743851, 36.093205000041124]}, "properties": {"id": "tulsa-6122", "species_group": "crabapple", "scientific_name": "Malus Unknown", "common_name": "Crabapple", "subtype_name": "Malus Unknown", "zip_code": "74135", "ownership": "public", "ownership_raw": "City of Tulsa", "city": "Tulsa", "source_dataset": "Trees", "source_department": "City of Tulsa", "source_last_edit_at": ""}}, {"type": "Feature", "geometry": {"type": "Point", "coordinates": [-95.93892211698517, 36.093175795889955]}, "properties": {"id": "tulsa-6127", "species_group": "crabapple", "scientific_name": "Malus Unknown", "common_name": "Crabapple", "subtype_name": "Malus Unknown", "zip_code": "74135", "ownership": "public", "ownership_raw": "City of Tulsa", "city": "Tulsa", "source_dataset": "Trees", "source_department": "City of Tulsa", "source_last_edit_at": ""}}, {"type": "Feature", "geometry": {"type": "Point", "coordinates": [-95.93899514570343, 36.09332867008711]}, "properties": {"id": "tulsa-6128", "species_group": "crabapple", "scientific_name": "Malus Unknown", "common_name": "Crabapple", "subtype_name": "Malus Unknown", "zip_code": "74135", "ownership": "public", "ownership_raw": "City of Tulsa", "city": "Tulsa", "source_dataset": "Trees", "source_department": "City of Tulsa", "source_last_edit_at": ""}}, {"type": "Feature", "geometry": {"type": "Point", "coordinates": [-95.93875273303223, 36.0937275025861]}, "properties": {"id": "tulsa-6136", "species_group": "crabapple", "scientific_name": "Malus Unknown", "common_name": "Crabapple", "subtype_name": "Malus Unknown", "zip_code": "74135", "ownership": "public", "ownership_raw": "City of Tulsa", "city": "Tulsa", "source_dataset": "Trees", "source_department": "City of Tulsa", "source_last_edit_at": ""}}, {"type": "Feature", "geometry": {"type": "Point", "coordinates": [-95.93881234880321, 36.093764009180994]}, "properties": {"id": "tulsa-6137", "species_group": "crabapple", "scientific_name": "Malus Unknown", "common_name": "Crabapple", "subtype_name": "Malus Unknown", "zip_code": "74135", "ownership": "public", "ownership_raw": "City of Tulsa", "city": "Tulsa", "source_dataset": "Trees", "source_department": "City of Tulsa", "source_last_edit_at": ""}}, {"type": "Feature", "geometry": {"type": "Point", "coordinates": [-95.93874543037259, 36.09383995066373]}, "properties": {"id": "tulsa-6138", "species_group": "crabapple", "scientific_name": "Malus Unknown", "common_name": "Crabapple", "subtype_name": "Malus Unknown", "zip_code": "74135", "ownership": "public", "ownership_raw": "City of Tulsa", "city": "Tulsa", "source_dataset": "Trees", "source_department": "City of Tulsa", "source_last_edit_at": ""}}, {"type": "Feature", "geometry": {"type": "Point", "coordinates": [-95.97166754698976, 36.12900550504161]}, "properties": {"id": "tulsa-9258", "species_group": "magnolia", "scientific_name": "Magnolia grandiflora", "common_name": "Southern Magnolia", "subtype_name": "Southern Magnolia", "zip_code": "74114", "ownership": "public", "ownership_raw": "City of Tulsa", "city": "Tulsa", "source_dataset": "Trees", "source_department": "City of Tulsa", "source_last_edit_at": ""}}, {"type": "Feature", "geometry": {"type": "Point", "coordinates": [-95.97259148317436, 36.12875980718516]}, "properties": {"id": "tulsa-9295", "species_group": "magnolia", "scientific_name": "Magnolia stellata", "common_name": "Other", "subtype_name": "Star Magnolia", "zip_code": "74114", "ownership": "public", "ownership_raw": "City of Tulsa", "city": "Tulsa", "source_dataset": "Trees", "source_department": "City of Tulsa", "source_last_edit_at": ""}}, {"type": "Feature", "geometry": {"type": "Point", "coordinates": [-95.9732881012769, 36.128618349979405]}, "properties": {"id": "tulsa-9305", "species_group": "magnolia", "scientific_name": "Magnolia virginiana", "common_name": "Sweetbay magnolia", "subtype_name": "Sweetbay Magnolia", "zip_code": "74114", "ownership": "public", "ownership_raw": "City of Tulsa", "city": "Tulsa", "source_dataset": "Trees", "source_department": "City of Tulsa", "source_last_edit_at": ""}}, {"type": "Feature", "geometry": {"type": "Point", "coordinates": [-95.97307756999271, 36.12882007249707]}, "properties": {"id": "tulsa-9310", "species_group": "magnolia", "scientific_name": "Magnolia x soulangeana", "common_name": "Saucer Magnolia", "subtype_name": "Saucer Magnolia", "zip_code": "74114", "ownership": "public", "ownership_raw": "City of Tulsa", "city": "Tulsa", "source_dataset": "Trees", "source_department": "City of Tulsa", "source_last_edit_at": ""}}, {"type": "Feature", "geometry": {"type": "Point", "coordinates": [-95.97294102638324, 36.129036039881896]}, "properties": {"id": "tulsa-9325", "species_group": "crabapple", "scientific_name": "Malus Other", "common_name": "Crabapple", "subtype_name": "Malus Other", "zip_code": "74114", "ownership": "public", "ownership_raw": "City of Tulsa", "city": "Tulsa", "source_dataset": "Trees", "source_department": "City of Tulsa", "source_last_edit_at": ""}}, {"type": "Feature", "geometry": {"type": "Point", "coordinates": [-95.97397933852909, 36.12943056988155]}, "properties": {"id": "tulsa-9350", "species_group": "magnolia", "scientific_name": "Magnolia grandiflora", "common_name": "Southern Magnolia", "subtype_name": "Southern Magnolia", "zip_code": "74114", "ownership": "public", "ownership_raw": "City of Tulsa", "city": "Tulsa", "source_dataset": "Trees", "source_department": "City of Tulsa", "source_last_edit_at": ""}}, {"type": "Feature", "geometry": {"type": "Point", "coordinates": [-95.97394604632092, 36.12951639937297]}, "properties": {"id": "tulsa-9351", "species_group": "magnolia", "scientific_name": "Magnolia grandiflora", "common_name": "Southern Magnolia", "subtype_name": "Southern Magnolia", "zip_code": "74114", "ownership": "public", "ownership_raw": "City of Tulsa", "city": "Tulsa", "source_dataset": "Trees", "source_department": "City of Tulsa", "source_last_edit_at": ""}}, {"type": "Feature", "geometry": {"type": "Point", "coordinates": [-95.97435531329094, 36.129283869952246]}, "properties": {"id": "tulsa-9610", "species_group": "magnolia", "scientific_name": "Magnolia grandiflora", "common_name": "Southern Magnolia", "subtype_name": "Southern Magnolia", "zip_code": "74114", "ownership": "public", "ownership_raw": "City of Tulsa", "city": "Tulsa", "source_dataset": "Trees", "source_department": "City of Tulsa", "source_last_edit_at": ""}}, {"type": "Feature", "geometry": {"type": "Point", "coordinates": [-95.97426023034069, 36.12927423102262]}, "properties": {"id": "tulsa-9611", "species_group": "magnolia", "scientific_name": "Magnolia grandiflora", "common_name": "Southern Magnolia", "subtype_name": "Southern Magnolia", "zip_code": "74114", "ownership": "public", "ownership_raw": "City of Tulsa", "city": "Tulsa", "source_dataset": "Trees", "source_department": "City of Tulsa", "source_last_edit_at": ""}}, {"type": "Feature", "geometry": {"type": "Point", "coordinates": [-95.97420807640667, 36.12926655379209]}, "properties": {"id": "tulsa-9612", "species_group": "magnolia", "scientific_name": "Magnolia grandiflora", "common_name": "Southern Magnolia", "subtype_name": "Southern Magnolia", "zip_code": "74114", "ownership": "public", "ownership_raw": "City of Tulsa", "city": "Tulsa", "source_dataset": "Trees", "source_department": "City of Tulsa", "source_last_edit_at": ""}}]}