{"type": "FeatureCollection", "features": [{"type": "Feature", "geometry": {"type": "Point", "coordinates": [-97.14239116757646, 33.20978816792836]}, "properties": {"id": "denton-1036", "species_group": "magnolia", "scientific_name": "Magnolia grandiflora", "common_name": "Magnolia", "subtype_name": "Southern Magnolia", "zip_code": "76201", "ownership": "public", "ownership_raw": "University of North Texas", "city": "Denton", "source_dataset": "2023 Tree Inventory Final Data", "source_department": "University of North Texas", "source_last_edit_at": "2023-11-27T19:36:29.590000+00:00"}}, {"type": "Feature", "geometry": {"type": "Point", "coordinates": [-97.15127370274269, 33.20752191284324]}, "properties": {"id": "denton-1237", "species_group": "magnolia", "scientific_name": "Magnolia grandiflora", "common_name": "Magnolia", "subtype_name": "Southern Magnolia", "zip_code": "76201", "ownership": "public", "ownership_raw": "University of North Texas", "city": "Denton", "source_dataset": "2023 Tree Inventory Final Data", "source_department": "University of North Texas", "source_last_edit_at": "2023-11-27T19:36:29.590000+00:00"}}, {"type": "Feature", "geometry": {"type": "Point", "coordinates": [-97.14729179327185, 33.20800401520099]}, "properties": {"id": "denton-1391", "species_group": "magnolia", "scientific_name": "Magnolia grandiflora", "common_name": "Magnolia", "subtype_name": "Southern Magnolia", "zip_code": "76201", "ownership": "public", "ownership_raw": "University of North Texas", "city": "Denton", "source_dataset": "2023 Tree Inventory Final Data", "source_department": "University of North Texas", "source_last_edit_at": "2023-11-27T19:36:29.590000+00:00"}}, {"type": "Feature", "geometry": {"type": "Point", "coordinates": [-97.14696206655826, 33.212266689894776]}, "properties": {"id": "denton-1413", "species_group": "magnolia", "scientific_name": "Magnolia grandiflora", "common_name": "Magnolia", "subtype_name": "Southern Magnolia", "zip_code": "76201", "ownership": "public", "ownership_raw": "University of North Texas", "city": "Denton", "source_dataset": "2023 Tree Inventory Final Data", "source_department": "University of North Texas", "source_last_edit_at": "2023-11-27T19:36:29.590000+00:00"}}, {"type": "Feature", "geometry": {"type": "Point", "coordinates": [-97.1471040317372, 33.21184415723506]}, "properties": {"id": "denton-1421", "species_group": "magnolia", "scientific_name": "Magnolia grandiflora", "common_name": "Magnolia", "subtype_name": "Southern Magnolia", "zip_code": "76201", "ownership": "public", "ownership_raw": "University of North Texas", "city": "Denton", "source_dataset": "2023 Tree Inventory Final Data", "source_department": "University of North Texas", "source_last_edit_at": "2023-11-27T19:36:29.590000+00:00"}}, {"type": "Feature", "geometry": {"type": "Point", "coordinates": [-97.15590244818466, 33.21072686890993]}, "properties": {"id": "denton-1638", "species_group": "magnolia", "scientific_name": "Magnolia grandiflora", "common_name": "Magnolia", "subtype_name": "Southern Magnolia", "zip_code": "76201", "ownership": "public", "ownership_raw": "University of North Texas", "city": "Denton", "source_dataset": "2023 Tree Inventory Final Data", "source_department": "University of North Texas", "source_last_edit_at": "2023-11-27T19:36:29.590000+00:00"}}, {"type": "Feature", "geometry": {"type": "Point", "coordinates": [-97.15588228634088, 33.21073329043871]}, "properties": {"id": "denton-1640", "species_group": "magnolia", "scientific_name": "Magnolia grandiflora", "common_name": "Magnolia", "subtype_name": "Southern Magnolia", "zip_code": "76201", "ownership": "public", "ownership_raw": "University of North Texas", "city": "Denton", "source_dataset": "2023 Tree Inventory Final Data", "source_department": "University of North Texas", "source_last_edit_at": "2023-11-27T19:36:29.590000+00:00"}}, {"type": "Feature", "geometry": {"type": "Point", "coordinates": [-97.15586246008081, 33.21072851933107]}, "properties": {"id": "denton-1641", "species_group": "magnolia", "scientific_name": "Magnolia grandiflora", "common_name": "Magnolia", "subtype_name": "Southern Magnolia", "zip_code": "76201", "ownership": "public", "ownership_raw": "University of North Texas", "city": "Denton", "source_dataset": "2023 Tree Inventory Final Data", "source_department": "University of North Texas", "source_last_edit_at": "2023-11-27T19:36:29.590000+00:00"}}, {"type": "Feature", "geometry": {"type": "Point", "coordinates": [-97.1508378070258, 33.21254344942047]}, "properties": {"id": "denton-1657", "species_group": "magnolia", "scientific_name": "Magnolia grandiflora", "common_name": "Magnolia", "subtype_name": "Southern Magnolia", "zip_code": "76203", "ownership": "public", "ownership_raw": "University of North Texas", "city": "Denton", "source_dataset": "2023 Tree Inventory Final Data", "source_department": "University of North Texas", "source_last_edit_at": "2023-11-27T19:36:29.590000+00:00"}}, {"type": "Feature", "geometry": {"type": "Point", "coordinates": [-97.15533038930916, 33.21072315508486]}, "properties": {"id": "denton-1706", "species_group": "magnolia", "scientific_name": "Magnolia grandiflora", "common_name": "Magnolia", "subtype_name": "Southern Magnolia", "zip_code": "76201", "ownership": "public", "ownership_raw": "University of North Texas", "city": "Denton", "source_dataset": "2023 Tree Inventory Final Data", "source_department": "University of North Texas", "source_last_edit_at": "2023-11-27T19:36:29.590000+00:00"}}, {"type": "Feature", "geometry": {"type": "Point", "coordinates": [-97.15531160883235, 33.21072748921562]}, "properties": {"id": "denton-1707", "species_group": "magnolia", "scientific_name": "Magnolia grandiflora", "common_name": "Magnolia", "subtype_name": "Southern Magnolia", "zip_code": "76201", "ownership": "public", "ownership_raw": "University of North Texas", "city": "Denton", "source_dataset": "2023 Tree Inventory Final Data", "source_department": "University of North Texas", "source_last_edit_at": "2023-11-27T19:36:29.590000+00:00"}}, {"type": "Feature", "geometry": {"type": "Point", "coordinates": [-97.15551534881494, 33.210717652737415]}, "properties": {"id": "denton-1708", "species_group": "magnolia", "scientific_name": "Magnolia grandiflora", "common_name": "Magnolia", "subtype_name": "Southern Magnolia", "zip_code": "76201", "ownership": "public", "ownership_raw": "University of North Texas", "city": "Denton", "source_dataset": "2023 Tree Inventory Final Data", "source_department": "University of North Texas", "source_last_edit_at": "2023-11-27T19:36:29.590000+00:00"}}, {"type": "Feature", "geometry": {"type": "Point", "coordinates": [-97.15554226504595, 33.21072554746831]}, "properties": {"id": "denton-1709", "species_group": "magnolia", "scientific_name": "Magnolia grandiflora", "common_name": "Magnolia", "subtype_name": "Southern Magnolia", "zip_code": "76201", "ownership": "public", "ownership_raw": "University of North Texas", "city": "Denton", "source_dataset": "2023 Tree Inventory Final Data", "source_department": "University of North Texas", "source_last_edit_at": "2023-11-27T19:36:29.590000+00:00"}}, {"type": "Feature", "geometry": {"type": "Point", "coordinates": [-97.15556239364413, 33.21072476388958]}, "properties": {"id": "denton-1710", "species_group": "magnolia", "scientific_name": "Magnolia grandiflora", "common_name": "Magnolia", "subtype_name": "Southern Magnolia", "zip_code": "76201", "ownership": "public", "ownership_raw": "University of North Texas", "city": "Denton", "source_dataset": "2023 Tree Inventory Final Data", "source_department": "University of North Texas", "source_last_edit_at": "2023-11-27T19:36:29.590000+00:00"}}, {"type": "Feature", "geometry": {"type": "Point", "coordinates": [-97.15525115112176, 33.21028855191696]}, "properties": {"id": "denton-1717", "species_group": "magnolia", "scientific_name": "Magnolia grandiflora", "common_name": "Magnolia", "subtype_name": "Southern Magnolia", "zip_code": "76201", "ownership": "public", "ownership_raw": "University of North Texas", "city": "Denton", "source_dataset": "2023 Tree Inventory Final Data", "source_department": "University of North Texas", "source_last_edit_at": "2023-11-27T19:36:29.590000+00:00"}}, {"type": "Feature", "geometry": {"type": "Point", "coordinates": [-97.15527275395031, 33.21028584891834]}, "properties": {"id": "denton-1718", "species_group": "magnolia", "scientific_name": "Magnolia grandiflora", "common_name": "Magnolia", "subtype_name": "Southern Magnolia", "zip_code": "76201", "ownership": "public", "ownership_raw": "University of North Texas", "city": "Denton", "source_dataset": "2023 Tree Inventory Final Data", "source_department": "University of North Texas", "source_last_edit_at": "2023-11-27T19:36:29.590000+00:00"}}, {"type": "Feature", "geometry": {"type": "Point", "coordinates": [-97.15531815713818, 33.210285278732016]}, "properties": {"id": "denton-1719", "species_group": "magnolia", "scientific_name": "Magnolia grandiflora", "common_name": "Magnolia", "subtype_name": "Southern Magnolia", "zip_code": "76201", "ownership": "public", "ownership_raw": "University of North Texas", "city": "Denton", "source_dataset": "2023 Tree Inventory Final Data", "source_department": "University of North Texas", "source_last_edit_at": "2023-11-27T19:36:29.590000+00:00"}}, {"type": "Feature", "geometry": {"type": "Point", "coordinates": [-97.1553357711866, 33.21029110110761]}, "properties": {"id": "denton-1720", "species_group": "magnolia", "scientific_name": "Magnolia grandiflora", "common_name": "Magnolia", "subtype_name": "Southern Magnolia", "zip_code": "76201", "ownership": "public", "ownership_raw": "University of North Texas", "city": "Denton", "source_dataset": "2023 Tree Inventory Final Data", "source_department": "University of North Texas", "source_last_edit_at": "2023-11-27T19:36:29.590000+00:00"}}, {"type": "Feature", "geometry": {"type": "Point", "coordinates": [-97.15363554479185, 33.21374365426896]}, "properties": {"id": "denton-1813", "species_group": "magnolia", "scientific_name": "Magnolia grandiflora", "common_name": "Magnolia", "subtype_name": "Southern Magnolia", "zip_code": "76201", "ownership": "public", "ownership_raw": "University of North Texas", "city": "Denton", "source_dataset": "2023 Tree Inventory Final Data", "source_department": "University of North Texas", "source_last_edit_at": "2023-11-27T19:36:29.590000+00:00"}}, {"type": "Feature", "geometry": {"type": "Point", "coordinates": [-97.1464262642492, 33.21029977009515]}, "properties": {"id": "denton-1829", "species_group": "magnolia", "scientific_name": "Magnolia grandiflora", "common_name": "Magnolia", "subtype_name": "Southern Magnolia", "zip_code": "76201", "ownership": "public", "ownership_raw": "University of North Texas", "city": "Denton", "source_dataset": "2023 Tree Inventory Final Data", "source_department": "University of North Texas", "source_last_edit_at": "2023-11-27T19:36:29.590000+00:00"}}, {"type": "Feature", "geometry": {"type": "Point", "coordinates": [-97.1464405667519, 33.21013364233726]}, "properties": {"id": "denton-1830", "species_group": "magnolia", "scientific_name": "Magnolia grandiflora", "common_name": "Magnolia", "subtype_name": "Southern Magnolia", "zip_code": "76201", "ownership": "public", "ownership_raw": "University of North Texas", "city": "Denton", "source_dataset": "2023 Tree Inventory Final Data", "source_department": "University of North Texas", "source_last_edit_at": "2023-11-27T19:36:29.590000+00:00"}}, {"type": "Feature", "geometry": {"type": "Point", "coordinates": [-97.14644624774884, 33.210060407391225]}, "properties": {"id": "denton-1832", "species_group": "magnolia", "scientific_name": "Magnolia grandiflora", "common_name": "Magnolia", "subtype_name": "Southern Magnolia", "zip_code": "76201", "ownership": "public", "ownership_raw": "University of North Texas", "city": "Denton", "source_dataset": "2023 Tree Inventory Final Data", "source_department": "University of North Texas", "source_last_edit_at": "2023-11-27T19:36:29.590000+00:00"}}, {"type": "Feature", "geometry": {"type": "Point", "coordinates": [-97.14609986657376, 33.209942596671745]}, "properties": {"id": "denton-1838", "species_group": "magnolia", "scientific_name": "Magnolia grandiflora", "common_name": "Magnolia", "subtype_name": "Southern Magnolia", "zip_code": "76201", "ownership": "public", "ownership_raw": "University of North Texas", "city": "Denton", "source_dataset": "2023 Tree Inventory Final Data", "source_department": "University of North Texas", "source_last_edit_at": "2023-11-27T19:36:29.590000+00:00"}}, {"type": "Feature", "geometry": {"type": "Point", "coordinates": [-97.14597830488628, 33.209784826871605]}, "properties": {"id": "denton-1839", "species_group": "magnolia", "scientific_name": "Magnolia grandiflora", "common_name": "Magnolia", "subtype_name": "Southern Magnolia", "zip_code": "76201", "ownership": "public", "ownership_raw": "University of North Texas", "city": "Denton", "source_dataset": "2023 Tree Inventory Final Data", "source_department": "University of North Texas", "source_last_edit_at": "2023-11-27T19:36:29.590000+00:00"}}, {"type": "Feature", "geometry": {"type": "Point", "coordinates": [-97.14597942217497, 33.20994165964158]}, "properties": {"id": "denton-1840", "species_group": "magnolia", "scientific_name": "Magnolia grandiflora", "common_name": "Magnolia", "subtype_name": "Southern Magnolia", "zip_code": "76201", "ownership": "public", "ownership_raw": "University of North Texas", "city": "Denton", "source_dataset": "2023 Tree Inventory Final Data", "source_department": "University of North Texas", "source_last_edit_at": "2023-11-27T19:36:29.590000+00:00"}}, {"type": "Feature", "geometry": {"type": "Point", "coordinates": [-97.14610427390375, 33.20978696638268]}, "properties": {"id": "denton-1841", "species_group": "magnolia", "scientific_name": "Magnolia grandiflora", "common_name": "Magnolia", "subtype_name": "Southern Magnolia", "zip_code": "76201", "ownership": "public", "ownership_raw": "University of North Texas", "city": "Denton", "source_dataset": "2023 Tree Inventory Final Data", "source_department": "University of North Texas", "source_last_edit_at": "2023-11-27T19:36:29.590000+00:00"}}, {"type": "Feature", "geometry": {"type": "Point", "coordinates": [-97.15526946769265, 33.21072624123943]}, "properties": {"id": "denton-2560", "species_group": "magnolia", "scientific_name": "Magnolia grandiflora", "common_name": "Magnolia", "subtype_name": "Southern Magnolia", "zip_code": "76201", "ownership": "public", "ownership_raw": "University of North Texas", "city": "Denton", "source_dataset": "2023 Tree Inventory Final Data", "source_department": "University of North Texas", "source_last_edit_at": "2023-11-27T19:36:29.590000+00:00"}}, {"type": "Feature", "geometry": {"type": "Point", "coordinates": [-97.1552479989835, 33.210723863858604]}, "properties": {"id": "denton-2561", "species_group": "magnolia", "scientific_name": "Magnolia grandiflora", "common_name": "Magnolia", "subtype_name": "Southern Magnolia", "zip_code": "76201", "ownership": "public", "ownership_raw": "University of North Texas", "city": "Denton", "source_dataset": "2023 Tree Inventory Final Data", "source_department": "University of North Texas", "source_last_edit_at": "2023-11-27T19:36:29.590000+00:00"}}, {"type": "Feature", "geometry": {"type": "Point", "coordinates": [-97.15524679847134, 33.2107025893501]}, "properties": {"id": "denton-2562", "species_group": "magnolia", "scientific_name": "Magnolia grandiflora", "common_name": "Magnolia", "subtype_name": "Southern Magnolia", "zip_code": "76201", "ownership": "public", "ownership_raw": "University of North Texas", "city": "Denton", "source_dataset": "2023 Tree Inventory Final Data", "source_department": "University of North Texas", "source_last_edit_at": "2023-11-27T19:36:29.590000+00:00"}}, {"type": "Feature", "geometry": {"type": "Point", "coordinates": [-97.15529696843642, 33.21028149931691]}, "properties": {"id": "denton-2574", "species_group": "magnolia", "scientific_name": "Magnolia grandiflora", "common_name": "Magnolia", "subtype_name": "Southern Magnolia", "zip_code": "76201", "ownership": "public", "ownership_raw": "University of North Texas", "city": "Denton", "source_dataset": "2023 Tree Inventory Final Data", "source_department": "University of North Texas", "source_last_edit_at": "2023-11-27T19:36:29.590000+00:00"}}, {"type": "Feature", "geometry": {"type": "Point", "coordinates": [-97.1552513555453, 33.21033550258972]}, "properties": {"id": "denton-2575", "species_group": "magnolia", "scientific_name": "Magnolia grandiflora", "common_name": "Magnolia", "subtype_name": "Southern Magnolia", "zip_code": "76201", "ownership": "public", "ownership_raw": "University of North Texas", "city": "Denton", "source_dataset": "2023 Tree Inventory Final Data", "source_department": "University of North Texas", "source_last_edit_at": "2023-11-27T19:36:29.590000+00:00"}}, {"type": "Feature", "geometry": {"type": "Point", "coordinates": [-97.15089067587911, 33.20750526527334]}, "properties": {"id": "denton-2713", "species_group": "magnolia", "scientific_name": "Magnolia grandiflora", "common_name": "Magnolia", "subtype_name": "Southern Magnolia", "zip_code": "76201", "ownership": "public", "ownership_raw": "University of North Texas", "city": "Denton", "source_dataset": "2023 Tree Inventory Final Data", "source_department": "University of North Texas", "source_last_edit_at": "2023-11-27T19:36:29.590000+00:00"}}, {"type": "Feature", "geometry": {"type": "Point", "coordinates": [-97.14848637161296, 33.211590908826224]}, "properties": {"id": "denton-2806", "species_group": "magnolia", "scientific_name": "Magnolia grandiflora 'little gem'", "common_name": "Little Gem Magnolia", "subtype_name": "Little Gem Magnolia", "zip_code": "76201", "ownership": "public", "ownership_raw": "University of North Texas", "city": "Denton", "source_dataset": "2023 Tree Inventory Final Data", "source_department": "University of North Texas", "source_last_edit_at": "2023-11-27T19:36:29.590000+00:00"}}, {"type": "Feature", "geometry": {"type": "Point", "coordinates": [-97.1484484337454, 33.21158887522743]}, "properties": {"id": "denton-2807", "species_group": "magnolia", "scientific_name": "Magnolia grandiflora 'little gem'", "common_name": "Little Gem Magnolia", "subtype_name": "Little Gem Magnolia", "zip_code": "76201", "ownership": "public", "ownership_raw": "University of North Texas", "city": "Denton", "source_dataset": "2023 Tree Inventory Final Data", "source_department": "University of North Texas", "source_last_edit_at": "2023-11-27T19:36:29.590000+00:00"}}, {"type": "Feature", "geometry": {"type": "Point", "coordinates": [-97.14845098542044, 33.211548331182456]}, "properties": {"id": "denton-2808", "species_group": "magnolia", "scientific_name": "Magnolia grandiflora 'little gem'", "common_name": "Little Gem Magnolia", "subtype_name": "Little Gem Magnolia", "zip_code": "76201", "ownership": "public", "ownership_raw": "University of North Texas", "city": "Denton", "source_dataset": "2023 Tree Inventory Final Data", "source_department": "University of North Texas", "source_last_edit_at": "2023-11-27T19:36:29.590000+00:00"}}, {"type": "Feature", "geometry": {"type": "Point", "coordinates": [-97.14644907116201, 33.20994172067045]}, "properties": {"id": "denton-2837", "species_group": "magnolia", "scientific_name": "Magnolia grandiflora", "common_name": "Magnolia", "subtype_name": "Southern Magnolia", "zip_code": "76201", "ownership": "public", "ownership_raw": "University of North Texas", "city": "Denton", "source_dataset": "2023 Tree Inventory Final Data", "source_department": "University of North Texas", "source_last_edit_at": "2023-11-27T19:36:29.590000+00:00"}}, {"type": "Feature", "geometry": {"type": "Point", "coordinates": [-97.14644956356719, 33.20990959639742]}, "properties": {"id": "denton-2838", "species_group": "magnolia", "scientific_name": "Magnolia grandiflora", "common_name": "Magnolia", "subtype_name": "Southern Magnolia", "zip_code": "76201", "ownership": "public", "ownership_raw": "University of North Texas", "city": "Denton", "source_dataset": "2023 Tree Inventory Final Data", "source_department": "University of North Texas", "source_last_edit_at": "2023-11-27T19:36:29.590000+00:00"}}, {"type": "Feature", "geometry": {"type": "Point", "coordinates": [-97.14645013612059, 33.209872243262296]}, "properties": {"id": "denton-2839", "species_group": "magnolia", "scientific_name": "Magnolia grandiflora", "common_name": "Magnolia", "subtype_name": "Southern Magnolia", "zip_code": "76201", "ownership": "public", "ownership_raw": "University of North Texas", "city": "Denton", "source_dataset": "2023 Tree Inventory Final Data", "source_department": "University of North Texas", "source_last_edit_at": "2023-11-27T19:36:29.590000+00:00"}}, {"type": "Feature", "geometry": {"type": "Point", "coordinates": [-97.1464524860447, 33.20983490937836]}, "properties": {"id": "denton-2840", "species_group": "magnolia", "scientific_name": "Magnolia grandiflora", "common_name": "Magnolia", "subtype_name": "Southern Magnolia", "zip_code": "76201", "ownership": "public", "ownership_raw": "University of North Texas", "city": "Denton", "source_dataset": "2023 Tree Inventory Final Data", "source_department": "University of North Texas", "source_last_edit_at": "2023-11-27T19:36:29.590000+00:00"}}, {"type": "Feature", "geometry": {"type": "Point", "coordinates": [-97.14645303569489, 33.20979905033203]}, "properties": {"id": "denton-2841", "species_group": "magnolia", "scientific_name": "Magnolia grandiflora", "common_name": "Magnolia", "subtype_name": "Southern Magnolia", "zip_code": "76201", "ownership": "public", "ownership_raw": "University of North Texas", "city": "Denton", "source_dataset": "2023 Tree Inventory Final Data", "source_department": "University of North Texas", "source_last_edit_at": "2023-11-27T19:36:29.590000+00:00"}}, {"type": "Feature", "geometry": {"type": "Point", "coordinates": [-97.14200011914608, 33.21025734282839]}, "properties": {"id": "denton-2848", "species_group": "magnolia", "scientific_name": "Magnolia grandiflora 'little gem'", "common_name": "Little Gem Magnolia", "subtype_name": "Little Gem Magnolia", "zip_code": "76201", "ownership": "public", "ownership_raw": "University of North Texas", "city": "Denton", "source_dataset": "2023 Tree Inventory Final Data", "source_department": "University of North Texas", "source_last_edit_at": "2023-11-27T19:36:29.590000+00:00"}}, {"type": "Feature", "geometry": {"type": "Point", "coordinates": [-97.14164907991037, 33.20989797610774]}, "properties": {"id": "denton-2854", "species_group": "magnolia", "scientific_name": "Magnolia grandiflora 'little gem'", "common_name": "Little Gem Magnolia", "subtype_name": "Little Gem Magnolia", "zip_code": "76201", "ownership": "public", "ownership_raw": "University of North Texas", "city": "Denton", "source_dataset": "2023 Tree Inventory Final Data", "source_department": "University of North Texas", "source_last_edit_at": "2023-11-27T19:36:29.590000+00:00"}}, {"type": "Feature", "geometry": {"type": "Point", "coordinates": [-97.1425437275789, 33.2094600625812]}, "properties": {"id": "denton-2868", "species_group": "magnolia", "scientific_name": "Magnolia grandiflora 'little gem'", "common_name": "Little Gem Magnolia", "subtype_name": "Little Gem Magnolia", "zip_code": "76201", "ownership": "public", "ownership_raw": "University of North Texas", "city": "Denton", "source_dataset": "2023 Tree Inventory Final Data", "source_department": "University of North Texas", "source_last_edit_at": "2023-11-27T19:36:29.590000+00:00"}}, {"type": "Feature", "geometry": {"type": "Point", "coordinates": [-97.1552498307305, 33.21067128151615]}, "properties": {"id": "denton-2962", "species_group": "magnolia", "scientific_name": "Magnolia grandiflora", "common_name": "Magnolia", "subtype_name": "Southern Magnolia", "zip_code": "76201", "ownership": "public", "ownership_raw": "University of North Texas", "city": "Denton", "source_dataset": "2023 Tree Inventory Final Data", "source_department": "University of North Texas", "source_last_edit_at": "2023-11-27T19:36:29.590000+00:00"}}, {"type": "Feature", "geometry": {"type": "Point", "coordinates": [-97.14945418204263, 33.208763264729924]}, "properties": {"id": "denton-3384", "species_group": "cherry", "scientific_name": "Prunus serrulata", "common_name": "Japanese Cherry", "subtype_name": "Japanese Flowering Cherry", "zip_code": "76201", "ownership": "public", "ownership_raw": "University of North Texas", "city": "Denton", "source_dataset": "2023 Tree Inventory Final Data", "source_department": "University of North Texas", "source_last_edit_at": "2023-11-27T19:36:29.590000+00:00"}}, {"type": "Feature", "geometry": {"type": "Point", "coordinates": [-97.14711218307905, 33.213824045447595]}, "properties": {"id": "denton-379", "species_group": "plum", "scientific_name": "Prunus cerasifera var. pissardii", "common_name": "Purple-leaved Plum", "subtype_name": "Purple-leaved Plum", "zip_code": "76201", "ownership": "public", "ownership_raw": "University of North Texas", "city": "Denton", "source_dataset": "2023 Tree Inventory Final Data", "source_department": "University of North Texas", "source_last_edit_at": "2023-11-27T19:36:29.590000+00:00"}}, {"type": "Feature", "geometry": {"type": "Point", "coordinates": [-97.14865217973424, 33.21140490791865]}, "properties": {"id": "denton-421", "species_group": "magnolia", "scientific_name": "Magnolia grandiflora", "common_name": "Magnolia", "subtype_name": "Southern Magnolia", "zip_code": "76201", "ownership": "public", "ownership_raw": "University of North Texas", "city": "Denton", "source_dataset": "2023 Tree Inventory Final Data", "source_department": "University of North Texas", "source_last_edit_at": "2023-11-27T19:36:29.590000+00:00"}}, {"type": "Feature", "geometry": {"type": "Point", "coordinates": [-97.14872362818436, 33.21135629255637]}, "properties": {"id": "denton-423", "species_group": "magnolia", "scientific_name": "Magnolia grandiflora", "common_name": "Magnolia", "subtype_name": "Southern Magnolia", "zip_code": "76201", "ownership": "public", "ownership_raw": "University of North Texas", "city": "Denton", "source_dataset": "2023 Tree Inventory Final Data", "source_department": "University of North Texas", "source_last_edit_at": "2023-11-27T19:36:29.590000+00:00"}}, {"type": "Feature", "geometry": {"type": "Point", "coordinates": [-97.14821822867574, 33.21134889761075]}, "properties": {"id": "denton-427", "species_group": "magnolia", "scientific_name": "Magnolia grandiflora", "common_name": "Magnolia", "subtype_name": "Southern Magnolia", "zip_code": "76201", "ownership": "public", "ownership_raw": "University of North Texas", "city": "Denton", "source_dataset": "2023 Tree Inventory Final Data", "source_department": "University of North Texas", "source_last_edit_at": "2023-11-27T19:36:29.590000+00:00"}}, {"type": "Feature", "geometry": {"type": "Point", "coordinates": [-97.14821506025919, 33.211398816746836]}, "properties": {"id": "denton-428", "species_group": "magnolia", "scientific_name": "Magnolia grandiflora", "common_name": "Magnolia", "subtype_name": "Southern Magnolia", "zip_code": "76201", "ownership": "public", "ownership_raw": "University of North Texas", "city": "Denton", "source_dataset": "2023 Tree Inventory Final Data", "source_department": "University of North Texas", "source_last_edit_at": "2023-11-27T19:36:29.590000+00:00"}}, {"type": "Feature", "geometry": {"type": "Point", "coordinates": [-97.1482895091602, 33.21140420155182]}, "properties": {"id": "denton-429", "species_group": "magnolia", "scientific_name": "Magnolia grandiflora", "common_name": "Magnolia", "subtype_name": "Southern Magnolia", "zip_code": "76201", "ownership": "public", "ownership_raw": "University of North Texas", "city": "Denton", "source_dataset": "2023 Tree Inventory Final Data", "source_department": "University of North Texas", "source_last_edit_at": "2023-11-27T19:36:29.590000+00:00"}}, {"type": "Feature", "geometry": {"type": "Point", "coordinates": [-97.14784178580085, 33.21448148629795]}, "properties": {"id": "denton-463", "species_group": "magnolia", "scientific_name": "Magnolia grandiflora 'little gem'", "common_name": "Little Gem Magnolia", "subtype_name": "Little Gem Magnolia", "zip_code": "76201", "ownership": "public", "ownership_raw": "University of North Texas", "city": "Denton", "source_dataset": "2023 Tree Inventory Final Data", "source_department": "University of North Texas", "source_last_edit_at": "2023-11-27T19:36:29.590000+00:00"}}, {"type": "Feature", "geometry": {"type": "Point", "coordinates": [-97.14784693721775, 33.214477388196215]}, "properties": {"id": "denton-464", "species_group": "magnolia", "scientific_name": "Magnolia grandiflora 'little gem'", "common_name": "Little Gem Magnolia", "subtype_name": "Little Gem Magnolia", "zip_code": "76201", "ownership": "public", "ownership_raw": "University of North Texas", "city": "Denton", "source_dataset": "2023 Tree Inventory Final Data", "source_department": "University of North Texas", "source_last_edit_at": "2023-11-27T19:36:29.590000+00:00"}}, {"type": "Feature", "geometry": {"type": "Point", "coordinates": [-97.14643703712025, 33.20945516319107]}, "properties": {"id": "denton-566", "species_group": "magnolia", "scientific_name": "Magnolia grandiflora", "common_name": "Magnolia", "subtype_name": "Southern Magnolia", "zip_code": "76201", "ownership": "public", "ownership_raw": "University of North Texas", "city": "Denton", "source_dataset": "2023 Tree Inventory Final Data", "source_department": "University of North Texas", "source_last_edit_at": "2023-11-27T19:36:29.590000+00:00"}}, {"type": "Feature", "geometry": {"type": "Point", "coordinates": [-97.15247634709063, 33.206498776865]}, "properties": {"id": "denton-73", "species_group": "magnolia", "scientific_name": "Magnolia grandiflora", "common_name": "Magnolia", "subtype_name": "Southern Magnolia", "zip_code": "76201", "ownership": "public", "ownership_raw": "University of North Texas", "city": "Denton", "source_dataset": "2023 Tree Inventory Final Data", "source_department": "University of North Texas", "source_last_edit_at": "2023-11-27T19:36:29.590000+00:00"}}, {"type": "Feature", "geometry": {"type": "Point", "coordinates": [-97.14227929726783, 33.209413101023976]}, "properties": {"id": "denton-948", "species_group": "magnolia", "scientific_name": "Magnolia grandiflora 'little gem'", "common_name": "Little Gem Magnolia", "subtype_name": "Little Gem Magnolia", "zip_code": "76201", "ownership": "public", "ownership_raw": "University of North Texas", "city": "Denton", "source_dataset": "2023 Tree Inventory Final Data", "source_department": "University of North Texas", "source_last_edit_at": "2023-11-27T19:36:29.590000+00:00"}}, {"type": "Feature", "geometry": {"type": "Point", "coordinates": [-97.14230536362184, 33.20940234849045]}, "properties": {"id": "denton-949", "species_group": "magnolia", "scientific_name": "Magnolia grandiflora 'little gem'", "common_name": "Little Gem Magnolia", "subtype_name": "Little Gem Magnolia", "zip_code": "76201", "ownership": "public", "ownership_raw": "University of North Texas", "city": "Denton", "source_dataset": "2023 Tree Inventory Final Data", "source_department": "University of North Texas", "source_last_edit_at": "2023-11-27T19:36:29.590000+00:00"}}, {"type": "Feature", "geometry": {"type": "Point", "coordinates": [-97.14251600518398, 33.209410005474375]}, "properties": {"id": "denton-950", "species_group": "magnolia", "scientific_name": "Magnolia grandiflora 'little gem'", "common_name": "Little Gem Magnolia", "subtype_name": "Little Gem Magnolia", "zip_code": "76201", "ownership": "public", "ownership_raw": "University of North Texas", "city": "Denton", "source_dataset": "2023 Tree Inventory Final Data", "source_department": "University of North Texas", "source_last_edit_at": "2023-11-27T19:36:29.590000+00:00"}}, {"type": "Feature", "geometry": {"type": "Point", "coordinates": [-97.14255028707113, 33.209418728851496]}, "properties": {"id": "denton-951", "species_group": "magnolia", "scientific_name": "Magnolia grandiflora 'little gem'", "common_name": "Little Gem Magnolia", "subtype_name": "Little Gem Magnolia", "zip_code": "76201", "ownership": "public", "ownership_raw": "University of North Texas", "city": "Denton", "source_dataset": "2023 Tree Inventory Final Data", "source_department": "University of North Texas", "source_last_edit_at": "2023-11-27T19:36:29.590000+00:00"}}, {"type": "Feature", "geometry": {"type": "Point", "coordinates": [-97.14262000221383, 33.2095229841536]}, "properties": {"id": "denton-953", "species_group": "magnolia", "scientific_name": "Magnolia grandiflora 'little gem'", "common_name": "Little Gem Magnolia", "subtype_name": "Little Gem Magnolia", "zip_code": "76201", "ownership": "public", "ownership_raw": "University of North Texas", "city": "Denton", "source_dataset": "2023 Tree Inventory Final Data", "source_department": "University of North Texas", "source_last_edit_at": "2023-11-27T19:36:29.590000+00:00"}}, {"type": "Feature", "geometry": {"type": "Point", "coordinates": [-97.14259053382773, 33.20957038548582]}, "properties": {"id": "denton-954", "species_group": "magnolia", "scientific_name": "Magnolia grandiflora 'little gem'", "common_name": "Little Gem Magnolia", "subtype_name": "Little Gem Magnolia", "zip_code": "76201", "ownership": "public", "ownership_raw": "University of North Texas", "city": "Denton", "source_dataset": "2023 Tree Inventory Final Data", "source_department": "University of North Texas", "source_last_edit_at": "2023-11-27T19:36:29.590000+00:00"}}, {"type": "Feature", "geometry": {"type": "Point", "coordinates": [-97.14261625388015, 33.20960526370732]}, "properties": {"id": "denton-955", "species_group": "magnolia", "scientific_name": "Magnolia grandiflora 'little gem'", "common_name": "Little Gem Magnolia", "subtype_name": "Little Gem Magnolia", "zip_code": "76201", "ownership": "public", "ownership_raw": "University of North Texas", "city": "Denton", "source_dataset": "2023 Tree Inventory Final Data", "source_department": "University of North Texas", "source_last_edit_at": "2023-11-27T19:36:29.590000+00:00"}}, {"type": "Feature", "geometry": {"type": "Point", "coordinates": [-97.14258624770022, 33.20984921561627]}, "properties": {"id": "denton-958", "species_group": "magnolia", "scientific_name": "Magnolia grandiflora 'little gem'", "common_name": "Little Gem Magnolia", "subtype_name": "Little Gem Magnolia", "zip_code": "76201", "ownership": "public", "ownership_raw": "University of North Texas", "city": "Denton", "source_dataset": "2023 Tree Inventory Final Data", "source_department": "University of North Texas", "source_last_edit_at": "2023-11-27T19:36:29.590000+00:00"}}, {"type": "Feature", "geometry": {"type": "Point", "coordinates": [-97.14261499399372, 33.20987189784497]}, "properties": {"id": "denton-959", "species_group": "magnolia", "scientific_name": "Magnolia grandiflora 'little gem'", "common_name": "Little Gem Magnolia", "subtype_name": "Little Gem Magnolia", "zip_code": "76201", "ownership": "public", "ownership_raw": "University of North Texas", "city": "Denton", "source_dataset": "2023 Tree Inventory Final Data", "source_department": "University of North Texas", "source_last_edit_at": "2023-11-27T19:36:29.590000+00:00"}}, {"type": "Feature", "geometry": {"type": "Point", "coordinates": [-97.14223442950627, 33.210254311917105]}, "properties": {"id": "denton-961", "species_group": "magnolia", "scientific_name": "Magnolia grandiflora 'little gem'", "common_name": "Little Gem Magnolia", "subtype_name": "Little Gem Magnolia", "zip_code": "76201", "ownership": "public", "ownership_raw": "University of North Texas", "city": "Denton", "source_dataset": "2023 Tree Inventory Final Data", "source_department": "University of North Texas", "source_last_edit_at": "2023-11-27T19:36:29.590000+00:00"}}, {"type": "Feature", "geometry": {"type": "Point", "coordinates": [-97.1563218283634, 33.21033764273589]}, "properties": {"id": "denton-997", "species_group": "magnolia", "scientific_name": "Magnolia grandiflora", "common_name": "Magnolia", "subtype_name": "Southern Magnolia", "zip_code": "76201", "ownership": "public", "ownership_raw": "University of North Texas", "city": "Denton", "source_dataset": "2023 Tree Inventory Final Data", "source_department": "University of North Texas", "source_last_edit_at": "2023-11-27T19:36:29.590000+00:00"}}]}