{"type": "FeatureCollection", "features": [{"type": "Feature", "geometry": {"type": "Point", "coordinates": [141.500748, 43.068596]}, "properties": {"id": "ebetsu-1cc719fb40f22ed6", "species_group": "crabapple", "scientific_name": "Malus species", "common_name": "エゾノコリンゴ", "subtype_name": "エゾノコリンゴ", "zip_code": null, "ownership": "unknown", "ownership_raw": "", "city": "Ebetsu", "source_dataset": "Preserved Trees / 保存樹木", "source_department": "Ebetsu City", "source_last_edit_at": ""}}, {"type": "Feature", "geometry": {"type": "Point", "coordinates": [141.568466, 43.05912]}, "properties": {"id": "ebetsu-39a53cc2daf9d37c", "species_group": "magnolia", "scientific_name": "Magnolia species", "common_name": "キタコブシ", "subtype_name": "キタコブシ", "zip_code": null, "ownership": "unknown", "ownership_raw": "", "city": "Ebetsu", "source_dataset": "Preserved Trees / 保存樹木", "source_department": "Ebetsu City", "source_last_edit_at": ""}}, {"type": "Feature", "geometry": {"type": "Point", "coordinates": [141.568466, 43.05912]}, "properties": {"id": "ebetsu-39a53cc2daf9d37c", "species_group": "magnolia", "scientific_name": "Magnolia species", "common_name": "キタコブシ", "subtype_name": "キタコブシ", "zip_code": null, "ownership": "unknown", "ownership_raw": "", "city": "Ebetsu", "source_dataset": "Preserved Trees / 保存樹木", "source_department": "Ebetsu City", "source_last_edit_at": ""}}, {"type": "Feature", "geometry": {"type": "Point", "coordinates": [141.52095, 43.096878]}, "properties": {"id": "ebetsu-3c6096241cb00e8b", "species_group": "cherry", "scientific_name": "Prunus species", "common_name": "エゾヤマザクラ", "subtype_name": "エゾヤマザクラ", "zip_code": null, "ownership": "private", "ownership_raw": "Private", "city": "Ebetsu", "source_dataset": "Preserved Trees / 保存樹木", "source_department": "Ebetsu City", "source_last_edit_at": ""}}, {"type": "Feature", "geometry": {"type": "Point", "coordinates": [141.500595, 43.088322]}, "properties": {"id": "ebetsu-4d3d8c1efd54147b", "species_group": "cherry", "scientific_name": "Prunus species", "common_name": "ミヤマザクラ", "subtype_name": "ミヤマザクラ", "zip_code": null, "ownership": "unknown", "ownership_raw": "", "city": "Ebetsu", "source_dataset": "Preserved Trees / 保存樹木", "source_department": "Ebetsu City", "source_last_edit_at": ""}}, {"type": "Feature", "geometry": {"type": "Point", "coordinates": [141.540634, 43.063354]}, "properties": {"id": "ebetsu-893284bfa0c9162b", "species_group": "cherry", "scientific_name": "Prunus species", "common_name": "エゾヤマザクラ", "subtype_name": "エゾヤマザクラ", "zip_code": null, "ownership": "unknown", "ownership_raw": "", "city": "Ebetsu", "source_dataset": "Preserved Trees / 保存樹木", "source_department": "Ebetsu City", "source_last_edit_at": ""}}, {"type": "Feature", "geometry": {"type": "Point", "coordinates": [141.547028, 43.075264]}, "properties": {"id": "ebetsu-8dd7abd93b85999b", "species_group": "magnolia", "scientific_name": "Magnolia species", "common_name": "キタコブシ", "subtype_name": "キタコブシ", "zip_code": null, "ownership": "unknown", "ownership_raw": "", "city": "Ebetsu", "source_dataset": "Preserved Trees / 保存樹木", "source_department": "Ebetsu City", "source_last_edit_at": ""}}, {"type": "Feature", "geometry": {"type": "Point", "coordinates": [141.522629, 43.09481]}, "properties": {"id": "ebetsu-93aecd30acbf348f", "species_group": "cherry", "scientific_name": "Prunus species", "common_name": "エゾヤマザクラ", "subtype_name": "エゾヤマザクラ", "zip_code": null, "ownership": "unknown", "ownership_raw": "", "city": "Ebetsu", "source_dataset": "Preserved Trees / 保存樹木", "source_department": "Ebetsu City", "source_last_edit_at": ""}}, {"type": "Feature", "geometry": {"type": "Point", "coordinates": [141.568466, 43.05912]}, "properties": {"id": "ebetsu-f58ea18ac9a6cc42", "species_group": "cherry", "scientific_name": "Prunus species", "common_name": "エゾヤマザクラ", "subtype_name": "エゾヤマザクラ", "zip_code": null, "ownership": "unknown", "ownership_raw": "", "city": "Ebetsu", "source_dataset": "Preserved Trees / 保存樹木", "source_department": "Ebetsu City", "source_last_edit_at": ""}}, {"type": "Feature", "geometry": {"type": "Point", "coordinates": [141.490219, 43.077354]}, "properties": {"id": "ebetsu-f9a6a826ac1f437f", "species_group": "crabapple", "scientific_name": "Malus species", "common_name": "ヒメリンゴ", "subtype_name": "ヒメリンゴ", "zip_code": null, "ownership": "unknown", "ownership_raw": "", "city": "Ebetsu", "source_dataset": "Preserved Trees / 保存樹木", "source_department": "Ebetsu City", "source_last_edit_at": ""}}]}