{"type": "FeatureCollection", "features": [{"type": "Feature", "geometry": {"type": "Point", "coordinates": [-73.18556537299997, 44.49296824700008]}, "properties": {"id": "winooski-10219", "species_group": "crabapple", "scientific_name": "Malus species", "common_name": "Crabapple", "subtype_name": null, "zip_code": "05404", "ownership": "public", "ownership_raw": "City of Winooski", "city": "Winooski", "source_dataset": "Municipal Tree Inventory", "source_department": "City of Winooski", "source_last_edit_at": ""}}, {"type": "Feature", "geometry": {"type": "Point", "coordinates": [-73.18460899899998, 44.49294959700006]}, "properties": {"id": "winooski-10222", "species_group": "crabapple", "scientific_name": "Malus species", "common_name": "Crabapple", "subtype_name": null, "zip_code": "05404", "ownership": "public", "ownership_raw": "City of Winooski", "city": "Winooski", "source_dataset": "Municipal Tree Inventory", "source_department": "City of Winooski", "source_last_edit_at": ""}}, {"type": "Feature", "geometry": {"type": "Point", "coordinates": [-73.18685024199993, 44.48975544000007]}, "properties": {"id": "winooski-10265", "species_group": "crabapple", "scientific_name": "Malus species", "common_name": "Crabapple", "subtype_name": null, "zip_code": "05404", "ownership": "public", "ownership_raw": "City of Winooski", "city": "Winooski", "source_dataset": "Municipal Tree Inventory", "source_department": "City of Winooski", "source_last_edit_at": ""}}, {"type": "Feature", "geometry": {"type": "Point", "coordinates": [-73.17907137399999, 44.49626757600004]}, "properties": {"id": "winooski-10840", "species_group": "cherry", "scientific_name": "Prunus species", "common_name": "Black Cherry", "subtype_name": "Black Cherry", "zip_code": "05404", "ownership": "public", "ownership_raw": "City of Winooski", "city": "Winooski", "source_dataset": "Municipal Tree Inventory", "source_department": "City of Winooski", "source_last_edit_at": ""}}, {"type": "Feature", "geometry": {"type": "Point", "coordinates": [-73.17935190899993, 44.49758734000005]}, "properties": {"id": "winooski-10868", "species_group": "crabapple", "scientific_name": "Malus species", "common_name": "Crabapple", "subtype_name": null, "zip_code": "05404", "ownership": "public", "ownership_raw": "City of Winooski", "city": "Winooski", "source_dataset": "Municipal Tree Inventory", "source_department": "City of Winooski", "source_last_edit_at": ""}}, {"type": "Feature", "geometry": {"type": "Point", "coordinates": [-73.18060822799998, 44.49453347800005]}, "properties": {"id": "winooski-11091", "species_group": "cherry", "scientific_name": "Prunus species", "common_name": "Common Chokecherry", "subtype_name": "Common Chokecherry", "zip_code": "05404", "ownership": "public", "ownership_raw": "City of Winooski", "city": "Winooski", "source_dataset": "Municipal Tree Inventory", "source_department": "City of Winooski", "source_last_edit_at": ""}}, {"type": "Feature", "geometry": {"type": "Point", "coordinates": [-73.16866434299999, 44.49663472300006]}, "properties": {"id": "winooski-11456", "species_group": "cherry", "scientific_name": "Prunus species", "common_name": "Black Cherry", "subtype_name": "Black Cherry", "zip_code": "05404", "ownership": "public", "ownership_raw": "City of Winooski", "city": "Winooski", "source_dataset": "Municipal Tree Inventory", "source_department": "City of Winooski", "source_last_edit_at": ""}}, {"type": "Feature", "geometry": {"type": "Point", "coordinates": [-73.18962460699998, 44.49105455600005]}, "properties": {"id": "winooski-11740", "species_group": "crabapple", "scientific_name": "Malus species", "common_name": "Crabapple", "subtype_name": null, "zip_code": "05404", "ownership": "public", "ownership_raw": "City of Winooski", "city": "Winooski", "source_dataset": "Municipal Tree Inventory", "source_department": "City of Winooski", "source_last_edit_at": ""}}, {"type": "Feature", "geometry": {"type": "Point", "coordinates": [-73.18686232899995, 44.48973904200005]}, "properties": {"id": "winooski-11741", "species_group": "crabapple", "scientific_name": "Malus species", "common_name": "Crabapple", "subtype_name": null, "zip_code": "05404", "ownership": "public", "ownership_raw": "City of Winooski", "city": "Winooski", "source_dataset": "Municipal Tree Inventory", "source_department": "City of Winooski", "source_last_edit_at": ""}}, {"type": "Feature", "geometry": {"type": "Point", "coordinates": [-73.18314157699996, 44.48976080400007]}, "properties": {"id": "winooski-1287", "species_group": "crabapple", "scientific_name": "Malus species", "common_name": "Crabapple", "subtype_name": null, "zip_code": "05404", "ownership": "public", "ownership_raw": "City of Winooski", "city": "Winooski", "source_dataset": "Municipal Tree Inventory", "source_department": "City of Winooski", "source_last_edit_at": ""}}, {"type": "Feature", "geometry": {"type": "Point", "coordinates": [-73.18597262699996, 44.49539537700008]}, "properties": {"id": "winooski-12909", "species_group": "crabapple", "scientific_name": "Malus species", "common_name": "Crabapple", "subtype_name": null, "zip_code": "05404", "ownership": "public", "ownership_raw": "City of Winooski", "city": "Winooski", "source_dataset": "Municipal Tree Inventory", "source_department": "City of Winooski", "source_last_edit_at": ""}}, {"type": "Feature", "geometry": {"type": "Point", "coordinates": [-73.17931958599996, 44.49621707700004]}, "properties": {"id": "winooski-13160", "species_group": "crabapple", "scientific_name": "Malus species", "common_name": "Crabapple", "subtype_name": null, "zip_code": "05404", "ownership": "public", "ownership_raw": "City of Winooski", "city": "Winooski", "source_dataset": "Municipal Tree Inventory", "source_department": "City of Winooski", "source_last_edit_at": ""}}, {"type": "Feature", "geometry": {"type": "Point", "coordinates": [-73.17532896999995, 44.49437762000008]}, "properties": {"id": "winooski-13404", "species_group": "crabapple", "scientific_name": "Malus species", "common_name": "Crabapple", "subtype_name": null, "zip_code": "05404", "ownership": "public", "ownership_raw": "City of Winooski", "city": "Winooski", "source_dataset": "Municipal Tree Inventory", "source_department": "City of Winooski", "source_last_edit_at": ""}}, {"type": "Feature", "geometry": {"type": "Point", "coordinates": [-73.18932518199995, 44.49089695500004]}, "properties": {"id": "winooski-13538", "species_group": "crabapple", "scientific_name": "Malus species", "common_name": "Crabapple", "subtype_name": null, "zip_code": "05404", "ownership": "public", "ownership_raw": "City of Winooski", "city": "Winooski", "source_dataset": "Municipal Tree Inventory", "source_department": "City of Winooski", "source_last_edit_at": ""}}, {"type": "Feature", "geometry": {"type": "Point", "coordinates": [-73.19151480599999, 44.49917911800003]}, "properties": {"id": "winooski-14092", "species_group": "crabapple", "scientific_name": "Malus species", "common_name": "Crabapple", "subtype_name": null, "zip_code": "05404", "ownership": "public", "ownership_raw": "City of Winooski", "city": "Winooski", "source_dataset": "Municipal Tree Inventory", "source_department": "City of Winooski", "source_last_edit_at": ""}}, {"type": "Feature", "geometry": {"type": "Point", "coordinates": [-73.17931867199997, 44.49763725500003]}, "properties": {"id": "winooski-14103", "species_group": "crabapple", "scientific_name": "Malus species", "common_name": "Crabapple", "subtype_name": null, "zip_code": "05404", "ownership": "public", "ownership_raw": "City of Winooski", "city": "Winooski", "source_dataset": "Municipal Tree Inventory", "source_department": "City of Winooski", "source_last_edit_at": ""}}, {"type": "Feature", "geometry": {"type": "Point", "coordinates": [-73.18686429599995, 44.489754807000054]}, "properties": {"id": "winooski-1454", "species_group": "crabapple", "scientific_name": "Malus species", "common_name": "Crabapple", "subtype_name": null, "zip_code": "05404", "ownership": "public", "ownership_raw": "City of Winooski", "city": "Winooski", "source_dataset": "Municipal Tree Inventory", "source_department": "City of Winooski", "source_last_edit_at": ""}}, {"type": "Feature", "geometry": {"type": "Point", "coordinates": [-73.18688793299998, 44.48980244200004]}, "properties": {"id": "winooski-14792", "species_group": "crabapple", "scientific_name": "Malus species", "common_name": "Crabapple", "subtype_name": null, "zip_code": "05404", "ownership": "public", "ownership_raw": "City of Winooski", "city": "Winooski", "source_dataset": "Municipal Tree Inventory", "source_department": "City of Winooski", "source_last_edit_at": ""}}, {"type": "Feature", "geometry": {"type": "Point", "coordinates": [-73.17584805499996, 44.495358542000076]}, "properties": {"id": "winooski-15109", "species_group": "cherry", "scientific_name": "Prunus species", "common_name": "Common Chokecherry", "subtype_name": "Common Chokecherry", "zip_code": "05404", "ownership": "public", "ownership_raw": "City of Winooski", "city": "Winooski", "source_dataset": "Municipal Tree Inventory", "source_department": "City of Winooski", "source_last_edit_at": ""}}, {"type": "Feature", "geometry": {"type": "Point", "coordinates": [-73.19151980799995, 44.499204046000045]}, "properties": {"id": "winooski-15989", "species_group": "crabapple", "scientific_name": "Malus species", "common_name": "Crabapple", "subtype_name": null, "zip_code": "05404", "ownership": "public", "ownership_raw": "City of Winooski", "city": "Winooski", "source_dataset": "Municipal Tree Inventory", "source_department": "City of Winooski", "source_last_edit_at": ""}}, {"type": "Feature", "geometry": {"type": "Point", "coordinates": [-73.18307951099996, 44.48974617600004]}, "properties": {"id": "winooski-16100", "species_group": "crabapple", "scientific_name": "Malus species", "common_name": "Crabapple", "subtype_name": null, "zip_code": "05404", "ownership": "public", "ownership_raw": "City of Winooski", "city": "Winooski", "source_dataset": "Municipal Tree Inventory", "source_department": "City of Winooski", "source_last_edit_at": ""}}, {"type": "Feature", "geometry": {"type": "Point", "coordinates": [-73.18273211599995, 44.501952836000044]}, "properties": {"id": "winooski-16131", "species_group": "crabapple", "scientific_name": "Malus species", "common_name": "Crabapple", "subtype_name": null, "zip_code": "05404", "ownership": "public", "ownership_raw": "City of Winooski", "city": "Winooski", "source_dataset": "Municipal Tree Inventory", "source_department": "City of Winooski", "source_last_edit_at": ""}}, {"type": "Feature", "geometry": {"type": "Point", "coordinates": [-73.17936861999993, 44.497571966000066]}, "properties": {"id": "winooski-16272", "species_group": "cherry", "scientific_name": "Prunus species", "common_name": "Common Chokecherry", "subtype_name": "Common Chokecherry", "zip_code": "05404", "ownership": "public", "ownership_raw": "City of Winooski", "city": "Winooski", "source_dataset": "Municipal Tree Inventory", "source_department": "City of Winooski", "source_last_edit_at": ""}}, {"type": "Feature", "geometry": {"type": "Point", "coordinates": [-73.18849325199994, 44.49510365700007]}, "properties": {"id": "winooski-16795", "species_group": "crabapple", "scientific_name": "Malus species", "common_name": "Crabapple", "subtype_name": null, "zip_code": "05404", "ownership": "public", "ownership_raw": "City of Winooski", "city": "Winooski", "source_dataset": "Municipal Tree Inventory", "source_department": "City of Winooski", "source_last_edit_at": ""}}, {"type": "Feature", "geometry": {"type": "Point", "coordinates": [-73.18490877399995, 44.49295619900005]}, "properties": {"id": "winooski-16838", "species_group": "crabapple", "scientific_name": "Malus species", "common_name": "Crabapple", "subtype_name": null, "zip_code": "05404", "ownership": "public", "ownership_raw": "City of Winooski", "city": "Winooski", "source_dataset": "Municipal Tree Inventory", "source_department": "City of Winooski", "source_last_edit_at": ""}}, {"type": "Feature", "geometry": {"type": "Point", "coordinates": [-73.16941991899995, 44.49742679000008]}, "properties": {"id": "winooski-16876", "species_group": "cherry", "scientific_name": "Prunus species", "common_name": "Black Cherry", "subtype_name": "Black Cherry", "zip_code": "05404", "ownership": "public", "ownership_raw": "City of Winooski", "city": "Winooski", "source_dataset": "Municipal Tree Inventory", "source_department": "City of Winooski", "source_last_edit_at": ""}}, {"type": "Feature", "geometry": {"type": "Point", "coordinates": [-73.19149805499995, 44.498810208000066]}, "properties": {"id": "winooski-17336", "species_group": "crabapple", "scientific_name": "Malus species", "common_name": "Crabapple", "subtype_name": null, "zip_code": "05404", "ownership": "public", "ownership_raw": "City of Winooski", "city": "Winooski", "source_dataset": "Municipal Tree Inventory", "source_department": "City of Winooski", "source_last_edit_at": ""}}, {"type": "Feature", "geometry": {"type": "Point", "coordinates": [-73.19124343999994, 44.49918390200003]}, "properties": {"id": "winooski-17414", "species_group": "crabapple", "scientific_name": "Malus species", "common_name": "Crabapple", "subtype_name": null, "zip_code": "05404", "ownership": "public", "ownership_raw": "City of Winooski", "city": "Winooski", "source_dataset": "Municipal Tree Inventory", "source_department": "City of Winooski", "source_last_edit_at": ""}}, {"type": "Feature", "geometry": {"type": "Point", "coordinates": [-73.18368736099995, 44.48964938100005]}, "properties": {"id": "winooski-17520", "species_group": "crabapple", "scientific_name": "Malus species", "common_name": "Crabapple", "subtype_name": null, "zip_code": "05404", "ownership": "public", "ownership_raw": "City of Winooski", "city": "Winooski", "source_dataset": "Municipal Tree Inventory", "source_department": "City of Winooski", "source_last_edit_at": ""}}, {"type": "Feature", "geometry": {"type": "Point", "coordinates": [-73.17156547099995, 44.49771633200004]}, "properties": {"id": "winooski-17782", "species_group": "cherry", "scientific_name": "Prunus species", "common_name": "Black Cherry", "subtype_name": "Black Cherry", "zip_code": "05404", "ownership": "public", "ownership_raw": "City of Winooski", "city": "Winooski", "source_dataset": "Municipal Tree Inventory", "source_department": "City of Winooski", "source_last_edit_at": ""}}, {"type": "Feature", "geometry": {"type": "Point", "coordinates": [-73.18957551499994, 44.491013526000074]}, "properties": {"id": "winooski-17903", "species_group": "crabapple", "scientific_name": "Malus species", "common_name": "Crabapple", "subtype_name": null, "zip_code": "05404", "ownership": "public", "ownership_raw": "City of Winooski", "city": "Winooski", "source_dataset": "Municipal Tree Inventory", "source_department": "City of Winooski", "source_last_edit_at": ""}}, {"type": "Feature", "geometry": {"type": "Point", "coordinates": [-73.17628987499995, 44.49538237000007]}, "properties": {"id": "winooski-18345", "species_group": "crabapple", "scientific_name": "Malus species", "common_name": "Crabapple", "subtype_name": null, "zip_code": "05404", "ownership": "public", "ownership_raw": "City of Winooski", "city": "Winooski", "source_dataset": "Municipal Tree Inventory", "source_department": "City of Winooski", "source_last_edit_at": ""}}, {"type": "Feature", "geometry": {"type": "Point", "coordinates": [-73.18047933799994, 44.496457914000075]}, "properties": {"id": "winooski-18698", "species_group": "cherry", "scientific_name": "Prunus species", "common_name": "Black Cherry", "subtype_name": "Black Cherry", "zip_code": "05404", "ownership": "public", "ownership_raw": "City of Winooski", "city": "Winooski", "source_dataset": "Municipal Tree Inventory", "source_department": "City of Winooski", "source_last_edit_at": ""}}, {"type": "Feature", "geometry": {"type": "Point", "coordinates": [-73.17628007299999, 44.49534531000006]}, "properties": {"id": "winooski-18763", "species_group": "crabapple", "scientific_name": "Malus species", "common_name": "Crabapple", "subtype_name": null, "zip_code": "05404", "ownership": "public", "ownership_raw": "City of Winooski", "city": "Winooski", "source_dataset": "Municipal Tree Inventory", "source_department": "City of Winooski", "source_last_edit_at": ""}}, {"type": "Feature", "geometry": {"type": "Point", "coordinates": [-73.18070544599993, 44.48828459300006]}, "properties": {"id": "winooski-19898", "species_group": "cherry", "scientific_name": "Prunus species", "common_name": "Black Cherry", "subtype_name": "Black Cherry", "zip_code": "05404", "ownership": "public", "ownership_raw": "City of Winooski", "city": "Winooski", "source_dataset": "Municipal Tree Inventory", "source_department": "City of Winooski", "source_last_edit_at": ""}}, {"type": "Feature", "geometry": {"type": "Point", "coordinates": [-73.18580960399999, 44.495733071000075]}, "properties": {"id": "winooski-20699", "species_group": "crabapple", "scientific_name": "Malus species", "common_name": "Crabapple", "subtype_name": null, "zip_code": "05404", "ownership": "public", "ownership_raw": "City of Winooski", "city": "Winooski", "source_dataset": "Municipal Tree Inventory", "source_department": "City of Winooski", "source_last_edit_at": ""}}, {"type": "Feature", "geometry": {"type": "Point", "coordinates": [-73.17816104999997, 44.49422133100006]}, "properties": {"id": "winooski-20701", "species_group": "cherry", "scientific_name": "Prunus species", "common_name": "European Bird Cherry", "subtype_name": "European Bird Cherry", "zip_code": "05404", "ownership": "public", "ownership_raw": "City of Winooski", "city": "Winooski", "source_dataset": "Municipal Tree Inventory", "source_department": "City of Winooski", "source_last_edit_at": ""}}, {"type": "Feature", "geometry": {"type": "Point", "coordinates": [-73.17817437599996, 44.494374279000056]}, "properties": {"id": "winooski-21080", "species_group": "cherry", "scientific_name": "Prunus species", "common_name": "European Bird Cherry", "subtype_name": "European Bird Cherry", "zip_code": "05404", "ownership": "public", "ownership_raw": "City of Winooski", "city": "Winooski", "source_dataset": "Municipal Tree Inventory", "source_department": "City of Winooski", "source_last_edit_at": ""}}, {"type": "Feature", "geometry": {"type": "Point", "coordinates": [-73.18558350199999, 44.496127297000044]}, "properties": {"id": "winooski-2121", "species_group": "crabapple", "scientific_name": "Malus species", "common_name": "Crabapple", "subtype_name": null, "zip_code": "05404", "ownership": "public", "ownership_raw": "City of Winooski", "city": "Winooski", "source_dataset": "Municipal Tree Inventory", "source_department": "City of Winooski", "source_last_edit_at": ""}}, {"type": "Feature", "geometry": {"type": "Point", "coordinates": [-73.17861454599995, 44.48837849800003]}, "properties": {"id": "winooski-21561", "species_group": "cherry", "scientific_name": "Prunus species", "common_name": "Black Cherry", "subtype_name": "Black Cherry", "zip_code": "05404", "ownership": "public", "ownership_raw": "City of Winooski", "city": "Winooski", "source_dataset": "Municipal Tree Inventory", "source_department": "City of Winooski", "source_last_edit_at": ""}}, {"type": "Feature", "geometry": {"type": "Point", "coordinates": [-73.18961335899996, 44.491005424000036]}, "properties": {"id": "winooski-21713", "species_group": "crabapple", "scientific_name": "Malus species", "common_name": "Crabapple", "subtype_name": null, "zip_code": "05404", "ownership": "public", "ownership_raw": "City of Winooski", "city": "Winooski", "source_dataset": "Municipal Tree Inventory", "source_department": "City of Winooski", "source_last_edit_at": ""}}, {"type": "Feature", "geometry": {"type": "Point", "coordinates": [-73.18680828399994, 44.489934264000055]}, "properties": {"id": "winooski-22080", "species_group": "crabapple", "scientific_name": "Malus species", "common_name": "Crabapple", "subtype_name": null, "zip_code": "05404", "ownership": "public", "ownership_raw": "City of Winooski", "city": "Winooski", "source_dataset": "Municipal Tree Inventory", "source_department": "City of Winooski", "source_last_edit_at": ""}}, {"type": "Feature", "geometry": {"type": "Point", "coordinates": [-73.17954453599998, 44.49568266400007]}, "properties": {"id": "winooski-22496", "species_group": "cherry", "scientific_name": "Prunus species", "common_name": "Common Chokecherry", "subtype_name": "Common Chokecherry", "zip_code": "05404", "ownership": "public", "ownership_raw": "City of Winooski", "city": "Winooski", "source_dataset": "Municipal Tree Inventory", "source_department": "City of Winooski", "source_last_edit_at": ""}}, {"type": "Feature", "geometry": {"type": "Point", "coordinates": [-73.19156473799995, 44.49887100300003]}, "properties": {"id": "winooski-22623", "species_group": "crabapple", "scientific_name": "Malus species", "common_name": "Crabapple", "subtype_name": null, "zip_code": "05404", "ownership": "public", "ownership_raw": "City of Winooski", "city": "Winooski", "source_dataset": "Municipal Tree Inventory", "source_department": "City of Winooski", "source_last_edit_at": ""}}, {"type": "Feature", "geometry": {"type": "Point", "coordinates": [-73.18070180299998, 44.49655695300004]}, "properties": {"id": "winooski-2350", "species_group": "cherry", "scientific_name": "Prunus species", "common_name": "Black Cherry", "subtype_name": "Black Cherry", "zip_code": "05404", "ownership": "public", "ownership_raw": "City of Winooski", "city": "Winooski", "source_dataset": "Municipal Tree Inventory", "source_department": "City of Winooski", "source_last_edit_at": ""}}, {"type": "Feature", "geometry": {"type": "Point", "coordinates": [-73.19153935299994, 44.498858004000056]}, "properties": {"id": "winooski-23531", "species_group": "crabapple", "scientific_name": "Malus species", "common_name": "Crabapple", "subtype_name": null, "zip_code": "05404", "ownership": "public", "ownership_raw": "City of Winooski", "city": "Winooski", "source_dataset": "Municipal Tree Inventory", "source_department": "City of Winooski", "source_last_edit_at": ""}}, {"type": "Feature", "geometry": {"type": "Point", "coordinates": [-73.18503811799997, 44.49296635200005]}, "properties": {"id": "winooski-23698", "species_group": "crabapple", "scientific_name": "Malus species", "common_name": "Crabapple", "subtype_name": null, "zip_code": "05404", "ownership": "public", "ownership_raw": "City of Winooski", "city": "Winooski", "source_dataset": "Municipal Tree Inventory", "source_department": "City of Winooski", "source_last_edit_at": ""}}, {"type": "Feature", "geometry": {"type": "Point", "coordinates": [-73.18673648699996, 44.489745834000075]}, "properties": {"id": "winooski-23984", "species_group": "crabapple", "scientific_name": "Malus species", "common_name": "Crabapple", "subtype_name": null, "zip_code": "05404", "ownership": "public", "ownership_raw": "City of Winooski", "city": "Winooski", "source_dataset": "Municipal Tree Inventory", "source_department": "City of Winooski", "source_last_edit_at": ""}}, {"type": "Feature", "geometry": {"type": "Point", "coordinates": [-73.17935190899993, 44.49758734000005]}, "properties": {"id": "winooski-24051", "species_group": "cherry", "scientific_name": "Prunus species", "common_name": "Black Cherry", "subtype_name": "Black Cherry", "zip_code": "05404", "ownership": "public", "ownership_raw": "City of Winooski", "city": "Winooski", "source_dataset": "Municipal Tree Inventory", "source_department": "City of Winooski", "source_last_edit_at": ""}}, {"type": "Feature", "geometry": {"type": "Point", "coordinates": [-73.18688327699994, 44.48978500000004]}, "properties": {"id": "winooski-24065", "species_group": "crabapple", "scientific_name": "Malus species", "common_name": "Crabapple", "subtype_name": null, "zip_code": "05404", "ownership": "public", "ownership_raw": "City of Winooski", "city": "Winooski", "source_dataset": "Municipal Tree Inventory", "source_department": "City of Winooski", "source_last_edit_at": ""}}, {"type": "Feature", "geometry": {"type": "Point", "coordinates": [-73.19152644399998, 44.499178580000034]}, "properties": {"id": "winooski-24149", "species_group": "crabapple", "scientific_name": "Malus species", "common_name": "Crabapple", "subtype_name": null, "zip_code": "05404", "ownership": "public", "ownership_raw": "City of Winooski", "city": "Winooski", "source_dataset": "Municipal Tree Inventory", "source_department": "City of Winooski", "source_last_edit_at": ""}}, {"type": "Feature", "geometry": {"type": "Point", "coordinates": [-73.18680849199995, 44.489925097000025]}, "properties": {"id": "winooski-24661", "species_group": "crabapple", "scientific_name": "Malus species", "common_name": "Crabapple", "subtype_name": null, "zip_code": "05404", "ownership": "public", "ownership_raw": "City of Winooski", "city": "Winooski", "source_dataset": "Municipal Tree Inventory", "source_department": "City of Winooski", "source_last_edit_at": ""}}, {"type": "Feature", "geometry": {"type": "Point", "coordinates": [-73.17828933599998, 44.48801585900003]}, "properties": {"id": "winooski-24726", "species_group": "cherry", "scientific_name": "Prunus species", "common_name": "Black Cherry", "subtype_name": "Black Cherry", "zip_code": "05404", "ownership": "public", "ownership_raw": "City of Winooski", "city": "Winooski", "source_dataset": "Municipal Tree Inventory", "source_department": "City of Winooski", "source_last_edit_at": ""}}, {"type": "Feature", "geometry": {"type": "Point", "coordinates": [-73.18959948499997, 44.49100898800003]}, "properties": {"id": "winooski-24780", "species_group": "crabapple", "scientific_name": "Malus species", "common_name": "Crabapple", "subtype_name": null, "zip_code": "05404", "ownership": "public", "ownership_raw": "City of Winooski", "city": "Winooski", "source_dataset": "Municipal Tree Inventory", "source_department": "City of Winooski", "source_last_edit_at": ""}}, {"type": "Feature", "geometry": {"type": "Point", "coordinates": [-73.17816475799998, 44.49426190400004]}, "properties": {"id": "winooski-24807", "species_group": "cherry", "scientific_name": "Prunus species", "common_name": "European Bird Cherry", "subtype_name": "European Bird Cherry", "zip_code": "05404", "ownership": "public", "ownership_raw": "City of Winooski", "city": "Winooski", "source_dataset": "Municipal Tree Inventory", "source_department": "City of Winooski", "source_last_edit_at": ""}}, {"type": "Feature", "geometry": {"type": "Point", "coordinates": [-73.17617306799997, 44.49536379300008]}, "properties": {"id": "winooski-25382", "species_group": "crabapple", "scientific_name": "Malus species", "common_name": "Crabapple", "subtype_name": null, "zip_code": "05404", "ownership": "public", "ownership_raw": "City of Winooski", "city": "Winooski", "source_dataset": "Municipal Tree Inventory", "source_department": "City of Winooski", "source_last_edit_at": ""}}, {"type": "Feature", "geometry": {"type": "Point", "coordinates": [-73.18688625999994, 44.489856547000045]}, "properties": {"id": "winooski-26760", "species_group": "crabapple", "scientific_name": "Malus species", "common_name": "Crabapple", "subtype_name": null, "zip_code": "05404", "ownership": "public", "ownership_raw": "City of Winooski", "city": "Winooski", "source_dataset": "Municipal Tree Inventory", "source_department": "City of Winooski", "source_last_edit_at": ""}}, {"type": "Feature", "geometry": {"type": "Point", "coordinates": [-73.18583763199996, 44.492976860000056]}, "properties": {"id": "winooski-26940", "species_group": "crabapple", "scientific_name": "Malus species", "common_name": "Crabapple", "subtype_name": null, "zip_code": "05404", "ownership": "public", "ownership_raw": "City of Winooski", "city": "Winooski", "source_dataset": "Municipal Tree Inventory", "source_department": "City of Winooski", "source_last_edit_at": ""}}, {"type": "Feature", "geometry": {"type": "Point", "coordinates": [-73.18683581199997, 44.48990026100006]}, "properties": {"id": "winooski-28120", "species_group": "crabapple", "scientific_name": "Malus species", "common_name": "Crabapple", "subtype_name": null, "zip_code": "05404", "ownership": "public", "ownership_raw": "City of Winooski", "city": "Winooski", "source_dataset": "Municipal Tree Inventory", "source_department": "City of Winooski", "source_last_edit_at": ""}}, {"type": "Feature", "geometry": {"type": "Point", "coordinates": [-73.18801906199997, 44.49162880200004]}, "properties": {"id": "winooski-28440", "species_group": "crabapple", "scientific_name": "Malus species", "common_name": "Crabapple", "subtype_name": null, "zip_code": "05404", "ownership": "public", "ownership_raw": "City of Winooski", "city": "Winooski", "source_dataset": "Municipal Tree Inventory", "source_department": "City of Winooski", "source_last_edit_at": ""}}, {"type": "Feature", "geometry": {"type": "Point", "coordinates": [-73.17947720199999, 44.49717899800004]}, "properties": {"id": "winooski-28830", "species_group": "crabapple", "scientific_name": "Malus species", "common_name": "Crabapple", "subtype_name": null, "zip_code": "05404", "ownership": "public", "ownership_raw": "City of Winooski", "city": "Winooski", "source_dataset": "Municipal Tree Inventory", "source_department": "City of Winooski", "source_last_edit_at": ""}}, {"type": "Feature", "geometry": {"type": "Point", "coordinates": [-73.19290127599999, 44.500329230000034]}, "properties": {"id": "winooski-2895", "species_group": "cherry", "scientific_name": "Prunus species", "common_name": "Black Cherry", "subtype_name": "Black Cherry", "zip_code": "05404", "ownership": "public", "ownership_raw": "City of Winooski", "city": "Winooski", "source_dataset": "Municipal Tree Inventory", "source_department": "City of Winooski", "source_last_edit_at": ""}}, {"type": "Feature", "geometry": {"type": "Point", "coordinates": [-73.19329795999994, 44.50033059400005]}, "properties": {"id": "winooski-29333", "species_group": "cherry", "scientific_name": "Prunus species", "common_name": "Black Cherry", "subtype_name": "Black Cherry", "zip_code": "05404", "ownership": "public", "ownership_raw": "City of Winooski", "city": "Winooski", "source_dataset": "Municipal Tree Inventory", "source_department": "City of Winooski", "source_last_edit_at": ""}}, {"type": "Feature", "geometry": {"type": "Point", "coordinates": [-73.18685553399996, 44.489889643000026]}, "properties": {"id": "winooski-29526", "species_group": "crabapple", "scientific_name": "Malus species", "common_name": "Crabapple", "subtype_name": null, "zip_code": "05404", "ownership": "public", "ownership_raw": "City of Winooski", "city": "Winooski", "source_dataset": "Municipal Tree Inventory", "source_department": "City of Winooski", "source_last_edit_at": ""}}, {"type": "Feature", "geometry": {"type": "Point", "coordinates": [-73.18319138999993, 44.50040990200006]}, "properties": {"id": "winooski-29636", "species_group": "crabapple", "scientific_name": "Malus species", "common_name": "Crabapple", "subtype_name": null, "zip_code": "05404", "ownership": "public", "ownership_raw": "City of Winooski", "city": "Winooski", "source_dataset": "Municipal Tree Inventory", "source_department": "City of Winooski", "source_last_edit_at": ""}}, {"type": "Feature", "geometry": {"type": "Point", "coordinates": [-73.18685979499998, 44.48989840000007]}, "properties": {"id": "winooski-29726", "species_group": "crabapple", "scientific_name": "Malus species", "common_name": "Crabapple", "subtype_name": null, "zip_code": "05404", "ownership": "public", "ownership_raw": "City of Winooski", "city": "Winooski", "source_dataset": "Municipal Tree Inventory", "source_department": "City of Winooski", "source_last_edit_at": ""}}, {"type": "Feature", "geometry": {"type": "Point", "coordinates": [-73.18444482899997, 44.49298560500006]}, "properties": {"id": "winooski-30569", "species_group": "crabapple", "scientific_name": "Malus species", "common_name": "Crabapple", "subtype_name": null, "zip_code": "05404", "ownership": "public", "ownership_raw": "City of Winooski", "city": "Winooski", "source_dataset": "Municipal Tree Inventory", "source_department": "City of Winooski", "source_last_edit_at": ""}}, {"type": "Feature", "geometry": {"type": "Point", "coordinates": [-73.18569108499997, 44.49591169400003]}, "properties": {"id": "winooski-30951", "species_group": "crabapple", "scientific_name": "Malus species", "common_name": "Crabapple", "subtype_name": null, "zip_code": "05404", "ownership": "public", "ownership_raw": "City of Winooski", "city": "Winooski", "source_dataset": "Municipal Tree Inventory", "source_department": "City of Winooski", "source_last_edit_at": ""}}, {"type": "Feature", "geometry": {"type": "Point", "coordinates": [-73.18668575999999, 44.48991259400003]}, "properties": {"id": "winooski-3118", "species_group": "crabapple", "scientific_name": "Malus species", "common_name": "Crabapple", "subtype_name": null, "zip_code": "05404", "ownership": "public", "ownership_raw": "City of Winooski", "city": "Winooski", "source_dataset": "Municipal Tree Inventory", "source_department": "City of Winooski", "source_last_edit_at": ""}}, {"type": "Feature", "geometry": {"type": "Point", "coordinates": [-73.18236845699994, 44.48962368200006]}, "properties": {"id": "winooski-31332", "species_group": "crabapple", "scientific_name": "Malus species", "common_name": "Crabapple", "subtype_name": null, "zip_code": "05404", "ownership": "public", "ownership_raw": "City of Winooski", "city": "Winooski", "source_dataset": "Municipal Tree Inventory", "source_department": "City of Winooski", "source_last_edit_at": ""}}, {"type": "Feature", "geometry": {"type": "Point", "coordinates": [-73.18719609199997, 44.48953618000007]}, "properties": {"id": "winooski-3698", "species_group": "crabapple", "scientific_name": "Malus species", "common_name": "Crabapple", "subtype_name": null, "zip_code": "05404", "ownership": "public", "ownership_raw": "City of Winooski", "city": "Winooski", "source_dataset": "Municipal Tree Inventory", "source_department": "City of Winooski", "source_last_edit_at": ""}}, {"type": "Feature", "geometry": {"type": "Point", "coordinates": [-73.18806583599996, 44.49155411100003]}, "properties": {"id": "winooski-3738", "species_group": "crabapple", "scientific_name": "Malus species", "common_name": "Crabapple", "subtype_name": null, "zip_code": "05404", "ownership": "public", "ownership_raw": "City of Winooski", "city": "Winooski", "source_dataset": "Municipal Tree Inventory", "source_department": "City of Winooski", "source_last_edit_at": ""}}, {"type": "Feature", "geometry": {"type": "Point", "coordinates": [-73.17619481299994, 44.49534824300008]}, "properties": {"id": "winooski-3748", "species_group": "crabapple", "scientific_name": "Malus species", "common_name": "Crabapple", "subtype_name": null, "zip_code": "05404", "ownership": "public", "ownership_raw": "City of Winooski", "city": "Winooski", "source_dataset": "Municipal Tree Inventory", "source_department": "City of Winooski", "source_last_edit_at": ""}}, {"type": "Feature", "geometry": {"type": "Point", "coordinates": [-73.17934169899996, 44.497605812000074]}, "properties": {"id": "winooski-4515", "species_group": "crabapple", "scientific_name": "Malus species", "common_name": "Crabapple", "subtype_name": null, "zip_code": "05404", "ownership": "public", "ownership_raw": "City of Winooski", "city": "Winooski", "source_dataset": "Municipal Tree Inventory", "source_department": "City of Winooski", "source_last_edit_at": ""}}, {"type": "Feature", "geometry": {"type": "Point", "coordinates": [-73.17647810599993, 44.49452306400008]}, "properties": {"id": "winooski-4926", "species_group": "crabapple", "scientific_name": "Malus species", "common_name": "Crabapple", "subtype_name": null, "zip_code": "05404", "ownership": "public", "ownership_raw": "City of Winooski", "city": "Winooski", "source_dataset": "Municipal Tree Inventory", "source_department": "City of Winooski", "source_last_edit_at": ""}}, {"type": "Feature", "geometry": {"type": "Point", "coordinates": [-73.18715427199999, 44.49010437100003]}, "properties": {"id": "winooski-5004", "species_group": "crabapple", "scientific_name": "Malus species", "common_name": "Crabapple", "subtype_name": null, "zip_code": "05404", "ownership": "public", "ownership_raw": "City of Winooski", "city": "Winooski", "source_dataset": "Municipal Tree Inventory", "source_department": "City of Winooski", "source_last_edit_at": ""}}, {"type": "Feature", "geometry": {"type": "Point", "coordinates": [-73.17511832499997, 44.493954332000044]}, "properties": {"id": "winooski-514", "species_group": "crabapple", "scientific_name": "Malus species", "common_name": "Crabapple", "subtype_name": null, "zip_code": "05404", "ownership": "public", "ownership_raw": "City of Winooski", "city": "Winooski", "source_dataset": "Municipal Tree Inventory", "source_department": "City of Winooski", "source_last_edit_at": ""}}, {"type": "Feature", "geometry": {"type": "Point", "coordinates": [-73.18670831299994, 44.489904212000056]}, "properties": {"id": "winooski-515", "species_group": "crabapple", "scientific_name": "Malus species", "common_name": "Crabapple", "subtype_name": null, "zip_code": "05404", "ownership": "public", "ownership_raw": "City of Winooski", "city": "Winooski", "source_dataset": "Municipal Tree Inventory", "source_department": "City of Winooski", "source_last_edit_at": ""}}, {"type": "Feature", "geometry": {"type": "Point", "coordinates": [-73.18067348099999, 44.49329063300007]}, "properties": {"id": "winooski-5216", "species_group": "cherry", "scientific_name": "Prunus species", "common_name": "Black Cherry", "subtype_name": "Black Cherry", "zip_code": "05404", "ownership": "public", "ownership_raw": "City of Winooski", "city": "Winooski", "source_dataset": "Municipal Tree Inventory", "source_department": "City of Winooski", "source_last_edit_at": ""}}, {"type": "Feature", "geometry": {"type": "Point", "coordinates": [-73.17819607199993, 44.494531702000074]}, "properties": {"id": "winooski-5512", "species_group": "crabapple", "scientific_name": "Malus species", "common_name": "Crabapple", "subtype_name": null, "zip_code": "05404", "ownership": "public", "ownership_raw": "City of Winooski", "city": "Winooski", "source_dataset": "Municipal Tree Inventory", "source_department": "City of Winooski", "source_last_edit_at": ""}}, {"type": "Feature", "geometry": {"type": "Point", "coordinates": [-73.17266808199997, 44.49802720200006]}, "properties": {"id": "winooski-5614", "species_group": "cherry", "scientific_name": "Prunus species", "common_name": "Black Cherry", "subtype_name": "Black Cherry", "zip_code": "05404", "ownership": "public", "ownership_raw": "City of Winooski", "city": "Winooski", "source_dataset": "Municipal Tree Inventory", "source_department": "City of Winooski", "source_last_edit_at": ""}}, {"type": "Feature", "geometry": {"type": "Point", "coordinates": [-73.18397961099998, 44.499147883000035]}, "properties": {"id": "winooski-5644", "species_group": "crabapple", "scientific_name": "Malus species", "common_name": "Crabapple", "subtype_name": null, "zip_code": "05404", "ownership": "public", "ownership_raw": "City of Winooski", "city": "Winooski", "source_dataset": "Municipal Tree Inventory", "source_department": "City of Winooski", "source_last_edit_at": ""}}, {"type": "Feature", "geometry": {"type": "Point", "coordinates": [-73.18121455899995, 44.488816514000064]}, "properties": {"id": "winooski-5908", "species_group": "cherry", "scientific_name": "Prunus species", "common_name": "Black Cherry", "subtype_name": "Black Cherry", "zip_code": "05404", "ownership": "public", "ownership_raw": "City of Winooski", "city": "Winooski", "source_dataset": "Municipal Tree Inventory", "source_department": "City of Winooski", "source_last_edit_at": ""}}, {"type": "Feature", "geometry": {"type": "Point", "coordinates": [-73.18675478799997, 44.489924888000075]}, "properties": {"id": "winooski-6590", "species_group": "crabapple", "scientific_name": "Malus species", "common_name": "Crabapple", "subtype_name": null, "zip_code": "05404", "ownership": "public", "ownership_raw": "City of Winooski", "city": "Winooski", "source_dataset": "Municipal Tree Inventory", "source_department": "City of Winooski", "source_last_edit_at": ""}}, {"type": "Feature", "geometry": {"type": "Point", "coordinates": [-73.16932370799998, 44.49691490600003]}, "properties": {"id": "winooski-7219", "species_group": "cherry", "scientific_name": "Prunus species", "common_name": "Black Cherry", "subtype_name": "Black Cherry", "zip_code": "05404", "ownership": "public", "ownership_raw": "City of Winooski", "city": "Winooski", "source_dataset": "Municipal Tree Inventory", "source_department": "City of Winooski", "source_last_edit_at": ""}}, {"type": "Feature", "geometry": {"type": "Point", "coordinates": [-73.17524481099997, 44.49365805700006]}, "properties": {"id": "winooski-7323", "species_group": "crabapple", "scientific_name": "Malus species", "common_name": "Crabapple", "subtype_name": null, "zip_code": "05404", "ownership": "public", "ownership_raw": "City of Winooski", "city": "Winooski", "source_dataset": "Municipal Tree Inventory", "source_department": "City of Winooski", "source_last_edit_at": ""}}, {"type": "Feature", "geometry": {"type": "Point", "coordinates": [-73.17940441899998, 44.49752875100006]}, "properties": {"id": "winooski-7375", "species_group": "crabapple", "scientific_name": "Malus species", "common_name": "Crabapple", "subtype_name": null, "zip_code": "05404", "ownership": "public", "ownership_raw": "City of Winooski", "city": "Winooski", "source_dataset": "Municipal Tree Inventory", "source_department": "City of Winooski", "source_last_edit_at": ""}}, {"type": "Feature", "geometry": {"type": "Point", "coordinates": [-73.18674754499995, 44.489928561000056]}, "properties": {"id": "winooski-7485", "species_group": "crabapple", "scientific_name": "Malus species", "common_name": "Crabapple", "subtype_name": null, "zip_code": "05404", "ownership": "public", "ownership_raw": "City of Winooski", "city": "Winooski", "source_dataset": "Municipal Tree Inventory", "source_department": "City of Winooski", "source_last_edit_at": ""}}, {"type": "Feature", "geometry": {"type": "Point", "coordinates": [-73.17971097199995, 44.49688285700006]}, "properties": {"id": "winooski-8275", "species_group": "cherry", "scientific_name": "Prunus species", "common_name": "Common Chokecherry", "subtype_name": "Common Chokecherry", "zip_code": "05404", "ownership": "public", "ownership_raw": "City of Winooski", "city": "Winooski", "source_dataset": "Municipal Tree Inventory", "source_department": "City of Winooski", "source_last_edit_at": ""}}, {"type": "Feature", "geometry": {"type": "Point", "coordinates": [-73.18686727899996, 44.48986693100005]}, "properties": {"id": "winooski-8602", "species_group": "crabapple", "scientific_name": "Malus species", "common_name": "Crabapple", "subtype_name": null, "zip_code": "05404", "ownership": "public", "ownership_raw": "City of Winooski", "city": "Winooski", "source_dataset": "Municipal Tree Inventory", "source_department": "City of Winooski", "source_last_edit_at": ""}}, {"type": "Feature", "geometry": {"type": "Point", "coordinates": [-73.17968087899999, 44.497153137000055]}, "properties": {"id": "winooski-8731", "species_group": "crabapple", "scientific_name": "Malus species", "common_name": "Crabapple", "subtype_name": null, "zip_code": "05404", "ownership": "public", "ownership_raw": "City of Winooski", "city": "Winooski", "source_dataset": "Municipal Tree Inventory", "source_department": "City of Winooski", "source_last_edit_at": ""}}, {"type": "Feature", "geometry": {"type": "Point", "coordinates": [-73.18361114799995, 44.50000406000004]}, "properties": {"id": "winooski-8928", "species_group": "crabapple", "scientific_name": "Malus species", "common_name": "Crabapple", "subtype_name": null, "zip_code": "05404", "ownership": "public", "ownership_raw": "City of Winooski", "city": "Winooski", "source_dataset": "Municipal Tree Inventory", "source_department": "City of Winooski", "source_last_edit_at": ""}}, {"type": "Feature", "geometry": {"type": "Point", "coordinates": [-73.19129954899995, 44.49921939800004]}, "properties": {"id": "winooski-9122", "species_group": "crabapple", "scientific_name": "Malus species", "common_name": "Crabapple", "subtype_name": null, "zip_code": "05404", "ownership": "public", "ownership_raw": "City of Winooski", "city": "Winooski", "source_dataset": "Municipal Tree Inventory", "source_department": "City of Winooski", "source_last_edit_at": ""}}, {"type": "Feature", "geometry": {"type": "Point", "coordinates": [-73.18666083799997, 44.489925983000035]}, "properties": {"id": "winooski-9216", "species_group": "crabapple", "scientific_name": "Malus species", "common_name": "Crabapple", "subtype_name": null, "zip_code": "05404", "ownership": "public", "ownership_raw": "City of Winooski", "city": "Winooski", "source_dataset": "Municipal Tree Inventory", "source_department": "City of Winooski", "source_last_edit_at": ""}}, {"type": "Feature", "geometry": {"type": "Point", "coordinates": [-73.18367601699998, 44.48967617900007]}, "properties": {"id": "winooski-9222", "species_group": "crabapple", "scientific_name": "Malus species", "common_name": "Crabapple", "subtype_name": null, "zip_code": "05404", "ownership": "public", "ownership_raw": "City of Winooski", "city": "Winooski", "source_dataset": "Municipal Tree Inventory", "source_department": "City of Winooski", "source_last_edit_at": ""}}, {"type": "Feature", "geometry": {"type": "Point", "coordinates": [-73.17868873199996, 44.497662467000055]}, "properties": {"id": "winooski-9632", "species_group": "cherry", "scientific_name": "Prunus species", "common_name": "Black Cherry", "subtype_name": "Black Cherry", "zip_code": "05404", "ownership": "public", "ownership_raw": "City of Winooski", "city": "Winooski", "source_dataset": "Municipal Tree Inventory", "source_department": "City of Winooski", "source_last_edit_at": ""}}, {"type": "Feature", "geometry": {"type": "Point", "coordinates": [-73.18679233099994, 44.48974960900006]}, "properties": {"id": "winooski-9633", "species_group": "crabapple", "scientific_name": "Malus species", "common_name": "Crabapple", "subtype_name": null, "zip_code": "05404", "ownership": "public", "ownership_raw": "City of Winooski", "city": "Winooski", "source_dataset": "Municipal Tree Inventory", "source_department": "City of Winooski", "source_last_edit_at": ""}}, {"type": "Feature", "geometry": {"type": "Point", "coordinates": [-73.18522103499998, 44.49296599200005]}, "properties": {"id": "winooski-9660", "species_group": "crabapple", "scientific_name": "Malus species", "common_name": "Crabapple", "subtype_name": null, "zip_code": "05404", "ownership": "public", "ownership_raw": "City of Winooski", "city": "Winooski", "source_dataset": "Municipal Tree Inventory", "source_department": "City of Winooski", "source_last_edit_at": ""}}, {"type": "Feature", "geometry": {"type": "Point", "coordinates": [-73.17962008299997, 44.49723711300004]}, "properties": {"id": "winooski-9832", "species_group": "crabapple", "scientific_name": "Malus species", "common_name": "Crabapple", "subtype_name": null, "zip_code": "05404", "ownership": "public", "ownership_raw": "City of Winooski", "city": "Winooski", "source_dataset": "Municipal Tree Inventory", "source_department": "City of Winooski", "source_last_edit_at": ""}}]}