{"type": "FeatureCollection", "features": [{"type": "Feature", "geometry": {"type": "Point", "coordinates": [-73.10581236099995, 44.63973100900006]}, "properties": {"id": "milton-10747", "species_group": "crabapple", "scientific_name": "Malus species", "common_name": "Crabapple", "subtype_name": null, "zip_code": "05468", "ownership": "public", "ownership_raw": "Town of Milton", "city": "Milton", "source_dataset": "Municipal Tree Inventory", "source_department": "Town of Milton", "source_last_edit_at": ""}}, {"type": "Feature", "geometry": {"type": "Point", "coordinates": [-73.11637602699994, 44.62737453200003]}, "properties": {"id": "milton-10839", "species_group": "crabapple", "scientific_name": "Malus species", "common_name": "Crabapple", "subtype_name": null, "zip_code": "05468", "ownership": "public", "ownership_raw": "Town of Milton", "city": "Milton", "source_dataset": "Municipal Tree Inventory", "source_department": "Town of Milton", "source_last_edit_at": ""}}, {"type": "Feature", "geometry": {"type": "Point", "coordinates": [-73.10730546699995, 44.639104176000046]}, "properties": {"id": "milton-10895", "species_group": "crabapple", "scientific_name": "Malus species", "common_name": "Crabapple", "subtype_name": null, "zip_code": "05468", "ownership": "public", "ownership_raw": "Town of Milton", "city": "Milton", "source_dataset": "Municipal Tree Inventory", "source_department": "Town of Milton", "source_last_edit_at": ""}}, {"type": "Feature", "geometry": {"type": "Point", "coordinates": [-73.11196203399999, 44.62565611600007]}, "properties": {"id": "milton-11345", "species_group": "crabapple", "scientific_name": "Malus species", "common_name": "Crabapple", "subtype_name": null, "zip_code": "05468", "ownership": "public", "ownership_raw": "Town of Milton", "city": "Milton", "source_dataset": "Municipal Tree Inventory", "source_department": "Town of Milton", "source_last_edit_at": ""}}, {"type": "Feature", "geometry": {"type": "Point", "coordinates": [-73.12071972399997, 44.63143603700007]}, "properties": {"id": "milton-12684", "species_group": "crabapple", "scientific_name": "Malus species", "common_name": "Crabapple", "subtype_name": null, "zip_code": "05468", "ownership": "public", "ownership_raw": "Town of Milton", "city": "Milton", "source_dataset": "Municipal Tree Inventory", "source_department": "Town of Milton", "source_last_edit_at": ""}}, {"type": "Feature", "geometry": {"type": "Point", "coordinates": [-73.12348052899995, 44.616671051000026]}, "properties": {"id": "milton-12703", "species_group": "cherry", "scientific_name": "Prunus species", "common_name": "Common Chokecherry", "subtype_name": "Common Chokecherry", "zip_code": "05468", "ownership": "public", "ownership_raw": "Town of Milton", "city": "Milton", "source_dataset": "Municipal Tree Inventory", "source_department": "Town of Milton", "source_last_edit_at": ""}}, {"type": "Feature", "geometry": {"type": "Point", "coordinates": [-73.12313435899995, 44.61725626500004]}, "properties": {"id": "milton-12771", "species_group": "crabapple", "scientific_name": "Malus species", "common_name": "Crabapple", "subtype_name": null, "zip_code": "05468", "ownership": "public", "ownership_raw": "Town of Milton", "city": "Milton", "source_dataset": "Municipal Tree Inventory", "source_department": "Town of Milton", "source_last_edit_at": ""}}, {"type": "Feature", "geometry": {"type": "Point", "coordinates": [-73.11063819599997, 44.64107425000003]}, "properties": {"id": "milton-12898", "species_group": "crabapple", "scientific_name": "Malus species", "common_name": "Crabapple", "subtype_name": null, "zip_code": "05468", "ownership": "public", "ownership_raw": "Town of Milton", "city": "Milton", "source_dataset": "Municipal Tree Inventory", "source_department": "Town of Milton", "source_last_edit_at": ""}}, {"type": "Feature", "geometry": {"type": "Point", "coordinates": [-73.10939001299994, 44.639391946000046]}, "properties": {"id": "milton-13073", "species_group": "crabapple", "scientific_name": "Malus species", "common_name": "Crabapple", "subtype_name": null, "zip_code": "05468", "ownership": "public", "ownership_raw": "Town of Milton", "city": "Milton", "source_dataset": "Municipal Tree Inventory", "source_department": "Town of Milton", "source_last_edit_at": ""}}, {"type": "Feature", "geometry": {"type": "Point", "coordinates": [-73.11928342299996, 44.63069032900006]}, "properties": {"id": "milton-13131", "species_group": "crabapple", "scientific_name": "Malus species", "common_name": "Crabapple", "subtype_name": null, "zip_code": "05468", "ownership": "public", "ownership_raw": "Town of Milton", "city": "Milton", "source_dataset": "Municipal Tree Inventory", "source_department": "Town of Milton", "source_last_edit_at": ""}}, {"type": "Feature", "geometry": {"type": "Point", "coordinates": [-73.12372823699997, 44.61921245000008]}, "properties": {"id": "milton-13739", "species_group": "crabapple", "scientific_name": "Malus species", "common_name": "Crabapple", "subtype_name": null, "zip_code": "05468", "ownership": "public", "ownership_raw": "Town of Milton", "city": "Milton", "source_dataset": "Municipal Tree Inventory", "source_department": "Town of Milton", "source_last_edit_at": ""}}, {"type": "Feature", "geometry": {"type": "Point", "coordinates": [-73.11037265699997, 44.63270772700008]}, "properties": {"id": "milton-15341", "species_group": "crabapple", "scientific_name": "Malus species", "common_name": "Crabapple", "subtype_name": null, "zip_code": "05468", "ownership": "public", "ownership_raw": "Town of Milton", "city": "Milton", "source_dataset": "Municipal Tree Inventory", "source_department": "Town of Milton", "source_last_edit_at": ""}}, {"type": "Feature", "geometry": {"type": "Point", "coordinates": [-73.11627837899994, 44.61209578900008]}, "properties": {"id": "milton-16692", "species_group": "crabapple", "scientific_name": "Malus species", "common_name": "Crabapple", "subtype_name": null, "zip_code": "05468", "ownership": "public", "ownership_raw": "Town of Milton", "city": "Milton", "source_dataset": "Municipal Tree Inventory", "source_department": "Town of Milton", "source_last_edit_at": ""}}, {"type": "Feature", "geometry": {"type": "Point", "coordinates": [-73.11067859599996, 44.64113518600004]}, "properties": {"id": "milton-16945", "species_group": "crabapple", "scientific_name": "Malus species", "common_name": "Crabapple", "subtype_name": null, "zip_code": "05468", "ownership": "public", "ownership_raw": "Town of Milton", "city": "Milton", "source_dataset": "Municipal Tree Inventory", "source_department": "Town of Milton", "source_last_edit_at": ""}}, {"type": "Feature", "geometry": {"type": "Point", "coordinates": [-73.11625122099997, 44.630473238000036]}, "properties": {"id": "milton-17385", "species_group": "plum", "scientific_name": "Prunus species", "common_name": "Plum", "subtype_name": null, "zip_code": "05468", "ownership": "public", "ownership_raw": "Town of Milton", "city": "Milton", "source_dataset": "Municipal Tree Inventory", "source_department": "Town of Milton", "source_last_edit_at": ""}}, {"type": "Feature", "geometry": {"type": "Point", "coordinates": [-73.11611602099998, 44.627266657000064]}, "properties": {"id": "milton-17670", "species_group": "crabapple", "scientific_name": "Malus species", "common_name": "Crabapple", "subtype_name": null, "zip_code": "05468", "ownership": "public", "ownership_raw": "Town of Milton", "city": "Milton", "source_dataset": "Municipal Tree Inventory", "source_department": "Town of Milton", "source_last_edit_at": ""}}, {"type": "Feature", "geometry": {"type": "Point", "coordinates": [-73.12379099499998, 44.61922300500004]}, "properties": {"id": "milton-17711", "species_group": "crabapple", "scientific_name": "Malus species", "common_name": "Crabapple", "subtype_name": null, "zip_code": "05468", "ownership": "public", "ownership_raw": "Town of Milton", "city": "Milton", "source_dataset": "Municipal Tree Inventory", "source_department": "Town of Milton", "source_last_edit_at": ""}}, {"type": "Feature", "geometry": {"type": "Point", "coordinates": [-73.11032613799995, 44.63646076600003]}, "properties": {"id": "milton-17960", "species_group": "crabapple", "scientific_name": "Malus species", "common_name": "Crabapple", "subtype_name": null, "zip_code": "05468", "ownership": "public", "ownership_raw": "Town of Milton", "city": "Milton", "source_dataset": "Municipal Tree Inventory", "source_department": "Town of Milton", "source_last_edit_at": ""}}, {"type": "Feature", "geometry": {"type": "Point", "coordinates": [-73.11049444599996, 44.641573685000026]}, "properties": {"id": "milton-19386", "species_group": "crabapple", "scientific_name": "Malus species", "common_name": "Crabapple", "subtype_name": null, "zip_code": "05468", "ownership": "public", "ownership_raw": "Town of Milton", "city": "Milton", "source_dataset": "Municipal Tree Inventory", "source_department": "Town of Milton", "source_last_edit_at": ""}}, {"type": "Feature", "geometry": {"type": "Point", "coordinates": [-73.11635795799998, 44.63034423200003]}, "properties": {"id": "milton-19631", "species_group": "crabapple", "scientific_name": "Malus species", "common_name": "Crabapple", "subtype_name": null, "zip_code": "05468", "ownership": "public", "ownership_raw": "Town of Milton", "city": "Milton", "source_dataset": "Municipal Tree Inventory", "source_department": "Town of Milton", "source_last_edit_at": ""}}, {"type": "Feature", "geometry": {"type": "Point", "coordinates": [-73.12393264799994, 44.619287462000045]}, "properties": {"id": "milton-19810", "species_group": "crabapple", "scientific_name": "Malus species", "common_name": "Crabapple", "subtype_name": null, "zip_code": "05468", "ownership": "public", "ownership_raw": "Town of Milton", "city": "Milton", "source_dataset": "Municipal Tree Inventory", "source_department": "Town of Milton", "source_last_edit_at": ""}}, {"type": "Feature", "geometry": {"type": "Point", "coordinates": [-73.11072335599994, 44.62569810900004]}, "properties": {"id": "milton-20528", "species_group": "crabapple", "scientific_name": "Malus species", "common_name": "Crabapple", "subtype_name": null, "zip_code": "05468", "ownership": "public", "ownership_raw": "Town of Milton", "city": "Milton", "source_dataset": "Municipal Tree Inventory", "source_department": "Town of Milton", "source_last_edit_at": ""}}, {"type": "Feature", "geometry": {"type": "Point", "coordinates": [-73.11628499999995, 44.62733551400004]}, "properties": {"id": "milton-20899", "species_group": "crabapple", "scientific_name": "Malus species", "common_name": "Crabapple", "subtype_name": null, "zip_code": "05468", "ownership": "public", "ownership_raw": "Town of Milton", "city": "Milton", "source_dataset": "Municipal Tree Inventory", "source_department": "Town of Milton", "source_last_edit_at": ""}}, {"type": "Feature", "geometry": {"type": "Point", "coordinates": [-73.10808733099998, 44.639206468000054]}, "properties": {"id": "milton-2095", "species_group": "crabapple", "scientific_name": "Malus species", "common_name": "Crabapple", "subtype_name": null, "zip_code": "05468", "ownership": "public", "ownership_raw": "Town of Milton", "city": "Milton", "source_dataset": "Municipal Tree Inventory", "source_department": "Town of Milton", "source_last_edit_at": ""}}, {"type": "Feature", "geometry": {"type": "Point", "coordinates": [-73.10576860899994, 44.63959385700008]}, "properties": {"id": "milton-20981", "species_group": "crabapple", "scientific_name": "Malus species", "common_name": "Crabapple", "subtype_name": null, "zip_code": "05468", "ownership": "public", "ownership_raw": "Town of Milton", "city": "Milton", "source_dataset": "Municipal Tree Inventory", "source_department": "Town of Milton", "source_last_edit_at": ""}}, {"type": "Feature", "geometry": {"type": "Point", "coordinates": [-73.11045272699994, 44.632513680000045]}, "properties": {"id": "milton-21551", "species_group": "crabapple", "scientific_name": "Malus species", "common_name": "Crabapple", "subtype_name": null, "zip_code": "05468", "ownership": "public", "ownership_raw": "Town of Milton", "city": "Milton", "source_dataset": "Municipal Tree Inventory", "source_department": "Town of Milton", "source_last_edit_at": ""}}, {"type": "Feature", "geometry": {"type": "Point", "coordinates": [-73.10582387099998, 44.63766966800006]}, "properties": {"id": "milton-21743", "species_group": "crabapple", "scientific_name": "Malus species", "common_name": "Crabapple", "subtype_name": null, "zip_code": "05468", "ownership": "public", "ownership_raw": "Town of Milton", "city": "Milton", "source_dataset": "Municipal Tree Inventory", "source_department": "Town of Milton", "source_last_edit_at": ""}}, {"type": "Feature", "geometry": {"type": "Point", "coordinates": [-73.10911300199996, 44.63706591400006]}, "properties": {"id": "milton-21957", "species_group": "crabapple", "scientific_name": "Malus species", "common_name": "Crabapple", "subtype_name": null, "zip_code": "05468", "ownership": "public", "ownership_raw": "Town of Milton", "city": "Milton", "source_dataset": "Municipal Tree Inventory", "source_department": "Town of Milton", "source_last_edit_at": ""}}, {"type": "Feature", "geometry": {"type": "Point", "coordinates": [-73.11615516499995, 44.612084012000025]}, "properties": {"id": "milton-21992", "species_group": "crabapple", "scientific_name": "Malus species", "common_name": "Crabapple", "subtype_name": null, "zip_code": "05468", "ownership": "public", "ownership_raw": "Town of Milton", "city": "Milton", "source_dataset": "Municipal Tree Inventory", "source_department": "Town of Milton", "source_last_edit_at": ""}}, {"type": "Feature", "geometry": {"type": "Point", "coordinates": [-73.11376833399999, 44.62548520900003]}, "properties": {"id": "milton-2204", "species_group": "crabapple", "scientific_name": "Malus species", "common_name": "Crabapple", "subtype_name": null, "zip_code": "05468", "ownership": "public", "ownership_raw": "Town of Milton", "city": "Milton", "source_dataset": "Municipal Tree Inventory", "source_department": "Town of Milton", "source_last_edit_at": ""}}, {"type": "Feature", "geometry": {"type": "Point", "coordinates": [-73.11308310599998, 44.61814010000006]}, "properties": {"id": "milton-23046", "species_group": "crabapple", "scientific_name": "Malus species", "common_name": "Crabapple", "subtype_name": null, "zip_code": "05468", "ownership": "public", "ownership_raw": "Town of Milton", "city": "Milton", "source_dataset": "Municipal Tree Inventory", "source_department": "Town of Milton", "source_last_edit_at": ""}}, {"type": "Feature", "geometry": {"type": "Point", "coordinates": [-73.10580305699995, 44.63984431100005]}, "properties": {"id": "milton-2402", "species_group": "crabapple", "scientific_name": "Malus species", "common_name": "Crabapple", "subtype_name": null, "zip_code": "05468", "ownership": "public", "ownership_raw": "Town of Milton", "city": "Milton", "source_dataset": "Municipal Tree Inventory", "source_department": "Town of Milton", "source_last_edit_at": ""}}, {"type": "Feature", "geometry": {"type": "Point", "coordinates": [-73.11352031299998, 44.62558805500004]}, "properties": {"id": "milton-24177", "species_group": "crabapple", "scientific_name": "Malus species", "common_name": "Crabapple", "subtype_name": null, "zip_code": "05468", "ownership": "public", "ownership_raw": "Town of Milton", "city": "Milton", "source_dataset": "Municipal Tree Inventory", "source_department": "Town of Milton", "source_last_edit_at": ""}}, {"type": "Feature", "geometry": {"type": "Point", "coordinates": [-73.11052428599999, 44.641529638000065]}, "properties": {"id": "milton-24309", "species_group": "crabapple", "scientific_name": "Malus species", "common_name": "Crabapple", "subtype_name": null, "zip_code": "05468", "ownership": "public", "ownership_raw": "Town of Milton", "city": "Milton", "source_dataset": "Municipal Tree Inventory", "source_department": "Town of Milton", "source_last_edit_at": ""}}, {"type": "Feature", "geometry": {"type": "Point", "coordinates": [-73.12170572199994, 44.631688335000035]}, "properties": {"id": "milton-24317", "species_group": "crabapple", "scientific_name": "Malus species", "common_name": "Crabapple", "subtype_name": null, "zip_code": "05468", "ownership": "public", "ownership_raw": "Town of Milton", "city": "Milton", "source_dataset": "Municipal Tree Inventory", "source_department": "Town of Milton", "source_last_edit_at": ""}}, {"type": "Feature", "geometry": {"type": "Point", "coordinates": [-73.11402071299995, 44.62421107600005]}, "properties": {"id": "milton-24322", "species_group": "cherry", "scientific_name": "Prunus species", "common_name": "Cherry Plum", "subtype_name": "Cherry Plum", "zip_code": "05468", "ownership": "public", "ownership_raw": "Town of Milton", "city": "Milton", "source_dataset": "Municipal Tree Inventory", "source_department": "Town of Milton", "source_last_edit_at": ""}}, {"type": "Feature", "geometry": {"type": "Point", "coordinates": [-73.12177472799993, 44.63181991600004]}, "properties": {"id": "milton-24617", "species_group": "crabapple", "scientific_name": "Malus species", "common_name": "Crabapple", "subtype_name": null, "zip_code": "05468", "ownership": "public", "ownership_raw": "Town of Milton", "city": "Milton", "source_dataset": "Municipal Tree Inventory", "source_department": "Town of Milton", "source_last_edit_at": ""}}, {"type": "Feature", "geometry": {"type": "Point", "coordinates": [-73.11038610599996, 44.63265374400004]}, "properties": {"id": "milton-24666", "species_group": "crabapple", "scientific_name": "Malus species", "common_name": "Crabapple", "subtype_name": null, "zip_code": "05468", "ownership": "public", "ownership_raw": "Town of Milton", "city": "Milton", "source_dataset": "Municipal Tree Inventory", "source_department": "Town of Milton", "source_last_edit_at": ""}}, {"type": "Feature", "geometry": {"type": "Point", "coordinates": [-73.10583611899995, 44.63945013000006]}, "properties": {"id": "milton-24971", "species_group": "crabapple", "scientific_name": "Malus species", "common_name": "Crabapple", "subtype_name": null, "zip_code": "05468", "ownership": "public", "ownership_raw": "Town of Milton", "city": "Milton", "source_dataset": "Municipal Tree Inventory", "source_department": "Town of Milton", "source_last_edit_at": ""}}, {"type": "Feature", "geometry": {"type": "Point", "coordinates": [-73.10957811299994, 44.63290082200007]}, "properties": {"id": "milton-26382", "species_group": "crabapple", "scientific_name": "Malus species", "common_name": "Crabapple", "subtype_name": null, "zip_code": "05468", "ownership": "public", "ownership_raw": "Town of Milton", "city": "Milton", "source_dataset": "Municipal Tree Inventory", "source_department": "Town of Milton", "source_last_edit_at": ""}}, {"type": "Feature", "geometry": {"type": "Point", "coordinates": [-73.11624830899996, 44.61220368000005]}, "properties": {"id": "milton-26991", "species_group": "cherry", "scientific_name": "Prunus species", "common_name": "Cherry Plum", "subtype_name": "Cherry Plum", "zip_code": "05468", "ownership": "public", "ownership_raw": "Town of Milton", "city": "Milton", "source_dataset": "Municipal Tree Inventory", "source_department": "Town of Milton", "source_last_edit_at": ""}}, {"type": "Feature", "geometry": {"type": "Point", "coordinates": [-73.10582049799996, 44.637804405000054]}, "properties": {"id": "milton-27079", "species_group": "crabapple", "scientific_name": "Malus species", "common_name": "Crabapple", "subtype_name": null, "zip_code": "05468", "ownership": "public", "ownership_raw": "Town of Milton", "city": "Milton", "source_dataset": "Municipal Tree Inventory", "source_department": "Town of Milton", "source_last_edit_at": ""}}, {"type": "Feature", "geometry": {"type": "Point", "coordinates": [-73.11054814399995, 44.63257930300006]}, "properties": {"id": "milton-27184", "species_group": "crabapple", "scientific_name": "Malus species", "common_name": "Crabapple", "subtype_name": null, "zip_code": "05468", "ownership": "public", "ownership_raw": "Town of Milton", "city": "Milton", "source_dataset": "Municipal Tree Inventory", "source_department": "Town of Milton", "source_last_edit_at": ""}}, {"type": "Feature", "geometry": {"type": "Point", "coordinates": [-73.11496719899998, 44.624863504000075]}, "properties": {"id": "milton-27381", "species_group": "crabapple", "scientific_name": "Malus species", "common_name": "Crabapple", "subtype_name": null, "zip_code": "05468", "ownership": "public", "ownership_raw": "Town of Milton", "city": "Milton", "source_dataset": "Municipal Tree Inventory", "source_department": "Town of Milton", "source_last_edit_at": ""}}, {"type": "Feature", "geometry": {"type": "Point", "coordinates": [-73.11027221899997, 44.632787577000045]}, "properties": {"id": "milton-27940", "species_group": "crabapple", "scientific_name": "Malus species", "common_name": "Crabapple", "subtype_name": null, "zip_code": "05468", "ownership": "public", "ownership_raw": "Town of Milton", "city": "Milton", "source_dataset": "Municipal Tree Inventory", "source_department": "Town of Milton", "source_last_edit_at": ""}}, {"type": "Feature", "geometry": {"type": "Point", "coordinates": [-73.11411584699994, 44.61280774800008]}, "properties": {"id": "milton-28576", "species_group": "crabapple", "scientific_name": "Malus species", "common_name": "Crabapple", "subtype_name": null, "zip_code": "05468", "ownership": "public", "ownership_raw": "Town of Milton", "city": "Milton", "source_dataset": "Municipal Tree Inventory", "source_department": "Town of Milton", "source_last_edit_at": ""}}, {"type": "Feature", "geometry": {"type": "Point", "coordinates": [-73.11034448599997, 44.63256173800005]}, "properties": {"id": "milton-29930", "species_group": "crabapple", "scientific_name": "Malus species", "common_name": "Crabapple", "subtype_name": null, "zip_code": "05468", "ownership": "public", "ownership_raw": "Town of Milton", "city": "Milton", "source_dataset": "Municipal Tree Inventory", "source_department": "Town of Milton", "source_last_edit_at": ""}}, {"type": "Feature", "geometry": {"type": "Point", "coordinates": [-73.11372656099996, 44.637624749000054]}, "properties": {"id": "milton-30303", "species_group": "crabapple", "scientific_name": "Malus species", "common_name": "Crabapple", "subtype_name": null, "zip_code": "05468", "ownership": "public", "ownership_raw": "Town of Milton", "city": "Milton", "source_dataset": "Municipal Tree Inventory", "source_department": "Town of Milton", "source_last_edit_at": ""}}, {"type": "Feature", "geometry": {"type": "Point", "coordinates": [-73.11172189199993, 44.63973155300005]}, "properties": {"id": "milton-304", "species_group": "crabapple", "scientific_name": "Malus species", "common_name": "Crabapple", "subtype_name": null, "zip_code": "05468", "ownership": "public", "ownership_raw": "Town of Milton", "city": "Milton", "source_dataset": "Municipal Tree Inventory", "source_department": "Town of Milton", "source_last_edit_at": ""}}, {"type": "Feature", "geometry": {"type": "Point", "coordinates": [-73.11418793199994, 44.62366994000007]}, "properties": {"id": "milton-30843", "species_group": "crabapple", "scientific_name": "Malus species", "common_name": "Crabapple", "subtype_name": null, "zip_code": "05468", "ownership": "public", "ownership_raw": "Town of Milton", "city": "Milton", "source_dataset": "Municipal Tree Inventory", "source_department": "Town of Milton", "source_last_edit_at": ""}}, {"type": "Feature", "geometry": {"type": "Point", "coordinates": [-73.12375806199998, 44.61867105600004]}, "properties": {"id": "milton-31061", "species_group": "crabapple", "scientific_name": "Malus species", "common_name": "Crabapple", "subtype_name": null, "zip_code": "05468", "ownership": "public", "ownership_raw": "Town of Milton", "city": "Milton", "source_dataset": "Municipal Tree Inventory", "source_department": "Town of Milton", "source_last_edit_at": ""}}, {"type": "Feature", "geometry": {"type": "Point", "coordinates": [-73.11081714899996, 44.63961550500005]}, "properties": {"id": "milton-31435", "species_group": "crabapple", "scientific_name": "Malus species", "common_name": "Crabapple", "subtype_name": null, "zip_code": "05468", "ownership": "public", "ownership_raw": "Town of Milton", "city": "Milton", "source_dataset": "Municipal Tree Inventory", "source_department": "Town of Milton", "source_last_edit_at": ""}}, {"type": "Feature", "geometry": {"type": "Point", "coordinates": [-73.11065101999998, 44.62567811800005]}, "properties": {"id": "milton-31549", "species_group": "crabapple", "scientific_name": "Malus species", "common_name": "Crabapple", "subtype_name": null, "zip_code": "05468", "ownership": "public", "ownership_raw": "Town of Milton", "city": "Milton", "source_dataset": "Municipal Tree Inventory", "source_department": "Town of Milton", "source_last_edit_at": ""}}, {"type": "Feature", "geometry": {"type": "Point", "coordinates": [-73.11794899099993, 44.61323747300003]}, "properties": {"id": "milton-3264", "species_group": "cherry", "scientific_name": "Prunus species", "common_name": "Cherry Plum", "subtype_name": "Cherry Plum", "zip_code": "05468", "ownership": "public", "ownership_raw": "Town of Milton", "city": "Milton", "source_dataset": "Municipal Tree Inventory", "source_department": "Town of Milton", "source_last_edit_at": ""}}, {"type": "Feature", "geometry": {"type": "Point", "coordinates": [-73.11063065199994, 44.63249608400008]}, "properties": {"id": "milton-3503", "species_group": "crabapple", "scientific_name": "Malus species", "common_name": "Crabapple", "subtype_name": null, "zip_code": "05468", "ownership": "public", "ownership_raw": "Town of Milton", "city": "Milton", "source_dataset": "Municipal Tree Inventory", "source_department": "Town of Milton", "source_last_edit_at": ""}}, {"type": "Feature", "geometry": {"type": "Point", "coordinates": [-73.11192917599993, 44.62562740800007]}, "properties": {"id": "milton-4459", "species_group": "crabapple", "scientific_name": "Malus species", "common_name": "Crabapple", "subtype_name": null, "zip_code": "05468", "ownership": "public", "ownership_raw": "Town of Milton", "city": "Milton", "source_dataset": "Municipal Tree Inventory", "source_department": "Town of Milton", "source_last_edit_at": ""}}, {"type": "Feature", "geometry": {"type": "Point", "coordinates": [-73.11037072899995, 44.632580406000045]}, "properties": {"id": "milton-4712", "species_group": "crabapple", "scientific_name": "Malus species", "common_name": "Crabapple", "subtype_name": null, "zip_code": "05468", "ownership": "public", "ownership_raw": "Town of Milton", "city": "Milton", "source_dataset": "Municipal Tree Inventory", "source_department": "Town of Milton", "source_last_edit_at": ""}}, {"type": "Feature", "geometry": {"type": "Point", "coordinates": [-73.11600605099994, 44.62717739000004]}, "properties": {"id": "milton-543", "species_group": "crabapple", "scientific_name": "Malus species", "common_name": "Crabapple", "subtype_name": null, "zip_code": "05468", "ownership": "public", "ownership_raw": "Town of Milton", "city": "Milton", "source_dataset": "Municipal Tree Inventory", "source_department": "Town of Milton", "source_last_edit_at": ""}}, {"type": "Feature", "geometry": {"type": "Point", "coordinates": [-73.11660066299999, 44.62746392500003]}, "properties": {"id": "milton-553", "species_group": "crabapple", "scientific_name": "Malus species", "common_name": "Crabapple", "subtype_name": null, "zip_code": "05468", "ownership": "public", "ownership_raw": "Town of Milton", "city": "Milton", "source_dataset": "Municipal Tree Inventory", "source_department": "Town of Milton", "source_last_edit_at": ""}}, {"type": "Feature", "geometry": {"type": "Point", "coordinates": [-73.11034709199998, 44.632598217000066]}, "properties": {"id": "milton-6540", "species_group": "crabapple", "scientific_name": "Malus species", "common_name": "Crabapple", "subtype_name": null, "zip_code": "05468", "ownership": "public", "ownership_raw": "Town of Milton", "city": "Milton", "source_dataset": "Municipal Tree Inventory", "source_department": "Town of Milton", "source_last_edit_at": ""}}, {"type": "Feature", "geometry": {"type": "Point", "coordinates": [-73.11039822099997, 44.62557606800004]}, "properties": {"id": "milton-6545", "species_group": "crabapple", "scientific_name": "Malus species", "common_name": "Crabapple", "subtype_name": null, "zip_code": "05468", "ownership": "public", "ownership_raw": "Town of Milton", "city": "Milton", "source_dataset": "Municipal Tree Inventory", "source_department": "Town of Milton", "source_last_edit_at": ""}}, {"type": "Feature", "geometry": {"type": "Point", "coordinates": [-73.12403121899996, 44.619311141000026]}, "properties": {"id": "milton-7147", "species_group": "crabapple", "scientific_name": "Malus species", "common_name": "Crabapple", "subtype_name": null, "zip_code": "05468", "ownership": "public", "ownership_raw": "Town of Milton", "city": "Milton", "source_dataset": "Municipal Tree Inventory", "source_department": "Town of Milton", "source_last_edit_at": ""}}, {"type": "Feature", "geometry": {"type": "Point", "coordinates": [-73.12442818699998, 44.61934362100004]}, "properties": {"id": "milton-7381", "species_group": "cherry", "scientific_name": "Prunus species", "common_name": "Black Cherry", "subtype_name": "Black Cherry", "zip_code": "05468", "ownership": "public", "ownership_raw": "Town of Milton", "city": "Milton", "source_dataset": "Municipal Tree Inventory", "source_department": "Town of Milton", "source_last_edit_at": ""}}, {"type": "Feature", "geometry": {"type": "Point", "coordinates": [-73.10653768499998, 44.63457320400005]}, "properties": {"id": "milton-7543", "species_group": "plum", "scientific_name": "Prunus species", "common_name": "Plum", "subtype_name": null, "zip_code": "05468", "ownership": "public", "ownership_raw": "Town of Milton", "city": "Milton", "source_dataset": "Municipal Tree Inventory", "source_department": "Town of Milton", "source_last_edit_at": ""}}, {"type": "Feature", "geometry": {"type": "Point", "coordinates": [-73.11021615699997, 44.632792651000045]}, "properties": {"id": "milton-7572", "species_group": "crabapple", "scientific_name": "Malus species", "common_name": "Crabapple", "subtype_name": null, "zip_code": "05468", "ownership": "public", "ownership_raw": "Town of Milton", "city": "Milton", "source_dataset": "Municipal Tree Inventory", "source_department": "Town of Milton", "source_last_edit_at": ""}}, {"type": "Feature", "geometry": {"type": "Point", "coordinates": [-73.11429957899998, 44.623508756000035]}, "properties": {"id": "milton-7742", "species_group": "crabapple", "scientific_name": "Malus species", "common_name": "Crabapple", "subtype_name": null, "zip_code": "05468", "ownership": "public", "ownership_raw": "Town of Milton", "city": "Milton", "source_dataset": "Municipal Tree Inventory", "source_department": "Town of Milton", "source_last_edit_at": ""}}, {"type": "Feature", "geometry": {"type": "Point", "coordinates": [-73.11021973699997, 44.63283809300003]}, "properties": {"id": "milton-7808", "species_group": "crabapple", "scientific_name": "Malus species", "common_name": "Crabapple", "subtype_name": null, "zip_code": "05468", "ownership": "public", "ownership_raw": "Town of Milton", "city": "Milton", "source_dataset": "Municipal Tree Inventory", "source_department": "Town of Milton", "source_last_edit_at": ""}}, {"type": "Feature", "geometry": {"type": "Point", "coordinates": [-73.10582280799997, 44.63997027000005]}, "properties": {"id": "milton-7982", "species_group": "crabapple", "scientific_name": "Malus species", "common_name": "Crabapple", "subtype_name": null, "zip_code": "05468", "ownership": "public", "ownership_raw": "Town of Milton", "city": "Milton", "source_dataset": "Municipal Tree Inventory", "source_department": "Town of Milton", "source_last_edit_at": ""}}, {"type": "Feature", "geometry": {"type": "Point", "coordinates": [-73.11059624799998, 44.63251778600005]}, "properties": {"id": "milton-8773", "species_group": "crabapple", "scientific_name": "Malus species", "common_name": "Crabapple", "subtype_name": null, "zip_code": "05468", "ownership": "public", "ownership_raw": "Town of Milton", "city": "Milton", "source_dataset": "Municipal Tree Inventory", "source_department": "Town of Milton", "source_last_edit_at": ""}}, {"type": "Feature", "geometry": {"type": "Point", "coordinates": [-73.11607776899996, 44.63043704700004]}, "properties": {"id": "milton-9419", "species_group": "crabapple", "scientific_name": "Malus species", "common_name": "Crabapple", "subtype_name": null, "zip_code": "05468", "ownership": "public", "ownership_raw": "Town of Milton", "city": "Milton", "source_dataset": "Municipal Tree Inventory", "source_department": "Town of Milton", "source_last_edit_at": ""}}]}