{"type": "FeatureCollection", "features": [{"type": "Feature", "geometry": {"type": "Point", "coordinates": [-94.17839452358507, 36.07301826761488]}, "properties": {"id": "fayetteville-1087", "species_group": "cherry", "scientific_name": "Prunus x yedoensis", "common_name": "Yoshino cherry", "subtype_name": "Yoshino", "zip_code": "72701", "ownership": "public", "ownership_raw": "University of Arkansas", "city": "Fayetteville AR", "source_dataset": "Arboretum 2014", "source_department": "University of Arkansas", "source_last_edit_at": "2025-10-13T19:19:10.289000+00:00"}}, {"type": "Feature", "geometry": {"type": "Point", "coordinates": [-94.17834032901652, 36.07302089803581]}, "properties": {"id": "fayetteville-1088", "species_group": "cherry", "scientific_name": "Prunus x yedoensis", "common_name": "Yoshino cherry", "subtype_name": "Yoshino", "zip_code": "72701", "ownership": "public", "ownership_raw": "University of Arkansas", "city": "Fayetteville AR", "source_dataset": "Arboretum 2014", "source_department": "University of Arkansas", "source_last_edit_at": "2025-10-13T19:19:10.289000+00:00"}}, {"type": "Feature", "geometry": {"type": "Point", "coordinates": [-94.1782943457435, 36.07301830386437]}, "properties": {"id": "fayetteville-1089", "species_group": "cherry", "scientific_name": "Prunus x yedoensis", "common_name": "Yoshino cherry", "subtype_name": "Yoshino", "zip_code": "72701", "ownership": "public", "ownership_raw": "University of Arkansas", "city": "Fayetteville AR", "source_dataset": "Arboretum 2014", "source_department": "University of Arkansas", "source_last_edit_at": "2025-10-13T19:19:10.289000+00:00"}}, {"type": "Feature", "geometry": {"type": "Point", "coordinates": [-94.17809048363472, 36.07304385238906]}, "properties": {"id": "fayetteville-1090", "species_group": "cherry", "scientific_name": "Prunus x yedoensis", "common_name": "Yoshino cherry", "subtype_name": "Yoshino", "zip_code": "72701", "ownership": "public", "ownership_raw": "University of Arkansas", "city": "Fayetteville AR", "source_dataset": "Arboretum 2014", "source_department": "University of Arkansas", "source_last_edit_at": "2025-10-13T19:19:10.289000+00:00"}}, {"type": "Feature", "geometry": {"type": "Point", "coordinates": [-94.17805092104105, 36.073057116821175]}, "properties": {"id": "fayetteville-1091", "species_group": "cherry", "scientific_name": "Prunus x yedoensis", "common_name": "Yoshino cherry", "subtype_name": "Yoshino", "zip_code": "72701", "ownership": "public", "ownership_raw": "University of Arkansas", "city": "Fayetteville AR", "source_dataset": "Arboretum 2014", "source_department": "University of Arkansas", "source_last_edit_at": "2025-10-13T19:19:10.289000+00:00"}}, {"type": "Feature", "geometry": {"type": "Point", "coordinates": [-94.17800389444672, 36.07305454037692]}, "properties": {"id": "fayetteville-1092", "species_group": "cherry", "scientific_name": "Prunus x yedoensis", "common_name": "Yoshino cherry", "subtype_name": "Yoshino", "zip_code": "72701", "ownership": "public", "ownership_raw": "University of Arkansas", "city": "Fayetteville AR", "source_dataset": "Arboretum 2014", "source_department": "University of Arkansas", "source_last_edit_at": "2025-10-13T19:19:10.289000+00:00"}}, {"type": "Feature", "geometry": {"type": "Point", "coordinates": [-94.17752292607803, 36.072884037159746]}, "properties": {"id": "fayetteville-1102", "species_group": "cherry", "scientific_name": "Prunus x yedoensis", "common_name": "Yoshino cherry", "subtype_name": "Yoshino", "zip_code": "72701", "ownership": "public", "ownership_raw": "University of Arkansas", "city": "Fayetteville AR", "source_dataset": "Arboretum 2014", "source_department": "University of Arkansas", "source_last_edit_at": "2025-10-13T19:19:10.289000+00:00"}}, {"type": "Feature", "geometry": {"type": "Point", "coordinates": [-94.17748887134259, 36.072859201111726]}, "properties": {"id": "fayetteville-1103", "species_group": "cherry", "scientific_name": "Prunus x yedoensis", "common_name": "Yoshino cherry", "subtype_name": "Yoshino", "zip_code": "72701", "ownership": "public", "ownership_raw": "University of Arkansas", "city": "Fayetteville AR", "source_dataset": "Arboretum 2014", "source_department": "University of Arkansas", "source_last_edit_at": "2025-10-13T19:19:10.289000+00:00"}}, {"type": "Feature", "geometry": {"type": "Point", "coordinates": [-94.17752183851627, 36.07284253055206]}, "properties": {"id": "fayetteville-1104", "species_group": "cherry", "scientific_name": "Prunus x yedoensis", "common_name": "Yoshino cherry", "subtype_name": "Yoshino", "zip_code": "72701", "ownership": "public", "ownership_raw": "University of Arkansas", "city": "Fayetteville AR", "source_dataset": "Arboretum 2014", "source_department": "University of Arkansas", "source_last_edit_at": "2025-10-13T19:19:10.289000+00:00"}}, {"type": "Feature", "geometry": {"type": "Point", "coordinates": [-94.17673540064978, 36.07265857820737]}, "properties": {"id": "fayetteville-1164", "species_group": "magnolia", "scientific_name": "Magnolia virginiana", "common_name": "Sweetbay Magnolia", "subtype_name": "Sweetbay Magnolia", "zip_code": "72701", "ownership": "public", "ownership_raw": "University of Arkansas", "city": "Fayetteville AR", "source_dataset": "Arboretum 2014", "source_department": "University of Arkansas", "source_last_edit_at": "2025-10-13T19:19:10.289000+00:00"}}, {"type": "Feature", "geometry": {"type": "Point", "coordinates": [-94.17673380162276, 36.072677250173506]}, "properties": {"id": "fayetteville-1165", "species_group": "magnolia", "scientific_name": "Magnolia virginiana", "common_name": "Sweetbay Magnolia", "subtype_name": "Sweetbay Magnolia", "zip_code": "72701", "ownership": "public", "ownership_raw": "University of Arkansas", "city": "Fayetteville AR", "source_dataset": "Arboretum 2014", "source_department": "University of Arkansas", "source_last_edit_at": "2025-10-13T19:19:10.289000+00:00"}}, {"type": "Feature", "geometry": {"type": "Point", "coordinates": [-94.1766229547258, 36.072669842026094]}, "properties": {"id": "fayetteville-1166", "species_group": "magnolia", "scientific_name": "Magnolia virginiana", "common_name": "Sweetbay Magnolia", "subtype_name": "Sweetbay Magnolia", "zip_code": "72701", "ownership": "public", "ownership_raw": "University of Arkansas", "city": "Fayetteville AR", "source_dataset": "Arboretum 2014", "source_department": "University of Arkansas", "source_last_edit_at": "2025-10-13T19:19:10.289000+00:00"}}, {"type": "Feature", "geometry": {"type": "Point", "coordinates": [-94.17622897658242, 36.07255743237774]}, "properties": {"id": "fayetteville-1169", "species_group": "cherry", "scientific_name": "Prunus x yedoensis", "common_name": "Yoshino cherry", "subtype_name": "Yoshino", "zip_code": "72701", "ownership": "public", "ownership_raw": "University of Arkansas", "city": "Fayetteville AR", "source_dataset": "Arboretum 2014", "source_department": "University of Arkansas", "source_last_edit_at": "2025-10-13T19:19:10.289000+00:00"}}, {"type": "Feature", "geometry": {"type": "Point", "coordinates": [-94.17620563380953, 36.072543498108004]}, "properties": {"id": "fayetteville-1170", "species_group": "cherry", "scientific_name": "Prunus x yedoensis", "common_name": "Yoshino cherry", "subtype_name": "Yoshino", "zip_code": "72701", "ownership": "public", "ownership_raw": "University of Arkansas", "city": "Fayetteville AR", "source_dataset": "Arboretum 2014", "source_department": "University of Arkansas", "source_last_edit_at": "2025-10-13T19:19:10.289000+00:00"}}, {"type": "Feature", "geometry": {"type": "Point", "coordinates": [-94.17616633861176, 36.07255773522059]}, "properties": {"id": "fayetteville-1171", "species_group": "cherry", "scientific_name": "Prunus x yedoensis", "common_name": "Yoshino cherry", "subtype_name": "Yoshino", "zip_code": "72701", "ownership": "public", "ownership_raw": "University of Arkansas", "city": "Fayetteville AR", "source_dataset": "Arboretum 2014", "source_department": "University of Arkansas", "source_last_edit_at": "2025-10-13T19:19:10.289000+00:00"}}, {"type": "Feature", "geometry": {"type": "Point", "coordinates": [-94.16898737366532, 36.068274934652216]}, "properties": {"id": "fayetteville-119", "species_group": "magnolia", "scientific_name": "Magnolia grandiflora", "common_name": "Southern Magnolia", "subtype_name": "Southern Magnolia", "zip_code": "72701", "ownership": "public", "ownership_raw": "University of Arkansas", "city": "Fayetteville AR", "source_dataset": "Arboretum 2014", "source_department": "University of Arkansas", "source_last_edit_at": "2025-10-13T19:19:10.289000+00:00"}}, {"type": "Feature", "geometry": {"type": "Point", "coordinates": [-94.17837065912525, 36.073611714624704]}, "properties": {"id": "fayetteville-1273", "species_group": "cherry", "scientific_name": "Prunus x yedoensis", "common_name": "Yoshino cherry", "subtype_name": "Yoshino", "zip_code": "72701", "ownership": "public", "ownership_raw": "University of Arkansas", "city": "Fayetteville AR", "source_dataset": "Arboretum 2014", "source_department": "University of Arkansas", "source_last_edit_at": "2025-10-13T19:19:10.289000+00:00"}}, {"type": "Feature", "geometry": {"type": "Point", "coordinates": [-94.1784500893185, 36.07361880664133]}, "properties": {"id": "fayetteville-1274", "species_group": "cherry", "scientific_name": "Prunus x yedoensis", "common_name": "Yoshino cherry", "subtype_name": "Yoshino", "zip_code": "72701", "ownership": "public", "ownership_raw": "University of Arkansas", "city": "Fayetteville AR", "source_dataset": "Arboretum 2014", "source_department": "University of Arkansas", "source_last_edit_at": "2025-10-13T19:19:10.289000+00:00"}}, {"type": "Feature", "geometry": {"type": "Point", "coordinates": [-94.1785765609439, 36.073623791458154]}, "properties": {"id": "fayetteville-1275", "species_group": "cherry", "scientific_name": "Prunus x yedoensis", "common_name": "Yoshino cherry", "subtype_name": "Yoshino", "zip_code": "72701", "ownership": "public", "ownership_raw": "University of Arkansas", "city": "Fayetteville AR", "source_dataset": "Arboretum 2014", "source_department": "University of Arkansas", "source_last_edit_at": "2025-10-13T19:19:10.289000+00:00"}}, {"type": "Feature", "geometry": {"type": "Point", "coordinates": [-94.17857110555335, 36.07357479099412]}, "properties": {"id": "fayetteville-1276", "species_group": "cherry", "scientific_name": "Prunus x yedoensis", "common_name": "Yoshino cherry", "subtype_name": "Yoshino", "zip_code": "72701", "ownership": "public", "ownership_raw": "University of Arkansas", "city": "Fayetteville AR", "source_dataset": "Arboretum 2014", "source_department": "University of Arkansas", "source_last_edit_at": "2025-10-13T19:19:10.289000+00:00"}}, {"type": "Feature", "geometry": {"type": "Point", "coordinates": [-94.17856591579837, 36.0735359426005]}, "properties": {"id": "fayetteville-1277", "species_group": "cherry", "scientific_name": "Prunus x yedoensis", "common_name": "Yoshino cherry", "subtype_name": "Yoshino", "zip_code": "72701", "ownership": "public", "ownership_raw": "University of Arkansas", "city": "Fayetteville AR", "source_dataset": "Arboretum 2014", "source_department": "University of Arkansas", "source_last_edit_at": "2025-10-13T19:19:10.289000+00:00"}}, {"type": "Feature", "geometry": {"type": "Point", "coordinates": [-94.1784227529972, 36.07179769127383]}, "properties": {"id": "fayetteville-1352", "species_group": "cherry", "scientific_name": "Prunus x yedoensis", "common_name": "Yoshino cherry", "subtype_name": "Yoshino", "zip_code": "72701", "ownership": "public", "ownership_raw": "University of Arkansas", "city": "Fayetteville AR", "source_dataset": "Arboretum 2014", "source_department": "University of Arkansas", "source_last_edit_at": "2025-10-13T19:19:10.289000+00:00"}}, {"type": "Feature", "geometry": {"type": "Point", "coordinates": [-94.17847200038179, 36.07176721405822]}, "properties": {"id": "fayetteville-1353", "species_group": "cherry", "scientific_name": "Prunus x yedoensis", "common_name": "Yoshino cherry", "subtype_name": "Yoshino", "zip_code": "72701", "ownership": "public", "ownership_raw": "University of Arkansas", "city": "Fayetteville AR", "source_dataset": "Arboretum 2014", "source_department": "University of Arkansas", "source_last_edit_at": "2025-10-13T19:19:10.289000+00:00"}}, {"type": "Feature", "geometry": {"type": "Point", "coordinates": [-94.17644704673927, 36.0706752191065]}, "properties": {"id": "fayetteville-1371", "species_group": "crabapple", "scientific_name": "Malus spp.", "common_name": "Flowering Crabapple", "subtype_name": "Flowering Crabapple", "zip_code": "72701", "ownership": "public", "ownership_raw": "University of Arkansas", "city": "Fayetteville AR", "source_dataset": "Arboretum 2014", "source_department": "University of Arkansas", "source_last_edit_at": "2025-10-13T19:19:10.289000+00:00"}}, {"type": "Feature", "geometry": {"type": "Point", "coordinates": [-94.1764232104132, 36.07060114143621]}, "properties": {"id": "fayetteville-1372", "species_group": "crabapple", "scientific_name": "Malus spp.", "common_name": "Flowering Crabapple", "subtype_name": "Flowering Crabapple", "zip_code": "72701", "ownership": "public", "ownership_raw": "University of Arkansas", "city": "Fayetteville AR", "source_dataset": "Arboretum 2014", "source_department": "University of Arkansas", "source_last_edit_at": "2025-10-13T19:19:10.289000+00:00"}}, {"type": "Feature", "geometry": {"type": "Point", "coordinates": [-94.17712737521819, 36.071289176656585]}, "properties": {"id": "fayetteville-1416", "species_group": "cherry", "scientific_name": "Prunus x yedoensis", "common_name": "Yoshino cherry", "subtype_name": "Yoshino", "zip_code": "72701", "ownership": "public", "ownership_raw": "University of Arkansas", "city": "Fayetteville AR", "source_dataset": "Arboretum 2014", "source_department": "University of Arkansas", "source_last_edit_at": "2025-10-13T19:19:10.289000+00:00"}}, {"type": "Feature", "geometry": {"type": "Point", "coordinates": [-94.17708211100869, 36.07126467696682]}, "properties": {"id": "fayetteville-1417", "species_group": "cherry", "scientific_name": "Prunus x yedoensis", "common_name": "Yoshino cherry", "subtype_name": "Yoshino", "zip_code": "72701", "ownership": "public", "ownership_raw": "University of Arkansas", "city": "Fayetteville AR", "source_dataset": "Arboretum 2014", "source_department": "University of Arkansas", "source_last_edit_at": "2025-10-13T19:19:10.289000+00:00"}}, {"type": "Feature", "geometry": {"type": "Point", "coordinates": [-94.17632462800552, 36.07190176910278]}, "properties": {"id": "fayetteville-1457", "species_group": "cherry", "scientific_name": "Prunus x yedoensis", "common_name": "Yoshino cherry", "subtype_name": "Yoshino", "zip_code": "72701", "ownership": "public", "ownership_raw": "University of Arkansas", "city": "Fayetteville AR", "source_dataset": "Arboretum 2014", "source_department": "University of Arkansas", "source_last_edit_at": "2025-10-13T19:19:10.289000+00:00"}}, {"type": "Feature", "geometry": {"type": "Point", "coordinates": [-94.17627779613622, 36.07186533296295]}, "properties": {"id": "fayetteville-1458", "species_group": "cherry", "scientific_name": "Prunus x yedoensis", "common_name": "Yoshino cherry", "subtype_name": "Yoshino", "zip_code": "72701", "ownership": "public", "ownership_raw": "University of Arkansas", "city": "Fayetteville AR", "source_dataset": "Arboretum 2014", "source_department": "University of Arkansas", "source_last_edit_at": "2025-10-13T19:19:10.289000+00:00"}}, {"type": "Feature", "geometry": {"type": "Point", "coordinates": [-94.17622874837522, 36.07182385589651]}, "properties": {"id": "fayetteville-1459", "species_group": "cherry", "scientific_name": "Prunus x yedoensis", "common_name": "Yoshino cherry", "subtype_name": "Yoshino", "zip_code": "72701", "ownership": "public", "ownership_raw": "University of Arkansas", "city": "Fayetteville AR", "source_dataset": "Arboretum 2014", "source_department": "University of Arkansas", "source_last_edit_at": "2025-10-13T19:19:10.289000+00:00"}}, {"type": "Feature", "geometry": {"type": "Point", "coordinates": [-94.1760258344128, 36.07192773600299]}, "properties": {"id": "fayetteville-1460", "species_group": "cherry", "scientific_name": "Prunus x yedoensis", "common_name": "Yoshino cherry", "subtype_name": "Yoshino", "zip_code": "72701", "ownership": "public", "ownership_raw": "University of Arkansas", "city": "Fayetteville AR", "source_dataset": "Arboretum 2014", "source_department": "University of Arkansas", "source_last_edit_at": "2025-10-13T19:19:10.289000+00:00"}}, {"type": "Feature", "geometry": {"type": "Point", "coordinates": [-94.17599599188507, 36.07174521034436]}, "properties": {"id": "fayetteville-1473", "species_group": "cherry", "scientific_name": "Prunus x yedoensis", "common_name": "Yoshino cherry", "subtype_name": "Yoshino", "zip_code": "72701", "ownership": "public", "ownership_raw": "University of Arkansas", "city": "Fayetteville AR", "source_dataset": "Arboretum 2014", "source_department": "University of Arkansas", "source_last_edit_at": "2025-10-13T19:19:10.289000+00:00"}}, {"type": "Feature", "geometry": {"type": "Point", "coordinates": [-94.17599089066508, 36.07050376254594]}, "properties": {"id": "fayetteville-1487", "species_group": "cherry", "scientific_name": "Prunus x yedoensis", "common_name": "Yoshino cherry", "subtype_name": "Yoshino", "zip_code": "72701", "ownership": "public", "ownership_raw": "University of Arkansas", "city": "Fayetteville AR", "source_dataset": "Arboretum 2014", "source_department": "University of Arkansas", "source_last_edit_at": "2025-10-13T19:19:10.289000+00:00"}}, {"type": "Feature", "geometry": {"type": "Point", "coordinates": [-94.1760575232658, 36.07050007338092]}, "properties": {"id": "fayetteville-1488", "species_group": "cherry", "scientific_name": "Prunus x yedoensis", "common_name": "Yoshino cherry", "subtype_name": "Yoshino", "zip_code": "72701", "ownership": "public", "ownership_raw": "University of Arkansas", "city": "Fayetteville AR", "source_dataset": "Arboretum 2014", "source_department": "University of Arkansas", "source_last_edit_at": "2025-10-13T19:19:10.289000+00:00"}}, {"type": "Feature", "geometry": {"type": "Point", "coordinates": [-94.1745338743445, 36.071150873725315]}, "properties": {"id": "fayetteville-1498", "species_group": "magnolia", "scientific_name": "Magnolia x soulangiana", "common_name": "Saucer Magnolia", "subtype_name": "Saucer Magnolia", "zip_code": "72701", "ownership": "public", "ownership_raw": "University of Arkansas", "city": "Fayetteville AR", "source_dataset": "Arboretum 2014", "source_department": "University of Arkansas", "source_last_edit_at": "2025-10-13T19:19:10.289000+00:00"}}, {"type": "Feature", "geometry": {"type": "Point", "coordinates": [-94.17488937422553, 36.07140450154699]}, "properties": {"id": "fayetteville-1629", "species_group": "magnolia", "scientific_name": "Magnolia grandiflora", "common_name": "Southern Magnolia", "subtype_name": "Southern Magnolia", "zip_code": "72701", "ownership": "public", "ownership_raw": "University of Arkansas", "city": "Fayetteville AR", "source_dataset": "Arboretum 2014", "source_department": "University of Arkansas", "source_last_edit_at": "2025-10-13T19:19:10.289000+00:00"}}, {"type": "Feature", "geometry": {"type": "Point", "coordinates": [-94.17462881089835, 36.06962657219748]}, "properties": {"id": "fayetteville-1635", "species_group": "plum", "scientific_name": "Prunus spp.", "common_name": "Spp. Cherry/Plum", "subtype_name": "Cherry Plum", "zip_code": "72701", "ownership": "public", "ownership_raw": "University of Arkansas", "city": "Fayetteville AR", "source_dataset": "Arboretum 2014", "source_department": "University of Arkansas", "source_last_edit_at": "2025-10-13T19:19:10.289000+00:00"}}, {"type": "Feature", "geometry": {"type": "Point", "coordinates": [-94.1746396774169, 36.06960352960111]}, "properties": {"id": "fayetteville-1636", "species_group": "plum", "scientific_name": "Prunus spp.", "common_name": "Spp. Cherry/Plum", "subtype_name": "Cherry Plum", "zip_code": "72701", "ownership": "public", "ownership_raw": "University of Arkansas", "city": "Fayetteville AR", "source_dataset": "Arboretum 2014", "source_department": "University of Arkansas", "source_last_edit_at": "2025-10-13T19:19:10.289000+00:00"}}, {"type": "Feature", "geometry": {"type": "Point", "coordinates": [-94.17913106107707, 36.05965352129731]}, "properties": {"id": "fayetteville-1660", "species_group": "crabapple", "scientific_name": "Malus spp.", "common_name": "Flowering Crabapple", "subtype_name": "Flowering Crabapple", "zip_code": "72701", "ownership": "public", "ownership_raw": "University of Arkansas", "city": "Fayetteville AR", "source_dataset": "Arboretum 2014", "source_department": "University of Arkansas", "source_last_edit_at": "2025-10-13T19:19:10.289000+00:00"}}, {"type": "Feature", "geometry": {"type": "Point", "coordinates": [-94.17933885499335, 36.05968813691054]}, "properties": {"id": "fayetteville-1669", "species_group": "crabapple", "scientific_name": "Malus spp.", "common_name": "Flowering Crabapple", "subtype_name": "Flowering Crabapple", "zip_code": "72701", "ownership": "public", "ownership_raw": "University of Arkansas", "city": "Fayetteville AR", "source_dataset": "Arboretum 2014", "source_department": "University of Arkansas", "source_last_edit_at": "2025-10-13T19:19:10.289000+00:00"}}, {"type": "Feature", "geometry": {"type": "Point", "coordinates": [-94.17937038350223, 36.05973753340095]}, "properties": {"id": "fayetteville-1670", "species_group": "crabapple", "scientific_name": "Malus spp.", "common_name": "Flowering Crabapple", "subtype_name": "Flowering Crabapple", "zip_code": "72701", "ownership": "public", "ownership_raw": "University of Arkansas", "city": "Fayetteville AR", "source_dataset": "Arboretum 2014", "source_department": "University of Arkansas", "source_last_edit_at": "2025-10-13T19:19:10.289000+00:00"}}, {"type": "Feature", "geometry": {"type": "Point", "coordinates": [-94.17946013241252, 36.05978084502572]}, "properties": {"id": "fayetteville-1671", "species_group": "crabapple", "scientific_name": "Malus spp.", "common_name": "Flowering Crabapple", "subtype_name": "Flowering Crabapple", "zip_code": "72701", "ownership": "public", "ownership_raw": "University of Arkansas", "city": "Fayetteville AR", "source_dataset": "Arboretum 2014", "source_department": "University of Arkansas", "source_last_edit_at": "2025-10-13T19:19:10.289000+00:00"}}, {"type": "Feature", "geometry": {"type": "Point", "coordinates": [-94.17951861960451, 36.05978491313528]}, "properties": {"id": "fayetteville-1672", "species_group": "crabapple", "scientific_name": "Malus spp.", "common_name": "Flowering Crabapple", "subtype_name": "Flowering Crabapple", "zip_code": "72701", "ownership": "public", "ownership_raw": "University of Arkansas", "city": "Fayetteville AR", "source_dataset": "Arboretum 2014", "source_department": "University of Arkansas", "source_last_edit_at": "2025-10-13T19:19:10.289000+00:00"}}, {"type": "Feature", "geometry": {"type": "Point", "coordinates": [-94.17957042942193, 36.05965366043041]}, "properties": {"id": "fayetteville-1676", "species_group": "crabapple", "scientific_name": "Malus spp.", "common_name": "Flowering Crabapple", "subtype_name": "Flowering Crabapple", "zip_code": "72701", "ownership": "public", "ownership_raw": "University of Arkansas", "city": "Fayetteville AR", "source_dataset": "Arboretum 2014", "source_department": "University of Arkansas", "source_last_edit_at": "2025-10-13T19:19:10.289000+00:00"}}, {"type": "Feature", "geometry": {"type": "Point", "coordinates": [-94.17113338090617, 36.06810070270675]}, "properties": {"id": "fayetteville-168", "species_group": "cherry", "scientific_name": "Prunus x yedoensis", "common_name": "Yoshino cherry", "subtype_name": "Yoshino", "zip_code": "72701", "ownership": "public", "ownership_raw": "University of Arkansas", "city": "Fayetteville AR", "source_dataset": "Arboretum 2014", "source_department": "University of Arkansas", "source_last_edit_at": "2025-10-13T19:19:10.289000+00:00"}}, {"type": "Feature", "geometry": {"type": "Point", "coordinates": [-94.1712656026979, 36.06810438587017]}, "properties": {"id": "fayetteville-169", "species_group": "plum", "scientific_name": "Prunus spp.", "common_name": "Spp. Cherry/Plum", "subtype_name": "Cherry Plum", "zip_code": "72701", "ownership": "public", "ownership_raw": "University of Arkansas", "city": "Fayetteville AR", "source_dataset": "Arboretum 2014", "source_department": "University of Arkansas", "source_last_edit_at": "2025-10-13T19:19:10.289000+00:00"}}, {"type": "Feature", "geometry": {"type": "Point", "coordinates": [-94.17979896781311, 36.059742447739126]}, "properties": {"id": "fayetteville-1698", "species_group": "plum", "scientific_name": "Prunus spp.", "common_name": "Spp. Cherry/Plum", "subtype_name": "Cherry Plum", "zip_code": "72701", "ownership": "public", "ownership_raw": "University of Arkansas", "city": "Fayetteville AR", "source_dataset": "Arboretum 2014", "source_department": "University of Arkansas", "source_last_edit_at": "2025-10-13T19:19:10.289000+00:00"}}, {"type": "Feature", "geometry": {"type": "Point", "coordinates": [-94.17132409036601, 36.06809543269777]}, "properties": {"id": "fayetteville-170", "species_group": "plum", "scientific_name": "Prunus spp.", "common_name": "Spp. Cherry/Plum", "subtype_name": "Cherry Plum", "zip_code": "72701", "ownership": "public", "ownership_raw": "University of Arkansas", "city": "Fayetteville AR", "source_dataset": "Arboretum 2014", "source_department": "University of Arkansas", "source_last_edit_at": "2025-10-13T19:19:10.289000+00:00"}}, {"type": "Feature", "geometry": {"type": "Point", "coordinates": [-94.17980961803053, 36.05958288133955]}, "properties": {"id": "fayetteville-1702", "species_group": "plum", "scientific_name": "Prunus spp.", "common_name": "Spp. Cherry/Plum", "subtype_name": "Cherry Plum", "zip_code": "72701", "ownership": "public", "ownership_raw": "University of Arkansas", "city": "Fayetteville AR", "source_dataset": "Arboretum 2014", "source_department": "University of Arkansas", "source_last_edit_at": "2025-10-13T19:19:10.289000+00:00"}}, {"type": "Feature", "geometry": {"type": "Point", "coordinates": [-94.1796952468948, 36.05952664107891]}, "properties": {"id": "fayetteville-1707", "species_group": "crabapple", "scientific_name": "Malus spp.", "common_name": "Flowering Crabapple", "subtype_name": "Flowering Crabapple", "zip_code": "72701", "ownership": "public", "ownership_raw": "University of Arkansas", "city": "Fayetteville AR", "source_dataset": "Arboretum 2014", "source_department": "University of Arkansas", "source_last_edit_at": "2025-10-13T19:19:10.289000+00:00"}}, {"type": "Feature", "geometry": {"type": "Point", "coordinates": [-94.1797029000818, 36.05947038502682]}, "properties": {"id": "fayetteville-1709", "species_group": "crabapple", "scientific_name": "Malus spp.", "common_name": "Flowering Crabapple", "subtype_name": "Flowering Crabapple", "zip_code": "72701", "ownership": "public", "ownership_raw": "University of Arkansas", "city": "Fayetteville AR", "source_dataset": "Arboretum 2014", "source_department": "University of Arkansas", "source_last_edit_at": "2025-10-13T19:19:10.289000+00:00"}}, {"type": "Feature", "geometry": {"type": "Point", "coordinates": [-94.17146833225746, 36.068090962070904]}, "properties": {"id": "fayetteville-171", "species_group": "plum", "scientific_name": "Prunus spp.", "common_name": "Spp. Cherry/Plum", "subtype_name": "Cherry Plum", "zip_code": "72701", "ownership": "public", "ownership_raw": "University of Arkansas", "city": "Fayetteville AR", "source_dataset": "Arboretum 2014", "source_department": "University of Arkansas", "source_last_edit_at": "2025-10-13T19:19:10.289000+00:00"}}, {"type": "Feature", "geometry": {"type": "Point", "coordinates": [-94.17983232666796, 36.05947238254205]}, "properties": {"id": "fayetteville-1712", "species_group": "crabapple", "scientific_name": "Malus spp.", "common_name": "Flowering Crabapple", "subtype_name": "Flowering Crabapple", "zip_code": "72701", "ownership": "public", "ownership_raw": "University of Arkansas", "city": "Fayetteville AR", "source_dataset": "Arboretum 2014", "source_department": "University of Arkansas", "source_last_edit_at": "2025-10-13T19:19:10.289000+00:00"}}, {"type": "Feature", "geometry": {"type": "Point", "coordinates": [-94.1798568126188, 36.05949102017821]}, "properties": {"id": "fayetteville-1713", "species_group": "plum", "scientific_name": "Prunus spp.", "common_name": "Spp. Cherry/Plum", "subtype_name": "Cherry Plum", "zip_code": "72701", "ownership": "public", "ownership_raw": "University of Arkansas", "city": "Fayetteville AR", "source_dataset": "Arboretum 2014", "source_department": "University of Arkansas", "source_last_edit_at": "2025-10-13T19:19:10.289000+00:00"}}, {"type": "Feature", "geometry": {"type": "Point", "coordinates": [-94.17987668311295, 36.05953261114933]}, "properties": {"id": "fayetteville-1715", "species_group": "crabapple", "scientific_name": "Malus spp.", "common_name": "Flowering Crabapple", "subtype_name": "Flowering Crabapple", "zip_code": "72701", "ownership": "public", "ownership_raw": "University of Arkansas", "city": "Fayetteville AR", "source_dataset": "Arboretum 2014", "source_department": "University of Arkansas", "source_last_edit_at": "2025-10-13T19:19:10.289000+00:00"}}, {"type": "Feature", "geometry": {"type": "Point", "coordinates": [-94.17158837651091, 36.06809683987358]}, "properties": {"id": "fayetteville-172", "species_group": "plum", "scientific_name": "Prunus spp.", "common_name": "Spp. Cherry/Plum", "subtype_name": "Cherry Plum", "zip_code": "72701", "ownership": "public", "ownership_raw": "University of Arkansas", "city": "Fayetteville AR", "source_dataset": "Arboretum 2014", "source_department": "University of Arkansas", "source_last_edit_at": "2025-10-13T19:19:10.289000+00:00"}}, {"type": "Feature", "geometry": {"type": "Point", "coordinates": [-94.17957604871368, 36.059472765506975]}, "properties": {"id": "fayetteville-1721", "species_group": "crabapple", "scientific_name": "Malus spp.", "common_name": "Flowering Crabapple", "subtype_name": "Flowering Crabapple", "zip_code": "72701", "ownership": "public", "ownership_raw": "University of Arkansas", "city": "Fayetteville AR", "source_dataset": "Arboretum 2014", "source_department": "University of Arkansas", "source_last_edit_at": "2025-10-13T19:19:10.289000+00:00"}}, {"type": "Feature", "geometry": {"type": "Point", "coordinates": [-94.1789402472794, 36.05955447123931]}, "properties": {"id": "fayetteville-1751", "species_group": "plum", "scientific_name": "Prunus spp.", "common_name": "Spp. Cherry/Plum", "subtype_name": "Cherry Plum", "zip_code": "72701", "ownership": "public", "ownership_raw": "University of Arkansas", "city": "Fayetteville AR", "source_dataset": "Arboretum 2014", "source_department": "University of Arkansas", "source_last_edit_at": "2025-10-13T19:19:10.289000+00:00"}}, {"type": "Feature", "geometry": {"type": "Point", "coordinates": [-94.17898442507924, 36.05960792520015]}, "properties": {"id": "fayetteville-1753", "species_group": "plum", "scientific_name": "Prunus spp.", "common_name": "Spp. Cherry/Plum", "subtype_name": "Cherry Plum", "zip_code": "72701", "ownership": "public", "ownership_raw": "University of Arkansas", "city": "Fayetteville AR", "source_dataset": "Arboretum 2014", "source_department": "University of Arkansas", "source_last_edit_at": "2025-10-13T19:19:10.289000+00:00"}}, {"type": "Feature", "geometry": {"type": "Point", "coordinates": [-94.1789800543606, 36.05964019262133]}, "properties": {"id": "fayetteville-1754", "species_group": "plum", "scientific_name": "Prunus spp.", "common_name": "Spp. Cherry/Plum", "subtype_name": "Cherry Plum", "zip_code": "72701", "ownership": "public", "ownership_raw": "University of Arkansas", "city": "Fayetteville AR", "source_dataset": "Arboretum 2014", "source_department": "University of Arkansas", "source_last_edit_at": "2025-10-13T19:19:10.289000+00:00"}}, {"type": "Feature", "geometry": {"type": "Point", "coordinates": [-94.17897878995575, 36.05967155953712]}, "properties": {"id": "fayetteville-1756", "species_group": "plum", "scientific_name": "Prunus spp.", "common_name": "Spp. Cherry/Plum", "subtype_name": "Cherry Plum", "zip_code": "72701", "ownership": "public", "ownership_raw": "University of Arkansas", "city": "Fayetteville AR", "source_dataset": "Arboretum 2014", "source_department": "University of Arkansas", "source_last_edit_at": "2025-10-13T19:19:10.289000+00:00"}}, {"type": "Feature", "geometry": {"type": "Point", "coordinates": [-94.17891521899385, 36.05963453635812]}, "properties": {"id": "fayetteville-1757", "species_group": "plum", "scientific_name": "Prunus spp.", "common_name": "Spp. Cherry/Plum", "subtype_name": "Cherry Plum", "zip_code": "72701", "ownership": "public", "ownership_raw": "University of Arkansas", "city": "Fayetteville AR", "source_dataset": "Arboretum 2014", "source_department": "University of Arkansas", "source_last_edit_at": "2025-10-13T19:19:10.289000+00:00"}}, {"type": "Feature", "geometry": {"type": "Point", "coordinates": [-94.17879559444634, 36.05955253995091]}, "properties": {"id": "fayetteville-1772", "species_group": "magnolia", "scientific_name": "Magnolia tripetala", "common_name": "Umbrella Magnolia", "subtype_name": "Umbrella Magnolia", "zip_code": "72701", "ownership": "public", "ownership_raw": "University of Arkansas", "city": "Fayetteville AR", "source_dataset": "Arboretum 2014", "source_department": "University of Arkansas", "source_last_edit_at": "2025-10-13T19:19:10.289000+00:00"}}, {"type": "Feature", "geometry": {"type": "Point", "coordinates": [-94.1787767780756, 36.059511354463915]}, "properties": {"id": "fayetteville-1774", "species_group": "magnolia", "scientific_name": "Magnolia tripetala", "common_name": "Umbrella Magnolia", "subtype_name": "Umbrella Magnolia", "zip_code": "72701", "ownership": "public", "ownership_raw": "University of Arkansas", "city": "Fayetteville AR", "source_dataset": "Arboretum 2014", "source_department": "University of Arkansas", "source_last_edit_at": "2025-10-13T19:19:10.289000+00:00"}}, {"type": "Feature", "geometry": {"type": "Point", "coordinates": [-94.17885224539219, 36.0594674578169]}, "properties": {"id": "fayetteville-1776", "species_group": "plum", "scientific_name": "Prunus spp.", "common_name": "Spp. Cherry/Plum", "subtype_name": "Cherry Plum", "zip_code": "72701", "ownership": "public", "ownership_raw": "University of Arkansas", "city": "Fayetteville AR", "source_dataset": "Arboretum 2014", "source_department": "University of Arkansas", "source_last_edit_at": "2025-10-13T19:19:10.289000+00:00"}}, {"type": "Feature", "geometry": {"type": "Point", "coordinates": [-94.17887077334727, 36.059457818958265]}, "properties": {"id": "fayetteville-1778", "species_group": "plum", "scientific_name": "Prunus spp.", "common_name": "Spp. Cherry/Plum", "subtype_name": "Cherry Plum", "zip_code": "72701", "ownership": "public", "ownership_raw": "University of Arkansas", "city": "Fayetteville AR", "source_dataset": "Arboretum 2014", "source_department": "University of Arkansas", "source_last_edit_at": "2025-10-13T19:19:10.289000+00:00"}}, {"type": "Feature", "geometry": {"type": "Point", "coordinates": [-94.17889910798776, 36.059464105960686]}, "properties": {"id": "fayetteville-1780", "species_group": "plum", "scientific_name": "Prunus spp.", "common_name": "Spp. Cherry/Plum", "subtype_name": "Cherry Plum", "zip_code": "72701", "ownership": "public", "ownership_raw": "University of Arkansas", "city": "Fayetteville AR", "source_dataset": "Arboretum 2014", "source_department": "University of Arkansas", "source_last_edit_at": "2025-10-13T19:19:10.289000+00:00"}}, {"type": "Feature", "geometry": {"type": "Point", "coordinates": [-94.17881072788946, 36.05915726985375]}, "properties": {"id": "fayetteville-1785", "species_group": "plum", "scientific_name": "Prunus spp.", "common_name": "Spp. Cherry/Plum", "subtype_name": "Cherry Plum", "zip_code": "72701", "ownership": "public", "ownership_raw": "University of Arkansas", "city": "Fayetteville AR", "source_dataset": "Arboretum 2014", "source_department": "University of Arkansas", "source_last_edit_at": "2025-10-13T19:19:10.289000+00:00"}}, {"type": "Feature", "geometry": {"type": "Point", "coordinates": [-94.17882641365038, 36.05911887642476]}, "properties": {"id": "fayetteville-1786", "species_group": "plum", "scientific_name": "Prunus spp.", "common_name": "Spp. Cherry/Plum", "subtype_name": "Cherry Plum", "zip_code": "72701", "ownership": "public", "ownership_raw": "University of Arkansas", "city": "Fayetteville AR", "source_dataset": "Arboretum 2014", "source_department": "University of Arkansas", "source_last_edit_at": "2025-10-13T19:19:10.289000+00:00"}}, {"type": "Feature", "geometry": {"type": "Point", "coordinates": [-94.1788765163945, 36.05911970506973]}, "properties": {"id": "fayetteville-1787", "species_group": "plum", "scientific_name": "Prunus spp.", "common_name": "Spp. Cherry/Plum", "subtype_name": "Cherry Plum", "zip_code": "72701", "ownership": "public", "ownership_raw": "University of Arkansas", "city": "Fayetteville AR", "source_dataset": "Arboretum 2014", "source_department": "University of Arkansas", "source_last_edit_at": "2025-10-13T19:19:10.289000+00:00"}}, {"type": "Feature", "geometry": {"type": "Point", "coordinates": [-94.17890669876229, 36.05888313282641]}, "properties": {"id": "fayetteville-1788", "species_group": "plum", "scientific_name": "Prunus spp.", "common_name": "Spp. Cherry/Plum", "subtype_name": "Cherry Plum", "zip_code": "72701", "ownership": "public", "ownership_raw": "University of Arkansas", "city": "Fayetteville AR", "source_dataset": "Arboretum 2014", "source_department": "University of Arkansas", "source_last_edit_at": "2025-10-13T19:19:10.289000+00:00"}}, {"type": "Feature", "geometry": {"type": "Point", "coordinates": [-94.17882606562999, 36.05887181882333]}, "properties": {"id": "fayetteville-1790", "species_group": "crabapple", "scientific_name": "Malus spp.", "common_name": "Flowering Crabapple", "subtype_name": "Flowering Crabapple", "zip_code": "72701", "ownership": "public", "ownership_raw": "University of Arkansas", "city": "Fayetteville AR", "source_dataset": "Arboretum 2014", "source_department": "University of Arkansas", "source_last_edit_at": "2025-10-13T19:19:10.289000+00:00"}}, {"type": "Feature", "geometry": {"type": "Point", "coordinates": [-94.17888233288866, 36.058771009241255]}, "properties": {"id": "fayetteville-1792", "species_group": "plum", "scientific_name": "Prunus spp.", "common_name": "Spp. Cherry/Plum", "subtype_name": "Cherry Plum", "zip_code": "72701", "ownership": "public", "ownership_raw": "University of Arkansas", "city": "Fayetteville AR", "source_dataset": "Arboretum 2014", "source_department": "University of Arkansas", "source_last_edit_at": "2025-10-13T19:19:10.289000+00:00"}}, {"type": "Feature", "geometry": {"type": "Point", "coordinates": [-94.17891075804769, 36.05858393956136]}, "properties": {"id": "fayetteville-1794", "species_group": "plum", "scientific_name": "Prunus spp.", "common_name": "Spp. Cherry/Plum", "subtype_name": "Cherry Plum", "zip_code": "72701", "ownership": "public", "ownership_raw": "University of Arkansas", "city": "Fayetteville AR", "source_dataset": "Arboretum 2014", "source_department": "University of Arkansas", "source_last_edit_at": "2025-10-13T19:19:10.289000+00:00"}}, {"type": "Feature", "geometry": {"type": "Point", "coordinates": [-94.17890907111078, 36.05855940114332]}, "properties": {"id": "fayetteville-1795", "species_group": "plum", "scientific_name": "Prunus spp.", "common_name": "Spp. Cherry/Plum", "subtype_name": "Cherry Plum", "zip_code": "72701", "ownership": "public", "ownership_raw": "University of Arkansas", "city": "Fayetteville AR", "source_dataset": "Arboretum 2014", "source_department": "University of Arkansas", "source_last_edit_at": "2025-10-13T19:19:10.289000+00:00"}}, {"type": "Feature", "geometry": {"type": "Point", "coordinates": [-94.1788899226448, 36.058545330716846]}, "properties": {"id": "fayetteville-1796", "species_group": "plum", "scientific_name": "Prunus spp.", "common_name": "Spp. Cherry/Plum", "subtype_name": "Cherry Plum", "zip_code": "72701", "ownership": "public", "ownership_raw": "University of Arkansas", "city": "Fayetteville AR", "source_dataset": "Arboretum 2014", "source_department": "University of Arkansas", "source_last_edit_at": "2025-10-13T19:19:10.289000+00:00"}}, {"type": "Feature", "geometry": {"type": "Point", "coordinates": [-94.17875725837023, 36.05853915167984]}, "properties": {"id": "fayetteville-1798", "species_group": "plum", "scientific_name": "Prunus spp.", "common_name": "Spp. Cherry/Plum", "subtype_name": "Cherry Plum", "zip_code": "72701", "ownership": "public", "ownership_raw": "University of Arkansas", "city": "Fayetteville AR", "source_dataset": "Arboretum 2014", "source_department": "University of Arkansas", "source_last_edit_at": "2025-10-13T19:19:10.289000+00:00"}}, {"type": "Feature", "geometry": {"type": "Point", "coordinates": [-94.16898538021697, 36.06748081398356]}, "properties": {"id": "fayetteville-184", "species_group": "magnolia", "scientific_name": "Magnolia grandiflora", "common_name": "Southern Magnolia", "subtype_name": "Southern Magnolia", "zip_code": "72701", "ownership": "public", "ownership_raw": "University of Arkansas", "city": "Fayetteville AR", "source_dataset": "Arboretum 2014", "source_department": "University of Arkansas", "source_last_edit_at": "2025-10-13T19:19:10.289000+00:00"}}, {"type": "Feature", "geometry": {"type": "Point", "coordinates": [-94.17873705748674, 36.059305088383]}, "properties": {"id": "fayetteville-1876", "species_group": "plum", "scientific_name": "Prunus spp.", "common_name": "Spp. Cherry/Plum", "subtype_name": "Cherry Plum", "zip_code": "72701", "ownership": "public", "ownership_raw": "University of Arkansas", "city": "Fayetteville AR", "source_dataset": "Arboretum 2014", "source_department": "University of Arkansas", "source_last_edit_at": "2025-10-13T19:19:10.289000+00:00"}}, {"type": "Feature", "geometry": {"type": "Point", "coordinates": [-94.17880825557998, 36.05933995980104]}, "properties": {"id": "fayetteville-1881", "species_group": "plum", "scientific_name": "Prunus spp.", "common_name": "Spp. Cherry/Plum", "subtype_name": "Cherry Plum", "zip_code": "72701", "ownership": "public", "ownership_raw": "University of Arkansas", "city": "Fayetteville AR", "source_dataset": "Arboretum 2014", "source_department": "University of Arkansas", "source_last_edit_at": "2025-10-13T19:19:10.289000+00:00"}}, {"type": "Feature", "geometry": {"type": "Point", "coordinates": [-94.17881859365265, 36.05937697057566]}, "properties": {"id": "fayetteville-1882", "species_group": "plum", "scientific_name": "Prunus spp.", "common_name": "Spp. Cherry/Plum", "subtype_name": "Cherry Plum", "zip_code": "72701", "ownership": "public", "ownership_raw": "University of Arkansas", "city": "Fayetteville AR", "source_dataset": "Arboretum 2014", "source_department": "University of Arkansas", "source_last_edit_at": "2025-10-13T19:19:10.289000+00:00"}}, {"type": "Feature", "geometry": {"type": "Point", "coordinates": [-94.17816551010837, 36.05859647662556]}, "properties": {"id": "fayetteville-1917", "species_group": "plum", "scientific_name": "Prunus spp.", "common_name": "Spp. Cherry/Plum", "subtype_name": "Cherry Plum", "zip_code": "72701", "ownership": "public", "ownership_raw": "University of Arkansas", "city": "Fayetteville AR", "source_dataset": "Arboretum 2014", "source_department": "University of Arkansas", "source_last_edit_at": "2025-10-13T19:19:10.289000+00:00"}}, {"type": "Feature", "geometry": {"type": "Point", "coordinates": [-94.17817202994144, 36.05852747888666]}, "properties": {"id": "fayetteville-1924", "species_group": "plum", "scientific_name": "Prunus spp.", "common_name": "Spp. Cherry/Plum", "subtype_name": "Cherry Plum", "zip_code": "72701", "ownership": "public", "ownership_raw": "University of Arkansas", "city": "Fayetteville AR", "source_dataset": "Arboretum 2014", "source_department": "University of Arkansas", "source_last_edit_at": "2025-10-13T19:19:10.289000+00:00"}}, {"type": "Feature", "geometry": {"type": "Point", "coordinates": [-94.17796881186067, 36.058568179182096]}, "properties": {"id": "fayetteville-1929", "species_group": "plum", "scientific_name": "Prunus spp.", "common_name": "Spp. Cherry/Plum", "subtype_name": "Cherry Plum", "zip_code": "72701", "ownership": "public", "ownership_raw": "University of Arkansas", "city": "Fayetteville AR", "source_dataset": "Arboretum 2014", "source_department": "University of Arkansas", "source_last_edit_at": "2025-10-13T19:19:10.289000+00:00"}}, {"type": "Feature", "geometry": {"type": "Point", "coordinates": [-94.17786469867217, 36.058567442316516]}, "properties": {"id": "fayetteville-1930", "species_group": "plum", "scientific_name": "Prunus spp.", "common_name": "Spp. Cherry/Plum", "subtype_name": "Cherry Plum", "zip_code": "72701", "ownership": "public", "ownership_raw": "University of Arkansas", "city": "Fayetteville AR", "source_dataset": "Arboretum 2014", "source_department": "University of Arkansas", "source_last_edit_at": "2025-10-13T19:19:10.289000+00:00"}}, {"type": "Feature", "geometry": {"type": "Point", "coordinates": [-94.17773590095646, 36.058578119655905]}, "properties": {"id": "fayetteville-1932", "species_group": "plum", "scientific_name": "Prunus spp.", "common_name": "Spp. Cherry/Plum", "subtype_name": "Cherry Plum", "zip_code": "72701", "ownership": "public", "ownership_raw": "University of Arkansas", "city": "Fayetteville AR", "source_dataset": "Arboretum 2014", "source_department": "University of Arkansas", "source_last_edit_at": "2025-10-13T19:19:10.289000+00:00"}}, {"type": "Feature", "geometry": {"type": "Point", "coordinates": [-94.17889037485276, 36.06018540284176]}, "properties": {"id": "fayetteville-2019", "species_group": "magnolia", "scientific_name": "Magnolia tripetala", "common_name": "Umbrella Magnolia", "subtype_name": "Umbrella Magnolia", "zip_code": "72701", "ownership": "public", "ownership_raw": "University of Arkansas", "city": "Fayetteville AR", "source_dataset": "Arboretum 2014", "source_department": "University of Arkansas", "source_last_edit_at": "2025-10-13T19:19:10.289000+00:00"}}, {"type": "Feature", "geometry": {"type": "Point", "coordinates": [-94.1790371521931, 36.06004452249198]}, "properties": {"id": "fayetteville-2059", "species_group": "plum", "scientific_name": "Prunus spp.", "common_name": "Spp. Cherry/Plum", "subtype_name": "Cherry Plum", "zip_code": "72701", "ownership": "public", "ownership_raw": "University of Arkansas", "city": "Fayetteville AR", "source_dataset": "Arboretum 2014", "source_department": "University of Arkansas", "source_last_edit_at": "2025-10-13T19:19:10.289000+00:00"}}, {"type": "Feature", "geometry": {"type": "Point", "coordinates": [-94.17905306439216, 36.060066483048736]}, "properties": {"id": "fayetteville-2061", "species_group": "plum", "scientific_name": "Prunus spp.", "common_name": "Spp. Cherry/Plum", "subtype_name": "Cherry Plum", "zip_code": "72701", "ownership": "public", "ownership_raw": "University of Arkansas", "city": "Fayetteville AR", "source_dataset": "Arboretum 2014", "source_department": "University of Arkansas", "source_last_edit_at": "2025-10-13T19:19:10.289000+00:00"}}, {"type": "Feature", "geometry": {"type": "Point", "coordinates": [-94.17907986492057, 36.06016000780724]}, "properties": {"id": "fayetteville-2062", "species_group": "plum", "scientific_name": "Prunus spp.", "common_name": "Spp. Cherry/Plum", "subtype_name": "Cherry Plum", "zip_code": "72701", "ownership": "public", "ownership_raw": "University of Arkansas", "city": "Fayetteville AR", "source_dataset": "Arboretum 2014", "source_department": "University of Arkansas", "source_last_edit_at": "2025-10-13T19:19:10.289000+00:00"}}, {"type": "Feature", "geometry": {"type": "Point", "coordinates": [-94.17917441054927, 36.06026315068615]}, "properties": {"id": "fayetteville-2082", "species_group": "plum", "scientific_name": "Prunus spp.", "common_name": "Spp. Cherry/Plum", "subtype_name": "Cherry Plum", "zip_code": "72701", "ownership": "public", "ownership_raw": "University of Arkansas", "city": "Fayetteville AR", "source_dataset": "Arboretum 2014", "source_department": "University of Arkansas", "source_last_edit_at": "2025-10-13T19:19:10.289000+00:00"}}, {"type": "Feature", "geometry": {"type": "Point", "coordinates": [-94.17919470020372, 36.06015962604569]}, "properties": {"id": "fayetteville-2085", "species_group": "cherry", "scientific_name": "Prunus serrulata", "common_name": "Japanese flowering cherry", "subtype_name": "Japanese Flowering Cherry", "zip_code": "72701", "ownership": "public", "ownership_raw": "University of Arkansas", "city": "Fayetteville AR", "source_dataset": "Arboretum 2014", "source_department": "University of Arkansas", "source_last_edit_at": "2025-10-13T19:19:10.289000+00:00"}}, {"type": "Feature", "geometry": {"type": "Point", "coordinates": [-94.17912264303011, 36.06004346650735]}, "properties": {"id": "fayetteville-2088", "species_group": "plum", "scientific_name": "Prunus spp.", "common_name": "Spp. Cherry/Plum", "subtype_name": "Cherry Plum", "zip_code": "72701", "ownership": "public", "ownership_raw": "University of Arkansas", "city": "Fayetteville AR", "source_dataset": "Arboretum 2014", "source_department": "University of Arkansas", "source_last_edit_at": "2025-10-13T19:19:10.289000+00:00"}}, {"type": "Feature", "geometry": {"type": "Point", "coordinates": [-94.17904045408022, 36.06000041541466]}, "properties": {"id": "fayetteville-2090", "species_group": "plum", "scientific_name": "Prunus spp.", "common_name": "Spp. Cherry/Plum", "subtype_name": "Cherry Plum", "zip_code": "72701", "ownership": "public", "ownership_raw": "University of Arkansas", "city": "Fayetteville AR", "source_dataset": "Arboretum 2014", "source_department": "University of Arkansas", "source_last_edit_at": "2025-10-13T19:19:10.289000+00:00"}}, {"type": "Feature", "geometry": {"type": "Point", "coordinates": [-94.17049841474464, 36.067674242242376]}, "properties": {"id": "fayetteville-215", "species_group": "crabapple", "scientific_name": "Malus spp.", "common_name": "Flowering Crabapple", "subtype_name": "Flowering Crabapple", "zip_code": "72701", "ownership": "public", "ownership_raw": "University of Arkansas", "city": "Fayetteville AR", "source_dataset": "Arboretum 2014", "source_department": "University of Arkansas", "source_last_edit_at": "2025-10-13T19:19:10.289000+00:00"}}, {"type": "Feature", "geometry": {"type": "Point", "coordinates": [-94.16839124320607, 36.04265053683579]}, "properties": {"id": "fayetteville-2489", "species_group": "crabapple", "scientific_name": "Malus spp.", "common_name": "Flowering Crabapple", "subtype_name": "Flowering Crabapple", "zip_code": "72701", "ownership": "public", "ownership_raw": "University of Arkansas", "city": "Fayetteville AR", "source_dataset": "Arboretum 2014", "source_department": "University of Arkansas", "source_last_edit_at": "2025-10-13T19:19:10.289000+00:00"}}, {"type": "Feature", "geometry": {"type": "Point", "coordinates": [-94.1669954908243, 36.04262978782356]}, "properties": {"id": "fayetteville-2514", "species_group": "crabapple", "scientific_name": "Malus spp.", "common_name": "Flowering Crabapple", "subtype_name": "Flowering Crabapple", "zip_code": "72701", "ownership": "public", "ownership_raw": "University of Arkansas", "city": "Fayetteville AR", "source_dataset": "Arboretum 2014", "source_department": "University of Arkansas", "source_last_edit_at": "2025-10-13T19:19:10.289000+00:00"}}, {"type": "Feature", "geometry": {"type": "Point", "coordinates": [-94.16702988729756, 36.04263314302046]}, "properties": {"id": "fayetteville-2515", "species_group": "crabapple", "scientific_name": "Malus spp.", "common_name": "Flowering Crabapple", "subtype_name": "Flowering Crabapple", "zip_code": "72701", "ownership": "public", "ownership_raw": "University of Arkansas", "city": "Fayetteville AR", "source_dataset": "Arboretum 2014", "source_department": "University of Arkansas", "source_last_edit_at": "2025-10-13T19:19:10.289000+00:00"}}, {"type": "Feature", "geometry": {"type": "Point", "coordinates": [-94.16838114572711, 36.04266887857392]}, "properties": {"id": "fayetteville-2524", "species_group": "crabapple", "scientific_name": "Malus spp.", "common_name": "Flowering Crabapple", "subtype_name": "Flowering Crabapple", "zip_code": "72701", "ownership": "public", "ownership_raw": "University of Arkansas", "city": "Fayetteville AR", "source_dataset": "Arboretum 2014", "source_department": "University of Arkansas", "source_last_edit_at": "2025-10-13T19:19:10.289000+00:00"}}, {"type": "Feature", "geometry": {"type": "Point", "coordinates": [-94.16788472590505, 36.04264876340103]}, "properties": {"id": "fayetteville-2525", "species_group": "crabapple", "scientific_name": "Malus spp.", "common_name": "Flowering Crabapple", "subtype_name": "Flowering Crabapple", "zip_code": "72701", "ownership": "public", "ownership_raw": "University of Arkansas", "city": "Fayetteville AR", "source_dataset": "Arboretum 2014", "source_department": "University of Arkansas", "source_last_edit_at": "2025-10-13T19:19:10.289000+00:00"}}, {"type": "Feature", "geometry": {"type": "Point", "coordinates": [-94.16783674350502, 36.042647431824065]}, "properties": {"id": "fayetteville-2526", "species_group": "crabapple", "scientific_name": "Malus spp.", "common_name": "Flowering Crabapple", "subtype_name": "Flowering Crabapple", "zip_code": "72701", "ownership": "public", "ownership_raw": "University of Arkansas", "city": "Fayetteville AR", "source_dataset": "Arboretum 2014", "source_department": "University of Arkansas", "source_last_edit_at": "2025-10-13T19:19:10.289000+00:00"}}, {"type": "Feature", "geometry": {"type": "Point", "coordinates": [-94.17786916424012, 36.07198296863305]}, "properties": {"id": "fayetteville-2549", "species_group": "cherry", "scientific_name": "Prunus x yedoensis", "common_name": "Yoshino cherry", "subtype_name": "Yoshino", "zip_code": "72701", "ownership": "public", "ownership_raw": "University of Arkansas", "city": "Fayetteville AR", "source_dataset": "Arboretum 2014", "source_department": "University of Arkansas", "source_last_edit_at": "2025-10-13T19:19:10.289000+00:00"}}, {"type": "Feature", "geometry": {"type": "Point", "coordinates": [-94.17878533404227, 36.07137223220056]}, "properties": {"id": "fayetteville-2644", "species_group": "cherry", "scientific_name": "Prunus x yedoensis", "common_name": "Yoshino cherry", "subtype_name": "Yoshino", "zip_code": "72701", "ownership": "public", "ownership_raw": "University of Arkansas", "city": "Fayetteville AR", "source_dataset": "Arboretum 2014", "source_department": "University of Arkansas", "source_last_edit_at": "2025-10-13T19:19:10.289000+00:00"}}, {"type": "Feature", "geometry": {"type": "Point", "coordinates": [-94.17843670389199, 36.071384631034384]}, "properties": {"id": "fayetteville-2653", "species_group": "plum", "scientific_name": "Prunus spp.", "common_name": "Spp. Cherry/Plum", "subtype_name": "Cherry Plum", "zip_code": "72701", "ownership": "public", "ownership_raw": "University of Arkansas", "city": "Fayetteville AR", "source_dataset": "Arboretum 2014", "source_department": "University of Arkansas", "source_last_edit_at": "2025-10-13T19:19:10.289000+00:00"}}, {"type": "Feature", "geometry": {"type": "Point", "coordinates": [-94.17810420559259, 36.07093547100385]}, "properties": {"id": "fayetteville-2665", "species_group": "cherry", "scientific_name": "Prunus x yedoensis", "common_name": "Yoshino cherry", "subtype_name": "Yoshino", "zip_code": "72701", "ownership": "public", "ownership_raw": "University of Arkansas", "city": "Fayetteville AR", "source_dataset": "Arboretum 2014", "source_department": "University of Arkansas", "source_last_edit_at": "2025-10-13T19:19:10.289000+00:00"}}, {"type": "Feature", "geometry": {"type": "Point", "coordinates": [-94.17694379427844, 36.0692927322859]}, "properties": {"id": "fayetteville-2812", "species_group": "magnolia", "scientific_name": "Magnolia x soulangiana", "common_name": "Saucer Magnolia", "subtype_name": "Saucer Magnolia", "zip_code": "72701", "ownership": "public", "ownership_raw": "University of Arkansas", "city": "Fayetteville AR", "source_dataset": "Arboretum 2014", "source_department": "University of Arkansas", "source_last_edit_at": "2025-10-13T19:19:10.289000+00:00"}}, {"type": "Feature", "geometry": {"type": "Point", "coordinates": [-94.17481645272518, 36.06524453092054]}, "properties": {"id": "fayetteville-2884", "species_group": "plum", "scientific_name": "Prunus spp.", "common_name": "Spp. Cherry/Plum", "subtype_name": "Cherry Plum", "zip_code": "72701", "ownership": "public", "ownership_raw": "University of Arkansas", "city": "Fayetteville AR", "source_dataset": "Arboretum 2014", "source_department": "University of Arkansas", "source_last_edit_at": "2025-10-13T19:19:10.289000+00:00"}}, {"type": "Feature", "geometry": {"type": "Point", "coordinates": [-94.17419271360063, 36.064367041340944]}, "properties": {"id": "fayetteville-2944", "species_group": "magnolia", "scientific_name": "Magnolia grandiflora", "common_name": "Southern Magnolia", "subtype_name": "Southern Magnolia", "zip_code": "72701", "ownership": "public", "ownership_raw": "University of Arkansas", "city": "Fayetteville AR", "source_dataset": "Arboretum 2014", "source_department": "University of Arkansas", "source_last_edit_at": "2025-10-13T19:19:10.289000+00:00"}}, {"type": "Feature", "geometry": {"type": "Point", "coordinates": [-94.17406833898076, 36.06493445251005]}, "properties": {"id": "fayetteville-2951", "species_group": "crabapple", "scientific_name": "Malus spp.", "common_name": "Flowering Crabapple", "subtype_name": "Flowering Crabapple", "zip_code": "72701", "ownership": "public", "ownership_raw": "University of Arkansas", "city": "Fayetteville AR", "source_dataset": "Arboretum 2014", "source_department": "University of Arkansas", "source_last_edit_at": "2025-10-13T19:19:10.289000+00:00"}}, {"type": "Feature", "geometry": {"type": "Point", "coordinates": [-94.17409103852181, 36.064988228352625]}, "properties": {"id": "fayetteville-2952", "species_group": "crabapple", "scientific_name": "Malus spp.", "common_name": "Flowering Crabapple", "subtype_name": "Flowering Crabapple", "zip_code": "72701", "ownership": "public", "ownership_raw": "University of Arkansas", "city": "Fayetteville AR", "source_dataset": "Arboretum 2014", "source_department": "University of Arkansas", "source_last_edit_at": "2025-10-13T19:19:10.289000+00:00"}}, {"type": "Feature", "geometry": {"type": "Point", "coordinates": [-94.16961239087047, 36.06966081468193]}, "properties": {"id": "fayetteville-301", "species_group": "crabapple", "scientific_name": "Malus spp.", "common_name": "Flowering Crabapple", "subtype_name": "Flowering Crabapple", "zip_code": "72701", "ownership": "public", "ownership_raw": "University of Arkansas", "city": "Fayetteville AR", "source_dataset": "Arboretum 2014", "source_department": "University of Arkansas", "source_last_edit_at": "2025-10-13T19:19:10.289000+00:00"}}, {"type": "Feature", "geometry": {"type": "Point", "coordinates": [-94.169613263974, 36.069596607355145]}, "properties": {"id": "fayetteville-302", "species_group": "crabapple", "scientific_name": "Malus pumila", "common_name": "Common Apple", "subtype_name": "Common Apple", "zip_code": "72701", "ownership": "public", "ownership_raw": "University of Arkansas", "city": "Fayetteville AR", "source_dataset": "Arboretum 2014", "source_department": "University of Arkansas", "source_last_edit_at": "2025-10-13T19:19:10.289000+00:00"}}, {"type": "Feature", "geometry": {"type": "Point", "coordinates": [-94.16959791887703, 36.069546139198394]}, "properties": {"id": "fayetteville-303", "species_group": "crabapple", "scientific_name": "Malus pumila", "common_name": "Common Apple", "subtype_name": "Common Apple", "zip_code": "72701", "ownership": "public", "ownership_raw": "University of Arkansas", "city": "Fayetteville AR", "source_dataset": "Arboretum 2014", "source_department": "University of Arkansas", "source_last_edit_at": "2025-10-13T19:19:10.289000+00:00"}}, {"type": "Feature", "geometry": {"type": "Point", "coordinates": [-94.1696069008875, 36.06949939334976]}, "properties": {"id": "fayetteville-304", "species_group": "crabapple", "scientific_name": "Malus spp.", "common_name": "Flowering Crabapple", "subtype_name": "Flowering Crabapple", "zip_code": "72701", "ownership": "public", "ownership_raw": "University of Arkansas", "city": "Fayetteville AR", "source_dataset": "Arboretum 2014", "source_department": "University of Arkansas", "source_last_edit_at": "2025-10-13T19:19:10.289000+00:00"}}, {"type": "Feature", "geometry": {"type": "Point", "coordinates": [-94.16961116198911, 36.06946722396039]}, "properties": {"id": "fayetteville-306", "species_group": "crabapple", "scientific_name": "Malus spp.", "common_name": "Flowering Crabapple", "subtype_name": "Flowering Crabapple", "zip_code": "72701", "ownership": "public", "ownership_raw": "University of Arkansas", "city": "Fayetteville AR", "source_dataset": "Arboretum 2014", "source_department": "University of Arkansas", "source_last_edit_at": "2025-10-13T19:19:10.289000+00:00"}}, {"type": "Feature", "geometry": {"type": "Point", "coordinates": [-94.16961100493396, 36.06941235263109]}, "properties": {"id": "fayetteville-307", "species_group": "crabapple", "scientific_name": "Malus spp.", "common_name": "Flowering Crabapple", "subtype_name": "Flowering Crabapple", "zip_code": "72701", "ownership": "public", "ownership_raw": "University of Arkansas", "city": "Fayetteville AR", "source_dataset": "Arboretum 2014", "source_department": "University of Arkansas", "source_last_edit_at": "2025-10-13T19:19:10.289000+00:00"}}, {"type": "Feature", "geometry": {"type": "Point", "coordinates": [-94.16911861430974, 36.066405176844135]}, "properties": {"id": "fayetteville-3123", "species_group": "crabapple", "scientific_name": "Malus spp.", "common_name": "Flowering Crabapple", "subtype_name": "Flowering Crabapple", "zip_code": "72701", "ownership": "public", "ownership_raw": "University of Arkansas", "city": "Fayetteville AR", "source_dataset": "Arboretum 2014", "source_department": "University of Arkansas", "source_last_edit_at": "2025-10-13T19:19:10.289000+00:00"}}, {"type": "Feature", "geometry": {"type": "Point", "coordinates": [-94.17093328536797, 36.06513506451172]}, "properties": {"id": "fayetteville-3260", "species_group": "magnolia", "scientific_name": "Magnolia grandiflora", "common_name": "Southern Magnolia", "subtype_name": "Southern Magnolia", "zip_code": "72701", "ownership": "public", "ownership_raw": "University of Arkansas", "city": "Fayetteville AR", "source_dataset": "Arboretum 2014", "source_department": "University of Arkansas", "source_last_edit_at": "2025-10-13T19:19:10.289000+00:00"}}, {"type": "Feature", "geometry": {"type": "Point", "coordinates": [-94.17049923616923, 36.06465400247808]}, "properties": {"id": "fayetteville-3269", "species_group": "magnolia", "scientific_name": "Magnolia grandiflora", "common_name": "Southern Magnolia", "subtype_name": "Southern Magnolia", "zip_code": "72701", "ownership": "public", "ownership_raw": "University of Arkansas", "city": "Fayetteville AR", "source_dataset": "Arboretum 2014", "source_department": "University of Arkansas", "source_last_edit_at": "2025-10-13T19:19:10.289000+00:00"}}, {"type": "Feature", "geometry": {"type": "Point", "coordinates": [-94.17045619553112, 36.06449086508279]}, "properties": {"id": "fayetteville-3270", "species_group": "magnolia", "scientific_name": "Magnolia grandiflora", "common_name": "Southern Magnolia", "subtype_name": "Southern Magnolia", "zip_code": "72701", "ownership": "public", "ownership_raw": "University of Arkansas", "city": "Fayetteville AR", "source_dataset": "Arboretum 2014", "source_department": "University of Arkansas", "source_last_edit_at": "2025-10-13T19:19:10.289000+00:00"}}, {"type": "Feature", "geometry": {"type": "Point", "coordinates": [-94.17043437913202, 36.06950927287831]}, "properties": {"id": "fayetteville-329", "species_group": "plum", "scientific_name": "Prunus spp.", "common_name": "Spp. Cherry/Plum", "subtype_name": "Cherry Plum", "zip_code": "72701", "ownership": "public", "ownership_raw": "University of Arkansas", "city": "Fayetteville AR", "source_dataset": "Arboretum 2014", "source_department": "University of Arkansas", "source_last_edit_at": "2025-10-13T19:19:10.289000+00:00"}}, {"type": "Feature", "geometry": {"type": "Point", "coordinates": [-94.1720574884205, 36.06388904571999]}, "properties": {"id": "fayetteville-3383", "species_group": "crabapple", "scientific_name": "Malus spp.", "common_name": "Flowering Crabapple", "subtype_name": "Flowering Crabapple", "zip_code": "72701", "ownership": "public", "ownership_raw": "University of Arkansas", "city": "Fayetteville AR", "source_dataset": "Arboretum 2014", "source_department": "University of Arkansas", "source_last_edit_at": "2025-10-13T19:19:10.289000+00:00"}}, {"type": "Feature", "geometry": {"type": "Point", "coordinates": [-94.1721309037672, 36.06391574734928]}, "properties": {"id": "fayetteville-3385", "species_group": "magnolia", "scientific_name": "Magnolia grandiflora", "common_name": "Southern Magnolia", "subtype_name": "Southern Magnolia", "zip_code": "72701", "ownership": "public", "ownership_raw": "University of Arkansas", "city": "Fayetteville AR", "source_dataset": "Arboretum 2014", "source_department": "University of Arkansas", "source_last_edit_at": "2025-10-13T19:19:10.289000+00:00"}}, {"type": "Feature", "geometry": {"type": "Point", "coordinates": [-94.17653472833885, 36.06444819823074]}, "properties": {"id": "fayetteville-3555", "species_group": "plum", "scientific_name": "Prunus spp.", "common_name": "Spp. Cherry/Plum", "subtype_name": "Cherry Plum", "zip_code": "72701", "ownership": "public", "ownership_raw": "University of Arkansas", "city": "Fayetteville AR", "source_dataset": "Arboretum 2014", "source_department": "University of Arkansas", "source_last_edit_at": "2025-10-13T19:19:10.289000+00:00"}}, {"type": "Feature", "geometry": {"type": "Point", "coordinates": [-94.1770737370783, 36.06536440843358]}, "properties": {"id": "fayetteville-3680", "species_group": "crabapple", "scientific_name": "Malus spp.", "common_name": "Flowering Crabapple", "subtype_name": "Flowering Crabapple", "zip_code": "72701", "ownership": "public", "ownership_raw": "University of Arkansas", "city": "Fayetteville AR", "source_dataset": "Arboretum 2014", "source_department": "University of Arkansas", "source_last_edit_at": "2025-10-13T19:19:10.289000+00:00"}}, {"type": "Feature", "geometry": {"type": "Point", "coordinates": [-94.17712127976583, 36.065391603164365]}, "properties": {"id": "fayetteville-3681", "species_group": "crabapple", "scientific_name": "Malus spp.", "common_name": "Flowering Crabapple", "subtype_name": "Flowering Crabapple", "zip_code": "72701", "ownership": "public", "ownership_raw": "University of Arkansas", "city": "Fayetteville AR", "source_dataset": "Arboretum 2014", "source_department": "University of Arkansas", "source_last_edit_at": "2025-10-13T19:19:10.289000+00:00"}}, {"type": "Feature", "geometry": {"type": "Point", "coordinates": [-94.17715205732016, 36.066180803367835]}, "properties": {"id": "fayetteville-3690", "species_group": "magnolia", "scientific_name": "Magnolia virginiana", "common_name": "Sweetbay Magnolia", "subtype_name": "Sweetbay Magnolia", "zip_code": "72701", "ownership": "public", "ownership_raw": "University of Arkansas", "city": "Fayetteville AR", "source_dataset": "Arboretum 2014", "source_department": "University of Arkansas", "source_last_edit_at": "2025-10-13T19:19:10.289000+00:00"}}, {"type": "Feature", "geometry": {"type": "Point", "coordinates": [-94.17711971991857, 36.066319511734825]}, "properties": {"id": "fayetteville-3698", "species_group": "magnolia", "scientific_name": "Magnolia virginiana", "common_name": "Sweetbay Magnolia", "subtype_name": "Sweetbay Magnolia", "zip_code": "72701", "ownership": "public", "ownership_raw": "University of Arkansas", "city": "Fayetteville AR", "source_dataset": "Arboretum 2014", "source_department": "University of Arkansas", "source_last_edit_at": "2025-10-13T19:19:10.289000+00:00"}}, {"type": "Feature", "geometry": {"type": "Point", "coordinates": [-94.17710687942292, 36.066335099725386]}, "properties": {"id": "fayetteville-3699", "species_group": "magnolia", "scientific_name": "Magnolia virginiana", "common_name": "Sweetbay Magnolia", "subtype_name": "Sweetbay Magnolia", "zip_code": "72701", "ownership": "public", "ownership_raw": "University of Arkansas", "city": "Fayetteville AR", "source_dataset": "Arboretum 2014", "source_department": "University of Arkansas", "source_last_edit_at": "2025-10-13T19:19:10.289000+00:00"}}, {"type": "Feature", "geometry": {"type": "Point", "coordinates": [-94.17711581410514, 36.06638719121477]}, "properties": {"id": "fayetteville-3706", "species_group": "magnolia", "scientific_name": "Magnolia virginiana", "common_name": "Sweetbay Magnolia", "subtype_name": "Sweetbay Magnolia", "zip_code": "72701", "ownership": "public", "ownership_raw": "University of Arkansas", "city": "Fayetteville AR", "source_dataset": "Arboretum 2014", "source_department": "University of Arkansas", "source_last_edit_at": "2025-10-13T19:19:10.289000+00:00"}}, {"type": "Feature", "geometry": {"type": "Point", "coordinates": [-94.17711500928638, 36.06642869492187]}, "properties": {"id": "fayetteville-3707", "species_group": "magnolia", "scientific_name": "Magnolia virginiana", "common_name": "Sweetbay Magnolia", "subtype_name": "Sweetbay Magnolia", "zip_code": "72701", "ownership": "public", "ownership_raw": "University of Arkansas", "city": "Fayetteville AR", "source_dataset": "Arboretum 2014", "source_department": "University of Arkansas", "source_last_edit_at": "2025-10-13T19:19:10.289000+00:00"}}, {"type": "Feature", "geometry": {"type": "Point", "coordinates": [-94.17708900547696, 36.0665198064207]}, "properties": {"id": "fayetteville-3708", "species_group": "magnolia", "scientific_name": "Magnolia virginiana", "common_name": "Sweetbay Magnolia", "subtype_name": "Sweetbay Magnolia", "zip_code": "72701", "ownership": "public", "ownership_raw": "University of Arkansas", "city": "Fayetteville AR", "source_dataset": "Arboretum 2014", "source_department": "University of Arkansas", "source_last_edit_at": "2025-10-13T19:19:10.289000+00:00"}}, {"type": "Feature", "geometry": {"type": "Point", "coordinates": [-94.17702693751176, 36.06653470788051]}, "properties": {"id": "fayetteville-3709", "species_group": "magnolia", "scientific_name": "Magnolia virginiana", "common_name": "Sweetbay Magnolia", "subtype_name": "Sweetbay Magnolia", "zip_code": "72701", "ownership": "public", "ownership_raw": "University of Arkansas", "city": "Fayetteville AR", "source_dataset": "Arboretum 2014", "source_department": "University of Arkansas", "source_last_edit_at": "2025-10-13T19:19:10.289000+00:00"}}, {"type": "Feature", "geometry": {"type": "Point", "coordinates": [-94.17694607168649, 36.066554544288486]}, "properties": {"id": "fayetteville-3710", "species_group": "magnolia", "scientific_name": "Magnolia x soulangiana", "common_name": "Saucer Magnolia", "subtype_name": "Saucer Magnolia", "zip_code": "72701", "ownership": "public", "ownership_raw": "University of Arkansas", "city": "Fayetteville AR", "source_dataset": "Arboretum 2014", "source_department": "University of Arkansas", "source_last_edit_at": "2025-10-13T19:19:10.289000+00:00"}}, {"type": "Feature", "geometry": {"type": "Point", "coordinates": [-94.17692365227276, 36.06656568780166]}, "properties": {"id": "fayetteville-3711", "species_group": "magnolia", "scientific_name": "Magnolia virginiana", "common_name": "Sweetbay Magnolia", "subtype_name": "Sweetbay Magnolia", "zip_code": "72701", "ownership": "public", "ownership_raw": "University of Arkansas", "city": "Fayetteville AR", "source_dataset": "Arboretum 2014", "source_department": "University of Arkansas", "source_last_edit_at": "2025-10-13T19:19:10.289000+00:00"}}, {"type": "Feature", "geometry": {"type": "Point", "coordinates": [-94.17684399411299, 36.06655937966346]}, "properties": {"id": "fayetteville-3712", "species_group": "magnolia", "scientific_name": "Magnolia virginiana", "common_name": "Sweetbay Magnolia", "subtype_name": "Sweetbay Magnolia", "zip_code": "72701", "ownership": "public", "ownership_raw": "University of Arkansas", "city": "Fayetteville AR", "source_dataset": "Arboretum 2014", "source_department": "University of Arkansas", "source_last_edit_at": "2025-10-13T19:19:10.289000+00:00"}}, {"type": "Feature", "geometry": {"type": "Point", "coordinates": [-94.17408052288357, 36.06312962615095]}, "properties": {"id": "fayetteville-4006", "species_group": "magnolia", "scientific_name": "Magnolia grandiflora", "common_name": "Southern Magnolia", "subtype_name": "Southern Magnolia", "zip_code": "72701", "ownership": "public", "ownership_raw": "University of Arkansas", "city": "Fayetteville AR", "source_dataset": "Arboretum 2014", "source_department": "University of Arkansas", "source_last_edit_at": "2025-10-13T19:19:10.289000+00:00"}}, {"type": "Feature", "geometry": {"type": "Point", "coordinates": [-94.17407084953132, 36.06311266444899]}, "properties": {"id": "fayetteville-4007", "species_group": "magnolia", "scientific_name": "Magnolia grandiflora", "common_name": "Southern Magnolia", "subtype_name": "Southern Magnolia", "zip_code": "72701", "ownership": "public", "ownership_raw": "University of Arkansas", "city": "Fayetteville AR", "source_dataset": "Arboretum 2014", "source_department": "University of Arkansas", "source_last_edit_at": "2025-10-13T19:19:10.289000+00:00"}}, {"type": "Feature", "geometry": {"type": "Point", "coordinates": [-94.17406010970453, 36.06310535498054]}, "properties": {"id": "fayetteville-4008", "species_group": "magnolia", "scientific_name": "Magnolia grandiflora", "common_name": "Southern Magnolia", "subtype_name": "Southern Magnolia", "zip_code": "72701", "ownership": "public", "ownership_raw": "University of Arkansas", "city": "Fayetteville AR", "source_dataset": "Arboretum 2014", "source_department": "University of Arkansas", "source_last_edit_at": "2025-10-13T19:19:10.289000+00:00"}}, {"type": "Feature", "geometry": {"type": "Point", "coordinates": [-94.17404883272522, 36.06317834910535]}, "properties": {"id": "fayetteville-4012", "species_group": "magnolia", "scientific_name": "Magnolia virginiana", "common_name": "Sweetbay Magnolia", "subtype_name": "Sweetbay Magnolia", "zip_code": "72701", "ownership": "public", "ownership_raw": "University of Arkansas", "city": "Fayetteville AR", "source_dataset": "Arboretum 2014", "source_department": "University of Arkansas", "source_last_edit_at": "2025-10-13T19:19:10.289000+00:00"}}, {"type": "Feature", "geometry": {"type": "Point", "coordinates": [-94.17413776784093, 36.063291962365206]}, "properties": {"id": "fayetteville-4014", "species_group": "plum", "scientific_name": "Prunus spp.", "common_name": "Spp. Cherry/Plum", "subtype_name": "Cherry Plum", "zip_code": "72701", "ownership": "public", "ownership_raw": "University of Arkansas", "city": "Fayetteville AR", "source_dataset": "Arboretum 2014", "source_department": "University of Arkansas", "source_last_edit_at": "2025-10-13T19:19:10.289000+00:00"}}, {"type": "Feature", "geometry": {"type": "Point", "coordinates": [-94.17407161435457, 36.06333378501034]}, "properties": {"id": "fayetteville-4015", "species_group": "plum", "scientific_name": "Prunus spp.", "common_name": "Spp. Cherry/Plum", "subtype_name": "Cherry Plum", "zip_code": "72701", "ownership": "public", "ownership_raw": "University of Arkansas", "city": "Fayetteville AR", "source_dataset": "Arboretum 2014", "source_department": "University of Arkansas", "source_last_edit_at": "2025-10-13T19:19:10.289000+00:00"}}, {"type": "Feature", "geometry": {"type": "Point", "coordinates": [-94.17388289914669, 36.06319881812966]}, "properties": {"id": "fayetteville-4021", "species_group": "cherry", "scientific_name": "Prunus x yedoensis", "common_name": "Yoshino cherry", "subtype_name": "Yoshino", "zip_code": "72701", "ownership": "public", "ownership_raw": "University of Arkansas", "city": "Fayetteville AR", "source_dataset": "Arboretum 2014", "source_department": "University of Arkansas", "source_last_edit_at": "2025-10-13T19:19:10.289000+00:00"}}, {"type": "Feature", "geometry": {"type": "Point", "coordinates": [-94.17319954506507, 36.07187939828004]}, "properties": {"id": "fayetteville-4234", "species_group": "cherry", "scientific_name": "Prunus x yedoensis", "common_name": "Yoshino cherry", "subtype_name": "Yoshino", "zip_code": "72701", "ownership": "public", "ownership_raw": "University of Arkansas", "city": "Fayetteville AR", "source_dataset": "Arboretum 2014", "source_department": "University of Arkansas", "source_last_edit_at": "2025-10-13T19:19:10.289000+00:00"}}, {"type": "Feature", "geometry": {"type": "Point", "coordinates": [-94.17321965704814, 36.0719273943793]}, "properties": {"id": "fayetteville-4235", "species_group": "cherry", "scientific_name": "Prunus x yedoensis", "common_name": "Yoshino cherry", "subtype_name": "Yoshino", "zip_code": "72701", "ownership": "public", "ownership_raw": "University of Arkansas", "city": "Fayetteville AR", "source_dataset": "Arboretum 2014", "source_department": "University of Arkansas", "source_last_edit_at": "2025-10-13T19:19:10.289000+00:00"}}, {"type": "Feature", "geometry": {"type": "Point", "coordinates": [-94.16996968660182, 36.06911217774871]}, "properties": {"id": "fayetteville-44", "species_group": "plum", "scientific_name": "Prunus spp.", "common_name": "Spp. Cherry/Plum", "subtype_name": "Cherry Plum", "zip_code": "72701", "ownership": "public", "ownership_raw": "University of Arkansas", "city": "Fayetteville AR", "source_dataset": "Arboretum 2014", "source_department": "University of Arkansas", "source_last_edit_at": "2025-10-13T19:19:10.289000+00:00"}}, {"type": "Feature", "geometry": {"type": "Point", "coordinates": [-94.17628295655476, 36.06263429594772]}, "properties": {"id": "fayetteville-4499", "species_group": "magnolia", "scientific_name": "Magnolia virginiana", "common_name": "Sweetbay Magnolia", "subtype_name": "Sweetbay Magnolia", "zip_code": "72701", "ownership": "public", "ownership_raw": "University of Arkansas", "city": "Fayetteville AR", "source_dataset": "Arboretum 2014", "source_department": "University of Arkansas", "source_last_edit_at": "2025-10-13T19:19:10.289000+00:00"}}, {"type": "Feature", "geometry": {"type": "Point", "coordinates": [-94.17352325866312, 36.069969806051255]}, "properties": {"id": "fayetteville-454", "species_group": "magnolia", "scientific_name": "Magnolia virginiana", "common_name": "Sweetbay Magnolia", "subtype_name": "Sweetbay Magnolia", "zip_code": "72701", "ownership": "public", "ownership_raw": "University of Arkansas", "city": "Fayetteville AR", "source_dataset": "Arboretum 2014", "source_department": "University of Arkansas", "source_last_edit_at": "2025-10-13T19:19:10.289000+00:00"}}, {"type": "Feature", "geometry": {"type": "Point", "coordinates": [-94.17353041495586, 36.06971857016964]}, "properties": {"id": "fayetteville-456", "species_group": "magnolia", "scientific_name": "Magnolia x soulangiana", "common_name": "Saucer Magnolia", "subtype_name": "Saucer Magnolia", "zip_code": "72701", "ownership": "public", "ownership_raw": "University of Arkansas", "city": "Fayetteville AR", "source_dataset": "Arboretum 2014", "source_department": "University of Arkansas", "source_last_edit_at": "2025-10-13T19:19:10.289000+00:00"}}, {"type": "Feature", "geometry": {"type": "Point", "coordinates": [-94.17276070596895, 36.06976553465828]}, "properties": {"id": "fayetteville-469", "species_group": "plum", "scientific_name": "Prunus spp.", "common_name": "Spp. Cherry/Plum", "subtype_name": "Cherry Plum", "zip_code": "72701", "ownership": "public", "ownership_raw": "University of Arkansas", "city": "Fayetteville AR", "source_dataset": "Arboretum 2014", "source_department": "University of Arkansas", "source_last_edit_at": "2025-10-13T19:19:10.289000+00:00"}}, {"type": "Feature", "geometry": {"type": "Point", "coordinates": [-94.18101304511619, 36.050774181421154]}, "properties": {"id": "fayetteville-4697", "species_group": "crabapple", "scientific_name": "Malus spp.", "common_name": "Flowering Crabapple", "subtype_name": "Flowering Crabapple", "zip_code": "72701", "ownership": "public", "ownership_raw": "University of Arkansas", "city": "Fayetteville AR", "source_dataset": "Arboretum 2014", "source_department": "University of Arkansas", "source_last_edit_at": "2025-10-13T19:19:10.289000+00:00"}}, {"type": "Feature", "geometry": {"type": "Point", "coordinates": [-94.18103562105217, 36.050382721605516]}, "properties": {"id": "fayetteville-4699", "species_group": "crabapple", "scientific_name": "Malus spp.", "common_name": "Flowering Crabapple", "subtype_name": "Flowering Crabapple", "zip_code": "72701", "ownership": "public", "ownership_raw": "University of Arkansas", "city": "Fayetteville AR", "source_dataset": "Arboretum 2014", "source_department": "University of Arkansas", "source_last_edit_at": "2025-10-13T19:19:10.289000+00:00"}}, {"type": "Feature", "geometry": {"type": "Point", "coordinates": [-94.17184048113832, 36.069940382398656]}, "properties": {"id": "fayetteville-477", "species_group": "magnolia", "scientific_name": "Magnolia grandiflora", "common_name": "Southern Magnolia", "subtype_name": "Southern Magnolia", "zip_code": "72701", "ownership": "public", "ownership_raw": "University of Arkansas", "city": "Fayetteville AR", "source_dataset": "Arboretum 2014", "source_department": "University of Arkansas", "source_last_edit_at": "2025-10-13T19:19:10.289000+00:00"}}, {"type": "Feature", "geometry": {"type": "Point", "coordinates": [-94.17257166682892, 36.06889953126776]}, "properties": {"id": "fayetteville-535", "species_group": "cherry", "scientific_name": "Prunus x yedoensis", "common_name": "Yoshino cherry", "subtype_name": "Yoshino", "zip_code": "72701", "ownership": "public", "ownership_raw": "University of Arkansas", "city": "Fayetteville AR", "source_dataset": "Arboretum 2014", "source_department": "University of Arkansas", "source_last_edit_at": "2025-10-13T19:19:10.289000+00:00"}}, {"type": "Feature", "geometry": {"type": "Point", "coordinates": [-94.17257301574276, 36.06885491776751]}, "properties": {"id": "fayetteville-536", "species_group": "cherry", "scientific_name": "Prunus x yedoensis", "common_name": "Yoshino cherry", "subtype_name": "Yoshino", "zip_code": "72701", "ownership": "public", "ownership_raw": "University of Arkansas", "city": "Fayetteville AR", "source_dataset": "Arboretum 2014", "source_department": "University of Arkansas", "source_last_edit_at": "2025-10-13T19:19:10.289000+00:00"}}, {"type": "Feature", "geometry": {"type": "Point", "coordinates": [-94.17257446306508, 36.0688140472034]}, "properties": {"id": "fayetteville-537", "species_group": "cherry", "scientific_name": "Prunus x yedoensis", "common_name": "Yoshino cherry", "subtype_name": "Yoshino", "zip_code": "72701", "ownership": "public", "ownership_raw": "University of Arkansas", "city": "Fayetteville AR", "source_dataset": "Arboretum 2014", "source_department": "University of Arkansas", "source_last_edit_at": "2025-10-13T19:19:10.289000+00:00"}}, {"type": "Feature", "geometry": {"type": "Point", "coordinates": [-94.17257418014457, 36.06877116400988]}, "properties": {"id": "fayetteville-538", "species_group": "cherry", "scientific_name": "Prunus x yedoensis", "common_name": "Yoshino cherry", "subtype_name": "Yoshino", "zip_code": "72701", "ownership": "public", "ownership_raw": "University of Arkansas", "city": "Fayetteville AR", "source_dataset": "Arboretum 2014", "source_department": "University of Arkansas", "source_last_edit_at": "2025-10-13T19:19:10.289000+00:00"}}, {"type": "Feature", "geometry": {"type": "Point", "coordinates": [-94.17257062615772, 36.06857869385189]}, "properties": {"id": "fayetteville-539", "species_group": "cherry", "scientific_name": "Prunus x yedoensis", "common_name": "Yoshino cherry", "subtype_name": "Yoshino", "zip_code": "72701", "ownership": "public", "ownership_raw": "University of Arkansas", "city": "Fayetteville AR", "source_dataset": "Arboretum 2014", "source_department": "University of Arkansas", "source_last_edit_at": "2025-10-13T19:19:10.289000+00:00"}}, {"type": "Feature", "geometry": {"type": "Point", "coordinates": [-94.17256959445564, 36.068539227114535]}, "properties": {"id": "fayetteville-540", "species_group": "cherry", "scientific_name": "Prunus x yedoensis", "common_name": "Yoshino cherry", "subtype_name": "Yoshino", "zip_code": "72701", "ownership": "public", "ownership_raw": "University of Arkansas", "city": "Fayetteville AR", "source_dataset": "Arboretum 2014", "source_department": "University of Arkansas", "source_last_edit_at": "2025-10-13T19:19:10.289000+00:00"}}, {"type": "Feature", "geometry": {"type": "Point", "coordinates": [-94.17256528172116, 36.06850254069524]}, "properties": {"id": "fayetteville-541", "species_group": "cherry", "scientific_name": "Prunus x yedoensis", "common_name": "Yoshino cherry", "subtype_name": "Yoshino", "zip_code": "72701", "ownership": "public", "ownership_raw": "University of Arkansas", "city": "Fayetteville AR", "source_dataset": "Arboretum 2014", "source_department": "University of Arkansas", "source_last_edit_at": "2025-10-13T19:19:10.289000+00:00"}}, {"type": "Feature", "geometry": {"type": "Point", "coordinates": [-94.17257955019157, 36.06847097885236]}, "properties": {"id": "fayetteville-542", "species_group": "cherry", "scientific_name": "Prunus x yedoensis", "common_name": "Yoshino cherry", "subtype_name": "Yoshino", "zip_code": "72701", "ownership": "public", "ownership_raw": "University of Arkansas", "city": "Fayetteville AR", "source_dataset": "Arboretum 2014", "source_department": "University of Arkansas", "source_last_edit_at": "2025-10-13T19:19:10.289000+00:00"}}, {"type": "Feature", "geometry": {"type": "Point", "coordinates": [-94.1734299865006, 36.068103157243705]}, "properties": {"id": "fayetteville-592", "species_group": "magnolia", "scientific_name": "Magnolia x soulangiana", "common_name": "Saucer Magnolia", "subtype_name": "Saucer Magnolia", "zip_code": "72701", "ownership": "public", "ownership_raw": "University of Arkansas", "city": "Fayetteville AR", "source_dataset": "Arboretum 2014", "source_department": "University of Arkansas", "source_last_edit_at": "2025-10-13T19:19:10.289000+00:00"}}, {"type": "Feature", "geometry": {"type": "Point", "coordinates": [-94.17342838292687, 36.068073912589185]}, "properties": {"id": "fayetteville-593", "species_group": "magnolia", "scientific_name": "Magnolia x soulangiana", "common_name": "Saucer Magnolia", "subtype_name": "Saucer Magnolia", "zip_code": "72701", "ownership": "public", "ownership_raw": "University of Arkansas", "city": "Fayetteville AR", "source_dataset": "Arboretum 2014", "source_department": "University of Arkansas", "source_last_edit_at": "2025-10-13T19:19:10.289000+00:00"}}, {"type": "Feature", "geometry": {"type": "Point", "coordinates": [-94.17350732741552, 36.068048298544426]}, "properties": {"id": "fayetteville-595", "species_group": "magnolia", "scientific_name": "Magnolia x soulangiana", "common_name": "Saucer Magnolia", "subtype_name": "Saucer Magnolia", "zip_code": "72701", "ownership": "public", "ownership_raw": "University of Arkansas", "city": "Fayetteville AR", "source_dataset": "Arboretum 2014", "source_department": "University of Arkansas", "source_last_edit_at": "2025-10-13T19:19:10.289000+00:00"}}, {"type": "Feature", "geometry": {"type": "Point", "coordinates": [-94.17174571452429, 36.067503903613066]}, "properties": {"id": "fayetteville-774", "species_group": "magnolia", "scientific_name": "Magnolia virginiana", "common_name": "Sweetbay Magnolia", "subtype_name": "Sweetbay Magnolia", "zip_code": "72701", "ownership": "public", "ownership_raw": "University of Arkansas", "city": "Fayetteville AR", "source_dataset": "Arboretum 2014", "source_department": "University of Arkansas", "source_last_edit_at": "2025-10-13T19:19:10.289000+00:00"}}, {"type": "Feature", "geometry": {"type": "Point", "coordinates": [-94.17178502776348, 36.06751499431821]}, "properties": {"id": "fayetteville-775", "species_group": "magnolia", "scientific_name": "Magnolia virginiana", "common_name": "Sweetbay Magnolia", "subtype_name": "Sweetbay Magnolia", "zip_code": "72701", "ownership": "public", "ownership_raw": "University of Arkansas", "city": "Fayetteville AR", "source_dataset": "Arboretum 2014", "source_department": "University of Arkansas", "source_last_edit_at": "2025-10-13T19:19:10.289000+00:00"}}, {"type": "Feature", "geometry": {"type": "Point", "coordinates": [-94.17132743059288, 36.067675929534495]}, "properties": {"id": "fayetteville-778", "species_group": "plum", "scientific_name": "Prunus spp.", "common_name": "Spp. Cherry/Plum", "subtype_name": "Cherry Plum", "zip_code": "72701", "ownership": "public", "ownership_raw": "University of Arkansas", "city": "Fayetteville AR", "source_dataset": "Arboretum 2014", "source_department": "University of Arkansas", "source_last_edit_at": "2025-10-13T19:19:10.289000+00:00"}}, {"type": "Feature", "geometry": {"type": "Point", "coordinates": [-94.17128172176156, 36.06779604204446]}, "properties": {"id": "fayetteville-780", "species_group": "magnolia", "scientific_name": "Magnolia virginiana", "common_name": "Sweetbay Magnolia", "subtype_name": "Sweetbay Magnolia", "zip_code": "72701", "ownership": "public", "ownership_raw": "University of Arkansas", "city": "Fayetteville AR", "source_dataset": "Arboretum 2014", "source_department": "University of Arkansas", "source_last_edit_at": "2025-10-13T19:19:10.289000+00:00"}}, {"type": "Feature", "geometry": {"type": "Point", "coordinates": [-94.17133879285224, 36.06784665621781]}, "properties": {"id": "fayetteville-781", "species_group": "plum", "scientific_name": "Prunus spp.", "common_name": "Spp. Cherry/Plum", "subtype_name": "Cherry Plum", "zip_code": "72701", "ownership": "public", "ownership_raw": "University of Arkansas", "city": "Fayetteville AR", "source_dataset": "Arboretum 2014", "source_department": "University of Arkansas", "source_last_edit_at": "2025-10-13T19:19:10.289000+00:00"}}, {"type": "Feature", "geometry": {"type": "Point", "coordinates": [-94.17141434658559, 36.06788822760109]}, "properties": {"id": "fayetteville-783", "species_group": "magnolia", "scientific_name": "Magnolia virginiana", "common_name": "Sweetbay Magnolia", "subtype_name": "Sweetbay Magnolia", "zip_code": "72701", "ownership": "public", "ownership_raw": "University of Arkansas", "city": "Fayetteville AR", "source_dataset": "Arboretum 2014", "source_department": "University of Arkansas", "source_last_edit_at": "2025-10-13T19:19:10.289000+00:00"}}, {"type": "Feature", "geometry": {"type": "Point", "coordinates": [-94.17324378608338, 36.06741285750755]}, "properties": {"id": "fayetteville-834", "species_group": "magnolia", "scientific_name": "Magnolia stellata", "common_name": "Star Magnolia", "subtype_name": "Star Magnolia", "zip_code": "72701", "ownership": "public", "ownership_raw": "University of Arkansas", "city": "Fayetteville AR", "source_dataset": "Arboretum 2014", "source_department": "University of Arkansas", "source_last_edit_at": "2025-10-13T19:19:10.289000+00:00"}}, {"type": "Feature", "geometry": {"type": "Point", "coordinates": [-94.1749631754896, 36.0677362123475]}, "properties": {"id": "fayetteville-883", "species_group": "plum", "scientific_name": "Prunus spp.", "common_name": "Spp. Cherry/Plum", "subtype_name": "Cherry Plum", "zip_code": "72701", "ownership": "public", "ownership_raw": "University of Arkansas", "city": "Fayetteville AR", "source_dataset": "Arboretum 2014", "source_department": "University of Arkansas", "source_last_edit_at": "2025-10-13T19:19:10.289000+00:00"}}, {"type": "Feature", "geometry": {"type": "Point", "coordinates": [-94.17241436531839, 36.067701922405156]}, "properties": {"id": "fayetteville-960", "species_group": "crabapple", "scientific_name": "Malus pumila", "common_name": "Common Apple", "subtype_name": "Common Apple", "zip_code": "72701", "ownership": "public", "ownership_raw": "University of Arkansas", "city": "Fayetteville AR", "source_dataset": "Arboretum 2014", "source_department": "University of Arkansas", "source_last_edit_at": "2025-10-13T19:19:10.289000+00:00"}}, {"type": "Feature", "geometry": {"type": "Point", "coordinates": [-94.17967218773074, 36.07363228071963]}, "properties": {"id": "fayetteville-995", "species_group": "crabapple", "scientific_name": "Malus spp.", "common_name": "Flowering Crabapple", "subtype_name": "Flowering Crabapple", "zip_code": "72701", "ownership": "public", "ownership_raw": "University of Arkansas", "city": "Fayetteville AR", "source_dataset": "Arboretum 2014", "source_department": "University of Arkansas", "source_last_edit_at": "2025-10-13T19:19:10.289000+00:00"}}]}