{"type": "FeatureCollection", "features": [{"type": "Feature", "geometry": {"type": "Point", "coordinates": [-111.05042367980572, 45.66213040318672]}, "properties": {"id": "bozeman-103", "species_group": "crabapple", "scientific_name": "Malus", "common_name": "Flowering Crabapple", "subtype_name": "Flowering Crabapple", "zip_code": "59715", "ownership": "public", "ownership_raw": "City of Bozeman", "city": "Bozeman", "source_dataset": "Public Arborist", "source_department": "City of Bozeman", "source_last_edit_at": "2023-09-11T20:11:30.615000+00:00"}}, {"type": "Feature", "geometry": {"type": "Point", "coordinates": [-111.05262004355062, 45.67069744911245]}, "properties": {"id": "bozeman-1036", "species_group": "crabapple", "scientific_name": "Malus", "common_name": "Apple (Flower Crab)", "subtype_name": "Apple (Flower Crab)", "zip_code": "59715", "ownership": "public", "ownership_raw": "City of Bozeman", "city": "Bozeman", "source_dataset": "Public Arborist", "source_department": "City of Bozeman", "source_last_edit_at": "2023-09-11T20:11:30.615000+00:00"}}, {"type": "Feature", "geometry": {"type": "Point", "coordinates": [-111.05055625182563, 45.662121732064826]}, "properties": {"id": "bozeman-104", "species_group": "crabapple", "scientific_name": "Malus", "common_name": "Flowering Crabapple", "subtype_name": "Flowering Crabapple", "zip_code": "59715", "ownership": "public", "ownership_raw": "City of Bozeman", "city": "Bozeman", "source_dataset": "Public Arborist", "source_department": "City of Bozeman", "source_last_edit_at": "2023-09-11T20:11:30.615000+00:00"}}, {"type": "Feature", "geometry": {"type": "Point", "coordinates": [-111.05368934694253, 45.668733375157736]}, "properties": {"id": "bozeman-1043", "species_group": "crabapple", "scientific_name": "Malus", "common_name": "Radiant Crabapple", "subtype_name": "Radiant Crabapple", "zip_code": "59715", "ownership": "public", "ownership_raw": "City of Bozeman", "city": "Bozeman", "source_dataset": "Public Arborist", "source_department": "City of Bozeman", "source_last_edit_at": "2023-09-11T20:11:30.615000+00:00"}}, {"type": "Feature", "geometry": {"type": "Point", "coordinates": [-111.05289380276312, 45.66922009738459]}, "properties": {"id": "bozeman-1044", "species_group": "crabapple", "scientific_name": "Malus", "common_name": "Crabapple", "subtype_name": null, "zip_code": "59715", "ownership": "public", "ownership_raw": "City of Bozeman", "city": "Bozeman", "source_dataset": "Public Arborist", "source_department": "City of Bozeman", "source_last_edit_at": "2023-09-11T20:11:30.615000+00:00"}}, {"type": "Feature", "geometry": {"type": "Point", "coordinates": [-111.05291477821228, 45.669328242791664]}, "properties": {"id": "bozeman-1045", "species_group": "crabapple", "scientific_name": "Malus", "common_name": "Crabapple", "subtype_name": null, "zip_code": "59715", "ownership": "public", "ownership_raw": "City of Bozeman", "city": "Bozeman", "source_dataset": "Public Arborist", "source_department": "City of Bozeman", "source_last_edit_at": "2023-09-11T20:11:30.615000+00:00"}}, {"type": "Feature", "geometry": {"type": "Point", "coordinates": [-111.05054449900285, 45.6621683124399]}, "properties": {"id": "bozeman-105", "species_group": "crabapple", "scientific_name": "Malus", "common_name": "Flowering Crabapple", "subtype_name": "Flowering Crabapple", "zip_code": "59715", "ownership": "public", "ownership_raw": "City of Bozeman", "city": "Bozeman", "source_dataset": "Public Arborist", "source_department": "City of Bozeman", "source_last_edit_at": "2023-09-11T20:11:30.615000+00:00"}}, {"type": "Feature", "geometry": {"type": "Point", "coordinates": [-111.0514245693506, 45.66213272114859]}, "properties": {"id": "bozeman-106", "species_group": "crabapple", "scientific_name": "Malus", "common_name": "Flowering Crabapple", "subtype_name": "Flowering Crabapple", "zip_code": "59715", "ownership": "public", "ownership_raw": "City of Bozeman", "city": "Bozeman", "source_dataset": "Public Arborist", "source_department": "City of Bozeman", "source_last_edit_at": "2023-09-11T20:11:30.615000+00:00"}}, {"type": "Feature", "geometry": {"type": "Point", "coordinates": [-111.0514380446785, 45.66216045110003]}, "properties": {"id": "bozeman-107", "species_group": "crabapple", "scientific_name": "Malus", "common_name": "Flowering Crabapple", "subtype_name": "Flowering Crabapple", "zip_code": "59715", "ownership": "public", "ownership_raw": "City of Bozeman", "city": "Bozeman", "source_dataset": "Public Arborist", "source_department": "City of Bozeman", "source_last_edit_at": "2023-09-11T20:11:30.615000+00:00"}}, {"type": "Feature", "geometry": {"type": "Point", "coordinates": [-111.05155107751855, 45.66216330095621]}, "properties": {"id": "bozeman-108", "species_group": "crabapple", "scientific_name": "Malus", "common_name": "Flowering Crabapple", "subtype_name": "Flowering Crabapple", "zip_code": "59715", "ownership": "public", "ownership_raw": "City of Bozeman", "city": "Bozeman", "source_dataset": "Public Arborist", "source_department": "City of Bozeman", "source_last_edit_at": "2023-09-11T20:11:30.615000+00:00"}}, {"type": "Feature", "geometry": {"type": "Point", "coordinates": [-111.05546551650627, 45.67067203825222]}, "properties": {"id": "bozeman-1086", "species_group": "crabapple", "scientific_name": "Malus baccata", "common_name": "Apple", "subtype_name": "Apple", "zip_code": "59715", "ownership": "public", "ownership_raw": "City of Bozeman", "city": "Bozeman", "source_dataset": "Public Arborist", "source_department": "City of Bozeman", "source_last_edit_at": "2023-09-11T20:11:30.615000+00:00"}}, {"type": "Feature", "geometry": {"type": "Point", "coordinates": [-111.05578645573226, 45.669941900472224]}, "properties": {"id": "bozeman-1087", "species_group": "crabapple", "scientific_name": "Malus baccata", "common_name": "Apple", "subtype_name": "Apple", "zip_code": "59715", "ownership": "public", "ownership_raw": "City of Bozeman", "city": "Bozeman", "source_dataset": "Public Arborist", "source_department": "City of Bozeman", "source_last_edit_at": "2023-09-11T20:11:30.615000+00:00"}}, {"type": "Feature", "geometry": {"type": "Point", "coordinates": [-111.05579290457355, 45.670084208058185]}, "properties": {"id": "bozeman-1088", "species_group": "crabapple", "scientific_name": "Malus baccata", "common_name": "Apple", "subtype_name": "Apple", "zip_code": "59715", "ownership": "public", "ownership_raw": "City of Bozeman", "city": "Bozeman", "source_dataset": "Public Arborist", "source_department": "City of Bozeman", "source_last_edit_at": "2023-09-11T20:11:30.615000+00:00"}}, {"type": "Feature", "geometry": {"type": "Point", "coordinates": [-111.05674103229828, 45.669945797230476]}, "properties": {"id": "bozeman-1089", "species_group": "crabapple", "scientific_name": "Malus baccata", "common_name": "Apple", "subtype_name": "Apple", "zip_code": "59715", "ownership": "public", "ownership_raw": "City of Bozeman", "city": "Bozeman", "source_dataset": "Public Arborist", "source_department": "City of Bozeman", "source_last_edit_at": "2023-09-11T20:11:30.615000+00:00"}}, {"type": "Feature", "geometry": {"type": "Point", "coordinates": [-111.05155614836315, 45.662129030857905]}, "properties": {"id": "bozeman-109", "species_group": "crabapple", "scientific_name": "Malus", "common_name": "Flowering Crabapple", "subtype_name": "Flowering Crabapple", "zip_code": "59715", "ownership": "public", "ownership_raw": "City of Bozeman", "city": "Bozeman", "source_dataset": "Public Arborist", "source_department": "City of Bozeman", "source_last_edit_at": "2023-09-11T20:11:30.615000+00:00"}}, {"type": "Feature", "geometry": {"type": "Point", "coordinates": [-111.04894212667274, 45.66546780310677]}, "properties": {"id": "bozeman-1136", "species_group": "crabapple", "scientific_name": "Malus", "common_name": "Apple (Flower Crab)", "subtype_name": "Apple (Flower Crab)", "zip_code": "59715", "ownership": "public", "ownership_raw": "City of Bozeman", "city": "Bozeman", "source_dataset": "Public Arborist", "source_department": "City of Bozeman", "source_last_edit_at": "2023-09-11T20:11:30.615000+00:00"}}, {"type": "Feature", "geometry": {"type": "Point", "coordinates": [-111.04646300761621, 45.66818449222103]}, "properties": {"id": "bozeman-1137", "species_group": "crabapple", "scientific_name": "Malus", "common_name": "Apple (Flower Crab)", "subtype_name": "Apple (Flower Crab)", "zip_code": "59715", "ownership": "public", "ownership_raw": "City of Bozeman", "city": "Bozeman", "source_dataset": "Public Arborist", "source_department": "City of Bozeman", "source_last_edit_at": "2023-09-11T20:11:30.615000+00:00"}}, {"type": "Feature", "geometry": {"type": "Point", "coordinates": [-111.04558739987934, 45.668168668806416]}, "properties": {"id": "bozeman-1138", "species_group": "crabapple", "scientific_name": "Malus", "common_name": "Apple (Flower Crab)", "subtype_name": "Apple (Flower Crab)", "zip_code": "59715", "ownership": "public", "ownership_raw": "City of Bozeman", "city": "Bozeman", "source_dataset": "Public Arborist", "source_department": "City of Bozeman", "source_last_edit_at": "2023-09-11T20:11:30.615000+00:00"}}, {"type": "Feature", "geometry": {"type": "Point", "coordinates": [-111.04558189125333, 45.6682066049087]}, "properties": {"id": "bozeman-1139", "species_group": "crabapple", "scientific_name": "Malus", "common_name": "Apple (Flower Crab)", "subtype_name": "Apple (Flower Crab)", "zip_code": "59715", "ownership": "public", "ownership_raw": "City of Bozeman", "city": "Bozeman", "source_dataset": "Public Arborist", "source_department": "City of Bozeman", "source_last_edit_at": "2023-09-11T20:11:30.615000+00:00"}}, {"type": "Feature", "geometry": {"type": "Point", "coordinates": [-111.04555910576345, 45.668189308588396]}, "properties": {"id": "bozeman-1140", "species_group": "crabapple", "scientific_name": "Malus", "common_name": "Apple (Flower Crab)", "subtype_name": "Apple (Flower Crab)", "zip_code": "59715", "ownership": "public", "ownership_raw": "City of Bozeman", "city": "Bozeman", "source_dataset": "Public Arborist", "source_department": "City of Bozeman", "source_last_edit_at": "2023-09-11T20:11:30.615000+00:00"}}, {"type": "Feature", "geometry": {"type": "Point", "coordinates": [-111.04630988983988, 45.66806746452887]}, "properties": {"id": "bozeman-1142", "species_group": "crabapple", "scientific_name": "Malus", "common_name": "Apple (Flower Crab)", "subtype_name": "Apple (Flower Crab)", "zip_code": "59715", "ownership": "public", "ownership_raw": "City of Bozeman", "city": "Bozeman", "source_dataset": "Public Arborist", "source_department": "City of Bozeman", "source_last_edit_at": "2023-09-11T20:11:30.615000+00:00"}}, {"type": "Feature", "geometry": {"type": "Point", "coordinates": [-111.04757741618637, 45.66825996177764]}, "properties": {"id": "bozeman-1162", "species_group": "crabapple", "scientific_name": "Malus", "common_name": "Apple (Flower Crab)", "subtype_name": "Apple (Flower Crab)", "zip_code": "59715", "ownership": "public", "ownership_raw": "City of Bozeman", "city": "Bozeman", "source_dataset": "Public Arborist", "source_department": "City of Bozeman", "source_last_edit_at": "2023-09-11T20:11:30.615000+00:00"}}, {"type": "Feature", "geometry": {"type": "Point", "coordinates": [-111.05089612662283, 45.668777979641526]}, "properties": {"id": "bozeman-1163", "species_group": "cherry", "scientific_name": "Prunus padus", "common_name": "Chokecherry", "subtype_name": "Chokecherry", "zip_code": "59715", "ownership": "public", "ownership_raw": "City of Bozeman", "city": "Bozeman", "source_dataset": "Public Arborist", "source_department": "City of Bozeman", "source_last_edit_at": "2023-09-11T20:11:30.615000+00:00"}}, {"type": "Feature", "geometry": {"type": "Point", "coordinates": [-111.04982921723935, 45.67086780139282]}, "properties": {"id": "bozeman-1182", "species_group": "crabapple", "scientific_name": "Malus", "common_name": "Flowering Crabapple", "subtype_name": "Flowering Crabapple", "zip_code": "59715", "ownership": "public", "ownership_raw": "City of Bozeman", "city": "Bozeman", "source_dataset": "Public Arborist", "source_department": "City of Bozeman", "source_last_edit_at": "2023-09-11T20:11:30.615000+00:00"}}, {"type": "Feature", "geometry": {"type": "Point", "coordinates": [-111.04837555051446, 45.67059276387633]}, "properties": {"id": "bozeman-1188", "species_group": "crabapple", "scientific_name": "Malus", "common_name": "Flowering Crabapple", "subtype_name": "Flowering Crabapple", "zip_code": "59715", "ownership": "public", "ownership_raw": "City of Bozeman", "city": "Bozeman", "source_dataset": "Public Arborist", "source_department": "City of Bozeman", "source_last_edit_at": "2023-09-11T20:11:30.615000+00:00"}}, {"type": "Feature", "geometry": {"type": "Point", "coordinates": [-111.0456151569543, 45.66990393969507]}, "properties": {"id": "bozeman-1247", "species_group": "crabapple", "scientific_name": "Malus", "common_name": "Apple (Flower Crab)", "subtype_name": "Apple (Flower Crab)", "zip_code": "59715", "ownership": "public", "ownership_raw": "City of Bozeman", "city": "Bozeman", "source_dataset": "Public Arborist", "source_department": "City of Bozeman", "source_last_edit_at": "2023-09-11T20:11:30.615000+00:00"}}, {"type": "Feature", "geometry": {"type": "Point", "coordinates": [-111.04600073010616, 45.66981448444573]}, "properties": {"id": "bozeman-1248", "species_group": "crabapple", "scientific_name": "Malus", "common_name": "Apple (Flower Crab)", "subtype_name": "Apple (Flower Crab)", "zip_code": "59715", "ownership": "public", "ownership_raw": "City of Bozeman", "city": "Bozeman", "source_dataset": "Public Arborist", "source_department": "City of Bozeman", "source_last_edit_at": "2023-09-11T20:11:30.615000+00:00"}}, {"type": "Feature", "geometry": {"type": "Point", "coordinates": [-111.04704514096886, 45.66990835199377]}, "properties": {"id": "bozeman-1253", "species_group": "crabapple", "scientific_name": "Malus", "common_name": "Apple (Flower Crab)", "subtype_name": "Apple (Flower Crab)", "zip_code": "59715", "ownership": "public", "ownership_raw": "City of Bozeman", "city": "Bozeman", "source_dataset": "Public Arborist", "source_department": "City of Bozeman", "source_last_edit_at": "2023-09-11T20:11:30.615000+00:00"}}, {"type": "Feature", "geometry": {"type": "Point", "coordinates": [-111.04708845430692, 45.67003836103333]}, "properties": {"id": "bozeman-1254", "species_group": "crabapple", "scientific_name": "Malus", "common_name": "Apple (Flower Crab)", "subtype_name": "Apple (Flower Crab)", "zip_code": "59715", "ownership": "public", "ownership_raw": "City of Bozeman", "city": "Bozeman", "source_dataset": "Public Arborist", "source_department": "City of Bozeman", "source_last_edit_at": "2023-09-11T20:11:30.615000+00:00"}}, {"type": "Feature", "geometry": {"type": "Point", "coordinates": [-111.05095541556545, 45.662776277140246]}, "properties": {"id": "bozeman-126", "species_group": "crabapple", "scientific_name": "Malus", "common_name": "Flowering Crabapple", "subtype_name": "Flowering Crabapple", "zip_code": "59715", "ownership": "public", "ownership_raw": "City of Bozeman", "city": "Bozeman", "source_dataset": "Public Arborist", "source_department": "City of Bozeman", "source_last_edit_at": "2023-09-11T20:11:30.615000+00:00"}}, {"type": "Feature", "geometry": {"type": "Point", "coordinates": [-111.04682862081181, 45.66972054485421]}, "properties": {"id": "bozeman-1261", "species_group": "crabapple", "scientific_name": "Malus", "common_name": "Apple (Flower Crab)", "subtype_name": "Apple (Flower Crab)", "zip_code": "59715", "ownership": "public", "ownership_raw": "City of Bozeman", "city": "Bozeman", "source_dataset": "Public Arborist", "source_department": "City of Bozeman", "source_last_edit_at": "2023-09-11T20:11:30.615000+00:00"}}, {"type": "Feature", "geometry": {"type": "Point", "coordinates": [-111.05087961276722, 45.66276114944915]}, "properties": {"id": "bozeman-127", "species_group": "crabapple", "scientific_name": "Malus", "common_name": "Flowering Crabapple", "subtype_name": "Flowering Crabapple", "zip_code": "59715", "ownership": "public", "ownership_raw": "City of Bozeman", "city": "Bozeman", "source_dataset": "Public Arborist", "source_department": "City of Bozeman", "source_last_edit_at": "2023-09-11T20:11:30.615000+00:00"}}, {"type": "Feature", "geometry": {"type": "Point", "coordinates": [-111.04727481458016, 45.669300876118875]}, "properties": {"id": "bozeman-1279", "species_group": "crabapple", "scientific_name": "Malus", "common_name": "Apple (Flower Crab)", "subtype_name": "Apple (Flower Crab)", "zip_code": "59715", "ownership": "public", "ownership_raw": "City of Bozeman", "city": "Bozeman", "source_dataset": "Public Arborist", "source_department": "City of Bozeman", "source_last_edit_at": "2023-09-11T20:11:30.615000+00:00"}}, {"type": "Feature", "geometry": {"type": "Point", "coordinates": [-111.05084219326663, 45.66275780625192]}, "properties": {"id": "bozeman-128", "species_group": "crabapple", "scientific_name": "Malus", "common_name": "Flowering Crabapple", "subtype_name": "Flowering Crabapple", "zip_code": "59715", "ownership": "public", "ownership_raw": "City of Bozeman", "city": "Bozeman", "source_dataset": "Public Arborist", "source_department": "City of Bozeman", "source_last_edit_at": "2023-09-11T20:11:30.615000+00:00"}}, {"type": "Feature", "geometry": {"type": "Point", "coordinates": [-111.05051939052764, 45.66274846979192]}, "properties": {"id": "bozeman-129", "species_group": "crabapple", "scientific_name": "Malus", "common_name": "Flowering Crabapple", "subtype_name": "Flowering Crabapple", "zip_code": "59715", "ownership": "public", "ownership_raw": "City of Bozeman", "city": "Bozeman", "source_dataset": "Public Arborist", "source_department": "City of Bozeman", "source_last_edit_at": "2023-09-11T20:11:30.615000+00:00"}}, {"type": "Feature", "geometry": {"type": "Point", "coordinates": [-111.05042920871227, 45.662763210333054]}, "properties": {"id": "bozeman-130", "species_group": "crabapple", "scientific_name": "Malus", "common_name": "Flowering Crabapple", "subtype_name": "Flowering Crabapple", "zip_code": "59715", "ownership": "public", "ownership_raw": "City of Bozeman", "city": "Bozeman", "source_dataset": "Public Arborist", "source_department": "City of Bozeman", "source_last_edit_at": "2023-09-11T20:11:30.615000+00:00"}}, {"type": "Feature", "geometry": {"type": "Point", "coordinates": [-111.05043164683704, 45.66270019101344]}, "properties": {"id": "bozeman-131", "species_group": "crabapple", "scientific_name": "Malus", "common_name": "Flowering Crabapple", "subtype_name": "Flowering Crabapple", "zip_code": "59715", "ownership": "public", "ownership_raw": "City of Bozeman", "city": "Bozeman", "source_dataset": "Public Arborist", "source_department": "City of Bozeman", "source_last_edit_at": "2023-09-11T20:11:30.615000+00:00"}}, {"type": "Feature", "geometry": {"type": "Point", "coordinates": [-111.05091141042502, 45.6626935823998]}, "properties": {"id": "bozeman-132", "species_group": "crabapple", "scientific_name": "Malus", "common_name": "Flowering Crabapple", "subtype_name": "Flowering Crabapple", "zip_code": "59715", "ownership": "public", "ownership_raw": "City of Bozeman", "city": "Bozeman", "source_dataset": "Public Arborist", "source_department": "City of Bozeman", "source_last_edit_at": "2023-09-11T20:11:30.615000+00:00"}}, {"type": "Feature", "geometry": {"type": "Point", "coordinates": [-111.04647015286677, 45.66886867460531]}, "properties": {"id": "bozeman-1322", "species_group": "crabapple", "scientific_name": "Malus", "common_name": "Apple (Flower Crab)", "subtype_name": "Apple (Flower Crab)", "zip_code": "59715", "ownership": "public", "ownership_raw": "City of Bozeman", "city": "Bozeman", "source_dataset": "Public Arborist", "source_department": "City of Bozeman", "source_last_edit_at": "2023-09-11T20:11:30.615000+00:00"}}, {"type": "Feature", "geometry": {"type": "Point", "coordinates": [-111.04715972831411, 45.669503988188595]}, "properties": {"id": "bozeman-1325", "species_group": "crabapple", "scientific_name": "Malus x", "common_name": "Crabapple", "subtype_name": "Malus x", "zip_code": "59715", "ownership": "public", "ownership_raw": "City of Bozeman", "city": "Bozeman", "source_dataset": "Public Arborist", "source_department": "City of Bozeman", "source_last_edit_at": "2023-09-11T20:11:30.615000+00:00"}}, {"type": "Feature", "geometry": {"type": "Point", "coordinates": [-111.04720163887413, 45.669503519327584]}, "properties": {"id": "bozeman-1326", "species_group": "crabapple", "scientific_name": "Malus x", "common_name": "Crabapple", "subtype_name": "Malus x", "zip_code": "59715", "ownership": "public", "ownership_raw": "City of Bozeman", "city": "Bozeman", "source_dataset": "Public Arborist", "source_department": "City of Bozeman", "source_last_edit_at": "2023-09-11T20:11:30.615000+00:00"}}, {"type": "Feature", "geometry": {"type": "Point", "coordinates": [-111.04723856043255, 45.6695072640966]}, "properties": {"id": "bozeman-1327", "species_group": "crabapple", "scientific_name": "Malus x", "common_name": "Crabapple", "subtype_name": "Malus x", "zip_code": "59715", "ownership": "public", "ownership_raw": "City of Bozeman", "city": "Bozeman", "source_dataset": "Public Arborist", "source_department": "City of Bozeman", "source_last_edit_at": "2023-09-11T20:11:30.615000+00:00"}}, {"type": "Feature", "geometry": {"type": "Point", "coordinates": [-111.05363298231568, 45.66588881147091]}, "properties": {"id": "bozeman-1405", "species_group": "crabapple", "scientific_name": "Malus", "common_name": "Apple (Flower Crab)", "subtype_name": "Apple (Flower Crab)", "zip_code": "59715", "ownership": "public", "ownership_raw": "City of Bozeman", "city": "Bozeman", "source_dataset": "Public Arborist", "source_department": "City of Bozeman", "source_last_edit_at": "2023-09-11T20:11:30.615000+00:00"}}, {"type": "Feature", "geometry": {"type": "Point", "coordinates": [-111.06086368465041, 45.66537338517151]}, "properties": {"id": "bozeman-145", "species_group": "plum", "scientific_name": "Prunus", "common_name": "Plum", "subtype_name": null, "zip_code": "59715", "ownership": "public", "ownership_raw": "City of Bozeman", "city": "Bozeman", "source_dataset": "Public Arborist", "source_department": "City of Bozeman", "source_last_edit_at": "2023-09-11T20:11:30.615000+00:00"}}, {"type": "Feature", "geometry": {"type": "Point", "coordinates": [-111.06086983726523, 45.665398729139895]}, "properties": {"id": "bozeman-146", "species_group": "plum", "scientific_name": "Prunus", "common_name": "Plum", "subtype_name": null, "zip_code": "59715", "ownership": "public", "ownership_raw": "City of Bozeman", "city": "Bozeman", "source_dataset": "Public Arborist", "source_department": "City of Bozeman", "source_last_edit_at": "2023-09-11T20:11:30.615000+00:00"}}, {"type": "Feature", "geometry": {"type": "Point", "coordinates": [-111.06090011680544, 45.66542058702572]}, "properties": {"id": "bozeman-147", "species_group": "plum", "scientific_name": "Prunus", "common_name": "Plum", "subtype_name": null, "zip_code": "59715", "ownership": "public", "ownership_raw": "City of Bozeman", "city": "Bozeman", "source_dataset": "Public Arborist", "source_department": "City of Bozeman", "source_last_edit_at": "2023-09-11T20:11:30.615000+00:00"}}, {"type": "Feature", "geometry": {"type": "Point", "coordinates": [-111.06086845884545, 45.66542440159987]}, "properties": {"id": "bozeman-148", "species_group": "plum", "scientific_name": "Prunus", "common_name": "Plum", "subtype_name": null, "zip_code": "59715", "ownership": "public", "ownership_raw": "City of Bozeman", "city": "Bozeman", "source_dataset": "Public Arborist", "source_department": "City of Bozeman", "source_last_edit_at": "2023-09-11T20:11:30.615000+00:00"}}, {"type": "Feature", "geometry": {"type": "Point", "coordinates": [-111.06087240657176, 45.66543599961267]}, "properties": {"id": "bozeman-149", "species_group": "plum", "scientific_name": "Prunus", "common_name": "Plum", "subtype_name": null, "zip_code": "59715", "ownership": "public", "ownership_raw": "City of Bozeman", "city": "Bozeman", "source_dataset": "Public Arborist", "source_department": "City of Bozeman", "source_last_edit_at": "2023-09-11T20:11:30.615000+00:00"}}, {"type": "Feature", "geometry": {"type": "Point", "coordinates": [-111.06086177955828, 45.665449139003115]}, "properties": {"id": "bozeman-150", "species_group": "plum", "scientific_name": "Prunus", "common_name": "Plum", "subtype_name": null, "zip_code": "59715", "ownership": "public", "ownership_raw": "City of Bozeman", "city": "Bozeman", "source_dataset": "Public Arborist", "source_department": "City of Bozeman", "source_last_edit_at": "2023-09-11T20:11:30.615000+00:00"}}, {"type": "Feature", "geometry": {"type": "Point", "coordinates": [-111.06085894100457, 45.665458629942314]}, "properties": {"id": "bozeman-151", "species_group": "plum", "scientific_name": "Prunus", "common_name": "Plum", "subtype_name": null, "zip_code": "59715", "ownership": "public", "ownership_raw": "City of Bozeman", "city": "Bozeman", "source_dataset": "Public Arborist", "source_department": "City of Bozeman", "source_last_edit_at": "2023-09-11T20:11:30.615000+00:00"}}, {"type": "Feature", "geometry": {"type": "Point", "coordinates": [-111.06086256645787, 45.665466478595945]}, "properties": {"id": "bozeman-152", "species_group": "plum", "scientific_name": "Prunus", "common_name": "Plum", "subtype_name": null, "zip_code": "59715", "ownership": "public", "ownership_raw": "City of Bozeman", "city": "Bozeman", "source_dataset": "Public Arborist", "source_department": "City of Bozeman", "source_last_edit_at": "2023-09-11T20:11:30.615000+00:00"}}, {"type": "Feature", "geometry": {"type": "Point", "coordinates": [-111.0514661216896, 45.663074624484175]}, "properties": {"id": "bozeman-188", "species_group": "crabapple", "scientific_name": "Malus ioensis", "common_name": "Apple (Flower Crab)", "subtype_name": "Apple (Flower Crab)", "zip_code": "59715", "ownership": "public", "ownership_raw": "City of Bozeman", "city": "Bozeman", "source_dataset": "Public Arborist", "source_department": "City of Bozeman", "source_last_edit_at": "2023-09-11T20:11:30.615000+00:00"}}, {"type": "Feature", "geometry": {"type": "Point", "coordinates": [-111.04912901943058, 45.65751223405367]}, "properties": {"id": "bozeman-201", "species_group": "crabapple", "scientific_name": "Malus", "common_name": "Apple (Flower Crab)", "subtype_name": "Apple (Flower Crab)", "zip_code": "59715", "ownership": "public", "ownership_raw": "City of Bozeman", "city": "Bozeman", "source_dataset": "Public Arborist", "source_department": "City of Bozeman", "source_last_edit_at": "2023-09-11T20:11:30.615000+00:00"}}, {"type": "Feature", "geometry": {"type": "Point", "coordinates": [-111.04707887548011, 45.658391417812595]}, "properties": {"id": "bozeman-202", "species_group": "crabapple", "scientific_name": "Malus", "common_name": "Apple (Flower Crab)", "subtype_name": "Apple (Flower Crab)", "zip_code": "59715", "ownership": "public", "ownership_raw": "City of Bozeman", "city": "Bozeman", "source_dataset": "Public Arborist", "source_department": "City of Bozeman", "source_last_edit_at": "2023-09-11T20:11:30.615000+00:00"}}, {"type": "Feature", "geometry": {"type": "Point", "coordinates": [-111.04755673678949, 45.65872189877001]}, "properties": {"id": "bozeman-203", "species_group": "crabapple", "scientific_name": "Malus", "common_name": "Apple (Flower Crab)", "subtype_name": "Apple (Flower Crab)", "zip_code": "59715", "ownership": "public", "ownership_raw": "City of Bozeman", "city": "Bozeman", "source_dataset": "Public Arborist", "source_department": "City of Bozeman", "source_last_edit_at": "2023-09-11T20:11:30.615000+00:00"}}, {"type": "Feature", "geometry": {"type": "Point", "coordinates": [-111.04703617117289, 45.65838874613038]}, "properties": {"id": "bozeman-209", "species_group": "crabapple", "scientific_name": "Malus", "common_name": "Apple (Flower Crab)", "subtype_name": "Apple (Flower Crab)", "zip_code": "59715", "ownership": "public", "ownership_raw": "City of Bozeman", "city": "Bozeman", "source_dataset": "Public Arborist", "source_department": "City of Bozeman", "source_last_edit_at": "2023-09-11T20:11:30.615000+00:00"}}, {"type": "Feature", "geometry": {"type": "Point", "coordinates": [-111.04751434603006, 45.65869710764636]}, "properties": {"id": "bozeman-210", "species_group": "crabapple", "scientific_name": "Malus", "common_name": "Apple (Flower Crab)", "subtype_name": "Apple (Flower Crab)", "zip_code": "59715", "ownership": "public", "ownership_raw": "City of Bozeman", "city": "Bozeman", "source_dataset": "Public Arborist", "source_department": "City of Bozeman", "source_last_edit_at": "2023-09-11T20:11:30.615000+00:00"}}, {"type": "Feature", "geometry": {"type": "Point", "coordinates": [-111.0487986944528, 45.65727110973032]}, "properties": {"id": "bozeman-211", "species_group": "crabapple", "scientific_name": "Malus", "common_name": "Apple (Flower Crab)", "subtype_name": "Apple (Flower Crab)", "zip_code": "59715", "ownership": "public", "ownership_raw": "City of Bozeman", "city": "Bozeman", "source_dataset": "Public Arborist", "source_department": "City of Bozeman", "source_last_edit_at": "2023-09-11T20:11:30.615000+00:00"}}, {"type": "Feature", "geometry": {"type": "Point", "coordinates": [-111.05768655358916, 45.670927637036115]}, "properties": {"id": "bozeman-2254", "species_group": "crabapple", "scientific_name": "Malus", "common_name": "Crabapple", "subtype_name": null, "zip_code": "59715", "ownership": "public", "ownership_raw": "City of Bozeman", "city": "Bozeman", "source_dataset": "Public Arborist", "source_department": "City of Bozeman", "source_last_edit_at": "2023-09-11T20:11:30.615000+00:00"}}, {"type": "Feature", "geometry": {"type": "Point", "coordinates": [-111.05858918233304, 45.670984658095925]}, "properties": {"id": "bozeman-2265", "species_group": "cherry", "scientific_name": "Prunus maackii", "common_name": "Chokecherry", "subtype_name": "Chokecherry", "zip_code": "59715", "ownership": "public", "ownership_raw": "City of Bozeman", "city": "Bozeman", "source_dataset": "Public Arborist", "source_department": "City of Bozeman", "source_last_edit_at": "2023-09-11T20:11:30.615000+00:00"}}, {"type": "Feature", "geometry": {"type": "Point", "coordinates": [-111.04770566046142, 45.66828119957782]}, "properties": {"id": "bozeman-228", "species_group": "crabapple", "scientific_name": "Malus", "common_name": "Crabapple", "subtype_name": null, "zip_code": "59715", "ownership": "public", "ownership_raw": "City of Bozeman", "city": "Bozeman", "source_dataset": "Public Arborist", "source_department": "City of Bozeman", "source_last_edit_at": "2023-09-11T20:11:30.615000+00:00"}}, {"type": "Feature", "geometry": {"type": "Point", "coordinates": [-111.06173693896508, 45.667748598075825]}, "properties": {"id": "bozeman-2293", "species_group": "crabapple", "scientific_name": "Malus", "common_name": "Flowering Crabapple", "subtype_name": "Flowering Crabapple", "zip_code": "59715", "ownership": "public", "ownership_raw": "City of Bozeman", "city": "Bozeman", "source_dataset": "Public Arborist", "source_department": "City of Bozeman", "source_last_edit_at": "2023-09-11T20:11:30.615000+00:00"}}, {"type": "Feature", "geometry": {"type": "Point", "coordinates": [-111.06108803240235, 45.666912096787556]}, "properties": {"id": "bozeman-2338", "species_group": "crabapple", "scientific_name": "Malus", "common_name": "Flowering Crabapple", "subtype_name": "Flowering Crabapple", "zip_code": "59715", "ownership": "public", "ownership_raw": "City of Bozeman", "city": "Bozeman", "source_dataset": "Public Arborist", "source_department": "City of Bozeman", "source_last_edit_at": "2023-09-11T20:11:30.615000+00:00"}}, {"type": "Feature", "geometry": {"type": "Point", "coordinates": [-111.06072564788145, 45.66731046316597]}, "properties": {"id": "bozeman-2346", "species_group": "crabapple", "scientific_name": "Malus", "common_name": "Flowering Crabapple", "subtype_name": "Flowering Crabapple", "zip_code": "59715", "ownership": "public", "ownership_raw": "City of Bozeman", "city": "Bozeman", "source_dataset": "Public Arborist", "source_department": "City of Bozeman", "source_last_edit_at": "2023-09-11T20:11:30.615000+00:00"}}, {"type": "Feature", "geometry": {"type": "Point", "coordinates": [-111.0604076146337, 45.66727200703735]}, "properties": {"id": "bozeman-2347", "species_group": "crabapple", "scientific_name": "Malus species", "common_name": "Flowering Crabapple", "subtype_name": "Flowering Crabapple", "zip_code": "59715", "ownership": "public", "ownership_raw": "City of Bozeman", "city": "Bozeman", "source_dataset": "Public Arborist", "source_department": "City of Bozeman", "source_last_edit_at": "2023-09-11T20:11:30.615000+00:00"}}, {"type": "Feature", "geometry": {"type": "Point", "coordinates": [-111.05998503800738, 45.66737302715216]}, "properties": {"id": "bozeman-2366", "species_group": "crabapple", "scientific_name": "Malus", "common_name": "Flowering Crabapple", "subtype_name": "Flowering Crabapple", "zip_code": "59715", "ownership": "public", "ownership_raw": "City of Bozeman", "city": "Bozeman", "source_dataset": "Public Arborist", "source_department": "City of Bozeman", "source_last_edit_at": "2023-09-11T20:11:30.615000+00:00"}}, {"type": "Feature", "geometry": {"type": "Point", "coordinates": [-111.05897202633496, 45.66666063201785]}, "properties": {"id": "bozeman-2379", "species_group": "crabapple", "scientific_name": "Malus species", "common_name": "Flowering Crabapple", "subtype_name": "Flowering Crabapple", "zip_code": "59715", "ownership": "public", "ownership_raw": "City of Bozeman", "city": "Bozeman", "source_dataset": "Public Arborist", "source_department": "City of Bozeman", "source_last_edit_at": "2023-09-11T20:11:30.615000+00:00"}}, {"type": "Feature", "geometry": {"type": "Point", "coordinates": [-111.05819323808784, 45.66672545985492]}, "properties": {"id": "bozeman-2383", "species_group": "crabapple", "scientific_name": "Malus species", "common_name": "Flowering Crabapple", "subtype_name": "Flowering Crabapple", "zip_code": "59715", "ownership": "public", "ownership_raw": "City of Bozeman", "city": "Bozeman", "source_dataset": "Public Arborist", "source_department": "City of Bozeman", "source_last_edit_at": "2023-09-11T20:11:30.615000+00:00"}}, {"type": "Feature", "geometry": {"type": "Point", "coordinates": [-111.05812460084606, 45.667050038901]}, "properties": {"id": "bozeman-2497", "species_group": "crabapple", "scientific_name": "Malus", "common_name": "Flowering Crabapple", "subtype_name": "Flowering Crabapple", "zip_code": "59715", "ownership": "public", "ownership_raw": "City of Bozeman", "city": "Bozeman", "source_dataset": "Public Arborist", "source_department": "City of Bozeman", "source_last_edit_at": "2023-09-11T20:11:30.615000+00:00"}}, {"type": "Feature", "geometry": {"type": "Point", "coordinates": [-111.05818634309985, 45.66707062595247]}, "properties": {"id": "bozeman-2498", "species_group": "crabapple", "scientific_name": "Malus", "common_name": "Flowering Crabapple", "subtype_name": "Flowering Crabapple", "zip_code": "59715", "ownership": "public", "ownership_raw": "City of Bozeman", "city": "Bozeman", "source_dataset": "Public Arborist", "source_department": "City of Bozeman", "source_last_edit_at": "2023-09-11T20:11:30.615000+00:00"}}, {"type": "Feature", "geometry": {"type": "Point", "coordinates": [-111.05814202192286, 45.667100236269754]}, "properties": {"id": "bozeman-2499", "species_group": "crabapple", "scientific_name": "Malus", "common_name": "Flowering Crabapple", "subtype_name": "Flowering Crabapple", "zip_code": "59715", "ownership": "public", "ownership_raw": "City of Bozeman", "city": "Bozeman", "source_dataset": "Public Arborist", "source_department": "City of Bozeman", "source_last_edit_at": "2023-09-11T20:11:30.615000+00:00"}}, {"type": "Feature", "geometry": {"type": "Point", "coordinates": [-111.05023317507063, 45.668625122684]}, "properties": {"id": "bozeman-250", "species_group": "crabapple", "scientific_name": "Malus", "common_name": "Apple (Flower Crab)", "subtype_name": "Apple (Flower Crab)", "zip_code": "59715", "ownership": "public", "ownership_raw": "City of Bozeman", "city": "Bozeman", "source_dataset": "Public Arborist", "source_department": "City of Bozeman", "source_last_edit_at": "2023-09-11T20:11:30.615000+00:00"}}, {"type": "Feature", "geometry": {"type": "Point", "coordinates": [-111.0500021559057, 45.668629275579974]}, "properties": {"id": "bozeman-251", "species_group": "crabapple", "scientific_name": "Malus", "common_name": "Apple (Flower Crab)", "subtype_name": "Apple (Flower Crab)", "zip_code": "59715", "ownership": "public", "ownership_raw": "City of Bozeman", "city": "Bozeman", "source_dataset": "Public Arborist", "source_department": "City of Bozeman", "source_last_edit_at": "2023-09-11T20:11:30.615000+00:00"}}, {"type": "Feature", "geometry": {"type": "Point", "coordinates": [-111.049528549646, 45.66856449342426]}, "properties": {"id": "bozeman-252", "species_group": "crabapple", "scientific_name": "Malus", "common_name": "Apple (Flower Crab)", "subtype_name": "Apple (Flower Crab)", "zip_code": "59715", "ownership": "public", "ownership_raw": "City of Bozeman", "city": "Bozeman", "source_dataset": "Public Arborist", "source_department": "City of Bozeman", "source_last_edit_at": "2023-09-11T20:11:30.615000+00:00"}}, {"type": "Feature", "geometry": {"type": "Point", "coordinates": [-111.04946109675555, 45.668410412001975]}, "properties": {"id": "bozeman-253", "species_group": "crabapple", "scientific_name": "Malus", "common_name": "Apple (Flower Crab)", "subtype_name": "Apple (Flower Crab)", "zip_code": "59715", "ownership": "public", "ownership_raw": "City of Bozeman", "city": "Bozeman", "source_dataset": "Public Arborist", "source_department": "City of Bozeman", "source_last_edit_at": "2023-09-11T20:11:30.615000+00:00"}}, {"type": "Feature", "geometry": {"type": "Point", "coordinates": [-111.04943246164875, 45.66862595009376]}, "properties": {"id": "bozeman-254", "species_group": "crabapple", "scientific_name": "Malus", "common_name": "Apple (Flower Crab)", "subtype_name": "Apple (Flower Crab)", "zip_code": "59715", "ownership": "public", "ownership_raw": "City of Bozeman", "city": "Bozeman", "source_dataset": "Public Arborist", "source_department": "City of Bozeman", "source_last_edit_at": "2023-09-11T20:11:30.615000+00:00"}}, {"type": "Feature", "geometry": {"type": "Point", "coordinates": [-111.04943148181928, 45.66861652593567]}, "properties": {"id": "bozeman-255", "species_group": "crabapple", "scientific_name": "Malus", "common_name": "Apple (Flower Crab)", "subtype_name": "Apple (Flower Crab)", "zip_code": "59715", "ownership": "public", "ownership_raw": "City of Bozeman", "city": "Bozeman", "source_dataset": "Public Arborist", "source_department": "City of Bozeman", "source_last_edit_at": "2023-09-11T20:11:30.615000+00:00"}}, {"type": "Feature", "geometry": {"type": "Point", "coordinates": [-111.04947929218156, 45.668660076318595]}, "properties": {"id": "bozeman-256", "species_group": "crabapple", "scientific_name": "Malus", "common_name": "Apple (Flower Crab)", "subtype_name": "Apple (Flower Crab)", "zip_code": "59715", "ownership": "public", "ownership_raw": "City of Bozeman", "city": "Bozeman", "source_dataset": "Public Arborist", "source_department": "City of Bozeman", "source_last_edit_at": "2023-09-11T20:11:30.615000+00:00"}}, {"type": "Feature", "geometry": {"type": "Point", "coordinates": [-111.04522212621644, 45.66809330355839]}, "properties": {"id": "bozeman-2642", "species_group": "crabapple", "scientific_name": "Malus x", "common_name": "Flowering Crab", "subtype_name": "Flowering Crab", "zip_code": "59715", "ownership": "public", "ownership_raw": "City of Bozeman", "city": "Bozeman", "source_dataset": "Public Arborist", "source_department": "City of Bozeman", "source_last_edit_at": "2023-09-11T20:11:30.615000+00:00"}}, {"type": "Feature", "geometry": {"type": "Point", "coordinates": [-111.05481601442685, 45.67004184365253]}, "properties": {"id": "bozeman-300", "species_group": "crabapple", "scientific_name": "Malus", "common_name": "Apple (Flower Crab)", "subtype_name": "Apple (Flower Crab)", "zip_code": "59715", "ownership": "public", "ownership_raw": "City of Bozeman", "city": "Bozeman", "source_dataset": "Public Arborist", "source_department": "City of Bozeman", "source_last_edit_at": "2023-09-11T20:11:30.615000+00:00"}}, {"type": "Feature", "geometry": {"type": "Point", "coordinates": [-111.05472374129457, 45.67005956661989]}, "properties": {"id": "bozeman-301", "species_group": "crabapple", "scientific_name": "Malus", "common_name": "Apple (Flower Crab)", "subtype_name": "Apple (Flower Crab)", "zip_code": "59715", "ownership": "public", "ownership_raw": "City of Bozeman", "city": "Bozeman", "source_dataset": "Public Arborist", "source_department": "City of Bozeman", "source_last_edit_at": "2023-09-11T20:11:30.615000+00:00"}}, {"type": "Feature", "geometry": {"type": "Point", "coordinates": [-111.05351110504088, 45.66672957463662]}, "properties": {"id": "bozeman-308", "species_group": "cherry", "scientific_name": "Prunus padus", "common_name": "Mayday Tree", "subtype_name": "Mayday Tree", "zip_code": "59715", "ownership": "public", "ownership_raw": "City of Bozeman", "city": "Bozeman", "source_dataset": "Public Arborist", "source_department": "City of Bozeman", "source_last_edit_at": "2023-09-11T20:11:30.615000+00:00"}}, {"type": "Feature", "geometry": {"type": "Point", "coordinates": [-111.05318153266639, 45.666714570265086]}, "properties": {"id": "bozeman-309", "species_group": "cherry", "scientific_name": "Prunus padus", "common_name": "Mayday Tree", "subtype_name": "Mayday Tree", "zip_code": "59715", "ownership": "public", "ownership_raw": "City of Bozeman", "city": "Bozeman", "source_dataset": "Public Arborist", "source_department": "City of Bozeman", "source_last_edit_at": "2023-09-11T20:11:30.615000+00:00"}}, {"type": "Feature", "geometry": {"type": "Point", "coordinates": [-111.05229155034054, 45.666957698774006]}, "properties": {"id": "bozeman-316", "species_group": "crabapple", "scientific_name": "Malus", "common_name": "Apple", "subtype_name": "Apple", "zip_code": "59715", "ownership": "public", "ownership_raw": "City of Bozeman", "city": "Bozeman", "source_dataset": "Public Arborist", "source_department": "City of Bozeman", "source_last_edit_at": "2023-09-11T20:11:30.615000+00:00"}}, {"type": "Feature", "geometry": {"type": "Point", "coordinates": [-111.05227874432215, 45.667079462070596]}, "properties": {"id": "bozeman-317", "species_group": "crabapple", "scientific_name": "Malus", "common_name": "Apple (Flower Crab)", "subtype_name": "Apple (Flower Crab)", "zip_code": "59715", "ownership": "public", "ownership_raw": "City of Bozeman", "city": "Bozeman", "source_dataset": "Public Arborist", "source_department": "City of Bozeman", "source_last_edit_at": "2023-09-11T20:11:30.615000+00:00"}}, {"type": "Feature", "geometry": {"type": "Point", "coordinates": [-111.05230339365099, 45.667116484343055]}, "properties": {"id": "bozeman-318", "species_group": "crabapple", "scientific_name": "Malus", "common_name": "Apple (Flower Crab)", "subtype_name": "Apple (Flower Crab)", "zip_code": "59715", "ownership": "public", "ownership_raw": "City of Bozeman", "city": "Bozeman", "source_dataset": "Public Arborist", "source_department": "City of Bozeman", "source_last_edit_at": "2023-09-11T20:11:30.615000+00:00"}}, {"type": "Feature", "geometry": {"type": "Point", "coordinates": [-111.05231255061824, 45.66715967136868]}, "properties": {"id": "bozeman-319", "species_group": "crabapple", "scientific_name": "Malus", "common_name": "Apple (Flower Crab)", "subtype_name": "Apple (Flower Crab)", "zip_code": "59715", "ownership": "public", "ownership_raw": "City of Bozeman", "city": "Bozeman", "source_dataset": "Public Arborist", "source_department": "City of Bozeman", "source_last_edit_at": "2023-09-11T20:11:30.615000+00:00"}}, {"type": "Feature", "geometry": {"type": "Point", "coordinates": [-111.0479447991484, 45.66357184564959]}, "properties": {"id": "bozeman-32", "species_group": "crabapple", "scientific_name": "Malus x", "common_name": "Flowering Crabapple", "subtype_name": "Flowering Crabapple", "zip_code": "59715", "ownership": "public", "ownership_raw": "City of Bozeman", "city": "Bozeman", "source_dataset": "Public Arborist", "source_department": "City of Bozeman", "source_last_edit_at": "2023-09-11T20:11:30.615000+00:00"}}, {"type": "Feature", "geometry": {"type": "Point", "coordinates": [-111.05230037228871, 45.6672551327515]}, "properties": {"id": "bozeman-320", "species_group": "crabapple", "scientific_name": "Malus", "common_name": "Apple (Flower Crab)", "subtype_name": "Apple (Flower Crab)", "zip_code": "59715", "ownership": "public", "ownership_raw": "City of Bozeman", "city": "Bozeman", "source_dataset": "Public Arborist", "source_department": "City of Bozeman", "source_last_edit_at": "2023-09-11T20:11:30.615000+00:00"}}, {"type": "Feature", "geometry": {"type": "Point", "coordinates": [-111.05226966527142, 45.66729395864338]}, "properties": {"id": "bozeman-321", "species_group": "crabapple", "scientific_name": "Malus", "common_name": "Apple (Flower Crab)", "subtype_name": "Apple (Flower Crab)", "zip_code": "59715", "ownership": "public", "ownership_raw": "City of Bozeman", "city": "Bozeman", "source_dataset": "Public Arborist", "source_department": "City of Bozeman", "source_last_edit_at": "2023-09-11T20:11:30.615000+00:00"}}, {"type": "Feature", "geometry": {"type": "Point", "coordinates": [-111.0522225737652, 45.66733414737036]}, "properties": {"id": "bozeman-322", "species_group": "crabapple", "scientific_name": "Malus", "common_name": "Apple (Flower Crab)", "subtype_name": "Apple (Flower Crab)", "zip_code": "59715", "ownership": "public", "ownership_raw": "City of Bozeman", "city": "Bozeman", "source_dataset": "Public Arborist", "source_department": "City of Bozeman", "source_last_edit_at": "2023-09-11T20:11:30.615000+00:00"}}, {"type": "Feature", "geometry": {"type": "Point", "coordinates": [-111.05277297823417, 45.66592590662663]}, "properties": {"id": "bozeman-345", "species_group": "crabapple", "scientific_name": "Malus", "common_name": "Selkirk Crabapple", "subtype_name": "Selkirk Crabapple", "zip_code": "59715", "ownership": "public", "ownership_raw": "City of Bozeman", "city": "Bozeman", "source_dataset": "Public Arborist", "source_department": "City of Bozeman", "source_last_edit_at": "2023-09-11T20:11:30.615000+00:00"}}, {"type": "Feature", "geometry": {"type": "Point", "coordinates": [-111.05285477786569, 45.66588446096384]}, "properties": {"id": "bozeman-346", "species_group": "crabapple", "scientific_name": "Malus", "common_name": "Selkirk Crabapple", "subtype_name": "Selkirk Crabapple", "zip_code": "59715", "ownership": "public", "ownership_raw": "City of Bozeman", "city": "Bozeman", "source_dataset": "Public Arborist", "source_department": "City of Bozeman", "source_last_edit_at": "2023-09-11T20:11:30.615000+00:00"}}, {"type": "Feature", "geometry": {"type": "Point", "coordinates": [-111.05294070505329, 45.66584714290822]}, "properties": {"id": "bozeman-347", "species_group": "crabapple", "scientific_name": "Malus", "common_name": "Selkirk Crabapple", "subtype_name": "Selkirk Crabapple", "zip_code": "59715", "ownership": "public", "ownership_raw": "City of Bozeman", "city": "Bozeman", "source_dataset": "Public Arborist", "source_department": "City of Bozeman", "source_last_edit_at": "2023-09-11T20:11:30.615000+00:00"}}, {"type": "Feature", "geometry": {"type": "Point", "coordinates": [-111.05304561511382, 45.665792632488454]}, "properties": {"id": "bozeman-348", "species_group": "crabapple", "scientific_name": "Malus", "common_name": "Selkirk Crabapple", "subtype_name": "Selkirk Crabapple", "zip_code": "59715", "ownership": "public", "ownership_raw": "City of Bozeman", "city": "Bozeman", "source_dataset": "Public Arborist", "source_department": "City of Bozeman", "source_last_edit_at": "2023-09-11T20:11:30.615000+00:00"}}, {"type": "Feature", "geometry": {"type": "Point", "coordinates": [-111.04715006320721, 45.66507746595085]}, "properties": {"id": "bozeman-35", "species_group": "cherry", "scientific_name": "Prunus maackii", "common_name": "Amur Cherry", "subtype_name": "Amur Cherry", "zip_code": "59715", "ownership": "public", "ownership_raw": "City of Bozeman", "city": "Bozeman", "source_dataset": "Public Arborist", "source_department": "City of Bozeman", "source_last_edit_at": "2023-09-11T20:11:30.615000+00:00"}}, {"type": "Feature", "geometry": {"type": "Point", "coordinates": [-111.05231004086069, 45.666356131703296]}, "properties": {"id": "bozeman-354", "species_group": "crabapple", "scientific_name": "Malus", "common_name": "Apple", "subtype_name": "Apple", "zip_code": "59715", "ownership": "public", "ownership_raw": "City of Bozeman", "city": "Bozeman", "source_dataset": "Public Arborist", "source_department": "City of Bozeman", "source_last_edit_at": "2023-09-11T20:11:30.615000+00:00"}}, {"type": "Feature", "geometry": {"type": "Point", "coordinates": [-111.0522650634422, 45.666219687919316]}, "properties": {"id": "bozeman-355", "species_group": "crabapple", "scientific_name": "Malus", "common_name": "Apple (Flower Crab)", "subtype_name": "Apple (Flower Crab)", "zip_code": "59715", "ownership": "public", "ownership_raw": "City of Bozeman", "city": "Bozeman", "source_dataset": "Public Arborist", "source_department": "City of Bozeman", "source_last_edit_at": "2023-09-11T20:11:30.615000+00:00"}}, {"type": "Feature", "geometry": {"type": "Point", "coordinates": [-111.04774259680738, 45.66507105104802]}, "properties": {"id": "bozeman-36", "species_group": "cherry", "scientific_name": "Prunus maackii", "common_name": "Amur Cherry", "subtype_name": "Amur Cherry", "zip_code": "59715", "ownership": "public", "ownership_raw": "City of Bozeman", "city": "Bozeman", "source_dataset": "Public Arborist", "source_department": "City of Bozeman", "source_last_edit_at": "2023-09-11T20:11:30.615000+00:00"}}, {"type": "Feature", "geometry": {"type": "Point", "coordinates": [-111.05859703324548, 45.670986071707915]}, "properties": {"id": "bozeman-3669", "species_group": "cherry", "scientific_name": "Prunus maackii", "common_name": "Chokecherry", "subtype_name": "Chokecherry", "zip_code": "59715", "ownership": "public", "ownership_raw": "City of Bozeman", "city": "Bozeman", "source_dataset": "Public Arborist", "source_department": "City of Bozeman", "source_last_edit_at": "2023-09-11T20:11:30.615000+00:00"}}, {"type": "Feature", "geometry": {"type": "Point", "coordinates": [-111.04941688169728, 45.669057204183154]}, "properties": {"id": "bozeman-367", "species_group": "crabapple", "scientific_name": "Malus", "common_name": "Selkirk Crabapple", "subtype_name": "Selkirk Crabapple", "zip_code": "59715", "ownership": "public", "ownership_raw": "City of Bozeman", "city": "Bozeman", "source_dataset": "Public Arborist", "source_department": "City of Bozeman", "source_last_edit_at": "2023-09-11T20:11:30.615000+00:00"}}, {"type": "Feature", "geometry": {"type": "Point", "coordinates": [-111.04941522768388, 45.669122672036146]}, "properties": {"id": "bozeman-368", "species_group": "crabapple", "scientific_name": "Malus", "common_name": "Selkirk Crabapple", "subtype_name": "Selkirk Crabapple", "zip_code": "59715", "ownership": "public", "ownership_raw": "City of Bozeman", "city": "Bozeman", "source_dataset": "Public Arborist", "source_department": "City of Bozeman", "source_last_edit_at": "2023-09-11T20:11:30.615000+00:00"}}, {"type": "Feature", "geometry": {"type": "Point", "coordinates": [-111.0494145484891, 45.66919483829798]}, "properties": {"id": "bozeman-369", "species_group": "crabapple", "scientific_name": "Malus", "common_name": "Selkirk Crabapple", "subtype_name": "Selkirk Crabapple", "zip_code": "59715", "ownership": "public", "ownership_raw": "City of Bozeman", "city": "Bozeman", "source_dataset": "Public Arborist", "source_department": "City of Bozeman", "source_last_edit_at": "2023-09-11T20:11:30.615000+00:00"}}, {"type": "Feature", "geometry": {"type": "Point", "coordinates": [-111.04941548154459, 45.66926703440993]}, "properties": {"id": "bozeman-370", "species_group": "crabapple", "scientific_name": "Malus", "common_name": "Selkirk Crabapple", "subtype_name": "Selkirk Crabapple", "zip_code": "59715", "ownership": "public", "ownership_raw": "City of Bozeman", "city": "Bozeman", "source_dataset": "Public Arborist", "source_department": "City of Bozeman", "source_last_edit_at": "2023-09-11T20:11:30.615000+00:00"}}, {"type": "Feature", "geometry": {"type": "Point", "coordinates": [-111.05496881592734, 45.66631863438058]}, "properties": {"id": "bozeman-3707", "species_group": "cherry", "scientific_name": "Prunus maackii", "common_name": "Amur Cherry", "subtype_name": "Amur Cherry", "zip_code": "59715", "ownership": "public", "ownership_raw": "City of Bozeman", "city": "Bozeman", "source_dataset": "Public Arborist", "source_department": "City of Bozeman", "source_last_edit_at": "2023-09-11T20:11:30.615000+00:00"}}, {"type": "Feature", "geometry": {"type": "Point", "coordinates": [-111.04941493578752, 45.669336922204415]}, "properties": {"id": "bozeman-371", "species_group": "crabapple", "scientific_name": "Malus", "common_name": "Selkirk Crabapple", "subtype_name": "Selkirk Crabapple", "zip_code": "59715", "ownership": "public", "ownership_raw": "City of Bozeman", "city": "Bozeman", "source_dataset": "Public Arborist", "source_department": "City of Bozeman", "source_last_edit_at": "2023-09-11T20:11:30.615000+00:00"}}, {"type": "Feature", "geometry": {"type": "Point", "coordinates": [-111.05024922699539, 45.66662927148193]}, "properties": {"id": "bozeman-379", "species_group": "crabapple", "scientific_name": "Malus", "common_name": "Apple (Flower Crab)", "subtype_name": "Apple (Flower Crab)", "zip_code": "59715", "ownership": "public", "ownership_raw": "City of Bozeman", "city": "Bozeman", "source_dataset": "Public Arborist", "source_department": "City of Bozeman", "source_last_edit_at": "2023-09-11T20:11:30.615000+00:00"}}, {"type": "Feature", "geometry": {"type": "Point", "coordinates": [-111.05157245247852, 45.66655217128597]}, "properties": {"id": "bozeman-397", "species_group": "crabapple", "scientific_name": "Malus", "common_name": "Apple (Flower Crab)", "subtype_name": "Apple (Flower Crab)", "zip_code": "59715", "ownership": "public", "ownership_raw": "City of Bozeman", "city": "Bozeman", "source_dataset": "Public Arborist", "source_department": "City of Bozeman", "source_last_edit_at": "2023-09-11T20:11:30.615000+00:00"}}, {"type": "Feature", "geometry": {"type": "Point", "coordinates": [-111.04916885018244, 45.6650596974296]}, "properties": {"id": "bozeman-4", "species_group": "crabapple", "scientific_name": "Malus", "common_name": "Apple", "subtype_name": "Apple", "zip_code": "59715", "ownership": "public", "ownership_raw": "City of Bozeman", "city": "Bozeman", "source_dataset": "Public Arborist", "source_department": "City of Bozeman", "source_last_edit_at": "2023-09-11T20:11:30.615000+00:00"}}, {"type": "Feature", "geometry": {"type": "Point", "coordinates": [-111.0469379016717, 45.66583592752677]}, "properties": {"id": "bozeman-401", "species_group": "crabapple", "scientific_name": "Malus", "common_name": "Apple (Flower Crab)", "subtype_name": "Apple (Flower Crab)", "zip_code": "59715", "ownership": "public", "ownership_raw": "City of Bozeman", "city": "Bozeman", "source_dataset": "Public Arborist", "source_department": "City of Bozeman", "source_last_edit_at": "2023-09-11T20:11:30.615000+00:00"}}, {"type": "Feature", "geometry": {"type": "Point", "coordinates": [-111.04559674193979, 45.66628400239401]}, "properties": {"id": "bozeman-420", "species_group": "crabapple", "scientific_name": "Malus", "common_name": "Apple (Flower Crab)", "subtype_name": "Apple (Flower Crab)", "zip_code": "59715", "ownership": "public", "ownership_raw": "City of Bozeman", "city": "Bozeman", "source_dataset": "Public Arborist", "source_department": "City of Bozeman", "source_last_edit_at": "2023-09-11T20:11:30.615000+00:00"}}, {"type": "Feature", "geometry": {"type": "Point", "coordinates": [-111.04559352145036, 45.66603735425368]}, "properties": {"id": "bozeman-421", "species_group": "crabapple", "scientific_name": "Malus", "common_name": "Apple (Flower Crab)", "subtype_name": "Apple (Flower Crab)", "zip_code": "59715", "ownership": "public", "ownership_raw": "City of Bozeman", "city": "Bozeman", "source_dataset": "Public Arborist", "source_department": "City of Bozeman", "source_last_edit_at": "2023-09-11T20:11:30.615000+00:00"}}, {"type": "Feature", "geometry": {"type": "Point", "coordinates": [-111.04758382894481, 45.66692490135104]}, "properties": {"id": "bozeman-435", "species_group": "crabapple", "scientific_name": "Malus", "common_name": "Apple (Flower Crab)", "subtype_name": "Apple (Flower Crab)", "zip_code": "59715", "ownership": "public", "ownership_raw": "City of Bozeman", "city": "Bozeman", "source_dataset": "Public Arborist", "source_department": "City of Bozeman", "source_last_edit_at": "2023-09-11T20:11:30.615000+00:00"}}, {"type": "Feature", "geometry": {"type": "Point", "coordinates": [-111.04747279709467, 45.666956943045534]}, "properties": {"id": "bozeman-436", "species_group": "crabapple", "scientific_name": "Malus", "common_name": "Apple (Flower Crab)", "subtype_name": "Apple (Flower Crab)", "zip_code": "59715", "ownership": "public", "ownership_raw": "City of Bozeman", "city": "Bozeman", "source_dataset": "Public Arborist", "source_department": "City of Bozeman", "source_last_edit_at": "2023-09-11T20:11:30.615000+00:00"}}, {"type": "Feature", "geometry": {"type": "Point", "coordinates": [-111.04843345389328, 45.668136064478695]}, "properties": {"id": "bozeman-474", "species_group": "cherry", "scientific_name": "Prunus padus", "common_name": "Mayday Tree", "subtype_name": "Mayday Tree", "zip_code": "59715", "ownership": "public", "ownership_raw": "City of Bozeman", "city": "Bozeman", "source_dataset": "Public Arborist", "source_department": "City of Bozeman", "source_last_edit_at": "2023-09-11T20:11:30.615000+00:00"}}, {"type": "Feature", "geometry": {"type": "Point", "coordinates": [-111.04823906952383, 45.668090399903676]}, "properties": {"id": "bozeman-475", "species_group": "crabapple", "scientific_name": "Malus", "common_name": "Apple (Flower Crab)", "subtype_name": "Apple (Flower Crab)", "zip_code": "59715", "ownership": "public", "ownership_raw": "City of Bozeman", "city": "Bozeman", "source_dataset": "Public Arborist", "source_department": "City of Bozeman", "source_last_edit_at": "2023-09-11T20:11:30.615000+00:00"}}, {"type": "Feature", "geometry": {"type": "Point", "coordinates": [-111.04850759558872, 45.665330650600474]}, "properties": {"id": "bozeman-478", "species_group": "crabapple", "scientific_name": "Malus", "common_name": "Apple (Flower Crab)", "subtype_name": "Apple (Flower Crab)", "zip_code": "59715", "ownership": "public", "ownership_raw": "City of Bozeman", "city": "Bozeman", "source_dataset": "Public Arborist", "source_department": "City of Bozeman", "source_last_edit_at": "2023-09-11T20:11:30.615000+00:00"}}, {"type": "Feature", "geometry": {"type": "Point", "coordinates": [-111.04851604216496, 45.66540626497373]}, "properties": {"id": "bozeman-479", "species_group": "crabapple", "scientific_name": "Malus", "common_name": "Apple (Flower Crab)", "subtype_name": "Apple (Flower Crab)", "zip_code": "59715", "ownership": "public", "ownership_raw": "City of Bozeman", "city": "Bozeman", "source_dataset": "Public Arborist", "source_department": "City of Bozeman", "source_last_edit_at": "2023-09-11T20:11:30.615000+00:00"}}, {"type": "Feature", "geometry": {"type": "Point", "coordinates": [-111.04862059343023, 45.66583640307325]}, "properties": {"id": "bozeman-481", "species_group": "crabapple", "scientific_name": "Malus", "common_name": "Apple (Flower Crab)", "subtype_name": "Apple (Flower Crab)", "zip_code": "59715", "ownership": "public", "ownership_raw": "City of Bozeman", "city": "Bozeman", "source_dataset": "Public Arborist", "source_department": "City of Bozeman", "source_last_edit_at": "2023-09-11T20:11:30.615000+00:00"}}, {"type": "Feature", "geometry": {"type": "Point", "coordinates": [-111.04863322358159, 45.665474588023]}, "properties": {"id": "bozeman-482", "species_group": "crabapple", "scientific_name": "Malus", "common_name": "Apple", "subtype_name": "Apple", "zip_code": "59715", "ownership": "public", "ownership_raw": "City of Bozeman", "city": "Bozeman", "source_dataset": "Public Arborist", "source_department": "City of Bozeman", "source_last_edit_at": "2023-09-11T20:11:30.615000+00:00"}}, {"type": "Feature", "geometry": {"type": "Point", "coordinates": [-111.04886733160178, 45.66540771912706]}, "properties": {"id": "bozeman-484", "species_group": "crabapple", "scientific_name": "Malus", "common_name": "Apple (Flower Crab)", "subtype_name": "Apple (Flower Crab)", "zip_code": "59715", "ownership": "public", "ownership_raw": "City of Bozeman", "city": "Bozeman", "source_dataset": "Public Arborist", "source_department": "City of Bozeman", "source_last_edit_at": "2023-09-11T20:11:30.615000+00:00"}}, {"type": "Feature", "geometry": {"type": "Point", "coordinates": [-111.04961177801349, 45.66315585105772]}, "properties": {"id": "bozeman-5", "species_group": "crabapple", "scientific_name": "Malus", "common_name": "Flowering Crabapple", "subtype_name": "Flowering Crabapple", "zip_code": "59715", "ownership": "public", "ownership_raw": "City of Bozeman", "city": "Bozeman", "source_dataset": "Public Arborist", "source_department": "City of Bozeman", "source_last_edit_at": "2023-09-11T20:11:30.615000+00:00"}}, {"type": "Feature", "geometry": {"type": "Point", "coordinates": [-111.04916763414796, 45.66586946876653]}, "properties": {"id": "bozeman-500", "species_group": "crabapple", "scientific_name": "Malus", "common_name": "Apple (Flower Crab)", "subtype_name": "Apple (Flower Crab)", "zip_code": "59715", "ownership": "public", "ownership_raw": "City of Bozeman", "city": "Bozeman", "source_dataset": "Public Arborist", "source_department": "City of Bozeman", "source_last_edit_at": "2023-09-11T20:11:30.615000+00:00"}}, {"type": "Feature", "geometry": {"type": "Point", "coordinates": [-111.04909482194526, 45.6659613911369]}, "properties": {"id": "bozeman-501", "species_group": "crabapple", "scientific_name": "Malus", "common_name": "Apple (Flower Crab)", "subtype_name": "Apple (Flower Crab)", "zip_code": "59715", "ownership": "public", "ownership_raw": "City of Bozeman", "city": "Bozeman", "source_dataset": "Public Arborist", "source_department": "City of Bozeman", "source_last_edit_at": "2023-09-11T20:11:30.615000+00:00"}}, {"type": "Feature", "geometry": {"type": "Point", "coordinates": [-111.04898620238595, 45.66590534922389]}, "properties": {"id": "bozeman-502", "species_group": "crabapple", "scientific_name": "Malus", "common_name": "Apple (Flower Crab)", "subtype_name": "Apple (Flower Crab)", "zip_code": "59715", "ownership": "public", "ownership_raw": "City of Bozeman", "city": "Bozeman", "source_dataset": "Public Arborist", "source_department": "City of Bozeman", "source_last_edit_at": "2023-09-11T20:11:30.615000+00:00"}}, {"type": "Feature", "geometry": {"type": "Point", "coordinates": [-111.04900425913972, 45.666251607290626]}, "properties": {"id": "bozeman-503", "species_group": "crabapple", "scientific_name": "Malus", "common_name": "Apple (Flower Crab)", "subtype_name": "Apple (Flower Crab)", "zip_code": "59715", "ownership": "public", "ownership_raw": "City of Bozeman", "city": "Bozeman", "source_dataset": "Public Arborist", "source_department": "City of Bozeman", "source_last_edit_at": "2023-09-11T20:11:30.615000+00:00"}}, {"type": "Feature", "geometry": {"type": "Point", "coordinates": [-111.04906026747446, 45.66630694391117]}, "properties": {"id": "bozeman-504", "species_group": "crabapple", "scientific_name": "Malus", "common_name": "Apple (Flower Crab)", "subtype_name": "Apple (Flower Crab)", "zip_code": "59715", "ownership": "public", "ownership_raw": "City of Bozeman", "city": "Bozeman", "source_dataset": "Public Arborist", "source_department": "City of Bozeman", "source_last_edit_at": "2023-09-11T20:11:30.615000+00:00"}}, {"type": "Feature", "geometry": {"type": "Point", "coordinates": [-111.04931841136319, 45.666325909236356]}, "properties": {"id": "bozeman-505", "species_group": "crabapple", "scientific_name": "Malus", "common_name": "Apple (Flower Crab)", "subtype_name": "Apple (Flower Crab)", "zip_code": "59715", "ownership": "public", "ownership_raw": "City of Bozeman", "city": "Bozeman", "source_dataset": "Public Arborist", "source_department": "City of Bozeman", "source_last_edit_at": "2023-09-11T20:11:30.615000+00:00"}}, {"type": "Feature", "geometry": {"type": "Point", "coordinates": [-111.04955134990557, 45.66592449594662]}, "properties": {"id": "bozeman-513", "species_group": "crabapple", "scientific_name": "Malus", "common_name": "Apple (Flower Crab)", "subtype_name": "Apple (Flower Crab)", "zip_code": "59715", "ownership": "public", "ownership_raw": "City of Bozeman", "city": "Bozeman", "source_dataset": "Public Arborist", "source_department": "City of Bozeman", "source_last_edit_at": "2023-09-11T20:11:30.615000+00:00"}}, {"type": "Feature", "geometry": {"type": "Point", "coordinates": [-111.04958785404207, 45.66596648548243]}, "properties": {"id": "bozeman-514", "species_group": "crabapple", "scientific_name": "Malus", "common_name": "Apple (Flower Crab)", "subtype_name": "Apple (Flower Crab)", "zip_code": "59715", "ownership": "public", "ownership_raw": "City of Bozeman", "city": "Bozeman", "source_dataset": "Public Arborist", "source_department": "City of Bozeman", "source_last_edit_at": "2023-09-11T20:11:30.615000+00:00"}}, {"type": "Feature", "geometry": {"type": "Point", "coordinates": [-111.04966713200658, 45.665945470403706]}, "properties": {"id": "bozeman-515", "species_group": "crabapple", "scientific_name": "Malus", "common_name": "Apple (Flower Crab)", "subtype_name": "Apple (Flower Crab)", "zip_code": "59715", "ownership": "public", "ownership_raw": "City of Bozeman", "city": "Bozeman", "source_dataset": "Public Arborist", "source_department": "City of Bozeman", "source_last_edit_at": "2023-09-11T20:11:30.615000+00:00"}}, {"type": "Feature", "geometry": {"type": "Point", "coordinates": [-111.0497945024679, 45.666272444431826]}, "properties": {"id": "bozeman-516", "species_group": "crabapple", "scientific_name": "Malus", "common_name": "Apple (Flower Crab)", "subtype_name": "Apple (Flower Crab)", "zip_code": "59715", "ownership": "public", "ownership_raw": "City of Bozeman", "city": "Bozeman", "source_dataset": "Public Arborist", "source_department": "City of Bozeman", "source_last_edit_at": "2023-09-11T20:11:30.615000+00:00"}}, {"type": "Feature", "geometry": {"type": "Point", "coordinates": [-111.04969414709197, 45.666331078107895]}, "properties": {"id": "bozeman-517", "species_group": "crabapple", "scientific_name": "Malus", "common_name": "Apple (Flower Crab)", "subtype_name": "Apple (Flower Crab)", "zip_code": "59715", "ownership": "public", "ownership_raw": "City of Bozeman", "city": "Bozeman", "source_dataset": "Public Arborist", "source_department": "City of Bozeman", "source_last_edit_at": "2023-09-11T20:11:30.615000+00:00"}}, {"type": "Feature", "geometry": {"type": "Point", "coordinates": [-111.0494699317944, 45.66633385554723]}, "properties": {"id": "bozeman-518", "species_group": "crabapple", "scientific_name": "Malus", "common_name": "Apple (Flower Crab)", "subtype_name": "Apple (Flower Crab)", "zip_code": "59715", "ownership": "public", "ownership_raw": "City of Bozeman", "city": "Bozeman", "source_dataset": "Public Arborist", "source_department": "City of Bozeman", "source_last_edit_at": "2023-09-11T20:11:30.615000+00:00"}}, {"type": "Feature", "geometry": {"type": "Point", "coordinates": [-111.04953717382953, 45.66648719711261]}, "properties": {"id": "bozeman-545", "species_group": "crabapple", "scientific_name": "Malus", "common_name": "Apple (Flower Crab)", "subtype_name": "Apple (Flower Crab)", "zip_code": "59715", "ownership": "public", "ownership_raw": "City of Bozeman", "city": "Bozeman", "source_dataset": "Public Arborist", "source_department": "City of Bozeman", "source_last_edit_at": "2023-09-11T20:11:30.615000+00:00"}}, {"type": "Feature", "geometry": {"type": "Point", "coordinates": [-111.04949066621904, 45.66646808998868]}, "properties": {"id": "bozeman-546", "species_group": "crabapple", "scientific_name": "Malus", "common_name": "Apple (Flower Crab)", "subtype_name": "Apple (Flower Crab)", "zip_code": "59715", "ownership": "public", "ownership_raw": "City of Bozeman", "city": "Bozeman", "source_dataset": "Public Arborist", "source_department": "City of Bozeman", "source_last_edit_at": "2023-09-11T20:11:30.615000+00:00"}}, {"type": "Feature", "geometry": {"type": "Point", "coordinates": [-111.04948771490305, 45.666667300296474]}, "properties": {"id": "bozeman-547", "species_group": "crabapple", "scientific_name": "Malus", "common_name": "Apple (Flower Crab)", "subtype_name": "Apple (Flower Crab)", "zip_code": "59715", "ownership": "public", "ownership_raw": "City of Bozeman", "city": "Bozeman", "source_dataset": "Public Arborist", "source_department": "City of Bozeman", "source_last_edit_at": "2023-09-11T20:11:30.615000+00:00"}}, {"type": "Feature", "geometry": {"type": "Point", "coordinates": [-111.04931324707375, 45.666654801281396]}, "properties": {"id": "bozeman-548", "species_group": "crabapple", "scientific_name": "Malus", "common_name": "Apple (Flower Crab)", "subtype_name": "Apple (Flower Crab)", "zip_code": "59715", "ownership": "public", "ownership_raw": "City of Bozeman", "city": "Bozeman", "source_dataset": "Public Arborist", "source_department": "City of Bozeman", "source_last_edit_at": "2023-09-11T20:11:30.615000+00:00"}}, {"type": "Feature", "geometry": {"type": "Point", "coordinates": [-111.04932148949734, 45.66647477297232]}, "properties": {"id": "bozeman-549", "species_group": "crabapple", "scientific_name": "Malus", "common_name": "Apple (Flower Crab)", "subtype_name": "Apple (Flower Crab)", "zip_code": "59715", "ownership": "public", "ownership_raw": "City of Bozeman", "city": "Bozeman", "source_dataset": "Public Arborist", "source_department": "City of Bozeman", "source_last_edit_at": "2023-09-11T20:11:30.615000+00:00"}}, {"type": "Feature", "geometry": {"type": "Point", "coordinates": [-111.05140736024794, 45.66362989907784]}, "properties": {"id": "bozeman-55", "species_group": "crabapple", "scientific_name": "Malus", "common_name": "Apple", "subtype_name": "Apple", "zip_code": "59715", "ownership": "public", "ownership_raw": "City of Bozeman", "city": "Bozeman", "source_dataset": "Public Arborist", "source_department": "City of Bozeman", "source_last_edit_at": "2023-09-11T20:11:30.615000+00:00"}}, {"type": "Feature", "geometry": {"type": "Point", "coordinates": [-111.04923849875088, 45.66649869834098]}, "properties": {"id": "bozeman-550", "species_group": "crabapple", "scientific_name": "Malus", "common_name": "Apple (Flower Crab)", "subtype_name": "Apple (Flower Crab)", "zip_code": "59715", "ownership": "public", "ownership_raw": "City of Bozeman", "city": "Bozeman", "source_dataset": "Public Arborist", "source_department": "City of Bozeman", "source_last_edit_at": "2023-09-11T20:11:30.615000+00:00"}}, {"type": "Feature", "geometry": {"type": "Point", "coordinates": [-111.04924369154271, 45.666526114063345]}, "properties": {"id": "bozeman-551", "species_group": "crabapple", "scientific_name": "Malus", "common_name": "Apple (Flower Crab)", "subtype_name": "Apple (Flower Crab)", "zip_code": "59715", "ownership": "public", "ownership_raw": "City of Bozeman", "city": "Bozeman", "source_dataset": "Public Arborist", "source_department": "City of Bozeman", "source_last_edit_at": "2023-09-11T20:11:30.615000+00:00"}}, {"type": "Feature", "geometry": {"type": "Point", "coordinates": [-111.04932844820718, 45.66666620127316]}, "properties": {"id": "bozeman-554", "species_group": "crabapple", "scientific_name": "Malus", "common_name": "Apple (Flower Crab)", "subtype_name": "Apple (Flower Crab)", "zip_code": "59715", "ownership": "public", "ownership_raw": "City of Bozeman", "city": "Bozeman", "source_dataset": "Public Arborist", "source_department": "City of Bozeman", "source_last_edit_at": "2023-09-11T20:11:30.615000+00:00"}}, {"type": "Feature", "geometry": {"type": "Point", "coordinates": [-111.04923757587757, 45.66679149637163]}, "properties": {"id": "bozeman-555", "species_group": "crabapple", "scientific_name": "Malus", "common_name": "Apple (Flower Crab)", "subtype_name": "Apple (Flower Crab)", "zip_code": "59715", "ownership": "public", "ownership_raw": "City of Bozeman", "city": "Bozeman", "source_dataset": "Public Arborist", "source_department": "City of Bozeman", "source_last_edit_at": "2023-09-11T20:11:30.615000+00:00"}}, {"type": "Feature", "geometry": {"type": "Point", "coordinates": [-111.04933268553087, 45.66677719713902]}, "properties": {"id": "bozeman-556", "species_group": "crabapple", "scientific_name": "Malus", "common_name": "Apple (Flower Crab)", "subtype_name": "Apple (Flower Crab)", "zip_code": "59715", "ownership": "public", "ownership_raw": "City of Bozeman", "city": "Bozeman", "source_dataset": "Public Arborist", "source_department": "City of Bozeman", "source_last_edit_at": "2023-09-11T20:11:30.615000+00:00"}}, {"type": "Feature", "geometry": {"type": "Point", "coordinates": [-111.04931569339095, 45.66691227897846]}, "properties": {"id": "bozeman-557", "species_group": "crabapple", "scientific_name": "Malus", "common_name": "Apple (Flower Crab)", "subtype_name": "Apple (Flower Crab)", "zip_code": "59715", "ownership": "public", "ownership_raw": "City of Bozeman", "city": "Bozeman", "source_dataset": "Public Arborist", "source_department": "City of Bozeman", "source_last_edit_at": "2023-09-11T20:11:30.615000+00:00"}}, {"type": "Feature", "geometry": {"type": "Point", "coordinates": [-111.05154498789149, 45.66361096359025]}, "properties": {"id": "bozeman-56", "species_group": "crabapple", "scientific_name": "Malus", "common_name": "Apple", "subtype_name": "Apple", "zip_code": "59715", "ownership": "public", "ownership_raw": "City of Bozeman", "city": "Bozeman", "source_dataset": "Public Arborist", "source_department": "City of Bozeman", "source_last_edit_at": "2023-09-11T20:11:30.615000+00:00"}}, {"type": "Feature", "geometry": {"type": "Point", "coordinates": [-111.05026703009742, 45.6669723940215]}, "properties": {"id": "bozeman-560", "species_group": "crabapple", "scientific_name": "Malus", "common_name": "Apple (Flower Crab)", "subtype_name": "Apple (Flower Crab)", "zip_code": "59715", "ownership": "public", "ownership_raw": "City of Bozeman", "city": "Bozeman", "source_dataset": "Public Arborist", "source_department": "City of Bozeman", "source_last_edit_at": "2023-09-11T20:11:30.615000+00:00"}}, {"type": "Feature", "geometry": {"type": "Point", "coordinates": [-111.04917722733205, 45.6683764182431]}, "properties": {"id": "bozeman-608", "species_group": "crabapple", "scientific_name": "Malus", "common_name": "Apple (Flower Crab)", "subtype_name": "Apple (Flower Crab)", "zip_code": "59715", "ownership": "public", "ownership_raw": "City of Bozeman", "city": "Bozeman", "source_dataset": "Public Arborist", "source_department": "City of Bozeman", "source_last_edit_at": "2023-09-11T20:11:30.615000+00:00"}}, {"type": "Feature", "geometry": {"type": "Point", "coordinates": [-111.04944899504633, 45.668239821791275]}, "properties": {"id": "bozeman-609", "species_group": "crabapple", "scientific_name": "Malus", "common_name": "Apple (Flower Crab)", "subtype_name": "Apple (Flower Crab)", "zip_code": "59715", "ownership": "public", "ownership_raw": "City of Bozeman", "city": "Bozeman", "source_dataset": "Public Arborist", "source_department": "City of Bozeman", "source_last_edit_at": "2023-09-11T20:11:30.615000+00:00"}}, {"type": "Feature", "geometry": {"type": "Point", "coordinates": [-111.04940438398911, 45.66805555470914]}, "properties": {"id": "bozeman-610", "species_group": "crabapple", "scientific_name": "Malus", "common_name": "Apple (Flower Crab)", "subtype_name": "Apple (Flower Crab)", "zip_code": "59715", "ownership": "public", "ownership_raw": "City of Bozeman", "city": "Bozeman", "source_dataset": "Public Arborist", "source_department": "City of Bozeman", "source_last_edit_at": "2023-09-11T20:11:30.615000+00:00"}}, {"type": "Feature", "geometry": {"type": "Point", "coordinates": [-111.051080918854, 45.66875004153431]}, "properties": {"id": "bozeman-614", "species_group": "crabapple", "scientific_name": "Malus", "common_name": "Apple (Flower Crab)", "subtype_name": "Apple (Flower Crab)", "zip_code": "59715", "ownership": "public", "ownership_raw": "City of Bozeman", "city": "Bozeman", "source_dataset": "Public Arborist", "source_department": "City of Bozeman", "source_last_edit_at": "2023-09-11T20:11:30.615000+00:00"}}, {"type": "Feature", "geometry": {"type": "Point", "coordinates": [-111.0510829290691, 45.6686529831818]}, "properties": {"id": "bozeman-615", "species_group": "crabapple", "scientific_name": "Malus", "common_name": "Apple (Flower Crab)", "subtype_name": "Apple (Flower Crab)", "zip_code": "59715", "ownership": "public", "ownership_raw": "City of Bozeman", "city": "Bozeman", "source_dataset": "Public Arborist", "source_department": "City of Bozeman", "source_last_edit_at": "2023-09-11T20:11:30.615000+00:00"}}, {"type": "Feature", "geometry": {"type": "Point", "coordinates": [-111.05102627182941, 45.668371880494085]}, "properties": {"id": "bozeman-616", "species_group": "crabapple", "scientific_name": "Malus", "common_name": "Apple", "subtype_name": "Apple", "zip_code": "59715", "ownership": "public", "ownership_raw": "City of Bozeman", "city": "Bozeman", "source_dataset": "Public Arborist", "source_department": "City of Bozeman", "source_last_edit_at": "2023-09-11T20:11:30.615000+00:00"}}, {"type": "Feature", "geometry": {"type": "Point", "coordinates": [-111.05174034801136, 45.66842006049697]}, "properties": {"id": "bozeman-620", "species_group": "crabapple", "scientific_name": "Malus 'Hopa'", "common_name": "Apple (Flower Crab)", "subtype_name": "Apple (Flower Crab)", "zip_code": "59715", "ownership": "public", "ownership_raw": "City of Bozeman", "city": "Bozeman", "source_dataset": "Public Arborist", "source_department": "City of Bozeman", "source_last_edit_at": "2023-09-11T20:11:30.615000+00:00"}}, {"type": "Feature", "geometry": {"type": "Point", "coordinates": [-111.04882817912757, 45.668607716793645]}, "properties": {"id": "bozeman-638", "species_group": "crabapple", "scientific_name": "Malus", "common_name": "Apple", "subtype_name": "Apple", "zip_code": "59715", "ownership": "public", "ownership_raw": "City of Bozeman", "city": "Bozeman", "source_dataset": "Public Arborist", "source_department": "City of Bozeman", "source_last_edit_at": "2023-09-11T20:11:30.615000+00:00"}}, {"type": "Feature", "geometry": {"type": "Point", "coordinates": [-111.04807127600934, 45.66859098423459]}, "properties": {"id": "bozeman-640", "species_group": "crabapple", "scientific_name": "Malus", "common_name": "Apple (Flower Crab)", "subtype_name": "Apple (Flower Crab)", "zip_code": "59715", "ownership": "public", "ownership_raw": "City of Bozeman", "city": "Bozeman", "source_dataset": "Public Arborist", "source_department": "City of Bozeman", "source_last_edit_at": "2023-09-11T20:11:30.615000+00:00"}}, {"type": "Feature", "geometry": {"type": "Point", "coordinates": [-111.04803287576533, 45.66883407296671]}, "properties": {"id": "bozeman-641", "species_group": "crabapple", "scientific_name": "Malus", "common_name": "Apple (Flower Crab)", "subtype_name": "Apple (Flower Crab)", "zip_code": "59715", "ownership": "public", "ownership_raw": "City of Bozeman", "city": "Bozeman", "source_dataset": "Public Arborist", "source_department": "City of Bozeman", "source_last_edit_at": "2023-09-11T20:11:30.615000+00:00"}}, {"type": "Feature", "geometry": {"type": "Point", "coordinates": [-111.04925231957942, 45.668567515622556]}, "properties": {"id": "bozeman-647", "species_group": "crabapple", "scientific_name": "Malus", "common_name": "Apple (Flower Crab)", "subtype_name": "Apple (Flower Crab)", "zip_code": "59715", "ownership": "public", "ownership_raw": "City of Bozeman", "city": "Bozeman", "source_dataset": "Public Arborist", "source_department": "City of Bozeman", "source_last_edit_at": "2023-09-11T20:11:30.615000+00:00"}}, {"type": "Feature", "geometry": {"type": "Point", "coordinates": [-111.0492821763679, 45.668622321896315]}, "properties": {"id": "bozeman-648", "species_group": "crabapple", "scientific_name": "Malus", "common_name": "Donald Wyman Crab", "subtype_name": "Donald Wyman Crabapple", "zip_code": "59715", "ownership": "public", "ownership_raw": "City of Bozeman", "city": "Bozeman", "source_dataset": "Public Arborist", "source_department": "City of Bozeman", "source_last_edit_at": "2023-09-11T20:11:30.615000+00:00"}}, {"type": "Feature", "geometry": {"type": "Point", "coordinates": [-111.04922080526872, 45.66866688792755]}, "properties": {"id": "bozeman-649", "species_group": "crabapple", "scientific_name": "Malus", "common_name": "Donald Wyman Crab", "subtype_name": "Donald Wyman Crabapple", "zip_code": "59715", "ownership": "public", "ownership_raw": "City of Bozeman", "city": "Bozeman", "source_dataset": "Public Arborist", "source_department": "City of Bozeman", "source_last_edit_at": "2023-09-11T20:11:30.615000+00:00"}}, {"type": "Feature", "geometry": {"type": "Point", "coordinates": [-111.04922302813026, 45.668626488307105]}, "properties": {"id": "bozeman-650", "species_group": "crabapple", "scientific_name": "Malus", "common_name": "Donald Wyman Crab", "subtype_name": "Donald Wyman Crabapple", "zip_code": "59715", "ownership": "public", "ownership_raw": "City of Bozeman", "city": "Bozeman", "source_dataset": "Public Arborist", "source_department": "City of Bozeman", "source_last_edit_at": "2023-09-11T20:11:30.615000+00:00"}}, {"type": "Feature", "geometry": {"type": "Point", "coordinates": [-111.04972690215457, 45.66356209929196]}, "properties": {"id": "bozeman-7", "species_group": "crabapple", "scientific_name": "Malus", "common_name": "Flowering Crabapple", "subtype_name": "Flowering Crabapple", "zip_code": "59715", "ownership": "public", "ownership_raw": "City of Bozeman", "city": "Bozeman", "source_dataset": "Public Arborist", "source_department": "City of Bozeman", "source_last_edit_at": "2023-09-11T20:11:30.615000+00:00"}}, {"type": "Feature", "geometry": {"type": "Point", "coordinates": [-111.04565602611514, 45.667401006497904]}, "properties": {"id": "bozeman-752", "species_group": "crabapple", "scientific_name": "Malus", "common_name": "Apple (Flower Crab)", "subtype_name": "Apple (Flower Crab)", "zip_code": "59715", "ownership": "public", "ownership_raw": "City of Bozeman", "city": "Bozeman", "source_dataset": "Public Arborist", "source_department": "City of Bozeman", "source_last_edit_at": "2023-09-11T20:11:30.615000+00:00"}}, {"type": "Feature", "geometry": {"type": "Point", "coordinates": [-111.04590778501843, 45.66741012806362]}, "properties": {"id": "bozeman-753", "species_group": "crabapple", "scientific_name": "Malus", "common_name": "Apple", "subtype_name": "Apple", "zip_code": "59715", "ownership": "public", "ownership_raw": "City of Bozeman", "city": "Bozeman", "source_dataset": "Public Arborist", "source_department": "City of Bozeman", "source_last_edit_at": "2023-09-11T20:11:30.615000+00:00"}}, {"type": "Feature", "geometry": {"type": "Point", "coordinates": [-111.04623278464722, 45.66742888465653]}, "properties": {"id": "bozeman-754", "species_group": "crabapple", "scientific_name": "Malus", "common_name": "Apple (Flower Crab)", "subtype_name": "Apple (Flower Crab)", "zip_code": "59715", "ownership": "public", "ownership_raw": "City of Bozeman", "city": "Bozeman", "source_dataset": "Public Arborist", "source_department": "City of Bozeman", "source_last_edit_at": "2023-09-11T20:11:30.615000+00:00"}}, {"type": "Feature", "geometry": {"type": "Point", "coordinates": [-111.04624427568871, 45.66819385947923]}, "properties": {"id": "bozeman-755", "species_group": "crabapple", "scientific_name": "Malus", "common_name": "Apple (Flower Crab)", "subtype_name": "Apple (Flower Crab)", "zip_code": "59715", "ownership": "public", "ownership_raw": "City of Bozeman", "city": "Bozeman", "source_dataset": "Public Arborist", "source_department": "City of Bozeman", "source_last_edit_at": "2023-09-11T20:11:30.615000+00:00"}}, {"type": "Feature", "geometry": {"type": "Point", "coordinates": [-111.04777010596055, 45.66889240436069]}, "properties": {"id": "bozeman-768", "species_group": "crabapple", "scientific_name": "Malus", "common_name": "Apple", "subtype_name": "Apple", "zip_code": "59715", "ownership": "public", "ownership_raw": "City of Bozeman", "city": "Bozeman", "source_dataset": "Public Arborist", "source_department": "City of Bozeman", "source_last_edit_at": "2023-09-11T20:11:30.615000+00:00"}}, {"type": "Feature", "geometry": {"type": "Point", "coordinates": [-111.04688236291804, 45.668117562694334]}, "properties": {"id": "bozeman-797", "species_group": "crabapple", "scientific_name": "Malus", "common_name": "Apple (Flower Crab)", "subtype_name": "Apple (Flower Crab)", "zip_code": "59715", "ownership": "public", "ownership_raw": "City of Bozeman", "city": "Bozeman", "source_dataset": "Public Arborist", "source_department": "City of Bozeman", "source_last_edit_at": "2023-09-11T20:11:30.615000+00:00"}}, {"type": "Feature", "geometry": {"type": "Point", "coordinates": [-111.04768787209898, 45.668166854509536]}, "properties": {"id": "bozeman-799", "species_group": "crabapple", "scientific_name": "Malus", "common_name": "Apple", "subtype_name": "Apple", "zip_code": "59715", "ownership": "public", "ownership_raw": "City of Bozeman", "city": "Bozeman", "source_dataset": "Public Arborist", "source_department": "City of Bozeman", "source_last_edit_at": "2023-09-11T20:11:30.615000+00:00"}}, {"type": "Feature", "geometry": {"type": "Point", "coordinates": [-111.04960471442851, 45.663551031473006]}, "properties": {"id": "bozeman-8", "species_group": "crabapple", "scientific_name": "Malus", "common_name": "Flowering Crabapple", "subtype_name": "Flowering Crabapple", "zip_code": "59715", "ownership": "public", "ownership_raw": "City of Bozeman", "city": "Bozeman", "source_dataset": "Public Arborist", "source_department": "City of Bozeman", "source_last_edit_at": "2023-09-11T20:11:30.615000+00:00"}}, {"type": "Feature", "geometry": {"type": "Point", "coordinates": [-111.04787165447337, 45.6686582358315]}, "properties": {"id": "bozeman-807", "species_group": "crabapple", "scientific_name": "Malus", "common_name": "Apple (Flower Crab)", "subtype_name": "Apple (Flower Crab)", "zip_code": "59715", "ownership": "public", "ownership_raw": "City of Bozeman", "city": "Bozeman", "source_dataset": "Public Arborist", "source_department": "City of Bozeman", "source_last_edit_at": "2023-09-11T20:11:30.615000+00:00"}}, {"type": "Feature", "geometry": {"type": "Point", "coordinates": [-111.04740073048971, 45.66848789364497]}, "properties": {"id": "bozeman-809", "species_group": "crabapple", "scientific_name": "Malus", "common_name": "Apple (Flower Crab)", "subtype_name": "Apple (Flower Crab)", "zip_code": "59715", "ownership": "public", "ownership_raw": "City of Bozeman", "city": "Bozeman", "source_dataset": "Public Arborist", "source_department": "City of Bozeman", "source_last_edit_at": "2023-09-11T20:11:30.615000+00:00"}}, {"type": "Feature", "geometry": {"type": "Point", "coordinates": [-111.05058628239331, 45.66735121416751]}, "properties": {"id": "bozeman-838", "species_group": "crabapple", "scientific_name": "Malus", "common_name": "Apple (Flower Crab)", "subtype_name": "Apple (Flower Crab)", "zip_code": "59715", "ownership": "public", "ownership_raw": "City of Bozeman", "city": "Bozeman", "source_dataset": "Public Arborist", "source_department": "City of Bozeman", "source_last_edit_at": "2023-09-11T20:11:30.615000+00:00"}}, {"type": "Feature", "geometry": {"type": "Point", "coordinates": [-111.05057975672689, 45.66734841779675]}, "properties": {"id": "bozeman-839", "species_group": "crabapple", "scientific_name": "Malus", "common_name": "Apple (Flower Crab)", "subtype_name": "Apple (Flower Crab)", "zip_code": "59715", "ownership": "public", "ownership_raw": "City of Bozeman", "city": "Bozeman", "source_dataset": "Public Arborist", "source_department": "City of Bozeman", "source_last_edit_at": "2023-09-11T20:11:30.615000+00:00"}}, {"type": "Feature", "geometry": {"type": "Point", "coordinates": [-111.05060413178506, 45.667535396793326]}, "properties": {"id": "bozeman-848", "species_group": "crabapple", "scientific_name": "Malus", "common_name": "Apple (Flower Crab)", "subtype_name": "Apple (Flower Crab)", "zip_code": "59715", "ownership": "public", "ownership_raw": "City of Bozeman", "city": "Bozeman", "source_dataset": "Public Arborist", "source_department": "City of Bozeman", "source_last_edit_at": "2023-09-11T20:11:30.615000+00:00"}}, {"type": "Feature", "geometry": {"type": "Point", "coordinates": [-111.05068501600766, 45.66743716342891]}, "properties": {"id": "bozeman-849", "species_group": "crabapple", "scientific_name": "Malus", "common_name": "Apple (Flower Crab)", "subtype_name": "Apple (Flower Crab)", "zip_code": "59715", "ownership": "public", "ownership_raw": "City of Bozeman", "city": "Bozeman", "source_dataset": "Public Arborist", "source_department": "City of Bozeman", "source_last_edit_at": "2023-09-11T20:11:30.615000+00:00"}}, {"type": "Feature", "geometry": {"type": "Point", "coordinates": [-111.05100838878049, 45.66743033950763]}, "properties": {"id": "bozeman-850", "species_group": "crabapple", "scientific_name": "Malus", "common_name": "Apple (Flower Crab)", "subtype_name": "Apple (Flower Crab)", "zip_code": "59715", "ownership": "public", "ownership_raw": "City of Bozeman", "city": "Bozeman", "source_dataset": "Public Arborist", "source_department": "City of Bozeman", "source_last_edit_at": "2023-09-11T20:11:30.615000+00:00"}}, {"type": "Feature", "geometry": {"type": "Point", "coordinates": [-111.04637072350606, 45.664555132461295]}, "properties": {"id": "bozeman-890", "species_group": "crabapple", "scientific_name": "Malus", "common_name": "Apple", "subtype_name": "Apple", "zip_code": "59715", "ownership": "public", "ownership_raw": "City of Bozeman", "city": "Bozeman", "source_dataset": "Public Arborist", "source_department": "City of Bozeman", "source_last_edit_at": "2023-09-11T20:11:30.615000+00:00"}}, {"type": "Feature", "geometry": {"type": "Point", "coordinates": [-111.0496673800202, 45.6635731127476]}, "properties": {"id": "bozeman-9", "species_group": "crabapple", "scientific_name": "Malus", "common_name": "Flowering Crabapple", "subtype_name": "Flowering Crabapple", "zip_code": "59715", "ownership": "public", "ownership_raw": "City of Bozeman", "city": "Bozeman", "source_dataset": "Public Arborist", "source_department": "City of Bozeman", "source_last_edit_at": "2023-09-11T20:11:30.615000+00:00"}}, {"type": "Feature", "geometry": {"type": "Point", "coordinates": [-111.05124362195278, 45.665298330391224]}, "properties": {"id": "bozeman-917", "species_group": "crabapple", "scientific_name": "Malus", "common_name": "Apple (Flower Crab)", "subtype_name": "Apple (Flower Crab)", "zip_code": "59715", "ownership": "public", "ownership_raw": "City of Bozeman", "city": "Bozeman", "source_dataset": "Public Arborist", "source_department": "City of Bozeman", "source_last_edit_at": "2023-09-11T20:11:30.615000+00:00"}}, {"type": "Feature", "geometry": {"type": "Point", "coordinates": [-111.04859602259924, 45.66529572281317]}, "properties": {"id": "bozeman-990", "species_group": "crabapple", "scientific_name": "Malus", "common_name": "Crabapple", "subtype_name": null, "zip_code": "59715", "ownership": "public", "ownership_raw": "City of Bozeman", "city": "Bozeman", "source_dataset": "Public Arborist", "source_department": "City of Bozeman", "source_last_edit_at": "2023-09-11T20:11:30.615000+00:00"}}, {"type": "Feature", "geometry": {"type": "Point", "coordinates": [-111.05308447240375, 45.6704276422134]}, "properties": {"id": "bozeman-993", "species_group": "cherry", "scientific_name": "Prunus cerasus", "common_name": "Meteor Cherry", "subtype_name": "Meteor Cherry", "zip_code": "59715", "ownership": "public", "ownership_raw": "City of Bozeman", "city": "Bozeman", "source_dataset": "Public Arborist", "source_department": "City of Bozeman", "source_last_edit_at": "2023-09-11T20:11:30.615000+00:00"}}, {"type": "Feature", "geometry": {"type": "Point", "coordinates": [-111.05310628420231, 45.67045361237529]}, "properties": {"id": "bozeman-994", "species_group": "cherry", "scientific_name": "Prunus cerasus", "common_name": "Meteor Cherry", "subtype_name": "Meteor Cherry", "zip_code": "59715", "ownership": "public", "ownership_raw": "City of Bozeman", "city": "Bozeman", "source_dataset": "Public Arborist", "source_department": "City of Bozeman", "source_last_edit_at": "2023-09-11T20:11:30.615000+00:00"}}, {"type": "Feature", "geometry": {"type": "Point", "coordinates": [-111.05308150617063, 45.670562683779515]}, "properties": {"id": "bozeman-995", "species_group": "plum", "scientific_name": "Prunus domestica", "common_name": "Mount Royal Plumb", "subtype_name": "European Plum", "zip_code": "59715", "ownership": "public", "ownership_raw": "City of Bozeman", "city": "Bozeman", "source_dataset": "Public Arborist", "source_department": "City of Bozeman", "source_last_edit_at": "2023-09-11T20:11:30.615000+00:00"}}]}