{"type": "FeatureCollection", "features": [{"type": "Feature", "geometry": {"type": "Point", "coordinates": [-77.09489200859832, 39.03432706481517]}, "properties": {"id": "garrett-park-1184", "species_group": "magnolia", "scientific_name": "Magnolia sp.", "common_name": "Magnolia sp.", "subtype_name": "Magnolia sp.", "zip_code": "20896", "ownership": "public", "ownership_raw": "Town of Garrett Park", "city": "Garrett Park", "source_dataset": "Garrett Park Tree Inventory", "source_department": "Town of Garrett Park", "source_last_edit_at": "2019-01-10T17:01:27+00:00"}}, {"type": "Feature", "geometry": {"type": "Point", "coordinates": [-77.09785953372955, 39.04203171507836]}, "properties": {"id": "garrett-park-12", "species_group": "cherry", "scientific_name": "Prunus sp.", "common_name": "Cherry sp.", "subtype_name": "Cherry sp.", "zip_code": "20896", "ownership": "public", "ownership_raw": "Town of Garrett Park", "city": "Garrett Park", "source_dataset": "Garrett Park Tree Inventory", "source_department": "Town of Garrett Park", "source_last_edit_at": "2019-01-10T17:01:27+00:00"}}, {"type": "Feature", "geometry": {"type": "Point", "coordinates": [-77.09377011302212, 39.03229552690156]}, "properties": {"id": "garrett-park-1202", "species_group": "crabapple", "scientific_name": "Malus sp.", "common_name": "Apple sp.", "subtype_name": "Apple sp.", "zip_code": "20896", "ownership": "public", "ownership_raw": "Town of Garrett Park", "city": "Garrett Park", "source_dataset": "Garrett Park Tree Inventory", "source_department": "Town of Garrett Park", "source_last_edit_at": "2019-01-10T17:01:27+00:00"}}, {"type": "Feature", "geometry": {"type": "Point", "coordinates": [-77.0940545876274, 39.03348383169568]}, "properties": {"id": "garrett-park-1252", "species_group": "magnolia", "scientific_name": "Magnolia 'Spectrum'", "common_name": "Magnolia", "subtype_name": "Magnolia 'Spectrum'", "zip_code": "20896", "ownership": "public", "ownership_raw": "Town of Garrett Park", "city": "Garrett Park", "source_dataset": "Garrett Park Tree Inventory", "source_department": "Town of Garrett Park", "source_last_edit_at": "2019-01-10T17:01:27+00:00"}}, {"type": "Feature", "geometry": {"type": "Point", "coordinates": [-77.09376532142642, 39.03342618337616]}, "properties": {"id": "garrett-park-1253", "species_group": "magnolia", "scientific_name": "Magnolia 'Galaxy'", "common_name": "Magnolia", "subtype_name": "Galaxy Magnolia", "zip_code": "20896", "ownership": "public", "ownership_raw": "Town of Garrett Park", "city": "Garrett Park", "source_dataset": "Garrett Park Tree Inventory", "source_department": "Town of Garrett Park", "source_last_edit_at": "2019-01-10T17:01:27+00:00"}}, {"type": "Feature", "geometry": {"type": "Point", "coordinates": [-77.09280897466459, 39.031744425691535]}, "properties": {"id": "garrett-park-1304", "species_group": "cherry", "scientific_name": "Prunus 'dream catcher'", "common_name": "Cherry", "subtype_name": "Prunus 'dream catcher'", "zip_code": "20896", "ownership": "public", "ownership_raw": "Town of Garrett Park", "city": "Garrett Park", "source_dataset": "Garrett Park Tree Inventory", "source_department": "Town of Garrett Park", "source_last_edit_at": "2019-01-10T17:01:27+00:00"}}, {"type": "Feature", "geometry": {"type": "Point", "coordinates": [-77.09353007772472, 39.032523995592385]}, "properties": {"id": "garrett-park-1328", "species_group": "cherry", "scientific_name": "Prunus 'snow goose'", "common_name": "Cherry", "subtype_name": "Snow Goose", "zip_code": "20896", "ownership": "public", "ownership_raw": "Town of Garrett Park", "city": "Garrett Park", "source_dataset": "Garrett Park Tree Inventory", "source_department": "Town of Garrett Park", "source_last_edit_at": "2019-01-10T17:01:27+00:00"}}, {"type": "Feature", "geometry": {"type": "Point", "coordinates": [-77.09367018656843, 39.03202045928134]}, "properties": {"id": "garrett-park-1330", "species_group": "magnolia", "scientific_name": "Magnolia acuminata", "common_name": "Cucumbertree", "subtype_name": "Cucumbertree", "zip_code": "20896", "ownership": "public", "ownership_raw": "Town of Garrett Park", "city": "Garrett Park", "source_dataset": "Garrett Park Tree Inventory", "source_department": "Town of Garrett Park", "source_last_edit_at": "2019-01-10T17:01:27+00:00"}}, {"type": "Feature", "geometry": {"type": "Point", "coordinates": [-77.09335381481935, 39.033135399145124]}, "properties": {"id": "garrett-park-1336", "species_group": "magnolia", "scientific_name": "Magnolia sp.", "common_name": "Magnolia sp.", "subtype_name": "Magnolia sp.", "zip_code": "20896", "ownership": "public", "ownership_raw": "Town of Garrett Park", "city": "Garrett Park", "source_dataset": "Garrett Park Tree Inventory", "source_department": "Town of Garrett Park", "source_last_edit_at": "2019-01-10T17:01:27+00:00"}}, {"type": "Feature", "geometry": {"type": "Point", "coordinates": [-77.09184160635994, 39.03405939523299]}, "properties": {"id": "garrett-park-1354", "species_group": "magnolia", "scientific_name": "Magnolia grandiflora", "common_name": "Southern magnolia", "subtype_name": "Southern Magnolia", "zip_code": "20896", "ownership": "public", "ownership_raw": "Town of Garrett Park", "city": "Garrett Park", "source_dataset": "Garrett Park Tree Inventory", "source_department": "Town of Garrett Park", "source_last_edit_at": "2019-01-10T17:01:27+00:00"}}, {"type": "Feature", "geometry": {"type": "Point", "coordinates": [-77.09187549570083, 39.034066886148324]}, "properties": {"id": "garrett-park-1356", "species_group": "magnolia", "scientific_name": "Magnolia grandiflora", "common_name": "Southern magnolia", "subtype_name": "Southern Magnolia", "zip_code": "20896", "ownership": "public", "ownership_raw": "Town of Garrett Park", "city": "Garrett Park", "source_dataset": "Garrett Park Tree Inventory", "source_department": "Town of Garrett Park", "source_last_edit_at": "2019-01-10T17:01:27+00:00"}}, {"type": "Feature", "geometry": {"type": "Point", "coordinates": [-77.09268064832884, 39.03432665748561]}, "properties": {"id": "garrett-park-1366", "species_group": "cherry", "scientific_name": "Prunus sp.", "common_name": "Cherry sp.", "subtype_name": "Cherry sp.", "zip_code": "20896", "ownership": "public", "ownership_raw": "Town of Garrett Park", "city": "Garrett Park", "source_dataset": "Garrett Park Tree Inventory", "source_department": "Town of Garrett Park", "source_last_edit_at": "2019-01-10T17:01:27+00:00"}}, {"type": "Feature", "geometry": {"type": "Point", "coordinates": [-77.09304322453693, 39.034992476680166]}, "properties": {"id": "garrett-park-1410", "species_group": "cherry", "scientific_name": "Prunus sp.", "common_name": "Cherry sp.", "subtype_name": "Cherry sp.", "zip_code": "20896", "ownership": "public", "ownership_raw": "Town of Garrett Park", "city": "Garrett Park", "source_dataset": "Garrett Park Tree Inventory", "source_department": "Town of Garrett Park", "source_last_edit_at": "2019-01-10T17:01:27+00:00"}}, {"type": "Feature", "geometry": {"type": "Point", "coordinates": [-77.09168995948983, 39.03424802161723]}, "properties": {"id": "garrett-park-1447", "species_group": "cherry", "scientific_name": "Prunus sp.", "common_name": "Cherry sp.", "subtype_name": "Cherry sp.", "zip_code": "20896", "ownership": "public", "ownership_raw": "Town of Garrett Park", "city": "Garrett Park", "source_dataset": "Garrett Park Tree Inventory", "source_department": "Town of Garrett Park", "source_last_edit_at": "2019-01-10T17:01:27+00:00"}}, {"type": "Feature", "geometry": {"type": "Point", "coordinates": [-77.0919215914364, 39.03581907299541]}, "properties": {"id": "garrett-park-1460", "species_group": "magnolia", "scientific_name": "Magnolia 'Spectrum'", "common_name": "Magnolia", "subtype_name": "Magnolia 'Spectrum'", "zip_code": "20896", "ownership": "public", "ownership_raw": "Town of Garrett Park", "city": "Garrett Park", "source_dataset": "Garrett Park Tree Inventory", "source_department": "Town of Garrett Park", "source_last_edit_at": "2019-01-10T17:01:27+00:00"}}, {"type": "Feature", "geometry": {"type": "Point", "coordinates": [-77.09193943435861, 39.035870564434276]}, "properties": {"id": "garrett-park-1461", "species_group": "magnolia", "scientific_name": "Magnolia 'Galaxy'", "common_name": "Magnolia", "subtype_name": "Galaxy Magnolia", "zip_code": "20896", "ownership": "public", "ownership_raw": "Town of Garrett Park", "city": "Garrett Park", "source_dataset": "Garrett Park Tree Inventory", "source_department": "Town of Garrett Park", "source_last_edit_at": "2019-01-10T17:01:27+00:00"}}, {"type": "Feature", "geometry": {"type": "Point", "coordinates": [-77.09175563873657, 39.032404915041084]}, "properties": {"id": "garrett-park-1514", "species_group": "cherry", "scientific_name": "Prunus subhirtella 'Autumnalis'", "common_name": "Higan cherry", "subtype_name": "Higan", "zip_code": "20896", "ownership": "public", "ownership_raw": "Town of Garrett Park", "city": "Garrett Park", "source_dataset": "Garrett Park Tree Inventory", "source_department": "Town of Garrett Park", "source_last_edit_at": "2019-01-10T17:01:27+00:00"}}, {"type": "Feature", "geometry": {"type": "Point", "coordinates": [-77.09153810037844, 39.031988322802114]}, "properties": {"id": "garrett-park-1518", "species_group": "cherry", "scientific_name": "Prunus 'dream catcher'", "common_name": "Cherry", "subtype_name": "Prunus 'dream catcher'", "zip_code": "20896", "ownership": "public", "ownership_raw": "Town of Garrett Park", "city": "Garrett Park", "source_dataset": "Garrett Park Tree Inventory", "source_department": "Town of Garrett Park", "source_last_edit_at": "2019-01-10T17:01:27+00:00"}}, {"type": "Feature", "geometry": {"type": "Point", "coordinates": [-77.09146268584442, 39.031914572992676]}, "properties": {"id": "garrett-park-1519", "species_group": "cherry", "scientific_name": "Prunus 'snow goose'", "common_name": "Cherry", "subtype_name": "Snow Goose", "zip_code": "20896", "ownership": "public", "ownership_raw": "Town of Garrett Park", "city": "Garrett Park", "source_dataset": "Garrett Park Tree Inventory", "source_department": "Town of Garrett Park", "source_last_edit_at": "2019-01-10T17:01:27+00:00"}}, {"type": "Feature", "geometry": {"type": "Point", "coordinates": [-77.09123770601553, 39.031708449796234]}, "properties": {"id": "garrett-park-1521", "species_group": "cherry", "scientific_name": "Prunus sp.", "common_name": "Cherry sp.", "subtype_name": "Cherry sp.", "zip_code": "20896", "ownership": "public", "ownership_raw": "Town of Garrett Park", "city": "Garrett Park", "source_dataset": "Garrett Park Tree Inventory", "source_department": "Town of Garrett Park", "source_last_edit_at": "2019-01-10T17:01:27+00:00"}}, {"type": "Feature", "geometry": {"type": "Point", "coordinates": [-77.09133796312523, 39.03162487171958]}, "properties": {"id": "garrett-park-1522", "species_group": "cherry", "scientific_name": "Prunus sp.", "common_name": "Cherry sp.", "subtype_name": "Cherry sp.", "zip_code": "20896", "ownership": "public", "ownership_raw": "Town of Garrett Park", "city": "Garrett Park", "source_dataset": "Garrett Park Tree Inventory", "source_department": "Town of Garrett Park", "source_last_edit_at": "2019-01-10T17:01:27+00:00"}}, {"type": "Feature", "geometry": {"type": "Point", "coordinates": [-77.09155468282574, 39.03168027252867]}, "properties": {"id": "garrett-park-1523", "species_group": "cherry", "scientific_name": "Prunus sp.", "common_name": "Cherry sp.", "subtype_name": "Cherry sp.", "zip_code": "20896", "ownership": "public", "ownership_raw": "Town of Garrett Park", "city": "Garrett Park", "source_dataset": "Garrett Park Tree Inventory", "source_department": "Town of Garrett Park", "source_last_edit_at": "2019-01-10T17:01:27+00:00"}}, {"type": "Feature", "geometry": {"type": "Point", "coordinates": [-77.09163589171806, 39.03183761915535]}, "properties": {"id": "garrett-park-1525", "species_group": "cherry", "scientific_name": "Prunus sp.", "common_name": "Cherry sp.", "subtype_name": "Cherry sp.", "zip_code": "20896", "ownership": "public", "ownership_raw": "Town of Garrett Park", "city": "Garrett Park", "source_dataset": "Garrett Park Tree Inventory", "source_department": "Town of Garrett Park", "source_last_edit_at": "2019-01-10T17:01:27+00:00"}}, {"type": "Feature", "geometry": {"type": "Point", "coordinates": [-77.09175638773155, 39.0320265624994]}, "properties": {"id": "garrett-park-1526", "species_group": "crabapple", "scientific_name": "Malus sargentii 'Candymint'", "common_name": "Sargent crabapple", "subtype_name": "Sargent Crabapple", "zip_code": "20896", "ownership": "public", "ownership_raw": "Town of Garrett Park", "city": "Garrett Park", "source_dataset": "Garrett Park Tree Inventory", "source_department": "Town of Garrett Park", "source_last_edit_at": "2019-01-10T17:01:27+00:00"}}, {"type": "Feature", "geometry": {"type": "Point", "coordinates": [-77.09170226278627, 39.031917472253554]}, "properties": {"id": "garrett-park-1527", "species_group": "cherry", "scientific_name": "Prunus 'Accolade'", "common_name": "Cherry", "subtype_name": "Accolade", "zip_code": "20896", "ownership": "public", "ownership_raw": "Town of Garrett Park", "city": "Garrett Park", "source_dataset": "Garrett Park Tree Inventory", "source_department": "Town of Garrett Park", "source_last_edit_at": "2019-01-10T17:01:27+00:00"}}, {"type": "Feature", "geometry": {"type": "Point", "coordinates": [-77.09257861415415, 39.03204100258751]}, "properties": {"id": "garrett-park-1541", "species_group": "crabapple", "scientific_name": "Malus sp.", "common_name": "Apple sp.", "subtype_name": "Apple sp.", "zip_code": "20896", "ownership": "public", "ownership_raw": "Town of Garrett Park", "city": "Garrett Park", "source_dataset": "Garrett Park Tree Inventory", "source_department": "Town of Garrett Park", "source_last_edit_at": "2019-01-10T17:01:27+00:00"}}, {"type": "Feature", "geometry": {"type": "Point", "coordinates": [-77.0916992780929, 39.0337282309673]}, "properties": {"id": "garrett-park-1550", "species_group": "cherry", "scientific_name": "Prunus sp.", "common_name": "Cherry sp.", "subtype_name": "Cherry sp.", "zip_code": "20896", "ownership": "public", "ownership_raw": "Town of Garrett Park", "city": "Garrett Park", "source_dataset": "Garrett Park Tree Inventory", "source_department": "Town of Garrett Park", "source_last_edit_at": "2019-01-10T17:01:27+00:00"}}, {"type": "Feature", "geometry": {"type": "Point", "coordinates": [-77.09172662086678, 39.03364753747685]}, "properties": {"id": "garrett-park-1552", "species_group": "cherry", "scientific_name": "Prunus sp.", "common_name": "Cherry sp.", "subtype_name": "Cherry sp.", "zip_code": "20896", "ownership": "public", "ownership_raw": "Town of Garrett Park", "city": "Garrett Park", "source_dataset": "Garrett Park Tree Inventory", "source_department": "Town of Garrett Park", "source_last_edit_at": "2019-01-10T17:01:27+00:00"}}, {"type": "Feature", "geometry": {"type": "Point", "coordinates": [-77.09174204356862, 39.0336115975021]}, "properties": {"id": "garrett-park-1553", "species_group": "cherry", "scientific_name": "Prunus sp.", "common_name": "Cherry sp.", "subtype_name": "Cherry sp.", "zip_code": "20896", "ownership": "public", "ownership_raw": "Town of Garrett Park", "city": "Garrett Park", "source_dataset": "Garrett Park Tree Inventory", "source_department": "Town of Garrett Park", "source_last_edit_at": "2019-01-10T17:01:27+00:00"}}, {"type": "Feature", "geometry": {"type": "Point", "coordinates": [-77.09182586260033, 39.03324959238939]}, "properties": {"id": "garrett-park-1557", "species_group": "cherry", "scientific_name": "Prunus sp.", "common_name": "Cherry sp.", "subtype_name": "Cherry sp.", "zip_code": "20896", "ownership": "public", "ownership_raw": "Town of Garrett Park", "city": "Garrett Park", "source_dataset": "Garrett Park Tree Inventory", "source_department": "Town of Garrett Park", "source_last_edit_at": "2019-01-10T17:01:27+00:00"}}, {"type": "Feature", "geometry": {"type": "Point", "coordinates": [-77.09398599999997, 39.03787552041654]}, "properties": {"id": "garrett-park-1685", "species_group": "magnolia", "scientific_name": "Magnolia macrophylla", "common_name": "Bigleaf magnolia", "subtype_name": "Bigleaf Magnolia", "zip_code": "20896", "ownership": "public", "ownership_raw": "Town of Garrett Park", "city": "Garrett Park", "source_dataset": "Garrett Park Tree Inventory", "source_department": "Town of Garrett Park", "source_last_edit_at": "2019-01-10T17:01:27+00:00"}}, {"type": "Feature", "geometry": {"type": "Point", "coordinates": [-77.09388545767212, 39.037584603270496]}, "properties": {"id": "garrett-park-1692", "species_group": "magnolia", "scientific_name": "Magnolia kobus var. loebneri", "common_name": "Loebner magnolia", "subtype_name": "Loebner Magnolia", "zip_code": "20896", "ownership": "public", "ownership_raw": "Town of Garrett Park", "city": "Garrett Park", "source_dataset": "Garrett Park Tree Inventory", "source_department": "Town of Garrett Park", "source_last_edit_at": "2019-01-10T17:01:27+00:00"}}, {"type": "Feature", "geometry": {"type": "Point", "coordinates": [-77.09353465029716, 39.03728064464258]}, "properties": {"id": "garrett-park-1699", "species_group": "magnolia", "scientific_name": "Magnolia virginiana 'Milton'", "common_name": "Sweetbay magnolia", "subtype_name": "Sweetbay Magnolia", "zip_code": "20896", "ownership": "public", "ownership_raw": "Town of Garrett Park", "city": "Garrett Park", "source_dataset": "Garrett Park Tree Inventory", "source_department": "Town of Garrett Park", "source_last_edit_at": "2019-01-10T17:01:27+00:00"}}, {"type": "Feature", "geometry": {"type": "Point", "coordinates": [-77.09131465029714, 39.035974145517955]}, "properties": {"id": "garrett-park-1718", "species_group": "magnolia", "scientific_name": "Magnolia sp.", "common_name": "Magnolia sp.", "subtype_name": "Magnolia sp.", "zip_code": "20896", "ownership": "public", "ownership_raw": "Town of Garrett Park", "city": "Garrett Park", "source_dataset": "Garrett Park Tree Inventory", "source_department": "Town of Garrett Park", "source_last_edit_at": "2019-01-10T17:01:27+00:00"}}, {"type": "Feature", "geometry": {"type": "Point", "coordinates": [-77.09146362086676, 39.03588989619893]}, "properties": {"id": "garrett-park-1728", "species_group": "crabapple", "scientific_name": "Malus sp.", "common_name": "Apple sp.", "subtype_name": "Apple sp.", "zip_code": "20896", "ownership": "public", "ownership_raw": "Town of Garrett Park", "city": "Garrett Park", "source_dataset": "Garrett Park Tree Inventory", "source_department": "Town of Garrett Park", "source_last_edit_at": "2019-01-10T17:01:27+00:00"}}, {"type": "Feature", "geometry": {"type": "Point", "coordinates": [-77.09150825644872, 39.03590510472201]}, "properties": {"id": "garrett-park-1729", "species_group": "crabapple", "scientific_name": "Malus sp.", "common_name": "Apple sp.", "subtype_name": "Apple sp.", "zip_code": "20896", "ownership": "public", "ownership_raw": "Town of Garrett Park", "city": "Garrett Park", "source_dataset": "Garrett Park Tree Inventory", "source_department": "Town of Garrett Park", "source_last_edit_at": "2019-01-10T17:01:27+00:00"}}, {"type": "Feature", "geometry": {"type": "Point", "coordinates": [-77.09155091534421, 39.03592427153718]}, "properties": {"id": "garrett-park-1730", "species_group": "crabapple", "scientific_name": "Malus sp.", "common_name": "Apple sp.", "subtype_name": "Apple sp.", "zip_code": "20896", "ownership": "public", "ownership_raw": "Town of Garrett Park", "city": "Garrett Park", "source_dataset": "Garrett Park Tree Inventory", "source_department": "Town of Garrett Park", "source_last_edit_at": "2019-01-10T17:01:27+00:00"}}, {"type": "Feature", "geometry": {"type": "Point", "coordinates": [-77.09175706134226, 39.03584005841801]}, "properties": {"id": "garrett-park-1733", "species_group": "cherry", "scientific_name": "Prunus subhirtella 'Autumnalis'", "common_name": "Higan cherry", "subtype_name": "Higan", "zip_code": "20896", "ownership": "public", "ownership_raw": "Town of Garrett Park", "city": "Garrett Park", "source_dataset": "Garrett Park Tree Inventory", "source_department": "Town of Garrett Park", "source_last_edit_at": "2019-01-10T17:01:27+00:00"}}, {"type": "Feature", "geometry": {"type": "Point", "coordinates": [-77.09129784846209, 39.0347733892269]}, "properties": {"id": "garrett-park-1759", "species_group": "cherry", "scientific_name": "Prunus sp.", "common_name": "Cherry sp.", "subtype_name": "Cherry sp.", "zip_code": "20896", "ownership": "public", "ownership_raw": "Town of Garrett Park", "city": "Garrett Park", "source_dataset": "Garrett Park Tree Inventory", "source_department": "Town of Garrett Park", "source_last_edit_at": "2019-01-10T17:01:27+00:00"}}, {"type": "Feature", "geometry": {"type": "Point", "coordinates": [-77.08954541716196, 39.032346936277776]}, "properties": {"id": "garrett-park-1901", "species_group": "magnolia", "scientific_name": "Magnolia sp.", "common_name": "Magnolia sp.", "subtype_name": "Magnolia sp.", "zip_code": "20896", "ownership": "public", "ownership_raw": "Town of Garrett Park", "city": "Garrett Park", "source_dataset": "Garrett Park Tree Inventory", "source_department": "Town of Garrett Park", "source_last_edit_at": "2019-01-10T17:01:27+00:00"}}, {"type": "Feature", "geometry": {"type": "Point", "coordinates": [-77.08869401981633, 39.03254640323867]}, "properties": {"id": "garrett-park-1908", "species_group": "cherry", "scientific_name": "Prunus sp.", "common_name": "Cherry sp.", "subtype_name": "Cherry sp.", "zip_code": "20896", "ownership": "public", "ownership_raw": "Town of Garrett Park", "city": "Garrett Park", "source_dataset": "Garrett Park Tree Inventory", "source_department": "Town of Garrett Park", "source_last_edit_at": "2019-01-10T17:01:27+00:00"}}, {"type": "Feature", "geometry": {"type": "Point", "coordinates": [-77.08900461474991, 39.03322074676684]}, "properties": {"id": "garrett-park-1924", "species_group": "cherry", "scientific_name": "Prunus sp.", "common_name": "Cherry sp.", "subtype_name": "Cherry sp.", "zip_code": "20896", "ownership": "public", "ownership_raw": "Town of Garrett Park", "city": "Garrett Park", "source_dataset": "Garrett Park Tree Inventory", "source_department": "Town of Garrett Park", "source_last_edit_at": "2019-01-10T17:01:27+00:00"}}, {"type": "Feature", "geometry": {"type": "Point", "coordinates": [-77.08848362490062, 39.03352577516732]}, "properties": {"id": "garrett-park-1959", "species_group": "magnolia", "scientific_name": "Magnolia sp.", "common_name": "Magnolia sp.", "subtype_name": "Magnolia sp.", "zip_code": "20896", "ownership": "public", "ownership_raw": "Town of Garrett Park", "city": "Garrett Park", "source_dataset": "Garrett Park Tree Inventory", "source_department": "Town of Garrett Park", "source_last_edit_at": "2019-01-10T17:01:27+00:00"}}, {"type": "Feature", "geometry": {"type": "Point", "coordinates": [-77.08828988325882, 39.03366307391044]}, "properties": {"id": "garrett-park-1963", "species_group": "magnolia", "scientific_name": "Magnolia sp.", "common_name": "Magnolia sp.", "subtype_name": "Magnolia sp.", "zip_code": "20896", "ownership": "public", "ownership_raw": "Town of Garrett Park", "city": "Garrett Park", "source_dataset": "Garrett Park Tree Inventory", "source_department": "Town of Garrett Park", "source_last_edit_at": "2019-01-10T17:01:27+00:00"}}, {"type": "Feature", "geometry": {"type": "Point", "coordinates": [-77.08827521230319, 39.03378095015046]}, "properties": {"id": "garrett-park-1968", "species_group": "magnolia", "scientific_name": "Magnolia stellata", "common_name": "Star magnolia", "subtype_name": "Star Magnolia", "zip_code": "20896", "ownership": "public", "ownership_raw": "Town of Garrett Park", "city": "Garrett Park", "source_dataset": "Garrett Park Tree Inventory", "source_department": "Town of Garrett Park", "source_last_edit_at": "2019-01-10T17:01:27+00:00"}}, {"type": "Feature", "geometry": {"type": "Point", "coordinates": [-77.08843953621101, 39.03390752577718]}, "properties": {"id": "garrett-park-1970", "species_group": "magnolia", "scientific_name": "Magnolia 'yellow fever'", "common_name": "Magnolia", "subtype_name": "Magnolia 'yellow fever'", "zip_code": "20896", "ownership": "public", "ownership_raw": "Town of Garrett Park", "city": "Garrett Park", "source_dataset": "Garrett Park Tree Inventory", "source_department": "Town of Garrett Park", "source_last_edit_at": "2019-01-10T17:01:27+00:00"}}, {"type": "Feature", "geometry": {"type": "Point", "coordinates": [-77.09092308465574, 39.03549252085547]}, "properties": {"id": "garrett-park-2005", "species_group": "magnolia", "scientific_name": "Magnolia virginiana var. australis", "common_name": "Southern sweetbay magnolia", "subtype_name": "Sweetbay Magnolia", "zip_code": "20896", "ownership": "public", "ownership_raw": "Town of Garrett Park", "city": "Garrett Park", "source_dataset": "Garrett Park Tree Inventory", "source_department": "Town of Garrett Park", "source_last_edit_at": "2019-01-10T17:01:27+00:00"}}, {"type": "Feature", "geometry": {"type": "Point", "coordinates": [-77.09076201471521, 39.03533214432587]}, "properties": {"id": "garrett-park-2010", "species_group": "magnolia", "scientific_name": "Magnolia 'yellow lantern'", "common_name": "Yellow-flowered magnolia", "subtype_name": "Yellow-flowered magnolia", "zip_code": "20896", "ownership": "public", "ownership_raw": "Town of Garrett Park", "city": "Garrett Park", "source_dataset": "Garrett Park Tree Inventory", "source_department": "Town of Garrett Park", "source_last_edit_at": "2019-01-10T17:01:27+00:00"}}, {"type": "Feature", "geometry": {"type": "Point", "coordinates": [-77.08959073743438, 39.035005730691]}, "properties": {"id": "garrett-park-2018", "species_group": "cherry", "scientific_name": "Cryptomeria japonica 'Yoshino'", "common_name": "Japanese cedar", "subtype_name": "Yoshino", "zip_code": "20896", "ownership": "public", "ownership_raw": "Town of Garrett Park", "city": "Garrett Park", "source_dataset": "Garrett Park Tree Inventory", "source_department": "Town of Garrett Park", "source_last_edit_at": "2019-01-10T17:01:27+00:00"}}, {"type": "Feature", "geometry": {"type": "Point", "coordinates": [-77.09880960615158, 39.04176952551311]}, "properties": {"id": "garrett-park-204", "species_group": "magnolia", "scientific_name": "Magnolia sp.", "common_name": "Magnolia sp.", "subtype_name": "Magnolia sp.", "zip_code": "20896", "ownership": "public", "ownership_raw": "Town of Garrett Park", "city": "Garrett Park", "source_dataset": "Garrett Park Tree Inventory", "source_department": "Town of Garrett Park", "source_last_edit_at": "2019-01-10T17:01:27+00:00"}}, {"type": "Feature", "geometry": {"type": "Point", "coordinates": [-77.08881648710252, 39.03430014090442]}, "properties": {"id": "garrett-park-2042", "species_group": "cherry", "scientific_name": "Prunus sp.", "common_name": "Cherry sp.", "subtype_name": "Cherry sp.", "zip_code": "20896", "ownership": "public", "ownership_raw": "Town of Garrett Park", "city": "Garrett Park", "source_dataset": "Garrett Park Tree Inventory", "source_department": "Town of Garrett Park", "source_last_edit_at": "2019-01-10T17:01:27+00:00"}}, {"type": "Feature", "geometry": {"type": "Point", "coordinates": [-77.0883429018968, 39.033957116914074]}, "properties": {"id": "garrett-park-2059", "species_group": "magnolia", "scientific_name": "Magnolia grandiflora 'little gem'", "common_name": "Southern magnolia", "subtype_name": "Southern Magnolia", "zip_code": "20896", "ownership": "public", "ownership_raw": "Town of Garrett Park", "city": "Garrett Park", "source_dataset": "Garrett Park Tree Inventory", "source_department": "Town of Garrett Park", "source_last_edit_at": "2019-01-10T17:01:27+00:00"}}, {"type": "Feature", "geometry": {"type": "Point", "coordinates": [-77.08781080056161, 39.03391101738227]}, "properties": {"id": "garrett-park-2065", "species_group": "cherry", "scientific_name": "Prunus sp.", "common_name": "Weeping cherry", "subtype_name": "Weeping cherry", "zip_code": "20896", "ownership": "public", "ownership_raw": "Town of Garrett Park", "city": "Garrett Park", "source_dataset": "Garrett Park Tree Inventory", "source_department": "Town of Garrett Park", "source_last_edit_at": "2019-01-10T17:01:27+00:00"}}, {"type": "Feature", "geometry": {"type": "Point", "coordinates": [-77.08719840245556, 39.03316447817979]}, "properties": {"id": "garrett-park-2074", "species_group": "crabapple", "scientific_name": "Malus sp.", "common_name": "Apple sp.", "subtype_name": "Apple sp.", "zip_code": "20896", "ownership": "public", "ownership_raw": "Town of Garrett Park", "city": "Garrett Park", "source_dataset": "Garrett Park Tree Inventory", "source_department": "Town of Garrett Park", "source_last_edit_at": "2019-01-10T17:01:27+00:00"}}, {"type": "Feature", "geometry": {"type": "Point", "coordinates": [-77.0876912123963, 39.03261558835816]}, "properties": {"id": "garrett-park-2083", "species_group": "cherry", "scientific_name": "Prunus sargentii 'Spire'", "common_name": "Sargent Cherry", "subtype_name": "Sargent", "zip_code": "20896", "ownership": "public", "ownership_raw": "Town of Garrett Park", "city": "Garrett Park", "source_dataset": "Garrett Park Tree Inventory", "source_department": "Town of Garrett Park", "source_last_edit_at": "2019-01-10T17:01:27+00:00"}}, {"type": "Feature", "geometry": {"type": "Point", "coordinates": [-77.09790402446748, 39.04078170617491]}, "properties": {"id": "garrett-park-224", "species_group": "cherry", "scientific_name": "Prunus sp.", "common_name": "Cherry sp.", "subtype_name": "Cherry sp.", "zip_code": "20896", "ownership": "public", "ownership_raw": "Town of Garrett Park", "city": "Garrett Park", "source_dataset": "Garrett Park Tree Inventory", "source_department": "Town of Garrett Park", "source_last_edit_at": "2019-01-10T17:01:27+00:00"}}, {"type": "Feature", "geometry": {"type": "Point", "coordinates": [-77.09801732638931, 39.04202063833451]}, "properties": {"id": "garrett-park-250", "species_group": "magnolia", "scientific_name": "Magnolia sp.", "common_name": "Magnolia sp.", "subtype_name": "Magnolia sp.", "zip_code": "20896", "ownership": "public", "ownership_raw": "Town of Garrett Park", "city": "Garrett Park", "source_dataset": "Garrett Park Tree Inventory", "source_department": "Town of Garrett Park", "source_last_edit_at": "2019-01-10T17:01:27+00:00"}}, {"type": "Feature", "geometry": {"type": "Point", "coordinates": [-77.09766972023772, 39.04157904162122]}, "properties": {"id": "garrett-park-28", "species_group": "cherry", "scientific_name": "Prunus sp.", "common_name": "Cherry sp.", "subtype_name": "Cherry sp.", "zip_code": "20896", "ownership": "public", "ownership_raw": "Town of Garrett Park", "city": "Garrett Park", "source_dataset": "Garrett Park Tree Inventory", "source_department": "Town of Garrett Park", "source_last_edit_at": "2019-01-10T17:01:27+00:00"}}, {"type": "Feature", "geometry": {"type": "Point", "coordinates": [-77.09756041603953, 39.04064279574548]}, "properties": {"id": "garrett-park-300", "species_group": "cherry", "scientific_name": "Prunus sp.", "common_name": "Cherry sp.", "subtype_name": "Cherry sp.", "zip_code": "20896", "ownership": "public", "ownership_raw": "Town of Garrett Park", "city": "Garrett Park", "source_dataset": "Garrett Park Tree Inventory", "source_department": "Town of Garrett Park", "source_last_edit_at": "2019-01-10T17:01:27+00:00"}}, {"type": "Feature", "geometry": {"type": "Point", "coordinates": [-77.09793313624573, 39.040623626043754]}, "properties": {"id": "garrett-park-303", "species_group": "cherry", "scientific_name": "Prunus 'Accolade'", "common_name": "Cherry", "subtype_name": "Accolade", "zip_code": "20896", "ownership": "public", "ownership_raw": "Town of Garrett Park", "city": "Garrett Park", "source_dataset": "Garrett Park Tree Inventory", "source_department": "Town of Garrett Park", "source_last_edit_at": "2019-01-10T17:01:27+00:00"}}, {"type": "Feature", "geometry": {"type": "Point", "coordinates": [-77.09868097668647, 39.04005623160586]}, "properties": {"id": "garrett-park-319", "species_group": "magnolia", "scientific_name": "Magnolia kobus 'wada's memory'", "common_name": "Wada's magnolia", "subtype_name": "Kobus Magnolia", "zip_code": "20896", "ownership": "public", "ownership_raw": "Town of Garrett Park", "city": "Garrett Park", "source_dataset": "Garrett Park Tree Inventory", "source_department": "Town of Garrett Park", "source_last_edit_at": "2019-01-10T17:01:27+00:00"}}, {"type": "Feature", "geometry": {"type": "Point", "coordinates": [-77.09761942576029, 39.03997964575685]}, "properties": {"id": "garrett-park-330", "species_group": "magnolia", "scientific_name": "Magnolia sp.", "common_name": "Magnolia sp.", "subtype_name": "Magnolia sp.", "zip_code": "20896", "ownership": "public", "ownership_raw": "Town of Garrett Park", "city": "Garrett Park", "source_dataset": "Garrett Park Tree Inventory", "source_department": "Town of Garrett Park", "source_last_edit_at": "2019-01-10T17:01:27+00:00"}}, {"type": "Feature", "geometry": {"type": "Point", "coordinates": [-77.09750945519067, 39.04006714386468]}, "properties": {"id": "garrett-park-332", "species_group": "magnolia", "scientific_name": "Magnolia sp.", "common_name": "Magnolia sp.", "subtype_name": "Magnolia sp.", "zip_code": "20896", "ownership": "public", "ownership_raw": "Town of Garrett Park", "city": "Garrett Park", "source_dataset": "Garrett Park Tree Inventory", "source_department": "Town of Garrett Park", "source_last_edit_at": "2019-01-10T17:01:27+00:00"}}, {"type": "Feature", "geometry": {"type": "Point", "coordinates": [-77.09741964347381, 39.04016079318794]}, "properties": {"id": "garrett-park-334", "species_group": "cherry", "scientific_name": "Prunus x yedoensis 'Akebono'", "common_name": "Yoshino cherry", "subtype_name": "Yoshino", "zip_code": "20896", "ownership": "public", "ownership_raw": "Town of Garrett Park", "city": "Garrett Park", "source_dataset": "Garrett Park Tree Inventory", "source_department": "Town of Garrett Park", "source_last_edit_at": "2019-01-10T17:01:27+00:00"}}, {"type": "Feature", "geometry": {"type": "Point", "coordinates": [-77.09781724173354, 39.04153737676073]}, "properties": {"id": "garrett-park-39", "species_group": "cherry", "scientific_name": "Prunus sp.", "common_name": "Cherry sp.", "subtype_name": "Cherry sp.", "zip_code": "20896", "ownership": "public", "ownership_raw": "Town of Garrett Park", "city": "Garrett Park", "source_dataset": "Garrett Park Tree Inventory", "source_department": "Town of Garrett Park", "source_last_edit_at": "2019-01-10T17:01:27+00:00"}}, {"type": "Feature", "geometry": {"type": "Point", "coordinates": [-77.09702802331356, 39.038900770658216]}, "properties": {"id": "garrett-park-418", "species_group": "cherry", "scientific_name": "Prunus sp.", "common_name": "Cherry sp.", "subtype_name": "Cherry sp.", "zip_code": "20896", "ownership": "public", "ownership_raw": "Town of Garrett Park", "city": "Garrett Park", "source_dataset": "Garrett Park Tree Inventory", "source_department": "Town of Garrett Park", "source_last_edit_at": "2019-01-10T17:01:27+00:00"}}, {"type": "Feature", "geometry": {"type": "Point", "coordinates": [-77.09699983354056, 39.03886849981332]}, "properties": {"id": "garrett-park-419", "species_group": "cherry", "scientific_name": "Prunus sp.", "common_name": "Cherry sp.", "subtype_name": "Cherry sp.", "zip_code": "20896", "ownership": "public", "ownership_raw": "Town of Garrett Park", "city": "Garrett Park", "source_dataset": "Garrett Park Tree Inventory", "source_department": "Town of Garrett Park", "source_last_edit_at": "2019-01-10T17:01:27+00:00"}}, {"type": "Feature", "geometry": {"type": "Point", "coordinates": [-77.09654381597329, 39.03823877095589]}, "properties": {"id": "garrett-park-439", "species_group": "magnolia", "scientific_name": "Magnolia grandiflora", "common_name": "Southern magnolia", "subtype_name": "Southern Magnolia", "zip_code": "20896", "ownership": "public", "ownership_raw": "Town of Garrett Park", "city": "Garrett Park", "source_dataset": "Garrett Park Tree Inventory", "source_department": "Town of Garrett Park", "source_last_edit_at": "2019-01-10T17:01:27+00:00"}}, {"type": "Feature", "geometry": {"type": "Point", "coordinates": [-77.0963754527092, 39.038325104012976]}, "properties": {"id": "garrett-park-447", "species_group": "magnolia", "scientific_name": "Magnolia grandiflora", "common_name": "Southern magnolia", "subtype_name": "Southern Magnolia", "zip_code": "20896", "ownership": "public", "ownership_raw": "Town of Garrett Park", "city": "Garrett Park", "source_dataset": "Garrett Park Tree Inventory", "source_department": "Town of Garrett Park", "source_last_edit_at": "2019-01-10T17:01:27+00:00"}}, {"type": "Feature", "geometry": {"type": "Point", "coordinates": [-77.09636765889547, 39.038351895912875]}, "properties": {"id": "garrett-park-449", "species_group": "magnolia", "scientific_name": "Magnolia grandiflora", "common_name": "Southern magnolia", "subtype_name": "Southern Magnolia", "zip_code": "20896", "ownership": "public", "ownership_raw": "Town of Garrett Park", "city": "Garrett Park", "source_dataset": "Garrett Park Tree Inventory", "source_department": "Town of Garrett Park", "source_last_edit_at": "2019-01-10T17:01:27+00:00"}}, {"type": "Feature", "geometry": {"type": "Point", "coordinates": [-77.09589433250619, 39.03907206219201]}, "properties": {"id": "garrett-park-464", "species_group": "cherry", "scientific_name": "Prunus sp.", "common_name": "Cherry sp.", "subtype_name": "Cherry sp.", "zip_code": "20896", "ownership": "public", "ownership_raw": "Town of Garrett Park", "city": "Garrett Park", "source_dataset": "Garrett Park Tree Inventory", "source_department": "Town of Garrett Park", "source_last_edit_at": "2019-01-10T17:01:27+00:00"}}, {"type": "Feature", "geometry": {"type": "Point", "coordinates": [-77.09578033862306, 39.03917622793185]}, "properties": {"id": "garrett-park-466", "species_group": "magnolia", "scientific_name": "Magnolia virginiana", "common_name": "Sweetbay magnolia", "subtype_name": "Sweetbay Magnolia", "zip_code": "20896", "ownership": "public", "ownership_raw": "Town of Garrett Park", "city": "Garrett Park", "source_dataset": "Garrett Park Tree Inventory", "source_department": "Town of Garrett Park", "source_last_edit_at": "2019-01-10T17:01:27+00:00"}}, {"type": "Feature", "geometry": {"type": "Point", "coordinates": [-77.09707976226514, 39.04049439314908]}, "properties": {"id": "garrett-park-47", "species_group": "cherry", "scientific_name": "Prunus sp.", "common_name": "Cherry sp.", "subtype_name": "Cherry sp.", "zip_code": "20896", "ownership": "public", "ownership_raw": "Town of Garrett Park", "city": "Garrett Park", "source_dataset": "Garrett Park Tree Inventory", "source_department": "Town of Garrett Park", "source_last_edit_at": "2019-01-10T17:01:27+00:00"}}, {"type": "Feature", "geometry": {"type": "Point", "coordinates": [-77.09685201223374, 39.04038514882847]}, "properties": {"id": "garrett-park-51", "species_group": "magnolia", "scientific_name": "Magnolia 'Butterflies'", "common_name": "Magnolia", "subtype_name": "Magnolia 'Butterflies'", "zip_code": "20896", "ownership": "public", "ownership_raw": "Town of Garrett Park", "city": "Garrett Park", "source_dataset": "Garrett Park Tree Inventory", "source_department": "Town of Garrett Park", "source_last_edit_at": "2019-01-10T17:01:27+00:00"}}, {"type": "Feature", "geometry": {"type": "Point", "coordinates": [-77.09751417179297, 39.03908660356001]}, "properties": {"id": "garrett-park-510", "species_group": "crabapple", "scientific_name": "Malus sp.", "common_name": "Apple sp.", "subtype_name": "Apple sp.", "zip_code": "20896", "ownership": "public", "ownership_raw": "Town of Garrett Park", "city": "Garrett Park", "source_dataset": "Garrett Park Tree Inventory", "source_department": "Town of Garrett Park", "source_last_edit_at": "2019-01-10T17:01:27+00:00"}}, {"type": "Feature", "geometry": {"type": "Point", "coordinates": [-77.09678495700837, 39.040342962444186]}, "properties": {"id": "garrett-park-52", "species_group": "cherry", "scientific_name": "Prunus sp.", "common_name": "Cherry sp.", "subtype_name": "Cherry sp.", "zip_code": "20896", "ownership": "public", "ownership_raw": "Town of Garrett Park", "city": "Garrett Park", "source_dataset": "Garrett Park Tree Inventory", "source_department": "Town of Garrett Park", "source_last_edit_at": "2019-01-10T17:01:27+00:00"}}, {"type": "Feature", "geometry": {"type": "Point", "coordinates": [-77.0989400233135, 39.04028185331883]}, "properties": {"id": "garrett-park-535", "species_group": "cherry", "scientific_name": "Prunus sp.", "common_name": "Cherry sp.", "subtype_name": "Cherry sp.", "zip_code": "20896", "ownership": "public", "ownership_raw": "Town of Garrett Park", "city": "Garrett Park", "source_dataset": "Garrett Park Tree Inventory", "source_department": "Town of Garrett Park", "source_last_edit_at": "2019-01-10T17:01:27+00:00"}}, {"type": "Feature", "geometry": {"type": "Point", "coordinates": [-77.09897186871717, 39.040700517767746]}, "properties": {"id": "garrett-park-548", "species_group": "cherry", "scientific_name": "Prunus sp.", "common_name": "Cherry sp.", "subtype_name": "Cherry sp.", "zip_code": "20896", "ownership": "public", "ownership_raw": "Town of Garrett Park", "city": "Garrett Park", "source_dataset": "Garrett Park Tree Inventory", "source_department": "Town of Garrett Park", "source_last_edit_at": "2019-01-10T17:01:27+00:00"}}, {"type": "Feature", "geometry": {"type": "Point", "coordinates": [-77.09925227976225, 39.041131430375465]}, "properties": {"id": "garrett-park-556", "species_group": "cherry", "scientific_name": "Prunus x incamp 'Okame'", "common_name": "Cherry", "subtype_name": "Okame", "zip_code": "20896", "ownership": "public", "ownership_raw": "Town of Garrett Park", "city": "Garrett Park", "source_dataset": "Garrett Park Tree Inventory", "source_department": "Town of Garrett Park", "source_last_edit_at": "2019-01-10T17:01:27+00:00"}}, {"type": "Feature", "geometry": {"type": "Point", "coordinates": [-77.09637901471518, 39.04011581348007]}, "properties": {"id": "garrett-park-56", "species_group": "cherry", "scientific_name": "Prunus sp.", "common_name": "Cherry sp.", "subtype_name": "Cherry sp.", "zip_code": "20896", "ownership": "public", "ownership_raw": "Town of Garrett Park", "city": "Garrett Park", "source_dataset": "Garrett Park Tree Inventory", "source_department": "Town of Garrett Park", "source_last_edit_at": "2019-01-10T17:01:27+00:00"}}, {"type": "Feature", "geometry": {"type": "Point", "coordinates": [-77.09633207605742, 39.04009810555062]}, "properties": {"id": "garrett-park-57", "species_group": "cherry", "scientific_name": "Prunus sp.", "common_name": "Cherry sp.", "subtype_name": "Cherry sp.", "zip_code": "20896", "ownership": "public", "ownership_raw": "Town of Garrett Park", "city": "Garrett Park", "source_dataset": "Garrett Park Tree Inventory", "source_department": "Town of Garrett Park", "source_last_edit_at": "2019-01-10T17:01:27+00:00"}}, {"type": "Feature", "geometry": {"type": "Point", "coordinates": [-77.0985371987419, 39.04211072383584]}, "properties": {"id": "garrett-park-574", "species_group": "cherry", "scientific_name": "Prunus sp.", "common_name": "Cherry sp.", "subtype_name": "Cherry sp.", "zip_code": "20896", "ownership": "public", "ownership_raw": "Town of Garrett Park", "city": "Garrett Park", "source_dataset": "Garrett Park Tree Inventory", "source_department": "Town of Garrett Park", "source_last_edit_at": "2019-01-10T17:01:27+00:00"}}, {"type": "Feature", "geometry": {"type": "Point", "coordinates": [-77.09625965641402, 39.04014862521996]}, "properties": {"id": "garrett-park-58", "species_group": "cherry", "scientific_name": "Prunus sp.", "common_name": "Cherry sp.", "subtype_name": "Cherry sp.", "zip_code": "20896", "ownership": "public", "ownership_raw": "Town of Garrett Park", "city": "Garrett Park", "source_dataset": "Garrett Park Tree Inventory", "source_department": "Town of Garrett Park", "source_last_edit_at": "2019-01-10T17:01:27+00:00"}}, {"type": "Feature", "geometry": {"type": "Point", "coordinates": [-77.09865087979699, 39.04251667614693]}, "properties": {"id": "garrett-park-586", "species_group": "magnolia", "scientific_name": "Magnolia sp.", "common_name": "Magnolia sp.", "subtype_name": "Magnolia sp.", "zip_code": "20896", "ownership": "public", "ownership_raw": "Town of Garrett Park", "city": "Garrett Park", "source_dataset": "Garrett Park Tree Inventory", "source_department": "Town of Garrett Park", "source_last_edit_at": "2019-01-10T17:01:27+00:00"}}, {"type": "Feature", "geometry": {"type": "Point", "coordinates": [-77.09623033753672, 39.04007802254984]}, "properties": {"id": "garrett-park-59", "species_group": "magnolia", "scientific_name": "Magnolia sp.", "common_name": "Magnolia sp.", "subtype_name": "Magnolia sp.", "zip_code": "20896", "ownership": "public", "ownership_raw": "Town of Garrett Park", "city": "Garrett Park", "source_dataset": "Garrett Park Tree Inventory", "source_department": "Town of Garrett Park", "source_last_edit_at": "2019-01-10T17:01:27+00:00"}}, {"type": "Feature", "geometry": {"type": "Point", "coordinates": [-77.0990696061516, 39.042793890719494]}, "properties": {"id": "garrett-park-592", "species_group": "cherry", "scientific_name": "Prunus sp.", "common_name": "Cherry sp.", "subtype_name": "Cherry sp.", "zip_code": "20896", "ownership": "public", "ownership_raw": "Town of Garrett Park", "city": "Garrett Park", "source_dataset": "Garrett Park Tree Inventory", "source_department": "Town of Garrett Park", "source_last_edit_at": "2019-01-10T17:01:27+00:00"}}, {"type": "Feature", "geometry": {"type": "Point", "coordinates": [-77.09528675240676, 39.03928437130903]}, "properties": {"id": "garrett-park-650", "species_group": "cherry", "scientific_name": "Prunus 'snow goose'", "common_name": "Cherry", "subtype_name": "Snow Goose", "zip_code": "20896", "ownership": "public", "ownership_raw": "Town of Garrett Park", "city": "Garrett Park", "source_dataset": "Garrett Park Tree Inventory", "source_department": "Town of Garrett Park", "source_last_edit_at": "2019-01-10T17:01:27+00:00"}}, {"type": "Feature", "geometry": {"type": "Point", "coordinates": [-77.09562160003475, 39.039072022606476]}, "properties": {"id": "garrett-park-654", "species_group": "cherry", "scientific_name": "Prunus sp.", "common_name": "Cherry sp.", "subtype_name": "Cherry sp.", "zip_code": "20896", "ownership": "public", "ownership_raw": "Town of Garrett Park", "city": "Garrett Park", "source_dataset": "Garrett Park Tree Inventory", "source_department": "Town of Garrett Park", "source_last_edit_at": "2019-01-10T17:01:27+00:00"}}, {"type": "Feature", "geometry": {"type": "Point", "coordinates": [-77.09528613128282, 39.03835556250313]}, "properties": {"id": "garrett-park-669", "species_group": "magnolia", "scientific_name": "Magnolia sp.", "common_name": "Magnolia sp.", "subtype_name": "Magnolia sp.", "zip_code": "20896", "ownership": "public", "ownership_raw": "Town of Garrett Park", "city": "Garrett Park", "source_dataset": "Garrett Park Tree Inventory", "source_department": "Town of Garrett Park", "source_last_edit_at": "2019-01-10T17:01:27+00:00"}}, {"type": "Feature", "geometry": {"type": "Point", "coordinates": [-77.09468439920198, 39.03806688291852]}, "properties": {"id": "garrett-park-675", "species_group": "cherry", "scientific_name": "Prunus sp.", "common_name": "Cherry sp.", "subtype_name": "Cherry sp.", "zip_code": "20896", "ownership": "public", "ownership_raw": "Town of Garrett Park", "city": "Garrett Park", "source_dataset": "Garrett Park Tree Inventory", "source_department": "Town of Garrett Park", "source_last_edit_at": "2019-01-10T17:01:27+00:00"}}, {"type": "Feature", "geometry": {"type": "Point", "coordinates": [-77.0946692232094, 39.03803889449985]}, "properties": {"id": "garrett-park-676", "species_group": "cherry", "scientific_name": "Prunus sp.", "common_name": "Cherry sp.", "subtype_name": "Cherry sp.", "zip_code": "20896", "ownership": "public", "ownership_raw": "Town of Garrett Park", "city": "Garrett Park", "source_dataset": "Garrett Park Tree Inventory", "source_department": "Town of Garrett Park", "source_last_edit_at": "2019-01-10T17:01:27+00:00"}}, {"type": "Feature", "geometry": {"type": "Point", "coordinates": [-77.09463249817617, 39.03804682770737]}, "properties": {"id": "garrett-park-677", "species_group": "cherry", "scientific_name": "Prunus sp.", "common_name": "Cherry sp.", "subtype_name": "Cherry sp.", "zip_code": "20896", "ownership": "public", "ownership_raw": "Town of Garrett Park", "city": "Garrett Park", "source_dataset": "Garrett Park Tree Inventory", "source_department": "Town of Garrett Park", "source_last_edit_at": "2019-01-10T17:01:27+00:00"}}, {"type": "Feature", "geometry": {"type": "Point", "coordinates": [-77.09464374222375, 39.03800868596486]}, "properties": {"id": "garrett-park-678", "species_group": "cherry", "scientific_name": "Prunus sp.", "common_name": "Cherry sp.", "subtype_name": "Cherry sp.", "zip_code": "20896", "ownership": "public", "ownership_raw": "Town of Garrett Park", "city": "Garrett Park", "source_dataset": "Garrett Park Tree Inventory", "source_department": "Town of Garrett Park", "source_last_edit_at": "2019-01-10T17:01:27+00:00"}}, {"type": "Feature", "geometry": {"type": "Point", "coordinates": [-77.09447878636934, 39.03794253964488]}, "properties": {"id": "garrett-park-680", "species_group": "magnolia", "scientific_name": "Magnolia sp.", "common_name": "Magnolia sp.", "subtype_name": "Magnolia sp.", "zip_code": "20896", "ownership": "public", "ownership_raw": "Town of Garrett Park", "city": "Garrett Park", "source_dataset": "Garrett Park Tree Inventory", "source_department": "Town of Garrett Park", "source_last_edit_at": "2019-01-10T17:01:27+00:00"}}, {"type": "Feature", "geometry": {"type": "Point", "coordinates": [-77.09541756315991, 39.03934673214865]}, "properties": {"id": "garrett-park-75", "species_group": "magnolia", "scientific_name": "Magnolia hypoleuca", "common_name": "Japanese cucumber tree", "subtype_name": "Japanese cucumber tree", "zip_code": "20896", "ownership": "public", "ownership_raw": "Town of Garrett Park", "city": "Garrett Park", "source_dataset": "Garrett Park Tree Inventory", "source_department": "Town of Garrett Park", "source_last_edit_at": "2019-01-10T17:01:27+00:00"}}, {"type": "Feature", "geometry": {"type": "Point", "coordinates": [-77.09619062946513, 39.038281145530085]}, "properties": {"id": "garrett-park-752", "species_group": "cherry", "scientific_name": "Prunus sp.", "common_name": "Cherry sp.", "subtype_name": "Cherry sp.", "zip_code": "20896", "ownership": "public", "ownership_raw": "Town of Garrett Park", "city": "Garrett Park", "source_dataset": "Garrett Park Tree Inventory", "source_department": "Town of Garrett Park", "source_last_edit_at": "2019-01-10T17:01:27+00:00"}}, {"type": "Feature", "geometry": {"type": "Point", "coordinates": [-77.0962402503319, 39.03828322886968]}, "properties": {"id": "garrett-park-753", "species_group": "cherry", "scientific_name": "Prunus x incamp 'Okame'", "common_name": "Cherry", "subtype_name": "Okame", "zip_code": "20896", "ownership": "public", "ownership_raw": "Town of Garrett Park", "city": "Garrett Park", "source_dataset": "Garrett Park Tree Inventory", "source_department": "Town of Garrett Park", "source_last_edit_at": "2019-01-10T17:01:27+00:00"}}, {"type": "Feature", "geometry": {"type": "Point", "coordinates": [-77.09538135333821, 39.03936652357411]}, "properties": {"id": "garrett-park-76", "species_group": "cherry", "scientific_name": "Prunus sp.", "common_name": "Cherry sp.", "subtype_name": "Cherry sp.", "zip_code": "20896", "ownership": "public", "ownership_raw": "Town of Garrett Park", "city": "Garrett Park", "source_dataset": "Garrett Park Tree Inventory", "source_department": "Town of Garrett Park", "source_last_edit_at": "2019-01-10T17:01:27+00:00"}}, {"type": "Feature", "geometry": {"type": "Point", "coordinates": [-77.09571427688894, 39.03677009512606]}, "properties": {"id": "garrett-park-767", "species_group": "cherry", "scientific_name": "Prunus sp.", "common_name": "Weeping cherry", "subtype_name": "Weeping cherry", "zip_code": "20896", "ownership": "public", "ownership_raw": "Town of Garrett Park", "city": "Garrett Park", "source_dataset": "Garrett Park Tree Inventory", "source_department": "Town of Garrett Park", "source_last_edit_at": "2019-01-10T17:01:27+00:00"}}, {"type": "Feature", "geometry": {"type": "Point", "coordinates": [-77.09575098528478, 39.036815397591795]}, "properties": {"id": "garrett-park-768", "species_group": "cherry", "scientific_name": "Prunus sp.", "common_name": "Weeping cherry", "subtype_name": "Weeping cherry", "zip_code": "20896", "ownership": "public", "ownership_raw": "Town of Garrett Park", "city": "Garrett Park", "source_dataset": "Garrett Park Tree Inventory", "source_department": "Town of Garrett Park", "source_last_edit_at": "2019-01-10T17:01:27+00:00"}}, {"type": "Feature", "geometry": {"type": "Point", "coordinates": [-77.09568393005941, 39.036716436836215]}, "properties": {"id": "garrett-park-770", "species_group": "magnolia", "scientific_name": "Magnolia sp.", "common_name": "Magnolia sp.", "subtype_name": "Magnolia sp.", "zip_code": "20896", "ownership": "public", "ownership_raw": "Town of Garrett Park", "city": "Garrett Park", "source_dataset": "Garrett Park Tree Inventory", "source_department": "Town of Garrett Park", "source_last_edit_at": "2019-01-10T17:01:27+00:00"}}, {"type": "Feature", "geometry": {"type": "Point", "coordinates": [-77.09559809937093, 39.03669560297526]}, "properties": {"id": "garrett-park-773", "species_group": "magnolia", "scientific_name": "Magnolia virginiana", "common_name": "Sweetbay magnolia", "subtype_name": "Sweetbay Magnolia", "zip_code": "20896", "ownership": "public", "ownership_raw": "Town of Garrett Park", "city": "Garrett Park", "source_dataset": "Garrett Park Tree Inventory", "source_department": "Town of Garrett Park", "source_last_edit_at": "2019-01-10T17:01:27+00:00"}}, {"type": "Feature", "geometry": {"type": "Point", "coordinates": [-77.0956101693115, 39.03657684985058]}, "properties": {"id": "garrett-park-775", "species_group": "cherry", "scientific_name": "Prunus sp.", "common_name": "Cherry sp.", "subtype_name": "Cherry sp.", "zip_code": "20896", "ownership": "public", "ownership_raw": "Town of Garrett Park", "city": "Garrett Park", "source_dataset": "Garrett Park Tree Inventory", "source_department": "Town of Garrett Park", "source_last_edit_at": "2019-01-10T17:01:27+00:00"}}, {"type": "Feature", "geometry": {"type": "Point", "coordinates": [-77.09520441410348, 39.03658531305204]}, "properties": {"id": "garrett-park-787", "species_group": "cherry", "scientific_name": "Prunus sp.", "common_name": "Cherry sp.", "subtype_name": "Cherry sp.", "zip_code": "20896", "ownership": "public", "ownership_raw": "Town of Garrett Park", "city": "Garrett Park", "source_dataset": "Garrett Park Tree Inventory", "source_department": "Town of Garrett Park", "source_last_edit_at": "2019-01-10T17:01:27+00:00"}}, {"type": "Feature", "geometry": {"type": "Point", "coordinates": [-77.0951507466097, 39.03689518789137]}, "properties": {"id": "garrett-park-814", "species_group": "cherry", "scientific_name": "Prunus sp.", "common_name": "Cherry sp.", "subtype_name": "Cherry sp.", "zip_code": "20896", "ownership": "public", "ownership_raw": "Town of Garrett Park", "city": "Garrett Park", "source_dataset": "Garrett Park Tree Inventory", "source_department": "Town of Garrett Park", "source_last_edit_at": "2019-01-10T17:01:27+00:00"}}, {"type": "Feature", "geometry": {"type": "Point", "coordinates": [-77.09463252513126, 39.03952354111638]}, "properties": {"id": "garrett-park-83", "species_group": "cherry", "scientific_name": "Prunus sp.", "common_name": "Cherry sp.", "subtype_name": "Cherry sp.", "zip_code": "20896", "ownership": "public", "ownership_raw": "Town of Garrett Park", "city": "Garrett Park", "source_dataset": "Garrett Park Tree Inventory", "source_department": "Town of Garrett Park", "source_last_edit_at": "2019-01-10T17:01:27+00:00"}}, {"type": "Feature", "geometry": {"type": "Point", "coordinates": [-77.09457351653293, 39.03953395763072]}, "properties": {"id": "garrett-park-84", "species_group": "cherry", "scientific_name": "Prunus sp.", "common_name": "Cherry sp.", "subtype_name": "Cherry sp.", "zip_code": "20896", "ownership": "public", "ownership_raw": "Town of Garrett Park", "city": "Garrett Park", "source_dataset": "Garrett Park Tree Inventory", "source_department": "Town of Garrett Park", "source_last_edit_at": "2019-01-10T17:01:27+00:00"}}, {"type": "Feature", "geometry": {"type": "Point", "coordinates": [-77.0931804343586, 39.034995730695336]}, "properties": {"id": "garrett-park-962", "species_group": "magnolia", "scientific_name": "Magnolia sp.", "common_name": "Magnolia sp.", "subtype_name": "Magnolia sp.", "zip_code": "20896", "ownership": "public", "ownership_raw": "Town of Garrett Park", "city": "Garrett Park", "source_dataset": "Garrett Park Tree Inventory", "source_department": "Town of Garrett Park", "source_last_edit_at": "2019-01-10T17:01:27+00:00"}}, {"type": "Feature", "geometry": {"type": "Point", "coordinates": [-77.09320950429918, 39.03502464724622]}, "properties": {"id": "garrett-park-963", "species_group": "cherry", "scientific_name": "Prunus sp.", "common_name": "Cherry sp.", "subtype_name": "Cherry sp.", "zip_code": "20896", "ownership": "public", "ownership_raw": "Town of Garrett Park", "city": "Garrett Park", "source_dataset": "Garrett Park Tree Inventory", "source_department": "Town of Garrett Park", "source_last_edit_at": "2019-01-10T17:01:27+00:00"}}]}