{"type": "FeatureCollection", "features": [{"type": "Feature", "geometry": {"type": "Point", "coordinates": [-89.52914003, 34.36462143000001]}, "properties": {"id": "oxford-1253", "species_group": "magnolia", "scientific_name": "Magnolia grandiflora", "common_name": "Southern magnolia", "subtype_name": "Southern Magnolia", "zip_code": "38677", "ownership": "public", "ownership_raw": "Not published in public inventory", "city": "Oxford", "source_dataset": "Tree Inventory", "source_department": "University of Mississippi", "source_last_edit_at": ""}}, {"type": "Feature", "geometry": {"type": "Point", "coordinates": [-89.52726321, 34.364949040000006]}, "properties": {"id": "oxford-1518", "species_group": "magnolia", "scientific_name": "Magnolia grandiflora", "common_name": "Southern magnolia", "subtype_name": "Southern Magnolia", "zip_code": "38655", "ownership": "public", "ownership_raw": "Not published in public inventory", "city": "Oxford", "source_dataset": "Tree Inventory", "source_department": "University of Mississippi", "source_last_edit_at": ""}}, {"type": "Feature", "geometry": {"type": "Point", "coordinates": [-89.53022154, 34.363848119999986]}, "properties": {"id": "oxford-1538", "species_group": "magnolia", "scientific_name": "Magnolia grandiflora", "common_name": "Southern magnolia", "subtype_name": "Southern Magnolia", "zip_code": "38677", "ownership": "public", "ownership_raw": "Not published in public inventory", "city": "Oxford", "source_dataset": "Tree Inventory", "source_department": "University of Mississippi", "source_last_edit_at": ""}}, {"type": "Feature", "geometry": {"type": "Point", "coordinates": [-89.52727299000001, 34.36463836000001]}, "properties": {"id": "oxford-1543", "species_group": "magnolia", "scientific_name": "Magnolia grandiflora", "common_name": "Southern magnolia", "subtype_name": "Southern Magnolia", "zip_code": "38677", "ownership": "public", "ownership_raw": "Not published in public inventory", "city": "Oxford", "source_dataset": "Tree Inventory", "source_department": "University of Mississippi", "source_last_edit_at": ""}}, {"type": "Feature", "geometry": {"type": "Point", "coordinates": [-89.54214822, 34.35907483]}, "properties": {"id": "oxford-1562", "species_group": "magnolia", "scientific_name": "Magnolia grandiflora", "common_name": "Southern magnolia", "subtype_name": "Southern Magnolia", "zip_code": "38677", "ownership": "public", "ownership_raw": "Not published in public inventory", "city": "Oxford", "source_dataset": "Tree Inventory", "source_department": "University of Mississippi", "source_last_edit_at": ""}}, {"type": "Feature", "geometry": {"type": "Point", "coordinates": [-89.54217017000002, 34.35906720999999]}, "properties": {"id": "oxford-2154", "species_group": "magnolia", "scientific_name": "Magnolia grandiflora", "common_name": "Southern magnolia", "subtype_name": "Southern Magnolia", "zip_code": "38677", "ownership": "public", "ownership_raw": "Not published in public inventory", "city": "Oxford", "source_dataset": "Tree Inventory", "source_department": "University of Mississippi", "source_last_edit_at": ""}}, {"type": "Feature", "geometry": {"type": "Point", "coordinates": [-89.54322910000002, 34.35960406]}, "properties": {"id": "oxford-225", "species_group": "cherry", "scientific_name": "Prunus yedoensis", "common_name": "Yoshino Cherry", "subtype_name": "Yoshino", "zip_code": "38677", "ownership": "public", "ownership_raw": "Not published in public inventory", "city": "Oxford", "source_dataset": "Tree Inventory", "source_department": "University of Mississippi", "source_last_edit_at": ""}}, {"type": "Feature", "geometry": {"type": "Point", "coordinates": [-89.52536938000001, 34.36455858000001]}, "properties": {"id": "oxford-2369", "species_group": "magnolia", "scientific_name": "Magnolia grandiflora", "common_name": "Southern magnolia", "subtype_name": "Southern Magnolia", "zip_code": "38677", "ownership": "public", "ownership_raw": "Not published in public inventory", "city": "Oxford", "source_dataset": "Tree Inventory", "source_department": "University of Mississippi", "source_last_edit_at": ""}}, {"type": "Feature", "geometry": {"type": "Point", "coordinates": [-89.52790705, 34.36459297000001]}, "properties": {"id": "oxford-2484", "species_group": "magnolia", "scientific_name": "Magnolia grandiflora", "common_name": "Southern magnolia", "subtype_name": "Southern Magnolia", "zip_code": "38677", "ownership": "public", "ownership_raw": "Not published in public inventory", "city": "Oxford", "source_dataset": "Tree Inventory", "source_department": "University of Mississippi", "source_last_edit_at": ""}}, {"type": "Feature", "geometry": {"type": "Point", "coordinates": [-89.53017745, 34.36422454]}, "properties": {"id": "oxford-2532", "species_group": "magnolia", "scientific_name": "Magnolia grandiflora", "common_name": "Southern magnolia", "subtype_name": "Southern Magnolia", "zip_code": "38677", "ownership": "public", "ownership_raw": "Not published in public inventory", "city": "Oxford", "source_dataset": "Tree Inventory", "source_department": "University of Mississippi", "source_last_edit_at": ""}}, {"type": "Feature", "geometry": {"type": "Point", "coordinates": [-89.54219737, 34.35904448000001]}, "properties": {"id": "oxford-2686", "species_group": "magnolia", "scientific_name": "Magnolia grandiflora", "common_name": "Southern magnolia", "subtype_name": "Southern Magnolia", "zip_code": "38677", "ownership": "public", "ownership_raw": "Not published in public inventory", "city": "Oxford", "source_dataset": "Tree Inventory", "source_department": "University of Mississippi", "source_last_edit_at": ""}}, {"type": "Feature", "geometry": {"type": "Point", "coordinates": [-89.52982787, 34.363962310000005]}, "properties": {"id": "oxford-2715", "species_group": "magnolia", "scientific_name": "Magnolia grandiflora", "common_name": "Southern magnolia", "subtype_name": "Southern Magnolia", "zip_code": "38677", "ownership": "public", "ownership_raw": "Not published in public inventory", "city": "Oxford", "source_dataset": "Tree Inventory", "source_department": "University of Mississippi", "source_last_edit_at": ""}}, {"type": "Feature", "geometry": {"type": "Point", "coordinates": [-89.52731368000002, 34.36463785999999]}, "properties": {"id": "oxford-2784", "species_group": "magnolia", "scientific_name": "Magnolia grandiflora", "common_name": "Southern magnolia", "subtype_name": "Southern Magnolia", "zip_code": "38677", "ownership": "public", "ownership_raw": "Not published in public inventory", "city": "Oxford", "source_dataset": "Tree Inventory", "source_department": "University of Mississippi", "source_last_edit_at": ""}}, {"type": "Feature", "geometry": {"type": "Point", "coordinates": [-89.53020734, 34.36398664]}, "properties": {"id": "oxford-3610", "species_group": "magnolia", "scientific_name": "Magnolia grandiflora", "common_name": "Southern magnolia", "subtype_name": "Southern Magnolia", "zip_code": "38677", "ownership": "public", "ownership_raw": "Not published in public inventory", "city": "Oxford", "source_dataset": "Tree Inventory", "source_department": "University of Mississippi", "source_last_edit_at": ""}}, {"type": "Feature", "geometry": {"type": "Point", "coordinates": [-89.54668442, 34.36813021]}, "properties": {"id": "oxford-3851", "species_group": "magnolia", "scientific_name": "Magnolia x soulangiana", "common_name": "Saucer Magnolia", "subtype_name": "Saucer Magnolia", "zip_code": "38677", "ownership": "public", "ownership_raw": "Not published in public inventory", "city": "Oxford", "source_dataset": "Tree Inventory", "source_department": "University of Mississippi", "source_last_edit_at": ""}}, {"type": "Feature", "geometry": {"type": "Point", "coordinates": [-89.53115084209519, 34.362338586378925]}, "properties": {"id": "oxford-4972", "species_group": "magnolia", "scientific_name": "Magnolia virginiana", "common_name": "Sweetbay Magnolia", "subtype_name": "Sweetbay Magnolia", "zip_code": "38677", "ownership": "public", "ownership_raw": "Not published in public inventory", "city": "Oxford", "source_dataset": "Tree Inventory", "source_department": "University of Mississippi", "source_last_edit_at": ""}}, {"type": "Feature", "geometry": {"type": "Point", "coordinates": [-89.53112133779602, 34.362334711664545]}, "properties": {"id": "oxford-4973", "species_group": "magnolia", "scientific_name": "Magnolia virginiana", "common_name": "Sweetbay Magnolia", "subtype_name": "Sweetbay Magnolia", "zip_code": "38677", "ownership": "public", "ownership_raw": "Not published in public inventory", "city": "Oxford", "source_dataset": "Tree Inventory", "source_department": "University of Mississippi", "source_last_edit_at": ""}}, {"type": "Feature", "geometry": {"type": "Point", "coordinates": [-89.53164705076294, 34.36231533808993]}, "properties": {"id": "oxford-4974", "species_group": "crabapple", "scientific_name": "Malus tschonoskii", "common_name": "Flowering Crabapple", "subtype_name": "Flowering Crabapple", "zip_code": "38677", "ownership": "public", "ownership_raw": "Not published in public inventory", "city": "Oxford", "source_dataset": "Tree Inventory", "source_department": "University of Mississippi", "source_last_edit_at": ""}}, {"type": "Feature", "geometry": {"type": "Point", "coordinates": [-89.53165241518097, 34.36251848363528]}, "properties": {"id": "oxford-4975", "species_group": "crabapple", "scientific_name": "Malus tschonoskii", "common_name": "Flowering Crabapple", "subtype_name": "Flowering Crabapple", "zip_code": "38677", "ownership": "public", "ownership_raw": "Not published in public inventory", "city": "Oxford", "source_dataset": "Tree Inventory", "source_department": "University of Mississippi", "source_last_edit_at": ""}}, {"type": "Feature", "geometry": {"type": "Point", "coordinates": [-89.53151696362569, 34.362711665182054]}, "properties": {"id": "oxford-4976", "species_group": "crabapple", "scientific_name": "Malus tschonoskii", "common_name": "Flowering Crabapple", "subtype_name": "Flowering Crabapple", "zip_code": "38677", "ownership": "public", "ownership_raw": "Not published in public inventory", "city": "Oxford", "source_dataset": "Tree Inventory", "source_department": "University of Mississippi", "source_last_edit_at": ""}}, {"type": "Feature", "geometry": {"type": "Point", "coordinates": [-89.52729619, 34.36494514000001]}, "properties": {"id": "oxford-516", "species_group": "magnolia", "scientific_name": "Magnolia grandiflora", "common_name": "Southern magnolia", "subtype_name": "Southern Magnolia", "zip_code": "38655", "ownership": "public", "ownership_raw": "Not published in public inventory", "city": "Oxford", "source_dataset": "Tree Inventory", "source_department": "University of Mississippi", "source_last_edit_at": ""}}, {"type": "Feature", "geometry": {"type": "Point", "coordinates": [-89.5272695926405, 34.36409006495857]}, "properties": {"id": "oxford-5559", "species_group": "magnolia", "scientific_name": "Magnolia virginiana", "common_name": "Sweetbay Magnolia", "subtype_name": "Sweetbay Magnolia", "zip_code": "38677", "ownership": "public", "ownership_raw": "Not published in public inventory", "city": "Oxford", "source_dataset": "Tree Inventory", "source_department": "University of Mississippi", "source_last_edit_at": ""}}, {"type": "Feature", "geometry": {"type": "Point", "coordinates": [-89.5271649864889, 34.364100028300754]}, "properties": {"id": "oxford-5560", "species_group": "magnolia", "scientific_name": "Magnolia virginiana", "common_name": "Sweetbay Magnolia", "subtype_name": "Sweetbay Magnolia", "zip_code": "38677", "ownership": "public", "ownership_raw": "Not published in public inventory", "city": "Oxford", "source_dataset": "Tree Inventory", "source_department": "University of Mississippi", "source_last_edit_at": ""}}, {"type": "Feature", "geometry": {"type": "Point", "coordinates": [-89.52709524905453, 34.36405685380935]}, "properties": {"id": "oxford-5561", "species_group": "magnolia", "scientific_name": "Magnolia virginiana", "common_name": "Sweetbay Magnolia", "subtype_name": "Sweetbay Magnolia", "zip_code": "38677", "ownership": "public", "ownership_raw": "Not published in public inventory", "city": "Oxford", "source_dataset": "Tree Inventory", "source_department": "University of Mississippi", "source_last_edit_at": ""}}, {"type": "Feature", "geometry": {"type": "Point", "coordinates": [-89.52717303311594, 34.36394947100347]}, "properties": {"id": "oxford-5562", "species_group": "magnolia", "scientific_name": "Magnolia virginiana", "common_name": "Sweetbay Magnolia", "subtype_name": "Sweetbay Magnolia", "zip_code": "38677", "ownership": "public", "ownership_raw": "Not published in public inventory", "city": "Oxford", "source_dataset": "Tree Inventory", "source_department": "University of Mississippi", "source_last_edit_at": ""}}, {"type": "Feature", "geometry": {"type": "Point", "coordinates": [-89.52715962207085, 34.36385980071995]}, "properties": {"id": "oxford-5563", "species_group": "magnolia", "scientific_name": "Magnolia virginiana", "common_name": "Sweetbay Magnolia", "subtype_name": "Sweetbay Magnolia", "zip_code": "38677", "ownership": "public", "ownership_raw": "Not published in public inventory", "city": "Oxford", "source_dataset": "Tree Inventory", "source_department": "University of Mississippi", "source_last_edit_at": ""}}, {"type": "Feature", "geometry": {"type": "Point", "coordinates": [-89.52717035090691, 34.36379227118382]}, "properties": {"id": "oxford-5564", "species_group": "magnolia", "scientific_name": "Magnolia virginiana", "common_name": "Sweetbay Magnolia", "subtype_name": "Sweetbay Magnolia", "zip_code": "38677", "ownership": "public", "ownership_raw": "Not published in public inventory", "city": "Oxford", "source_dataset": "Tree Inventory", "source_department": "University of Mississippi", "source_last_edit_at": ""}}, {"type": "Feature", "geometry": {"type": "Point", "coordinates": [-89.52714621102578, 34.36373359793612]}, "properties": {"id": "oxford-5565", "species_group": "magnolia", "scientific_name": "Magnolia virginiana", "common_name": "Sweetbay Magnolia", "subtype_name": "Sweetbay Magnolia", "zip_code": "38677", "ownership": "public", "ownership_raw": "Not published in public inventory", "city": "Oxford", "source_dataset": "Tree Inventory", "source_department": "University of Mississippi", "source_last_edit_at": ""}}, {"type": "Feature", "geometry": {"type": "Point", "coordinates": [-89.5271354821897, 34.36365499786063]}, "properties": {"id": "oxford-5566", "species_group": "magnolia", "scientific_name": "Magnolia virginiana", "common_name": "Sweetbay Magnolia", "subtype_name": "Sweetbay Magnolia", "zip_code": "38677", "ownership": "public", "ownership_raw": "Not published in public inventory", "city": "Oxford", "source_dataset": "Tree Inventory", "source_department": "University of Mississippi", "source_last_edit_at": ""}}, {"type": "Feature", "geometry": {"type": "Point", "coordinates": [-89.52714084660774, 34.36356975544193]}, "properties": {"id": "oxford-5567", "species_group": "magnolia", "scientific_name": "Magnolia virginiana", "common_name": "Sweetbay Magnolia", "subtype_name": "Sweetbay Magnolia", "zip_code": "38677", "ownership": "public", "ownership_raw": "Not published in public inventory", "city": "Oxford", "source_dataset": "Tree Inventory", "source_department": "University of Mississippi", "source_last_edit_at": ""}}, {"type": "Feature", "geometry": {"type": "Point", "coordinates": [-89.52711938893562, 34.36347787065973]}, "properties": {"id": "oxford-5568", "species_group": "magnolia", "scientific_name": "Magnolia virginiana", "common_name": "Sweetbay Magnolia", "subtype_name": "Sweetbay Magnolia", "zip_code": "38677", "ownership": "public", "ownership_raw": "Not published in public inventory", "city": "Oxford", "source_dataset": "Tree Inventory", "source_department": "University of Mississippi", "source_last_edit_at": ""}}, {"type": "Feature", "geometry": {"type": "Point", "coordinates": [-89.52713279998069, 34.36341476900394]}, "properties": {"id": "oxford-5569", "species_group": "magnolia", "scientific_name": "Magnolia virginiana", "common_name": "Sweetbay Magnolia", "subtype_name": "Sweetbay Magnolia", "zip_code": "38677", "ownership": "public", "ownership_raw": "Not published in public inventory", "city": "Oxford", "source_dataset": "Tree Inventory", "source_department": "University of Mississippi", "source_last_edit_at": ""}}, {"type": "Feature", "geometry": {"type": "Point", "coordinates": [-89.52713011777168, 34.36334502501333]}, "properties": {"id": "oxford-5570", "species_group": "magnolia", "scientific_name": "Magnolia virginiana", "common_name": "Sweetbay Magnolia", "subtype_name": "Sweetbay Magnolia", "zip_code": "38677", "ownership": "public", "ownership_raw": "Not published in public inventory", "city": "Oxford", "source_dataset": "Tree Inventory", "source_department": "University of Mississippi", "source_last_edit_at": ""}}, {"type": "Feature", "geometry": {"type": "Point", "coordinates": [-89.52711402451757, 34.36325756818113]}, "properties": {"id": "oxford-5571", "species_group": "magnolia", "scientific_name": "Magnolia virginiana", "common_name": "Sweetbay Magnolia", "subtype_name": "Sweetbay Magnolia", "zip_code": "38677", "ownership": "public", "ownership_raw": "Not published in public inventory", "city": "Oxford", "source_dataset": "Tree Inventory", "source_department": "University of Mississippi", "source_last_edit_at": ""}}, {"type": "Feature", "geometry": {"type": "Point", "coordinates": [-89.54073929556532, 34.35208507465106]}, "properties": {"id": "oxford-5577", "species_group": "magnolia", "scientific_name": "Magnolia species", "common_name": "Southern magnolia 'Little Gem'", "subtype_name": "Little Gem Magnolia", "zip_code": "38655", "ownership": "public", "ownership_raw": "Not published in public inventory", "city": "Oxford", "source_dataset": "Tree Inventory", "source_department": "University of Mississippi", "source_last_edit_at": ""}}, {"type": "Feature", "geometry": {"type": "Point", "coordinates": [-89.54073661335632, 34.352111647366975]}, "properties": {"id": "oxford-5578", "species_group": "magnolia", "scientific_name": "Magnolia species", "common_name": "Southern magnolia 'Little Gem'", "subtype_name": "Little Gem Magnolia", "zip_code": "38655", "ownership": "public", "ownership_raw": "Not published in public inventory", "city": "Oxford", "source_dataset": "Tree Inventory", "source_department": "University of Mississippi", "source_last_edit_at": ""}}, {"type": "Feature", "geometry": {"type": "Point", "coordinates": [-89.54076343544646, 34.35209836101008]}, "properties": {"id": "oxford-5579", "species_group": "magnolia", "scientific_name": "Magnolia species", "common_name": "Southern magnolia 'Little Gem'", "subtype_name": "Little Gem Magnolia", "zip_code": "38655", "ownership": "public", "ownership_raw": "Not published in public inventory", "city": "Oxford", "source_dataset": "Tree Inventory", "source_department": "University of Mississippi", "source_last_edit_at": ""}}, {"type": "Feature", "geometry": {"type": "Point", "coordinates": [-89.54076075323744, 34.35212271932946]}, "properties": {"id": "oxford-5580", "species_group": "magnolia", "scientific_name": "Magnolia species", "common_name": "Southern magnolia 'Little Gem'", "subtype_name": "Little Gem Magnolia", "zip_code": "38655", "ownership": "public", "ownership_raw": "Not published in public inventory", "city": "Oxford", "source_dataset": "Tree Inventory", "source_department": "University of Mississippi", "source_last_edit_at": ""}}, {"type": "Feature", "geometry": {"type": "Point", "coordinates": [-89.54079293974563, 34.35211829054464]}, "properties": {"id": "oxford-5581", "species_group": "magnolia", "scientific_name": "Magnolia species", "common_name": "Southern magnolia 'Little Gem'", "subtype_name": "Little Gem Magnolia", "zip_code": "38655", "ownership": "public", "ownership_raw": "Not published in public inventory", "city": "Oxford", "source_dataset": "Tree Inventory", "source_department": "University of Mississippi", "source_last_edit_at": ""}}, {"type": "Feature", "geometry": {"type": "Point", "coordinates": [-89.54077952870054, 34.35214043446638]}, "properties": {"id": "oxford-5582", "species_group": "magnolia", "scientific_name": "Magnolia species", "common_name": "Southern magnolia 'Little Gem'", "subtype_name": "Little Gem Magnolia", "zip_code": "38655", "ownership": "public", "ownership_raw": "Not published in public inventory", "city": "Oxford", "source_dataset": "Tree Inventory", "source_department": "University of Mississippi", "source_last_edit_at": ""}}, {"type": "Feature", "geometry": {"type": "Point", "coordinates": [-89.54081439741773, 34.35213379129046]}, "properties": {"id": "oxford-5583", "species_group": "magnolia", "scientific_name": "Magnolia species", "common_name": "Southern magnolia 'Little Gem'", "subtype_name": "Little Gem Magnolia", "zip_code": "38655", "ownership": "public", "ownership_raw": "Not published in public inventory", "city": "Oxford", "source_dataset": "Tree Inventory", "source_department": "University of Mississippi", "source_last_edit_at": ""}}, {"type": "Feature", "geometry": {"type": "Point", "coordinates": [-89.54080366858169, 34.35215593520811]}, "properties": {"id": "oxford-5584", "species_group": "magnolia", "scientific_name": "Magnolia species", "common_name": "Southern magnolia 'Little Gem'", "subtype_name": "Little Gem Magnolia", "zip_code": "38655", "ownership": "public", "ownership_raw": "Not published in public inventory", "city": "Oxford", "source_dataset": "Tree Inventory", "source_department": "University of Mississippi", "source_last_edit_at": ""}}, {"type": "Feature", "geometry": {"type": "Point", "coordinates": [-89.54081976183576, 34.352175864729006]}, "properties": {"id": "oxford-5585", "species_group": "magnolia", "scientific_name": "Magnolia species", "common_name": "Southern magnolia 'Little Gem'", "subtype_name": "Little Gem Magnolia", "zip_code": "38655", "ownership": "public", "ownership_raw": "Not published in public inventory", "city": "Oxford", "source_dataset": "Tree Inventory", "source_department": "University of Mississippi", "source_last_edit_at": ""}}, {"type": "Feature", "geometry": {"type": "Point", "coordinates": [-89.540859994971, 34.352171435946985]}, "properties": {"id": "oxford-5586", "species_group": "magnolia", "scientific_name": "Magnolia species", "common_name": "Southern magnolia 'Little Gem'", "subtype_name": "Little Gem Magnolia", "zip_code": "38655", "ownership": "public", "ownership_raw": "Not published in public inventory", "city": "Oxford", "source_dataset": "Tree Inventory", "source_department": "University of Mississippi", "source_last_edit_at": ""}}, {"type": "Feature", "geometry": {"type": "Point", "coordinates": [-89.54083853729888, 34.352151506425045]}, "properties": {"id": "oxford-5587", "species_group": "magnolia", "scientific_name": "Magnolia species", "common_name": "Southern magnolia 'Little Gem'", "subtype_name": "Little Gem Magnolia", "zip_code": "38655", "ownership": "public", "ownership_raw": "Not published in public inventory", "city": "Oxford", "source_dataset": "Tree Inventory", "source_department": "University of Mississippi", "source_last_edit_at": ""}}, {"type": "Feature", "geometry": {"type": "Point", "coordinates": [-89.5408439017169, 34.35219357985468]}, "properties": {"id": "oxford-5588", "species_group": "magnolia", "scientific_name": "Magnolia species", "common_name": "Southern magnolia 'Little Gem'", "subtype_name": "Little Gem Magnolia", "zip_code": "38655", "ownership": "public", "ownership_raw": "Not published in public inventory", "city": "Oxford", "source_dataset": "Tree Inventory", "source_department": "University of Mississippi", "source_last_edit_at": ""}}, {"type": "Feature", "geometry": {"type": "Point", "coordinates": [-89.54088413485212, 34.35219357985468]}, "properties": {"id": "oxford-5589", "species_group": "magnolia", "scientific_name": "Magnolia species", "common_name": "Southern magnolia 'Little Gem'", "subtype_name": "Little Gem Magnolia", "zip_code": "38655", "ownership": "public", "ownership_raw": "Not published in public inventory", "city": "Oxford", "source_dataset": "Tree Inventory", "source_department": "University of Mississippi", "source_last_edit_at": ""}}, {"type": "Feature", "geometry": {"type": "Point", "coordinates": [-89.5409136391513, 34.35220908058659]}, "properties": {"id": "oxford-5590", "species_group": "magnolia", "scientific_name": "Magnolia species", "common_name": "Southern magnolia 'Little Gem'", "subtype_name": "Little Gem Magnolia", "zip_code": "38655", "ownership": "public", "ownership_raw": "Not published in public inventory", "city": "Oxford", "source_dataset": "Tree Inventory", "source_department": "University of Mississippi", "source_last_edit_at": ""}}, {"type": "Feature", "geometry": {"type": "Point", "coordinates": [-89.54087072380707, 34.352217938146396]}, "properties": {"id": "oxford-5591", "species_group": "magnolia", "scientific_name": "Magnolia species", "common_name": "Southern magnolia 'Little Gem'", "subtype_name": "Little Gem Magnolia", "zip_code": "38655", "ownership": "public", "ownership_raw": "Not published in public inventory", "city": "Oxford", "source_dataset": "Tree Inventory", "source_department": "University of Mississippi", "source_last_edit_at": ""}}, {"type": "Feature", "geometry": {"type": "Point", "coordinates": [-89.54089218147918, 34.352231224484356]}, "properties": {"id": "oxford-5592", "species_group": "magnolia", "scientific_name": "Magnolia species", "common_name": "Southern magnolia 'Little Gem'", "subtype_name": "Little Gem Magnolia", "zip_code": "38655", "ownership": "public", "ownership_raw": "Not published in public inventory", "city": "Oxford", "source_dataset": "Tree Inventory", "source_department": "University of Mississippi", "source_last_edit_at": ""}}, {"type": "Feature", "geometry": {"type": "Point", "coordinates": [-89.5409350968234, 34.352224581315646]}, "properties": {"id": "oxford-5593", "species_group": "magnolia", "scientific_name": "Magnolia species", "common_name": "Southern magnolia 'Little Gem'", "subtype_name": "Little Gem Magnolia", "zip_code": "38655", "ownership": "public", "ownership_raw": "Not published in public inventory", "city": "Oxford", "source_dataset": "Tree Inventory", "source_department": "University of Mississippi", "source_last_edit_at": ""}}, {"type": "Feature", "geometry": {"type": "Point", "coordinates": [-89.54095387228652, 34.352248939598354]}, "properties": {"id": "oxford-5594", "species_group": "magnolia", "scientific_name": "Magnolia species", "common_name": "Southern magnolia 'Little Gem'", "subtype_name": "Little Gem Magnolia", "zip_code": "38655", "ownership": "public", "ownership_raw": "Not published in public inventory", "city": "Oxford", "source_dataset": "Tree Inventory", "source_department": "University of Mississippi", "source_last_edit_at": ""}}, {"type": "Feature", "geometry": {"type": "Point", "coordinates": [-89.54093777903242, 34.35227108348556]}, "properties": {"id": "oxford-5595", "species_group": "magnolia", "scientific_name": "Magnolia species", "common_name": "Southern magnolia 'Little Gem'", "subtype_name": "Little Gem Magnolia", "zip_code": "38655", "ownership": "public", "ownership_raw": "Not published in public inventory", "city": "Oxford", "source_dataset": "Tree Inventory", "source_department": "University of Mississippi", "source_last_edit_at": ""}}, {"type": "Feature", "geometry": {"type": "Point", "coordinates": [-89.54092168577834, 34.352244510820206]}, "properties": {"id": "oxford-5596", "species_group": "magnolia", "scientific_name": "Magnolia species", "common_name": "Southern magnolia 'Little Gem'", "subtype_name": "Little Gem Magnolia", "zip_code": "38655", "ownership": "public", "ownership_raw": "Not published in public inventory", "city": "Oxford", "source_dataset": "Tree Inventory", "source_department": "University of Mississippi", "source_last_edit_at": ""}}, {"type": "Feature", "geometry": {"type": "Point", "coordinates": [-89.5270831791139, 34.363839873977255]}, "properties": {"id": "oxford-5650", "species_group": "magnolia", "scientific_name": "Magnolia species", "common_name": "Southern magnolia 'Little Gem'", "subtype_name": "Little Gem Magnolia", "zip_code": "38677", "ownership": "public", "ownership_raw": "Not published in public inventory", "city": "Oxford", "source_dataset": "Tree Inventory", "source_department": "University of Mississippi", "source_last_edit_at": ""}}, {"type": "Feature", "geometry": {"type": "Point", "coordinates": [-89.52709793126347, 34.363909617556]}, "properties": {"id": "oxford-5651", "species_group": "magnolia", "scientific_name": "Magnolia species", "common_name": "Southern magnolia 'Little Gem'", "subtype_name": "Little Gem Magnolia", "zip_code": "38677", "ownership": "public", "ownership_raw": "Not published in public inventory", "city": "Oxford", "source_dataset": "Tree Inventory", "source_department": "University of Mississippi", "source_last_edit_at": ""}}, {"type": "Feature", "geometry": {"type": "Point", "coordinates": [-89.52709390794995, 34.363771237382785]}, "properties": {"id": "oxford-5652", "species_group": "magnolia", "scientific_name": "Magnolia species", "common_name": "Southern magnolia 'Little Gem'", "subtype_name": "Little Gem Magnolia", "zip_code": "38677", "ownership": "public", "ownership_raw": "Not published in public inventory", "city": "Oxford", "source_dataset": "Tree Inventory", "source_department": "University of Mississippi", "source_last_edit_at": ""}}, {"type": "Feature", "geometry": {"type": "Point", "coordinates": [-89.52710329568151, 34.36371256412033]}, "properties": {"id": "oxford-5653", "species_group": "magnolia", "scientific_name": "Magnolia species", "common_name": "Southern magnolia 'Little Gem'", "subtype_name": "Little Gem Magnolia", "zip_code": "38677", "ownership": "public", "ownership_raw": "Not published in public inventory", "city": "Oxford", "source_dataset": "Tree Inventory", "source_department": "University of Mississippi", "source_last_edit_at": ""}}, {"type": "Feature", "geometry": {"type": "Point", "coordinates": [-89.52706708585983, 34.36364724855345]}, "properties": {"id": "oxford-5654", "species_group": "magnolia", "scientific_name": "Magnolia species", "common_name": "Southern magnolia 'Little Gem'", "subtype_name": "Little Gem Magnolia", "zip_code": "38677", "ownership": "public", "ownership_raw": "Not published in public inventory", "city": "Oxford", "source_dataset": "Tree Inventory", "source_department": "University of Mississippi", "source_last_edit_at": ""}}, {"type": "Feature", "geometry": {"type": "Point", "coordinates": [-89.5270630625463, 34.363491155212785]}, "properties": {"id": "oxford-5655", "species_group": "magnolia", "scientific_name": "Magnolia species", "common_name": "Southern magnolia 'Little Gem'", "subtype_name": "Little Gem Magnolia", "zip_code": "38677", "ownership": "public", "ownership_raw": "Not published in public inventory", "city": "Oxford", "source_dataset": "Tree Inventory", "source_department": "University of Mississippi", "source_last_edit_at": ""}}, {"type": "Feature", "geometry": {"type": "Point", "coordinates": [-89.5270322171426, 34.36358303998043]}, "properties": {"id": "oxford-5656", "species_group": "magnolia", "scientific_name": "Magnolia species", "common_name": "Southern magnolia 'Little Gem'", "subtype_name": "Little Gem Magnolia", "zip_code": "38677", "ownership": "public", "ownership_raw": "Not published in public inventory", "city": "Oxford", "source_dataset": "Tree Inventory", "source_department": "University of Mississippi", "source_last_edit_at": ""}}, {"type": "Feature", "geometry": {"type": "Point", "coordinates": [-89.5270657447553, 34.363435802894514]}, "properties": {"id": "oxford-5657", "species_group": "magnolia", "scientific_name": "Magnolia species", "common_name": "Southern magnolia 'Little Gem'", "subtype_name": "Little Gem Magnolia", "zip_code": "38677", "ownership": "public", "ownership_raw": "Not published in public inventory", "city": "Oxford", "source_dataset": "Tree Inventory", "source_department": "University of Mississippi", "source_last_edit_at": ""}}, {"type": "Feature", "geometry": {"type": "Point", "coordinates": [-89.52704831039672, 34.363357202539696]}, "properties": {"id": "oxford-5658", "species_group": "magnolia", "scientific_name": "Magnolia species", "common_name": "Southern magnolia 'Little Gem'", "subtype_name": "Little Gem Magnolia", "zip_code": "38677", "ownership": "public", "ownership_raw": "Not published in public inventory", "city": "Oxford", "source_dataset": "Tree Inventory", "source_department": "University of Mississippi", "source_last_edit_at": ""}}, {"type": "Feature", "geometry": {"type": "Point", "coordinates": [-89.52698259627584, 34.36340701967454]}, "properties": {"id": "oxford-5659", "species_group": "magnolia", "scientific_name": "Magnolia species", "common_name": "Southern magnolia 'Little Gem'", "subtype_name": "Little Gem Magnolia", "zip_code": "38677", "ownership": "public", "ownership_raw": "Not published in public inventory", "city": "Oxford", "source_dataset": "Tree Inventory", "source_department": "University of Mississippi", "source_last_edit_at": ""}}, {"type": "Feature", "geometry": {"type": "Point", "coordinates": [-89.52697320854429, 34.36349447635073]}, "properties": {"id": "oxford-5660", "species_group": "magnolia", "scientific_name": "Magnolia species", "common_name": "Southern magnolia 'Little Gem'", "subtype_name": "Little Gem Magnolia", "zip_code": "38677", "ownership": "public", "ownership_raw": "Not published in public inventory", "city": "Oxford", "source_dataset": "Tree Inventory", "source_department": "University of Mississippi", "source_last_edit_at": ""}}, {"type": "Feature", "geometry": {"type": "Point", "coordinates": [-89.52698527848486, 34.363637285157395]}, "properties": {"id": "oxford-5661", "species_group": "magnolia", "scientific_name": "Magnolia species", "common_name": "Southern magnolia 'Little Gem'", "subtype_name": "Little Gem Magnolia", "zip_code": "38677", "ownership": "public", "ownership_raw": "Not published in public inventory", "city": "Oxford", "source_dataset": "Tree Inventory", "source_department": "University of Mississippi", "source_last_edit_at": ""}}, {"type": "Feature", "geometry": {"type": "Point", "coordinates": [-89.52704562818768, 34.36368488803887]}, "properties": {"id": "oxford-5662", "species_group": "magnolia", "scientific_name": "Magnolia species", "common_name": "Southern magnolia 'Little Gem'", "subtype_name": "Little Gem Magnolia", "zip_code": "38677", "ownership": "public", "ownership_raw": "Not published in public inventory", "city": "Oxford", "source_dataset": "Tree Inventory", "source_department": "University of Mississippi", "source_last_edit_at": ""}}, {"type": "Feature", "geometry": {"type": "Point", "coordinates": [-89.52705769812823, 34.36374134723533]}, "properties": {"id": "oxford-5663", "species_group": "magnolia", "scientific_name": "Magnolia species", "common_name": "Southern magnolia 'Little Gem'", "subtype_name": "Little Gem Magnolia", "zip_code": "38677", "ownership": "public", "ownership_raw": "Not published in public inventory", "city": "Oxford", "source_dataset": "Tree Inventory", "source_department": "University of Mississippi", "source_last_edit_at": ""}}, {"type": "Feature", "geometry": {"type": "Point", "coordinates": [-89.52701880609752, 34.36378673597352]}, "properties": {"id": "oxford-5664", "species_group": "magnolia", "scientific_name": "Magnolia species", "common_name": "Southern magnolia 'Little Gem'", "subtype_name": "Little Gem Magnolia", "zip_code": "38677", "ownership": "public", "ownership_raw": "Not published in public inventory", "city": "Oxford", "source_dataset": "Tree Inventory", "source_department": "University of Mississippi", "source_last_edit_at": ""}}, {"type": "Feature", "geometry": {"type": "Point", "coordinates": [-89.52703087603808, 34.36384762326663]}, "properties": {"id": "oxford-5665", "species_group": "magnolia", "scientific_name": "Magnolia species", "common_name": "Southern magnolia 'Little Gem'", "subtype_name": "Little Gem Magnolia", "zip_code": "38677", "ownership": "public", "ownership_raw": "Not published in public inventory", "city": "Oxford", "source_dataset": "Tree Inventory", "source_department": "University of Mississippi", "source_last_edit_at": ""}}, {"type": "Feature", "geometry": {"type": "Point", "coordinates": [-89.52711268341302, 34.36398600331369]}, "properties": {"id": "oxford-5666", "species_group": "magnolia", "scientific_name": "Magnolia species", "common_name": "Southern magnolia 'Little Gem'", "subtype_name": "Little Gem Magnolia", "zip_code": "38677", "ownership": "public", "ownership_raw": "Not published in public inventory", "city": "Oxford", "source_dataset": "Tree Inventory", "source_department": "University of Mississippi", "source_last_edit_at": ""}}, {"type": "Feature", "geometry": {"type": "Point", "coordinates": [-89.52706038033722, 34.36333395453329]}, "properties": {"id": "oxford-5667", "species_group": "magnolia", "scientific_name": "Magnolia species", "common_name": "Southern magnolia 'Little Gem'", "subtype_name": "Little Gem Magnolia", "zip_code": "38677", "ownership": "public", "ownership_raw": "Not published in public inventory", "city": "Oxford", "source_dataset": "Tree Inventory", "source_department": "University of Mississippi", "source_last_edit_at": ""}}, {"type": "Feature", "geometry": {"type": "Point", "coordinates": [-89.52704562818765, 34.36324206949252]}, "properties": {"id": "oxford-5668", "species_group": "magnolia", "scientific_name": "Magnolia species", "common_name": "Southern magnolia 'Little Gem'", "subtype_name": "Little Gem Magnolia", "zip_code": "38677", "ownership": "public", "ownership_raw": "Not published in public inventory", "city": "Oxford", "source_dataset": "Tree Inventory", "source_department": "University of Mississippi", "source_last_edit_at": ""}}, {"type": "Feature", "geometry": {"type": "Point", "coordinates": [-89.52699868952988, 34.36328745850115]}, "properties": {"id": "oxford-5669", "species_group": "magnolia", "scientific_name": "Magnolia species", "common_name": "Southern magnolia 'Little Gem'", "subtype_name": "Little Gem Magnolia", "zip_code": "38677", "ownership": "public", "ownership_raw": "Not published in public inventory", "city": "Oxford", "source_dataset": "Tree Inventory", "source_department": "University of Mississippi", "source_last_edit_at": ""}}, {"type": "Feature", "geometry": {"type": "Point", "coordinates": [-89.5269678441262, 34.363361630730644]}, "properties": {"id": "oxford-5670", "species_group": "magnolia", "scientific_name": "Magnolia species", "common_name": "Southern magnolia 'Little Gem'", "subtype_name": "Little Gem Magnolia", "zip_code": "38677", "ownership": "public", "ownership_raw": "Not published in public inventory", "city": "Oxford", "source_dataset": "Tree Inventory", "source_department": "University of Mississippi", "source_last_edit_at": ""}}, {"type": "Feature", "geometry": {"type": "Point", "coordinates": [-89.54346253475056, 34.362006115116024]}, "properties": {"id": "oxford-5704", "species_group": "cherry", "scientific_name": "Prunus species", "common_name": "spp. Cherry", "subtype_name": "spp. Cherry", "zip_code": "38677", "ownership": "public", "ownership_raw": "Not published in public inventory", "city": "Oxford", "source_dataset": "Tree Inventory", "source_department": "University of Mississippi", "source_last_edit_at": ""}}, {"type": "Feature", "geometry": {"type": "Point", "coordinates": [-89.54356714090211, 34.36196792134346]}, "properties": {"id": "oxford-5705", "species_group": "cherry", "scientific_name": "Prunus species", "common_name": "spp. Cherry", "subtype_name": "spp. Cherry", "zip_code": "38677", "ownership": "public", "ownership_raw": "Not published in public inventory", "city": "Oxford", "source_dataset": "Tree Inventory", "source_department": "University of Mississippi", "source_last_edit_at": ""}}, {"type": "Feature", "geometry": {"type": "Point", "coordinates": [-89.54367711147172, 34.361950761816765]}, "properties": {"id": "oxford-5706", "species_group": "cherry", "scientific_name": "Prunus species", "common_name": "spp. Cherry", "subtype_name": "spp. Cherry", "zip_code": "38677", "ownership": "public", "ownership_raw": "Not published in public inventory", "city": "Oxford", "source_dataset": "Tree Inventory", "source_department": "University of Mississippi", "source_last_edit_at": ""}}, {"type": "Feature", "geometry": {"type": "Point", "coordinates": [-89.5436891814123, 34.361812378408594]}, "properties": {"id": "oxford-5708", "species_group": "cherry", "scientific_name": "Prunus species", "common_name": "spp. Cherry", "subtype_name": "spp. Cherry", "zip_code": "38677", "ownership": "public", "ownership_raw": "Not published in public inventory", "city": "Oxford", "source_dataset": "Tree Inventory", "source_department": "University of Mississippi", "source_last_edit_at": ""}}, {"type": "Feature", "geometry": {"type": "Point", "coordinates": [-89.54372673233851, 34.36182953796363]}, "properties": {"id": "oxford-5709", "species_group": "cherry", "scientific_name": "Prunus species", "common_name": "spp. Cherry", "subtype_name": "spp. Cherry", "zip_code": "38677", "ownership": "public", "ownership_raw": "Not published in public inventory", "city": "Oxford", "source_dataset": "Tree Inventory", "source_department": "University of Mississippi", "source_last_edit_at": ""}}, {"type": "Feature", "geometry": {"type": "Point", "coordinates": [-89.54367592018338, 34.36166840063275]}, "properties": {"id": "oxford-5751", "species_group": "cherry", "scientific_name": "Prunus yedoensis", "common_name": "Yoshino Cherry", "subtype_name": "Yoshino", "zip_code": "38677", "ownership": "public", "ownership_raw": "Not published in public inventory", "city": "Oxford", "source_dataset": "Tree Inventory", "source_department": "University of Mississippi", "source_last_edit_at": ""}}, {"type": "Feature", "geometry": {"type": "Point", "coordinates": [-89.54361020606251, 34.36169884505445]}, "properties": {"id": "oxford-5752", "species_group": "cherry", "scientific_name": "Prunus yedoensis", "common_name": "Yoshino Cherry", "subtype_name": "Yoshino", "zip_code": "38677", "ownership": "public", "ownership_raw": "Not published in public inventory", "city": "Oxford", "source_dataset": "Tree Inventory", "source_department": "University of Mississippi", "source_last_edit_at": ""}}, {"type": "Feature", "geometry": {"type": "Point", "coordinates": [-89.52948559078682, 34.36529279604995]}, "properties": {"id": "oxford-6021", "species_group": "magnolia", "scientific_name": "Magnolia x soulangiana", "common_name": "Saucer Magnolia", "subtype_name": "Saucer Magnolia", "zip_code": "38655", "ownership": "public", "ownership_raw": "Not published in public inventory", "city": "Oxford", "source_dataset": "Tree Inventory", "source_department": "University of Mississippi", "source_last_edit_at": ""}}, {"type": "Feature", "geometry": {"type": "Point", "coordinates": [-89.52951241287698, 34.3653022057381]}, "properties": {"id": "oxford-6022", "species_group": "magnolia", "scientific_name": "Magnolia x soulangiana", "common_name": "Saucer Magnolia", "subtype_name": "Saucer Magnolia", "zip_code": "38655", "ownership": "public", "ownership_raw": "Not published in public inventory", "city": "Oxford", "source_dataset": "Tree Inventory", "source_department": "University of Mississippi", "source_last_edit_at": ""}}, {"type": "Feature", "geometry": {"type": "Point", "coordinates": [-89.52951107177246, 34.36532268564393]}, "properties": {"id": "oxford-6023", "species_group": "magnolia", "scientific_name": "Magnolia x soulangiana", "common_name": "Saucer Magnolia", "subtype_name": "Saucer Magnolia", "zip_code": "38655", "ownership": "public", "ownership_raw": "Not published in public inventory", "city": "Oxford", "source_dataset": "Tree Inventory", "source_department": "University of Mississippi", "source_last_edit_at": ""}}, {"type": "Feature", "geometry": {"type": "Point", "coordinates": [-89.52791878463009, 34.36751355873874]}, "properties": {"id": "oxford-6027", "species_group": "magnolia", "scientific_name": "Magnolia x soulangiana", "common_name": "Saucer Magnolia", "subtype_name": "Saucer Magnolia", "zip_code": "38655", "ownership": "public", "ownership_raw": "Not published in public inventory", "city": "Oxford", "source_dataset": "Tree Inventory", "source_department": "University of Mississippi", "source_last_edit_at": ""}}, {"type": "Feature", "geometry": {"type": "Point", "coordinates": [-89.5277480233823, 34.36774900086939]}, "properties": {"id": "oxford-6029", "species_group": "magnolia", "scientific_name": "Magnolia x soulangiana", "common_name": "Saucer Magnolia", "subtype_name": "Saucer Magnolia", "zip_code": "38655", "ownership": "public", "ownership_raw": "Not published in public inventory", "city": "Oxford", "source_dataset": "Tree Inventory", "source_department": "University of Mississippi", "source_last_edit_at": ""}}, {"type": "Feature", "geometry": {"type": "Point", "coordinates": [-89.5401740806939, 34.35449113544468]}, "properties": {"id": "oxford-6731", "species_group": "magnolia", "scientific_name": "Magnolia virginiana", "common_name": "Sweetbay Magnolia", "subtype_name": "Sweetbay Magnolia", "zip_code": "38655", "ownership": "public", "ownership_raw": "Not published in public inventory", "city": "Oxford", "source_dataset": "Tree Inventory", "source_department": "University of Mississippi", "source_last_edit_at": ""}}, {"type": "Feature", "geometry": {"type": "Point", "coordinates": [-89.54014108947634, 34.35446633095819]}, "properties": {"id": "oxford-6732", "species_group": "magnolia", "scientific_name": "Magnolia virginiana", "common_name": "Sweetbay Magnolia", "subtype_name": "Sweetbay Magnolia", "zip_code": "38655", "ownership": "public", "ownership_raw": "Not published in public inventory", "city": "Oxford", "source_dataset": "Tree Inventory", "source_department": "University of Mississippi", "source_last_edit_at": ""}}, {"type": "Feature", "geometry": {"type": "Point", "coordinates": [-89.54019882410705, 34.35441915377729]}, "properties": {"id": "oxford-6733", "species_group": "magnolia", "scientific_name": "Magnolia virginiana", "common_name": "Sweetbay Magnolia", "subtype_name": "Sweetbay Magnolia", "zip_code": "38655", "ownership": "public", "ownership_raw": "Not published in public inventory", "city": "Oxford", "source_dataset": "Tree Inventory", "source_department": "University of Mississippi", "source_last_edit_at": ""}}, {"type": "Feature", "geometry": {"type": "Point", "coordinates": [-89.54022710229354, 34.3544429855524]}, "properties": {"id": "oxford-6734", "species_group": "magnolia", "scientific_name": "Magnolia virginiana", "common_name": "Sweetbay Magnolia", "subtype_name": "Sweetbay Magnolia", "zip_code": "38655", "ownership": "public", "ownership_raw": "Not published in public inventory", "city": "Oxford", "source_dataset": "Tree Inventory", "source_department": "University of Mississippi", "source_last_edit_at": ""}}, {"type": "Feature", "geometry": {"type": "Point", "coordinates": [-89.53987853827496, 34.353938747700084]}, "properties": {"id": "oxford-6743", "species_group": "magnolia", "scientific_name": "Magnolia grandiflora", "common_name": "Southern magnolia", "subtype_name": "Southern Magnolia", "zip_code": "38655", "ownership": "public", "ownership_raw": "Not published in public inventory", "city": "Oxford", "source_dataset": "Tree Inventory", "source_department": "University of Mississippi", "source_last_edit_at": ""}}, {"type": "Feature", "geometry": {"type": "Point", "coordinates": [-89.53990996620236, 34.35397199084321]}, "properties": {"id": "oxford-6744", "species_group": "magnolia", "scientific_name": "Magnolia grandiflora", "common_name": "Southern magnolia", "subtype_name": "Southern Magnolia", "zip_code": "38655", "ownership": "public", "ownership_raw": "Not published in public inventory", "city": "Oxford", "source_dataset": "Tree Inventory", "source_department": "University of Mississippi", "source_last_edit_at": ""}}, {"type": "Feature", "geometry": {"type": "Point", "coordinates": [-89.53995907233893, 34.3540003691257]}, "properties": {"id": "oxford-6745", "species_group": "magnolia", "scientific_name": "Magnolia grandiflora", "common_name": "Southern magnolia", "subtype_name": "Southern Magnolia", "zip_code": "38655", "ownership": "public", "ownership_raw": "Not published in public inventory", "city": "Oxford", "source_dataset": "Tree Inventory", "source_department": "University of Mississippi", "source_last_edit_at": ""}}, {"type": "Feature", "geometry": {"type": "Point", "coordinates": [-89.53998853602087, 34.35403847708991]}, "properties": {"id": "oxford-6746", "species_group": "magnolia", "scientific_name": "Magnolia grandiflora", "common_name": "Southern magnolia", "subtype_name": "Southern Magnolia", "zip_code": "38655", "ownership": "public", "ownership_raw": "Not published in public inventory", "city": "Oxford", "source_dataset": "Tree Inventory", "source_department": "University of Mississippi", "source_last_edit_at": ""}}, {"type": "Feature", "geometry": {"type": "Point", "coordinates": [-89.54003371366652, 34.35406523373527]}, "properties": {"id": "oxford-6747", "species_group": "magnolia", "scientific_name": "Magnolia grandiflora", "common_name": "Southern magnolia", "subtype_name": "Southern Magnolia", "zip_code": "38655", "ownership": "public", "ownership_raw": "Not published in public inventory", "city": "Oxford", "source_dataset": "Tree Inventory", "source_department": "University of Mississippi", "source_last_edit_at": ""}}, {"type": "Feature", "geometry": {"type": "Point", "coordinates": [-89.53997871479356, 34.354126044261164]}, "properties": {"id": "oxford-6748", "species_group": "magnolia", "scientific_name": "Magnolia grandiflora", "common_name": "Southern magnolia", "subtype_name": "Southern Magnolia", "zip_code": "38655", "ownership": "public", "ownership_raw": "Not published in public inventory", "city": "Oxford", "source_dataset": "Tree Inventory", "source_department": "University of Mississippi", "source_last_edit_at": ""}}, {"type": "Feature", "geometry": {"type": "Point", "coordinates": [-89.53990800195692, 34.35410253086306]}, "properties": {"id": "oxford-6749", "species_group": "magnolia", "scientific_name": "Magnolia grandiflora", "common_name": "Southern magnolia", "subtype_name": "Southern Magnolia", "zip_code": "38655", "ownership": "public", "ownership_raw": "Not published in public inventory", "city": "Oxford", "source_dataset": "Tree Inventory", "source_department": "University of Mississippi", "source_last_edit_at": ""}}, {"type": "Feature", "geometry": {"type": "Point", "coordinates": [-89.54065721061127, 34.35409653483283]}, "properties": {"id": "oxford-6773", "species_group": "magnolia", "scientific_name": "Magnolia virginiana", "common_name": "Sweetbay Magnolia", "subtype_name": "Sweetbay Magnolia", "zip_code": "38655", "ownership": "public", "ownership_raw": "Not published in public inventory", "city": "Oxford", "source_dataset": "Tree Inventory", "source_department": "University of Mississippi", "source_last_edit_at": ""}}, {"type": "Feature", "geometry": {"type": "Point", "coordinates": [-89.54060490753548, 34.35409376690751]}, "properties": {"id": "oxford-6774", "species_group": "magnolia", "scientific_name": "Magnolia virginiana", "common_name": "Sweetbay Magnolia", "subtype_name": "Sweetbay Magnolia", "zip_code": "38655", "ownership": "public", "ownership_raw": "Not published in public inventory", "city": "Oxford", "source_dataset": "Tree Inventory", "source_department": "University of Mississippi", "source_last_edit_at": ""}}, {"type": "Feature", "geometry": {"type": "Point", "coordinates": [-89.54055260445968, 34.35409210615228]}, "properties": {"id": "oxford-6775", "species_group": "magnolia", "scientific_name": "Magnolia virginiana", "common_name": "Sweetbay Magnolia", "subtype_name": "Sweetbay Magnolia", "zip_code": "38655", "ownership": "public", "ownership_raw": "Not published in public inventory", "city": "Oxford", "source_dataset": "Tree Inventory", "source_department": "University of Mississippi", "source_last_edit_at": ""}}, {"type": "Feature", "geometry": {"type": "Point", "coordinates": [-89.54069090078204, 34.354043944236366]}, "properties": {"id": "oxford-6776", "species_group": "magnolia", "scientific_name": "Magnolia virginiana", "common_name": "Sweetbay Magnolia", "subtype_name": "Sweetbay Magnolia", "zip_code": "38655", "ownership": "public", "ownership_raw": "Not published in public inventory", "city": "Oxford", "source_dataset": "Tree Inventory", "source_department": "University of Mississippi", "source_last_edit_at": ""}}, {"type": "Feature", "geometry": {"type": "Point", "coordinates": [-89.54061445782511, 34.35404228348015]}, "properties": {"id": "oxford-6777", "species_group": "magnolia", "scientific_name": "Magnolia virginiana", "common_name": "Sweetbay Magnolia", "subtype_name": "Sweetbay Magnolia", "zip_code": "38655", "ownership": "public", "ownership_raw": "Not published in public inventory", "city": "Oxford", "source_dataset": "Tree Inventory", "source_department": "University of Mississippi", "source_last_edit_at": ""}}, {"type": "Feature", "geometry": {"type": "Point", "coordinates": [-89.54056081364482, 34.35403840838219]}, "properties": {"id": "oxford-6778", "species_group": "magnolia", "scientific_name": "Magnolia virginiana", "common_name": "Sweetbay Magnolia", "subtype_name": "Sweetbay Magnolia", "zip_code": "38655", "ownership": "public", "ownership_raw": "Not published in public inventory", "city": "Oxford", "source_dataset": "Tree Inventory", "source_department": "University of Mississippi", "source_last_edit_at": ""}}, {"type": "Feature", "geometry": {"type": "Point", "coordinates": [-89.54066810200541, 34.35402069364635]}, "properties": {"id": "oxford-6780", "species_group": "magnolia", "scientific_name": "Magnolia virginiana", "common_name": "Sweetbay Magnolia", "subtype_name": "Sweetbay Magnolia", "zip_code": "38655", "ownership": "public", "ownership_raw": "Not published in public inventory", "city": "Oxford", "source_dataset": "Tree Inventory", "source_department": "University of Mississippi", "source_last_edit_at": ""}}, {"type": "Feature", "geometry": {"type": "Point", "coordinates": [-89.54060641119807, 34.353972531689415]}, "properties": {"id": "oxford-6781", "species_group": "magnolia", "scientific_name": "Magnolia virginiana", "common_name": "Sweetbay Magnolia", "subtype_name": "Sweetbay Magnolia", "zip_code": "38655", "ownership": "public", "ownership_raw": "Not published in public inventory", "city": "Oxford", "source_dataset": "Tree Inventory", "source_department": "University of Mississippi", "source_last_edit_at": ""}}, {"type": "Feature", "geometry": {"type": "Point", "coordinates": [-89.54055544922679, 34.353939316530564]}, "properties": {"id": "oxford-6783", "species_group": "magnolia", "scientific_name": "Magnolia virginiana", "common_name": "Sweetbay Magnolia", "subtype_name": "Sweetbay Magnolia", "zip_code": "38655", "ownership": "public", "ownership_raw": "Not published in public inventory", "city": "Oxford", "source_dataset": "Tree Inventory", "source_department": "University of Mississippi", "source_last_edit_at": ""}}, {"type": "Feature", "geometry": {"type": "Point", "coordinates": [-89.54051789830056, 34.353898904736226]}, "properties": {"id": "oxford-6784", "species_group": "magnolia", "scientific_name": "Magnolia virginiana", "common_name": "Sweetbay Magnolia", "subtype_name": "Sweetbay Magnolia", "zip_code": "38655", "ownership": "public", "ownership_raw": "Not published in public inventory", "city": "Oxford", "source_dataset": "Tree Inventory", "source_department": "University of Mississippi", "source_last_edit_at": ""}}, {"type": "Feature", "geometry": {"type": "Point", "coordinates": [-89.54047900626985, 34.35387067182723]}, "properties": {"id": "oxford-6785", "species_group": "magnolia", "scientific_name": "Magnolia virginiana", "common_name": "Sweetbay Magnolia", "subtype_name": "Sweetbay Magnolia", "zip_code": "38655", "ownership": "public", "ownership_raw": "Not published in public inventory", "city": "Oxford", "source_dataset": "Tree Inventory", "source_department": "University of Mississippi", "source_last_edit_at": ""}}, {"type": "Feature", "geometry": {"type": "Point", "coordinates": [-89.54044011423913, 34.35383025999979]}, "properties": {"id": "oxford-6786", "species_group": "magnolia", "scientific_name": "Magnolia virginiana", "common_name": "Sweetbay Magnolia", "subtype_name": "Sweetbay Magnolia", "zip_code": "38655", "ownership": "public", "ownership_raw": "Not published in public inventory", "city": "Oxford", "source_dataset": "Tree Inventory", "source_department": "University of Mississippi", "source_last_edit_at": ""}}, {"type": "Feature", "geometry": {"type": "Point", "coordinates": [-89.54039451668588, 34.35380202706769]}, "properties": {"id": "oxford-6787", "species_group": "magnolia", "scientific_name": "Magnolia virginiana", "common_name": "Sweetbay Magnolia", "subtype_name": "Sweetbay Magnolia", "zip_code": "38655", "ownership": "public", "ownership_raw": "Not published in public inventory", "city": "Oxford", "source_dataset": "Tree Inventory", "source_department": "University of Mississippi", "source_last_edit_at": ""}}, {"type": "Feature", "geometry": {"type": "Point", "coordinates": [-89.54035830686418, 34.35377268695173]}, "properties": {"id": "oxford-6788", "species_group": "magnolia", "scientific_name": "Magnolia virginiana", "common_name": "Sweetbay Magnolia", "subtype_name": "Sweetbay Magnolia", "zip_code": "38655", "ownership": "public", "ownership_raw": "Not published in public inventory", "city": "Oxford", "source_dataset": "Tree Inventory", "source_department": "University of Mississippi", "source_last_edit_at": ""}}, {"type": "Feature", "geometry": {"type": "Point", "coordinates": [-89.54033282587854, 34.353742239650686]}, "properties": {"id": "oxford-6789", "species_group": "magnolia", "scientific_name": "Magnolia virginiana", "common_name": "Sweetbay Magnolia", "subtype_name": "Sweetbay Magnolia", "zip_code": "38655", "ownership": "public", "ownership_raw": "Not published in public inventory", "city": "Oxford", "source_dataset": "Tree Inventory", "source_department": "University of Mississippi", "source_last_edit_at": ""}}, {"type": "Feature", "geometry": {"type": "Point", "coordinates": [-89.54030332157936, 34.35369407753373]}, "properties": {"id": "oxford-6790", "species_group": "magnolia", "scientific_name": "Magnolia virginiana", "common_name": "Sweetbay Magnolia", "subtype_name": "Sweetbay Magnolia", "zip_code": "38655", "ownership": "public", "ownership_raw": "Not published in public inventory", "city": "Oxford", "source_dataset": "Tree Inventory", "source_department": "University of Mississippi", "source_last_edit_at": ""}}, {"type": "Feature", "geometry": {"type": "Point", "coordinates": [-89.54026979396666, 34.353715667451645]}, "properties": {"id": "oxford-6791", "species_group": "magnolia", "scientific_name": "Magnolia virginiana", "common_name": "Sweetbay Magnolia", "subtype_name": "Sweetbay Magnolia", "zip_code": "38655", "ownership": "public", "ownership_raw": "Not published in public inventory", "city": "Oxford", "source_dataset": "Tree Inventory", "source_department": "University of Mississippi", "source_last_edit_at": ""}}, {"type": "Feature", "geometry": {"type": "Point", "coordinates": [-89.5402429718765, 34.353676362725146]}, "properties": {"id": "oxford-6792", "species_group": "magnolia", "scientific_name": "Magnolia virginiana", "common_name": "Sweetbay Magnolia", "subtype_name": "Sweetbay Magnolia", "zip_code": "38655", "ownership": "public", "ownership_raw": "Not published in public inventory", "city": "Oxford", "source_dataset": "Tree Inventory", "source_department": "University of Mississippi", "source_last_edit_at": ""}}, {"type": "Feature", "geometry": {"type": "Point", "coordinates": [-89.54018128106915, 34.353620450335974]}, "properties": {"id": "oxford-6793", "species_group": "magnolia", "scientific_name": "Magnolia virginiana", "common_name": "Sweetbay Magnolia", "subtype_name": "Sweetbay Magnolia", "zip_code": "38655", "ownership": "public", "ownership_raw": "Not published in public inventory", "city": "Oxford", "source_dataset": "Tree Inventory", "source_department": "University of Mississippi", "source_last_edit_at": ""}}, {"type": "Feature", "geometry": {"type": "Point", "coordinates": [-89.5401303190978, 34.35357948479946]}, "properties": {"id": "oxford-6795", "species_group": "magnolia", "scientific_name": "Magnolia virginiana", "common_name": "Sweetbay Magnolia", "subtype_name": "Sweetbay Magnolia", "zip_code": "38655", "ownership": "public", "ownership_raw": "Not published in public inventory", "city": "Oxford", "source_dataset": "Tree Inventory", "source_department": "University of Mississippi", "source_last_edit_at": ""}}, {"type": "Feature", "geometry": {"type": "Point", "coordinates": [-89.54008203933549, 34.35353353694412]}, "properties": {"id": "oxford-6796", "species_group": "magnolia", "scientific_name": "Magnolia virginiana", "common_name": "Sweetbay Magnolia", "subtype_name": "Sweetbay Magnolia", "zip_code": "38655", "ownership": "public", "ownership_raw": "Not published in public inventory", "city": "Oxford", "source_dataset": "Tree Inventory", "source_department": "University of Mississippi", "source_last_edit_at": ""}}, {"type": "Feature", "geometry": {"type": "Point", "coordinates": [-89.54003912399126, 34.353501982378255]}, "properties": {"id": "oxford-6797", "species_group": "magnolia", "scientific_name": "Magnolia virginiana", "common_name": "Sweetbay Magnolia", "subtype_name": "Sweetbay Magnolia", "zip_code": "38655", "ownership": "public", "ownership_raw": "Not published in public inventory", "city": "Oxford", "source_dataset": "Tree Inventory", "source_department": "University of Mississippi", "source_last_edit_at": ""}}, {"type": "Feature", "geometry": {"type": "Point", "coordinates": [-89.53997340987038, 34.353454927301854]}, "properties": {"id": "oxford-6798", "species_group": "magnolia", "scientific_name": "Magnolia virginiana", "common_name": "Sweetbay Magnolia", "subtype_name": "Sweetbay Magnolia", "zip_code": "38655", "ownership": "public", "ownership_raw": "Not published in public inventory", "city": "Oxford", "source_dataset": "Tree Inventory", "source_department": "University of Mississippi", "source_last_edit_at": ""}}, {"type": "Feature", "geometry": {"type": "Point", "coordinates": [-89.5399412233622, 34.35342780142229]}, "properties": {"id": "oxford-6799", "species_group": "magnolia", "scientific_name": "Magnolia virginiana", "common_name": "Sweetbay Magnolia", "subtype_name": "Sweetbay Magnolia", "zip_code": "38655", "ownership": "public", "ownership_raw": "Not published in public inventory", "city": "Oxford", "source_dataset": "Tree Inventory", "source_department": "University of Mississippi", "source_last_edit_at": ""}}, {"type": "Feature", "geometry": {"type": "Point", "coordinates": [-89.54011448627696, 34.353128905577684]}, "properties": {"id": "oxford-6803", "species_group": "magnolia", "scientific_name": "Magnolia virginiana", "common_name": "Sweetbay Magnolia", "subtype_name": "Sweetbay Magnolia", "zip_code": "38655", "ownership": "public", "ownership_raw": "Not published in public inventory", "city": "Oxford", "source_dataset": "Tree Inventory", "source_department": "University of Mississippi", "source_last_edit_at": ""}}, {"type": "Feature", "geometry": {"type": "Point", "coordinates": [-89.54023920899616, 34.35303534857169]}, "properties": {"id": "oxford-6804", "species_group": "magnolia", "scientific_name": "Magnolia virginiana", "common_name": "Sweetbay Magnolia", "subtype_name": "Sweetbay Magnolia", "zip_code": "38655", "ownership": "public", "ownership_raw": "Not published in public inventory", "city": "Oxford", "source_dataset": "Tree Inventory", "source_department": "University of Mississippi", "source_last_edit_at": ""}}, {"type": "Feature", "geometry": {"type": "Point", "coordinates": [-89.54079915652335, 34.35293271104757]}, "properties": {"id": "oxford-6805", "species_group": "magnolia", "scientific_name": "Magnolia virginiana", "common_name": "Sweetbay Magnolia", "subtype_name": "Sweetbay Magnolia", "zip_code": "38655", "ownership": "public", "ownership_raw": "Not published in public inventory", "city": "Oxford", "source_dataset": "Tree Inventory", "source_department": "University of Mississippi", "source_last_edit_at": ""}}, {"type": "Feature", "geometry": {"type": "Point", "coordinates": [-89.54084190009871, 34.35296711696409]}, "properties": {"id": "oxford-6806", "species_group": "magnolia", "scientific_name": "Magnolia virginiana", "common_name": "Sweetbay Magnolia", "subtype_name": "Sweetbay Magnolia", "zip_code": "38655", "ownership": "public", "ownership_raw": "Not published in public inventory", "city": "Oxford", "source_dataset": "Tree Inventory", "source_department": "University of Mississippi", "source_last_edit_at": ""}}, {"type": "Feature", "geometry": {"type": "Point", "coordinates": [-89.54089319238913, 34.35299975846156]}, "properties": {"id": "oxford-6807", "species_group": "magnolia", "scientific_name": "Magnolia virginiana", "common_name": "Sweetbay Magnolia", "subtype_name": "Sweetbay Magnolia", "zip_code": "38655", "ownership": "public", "ownership_raw": "Not published in public inventory", "city": "Oxford", "source_dataset": "Tree Inventory", "source_department": "University of Mississippi", "source_last_edit_at": ""}}, {"type": "Feature", "geometry": {"type": "Point", "coordinates": [-89.54093379878573, 34.353048279582985]}, "properties": {"id": "oxford-6808", "species_group": "magnolia", "scientific_name": "Magnolia virginiana", "common_name": "Sweetbay Magnolia", "subtype_name": "Sweetbay Magnolia", "zip_code": "38655", "ownership": "public", "ownership_raw": "Not published in public inventory", "city": "Oxford", "source_dataset": "Tree Inventory", "source_department": "University of Mississippi", "source_last_edit_at": ""}}, {"type": "Feature", "geometry": {"type": "Point", "coordinates": [-89.54096398052252, 34.353073564093066]}, "properties": {"id": "oxford-6809", "species_group": "magnolia", "scientific_name": "Magnolia virginiana", "common_name": "Sweetbay Magnolia", "subtype_name": "Sweetbay Magnolia", "zip_code": "38655", "ownership": "public", "ownership_raw": "Not published in public inventory", "city": "Oxford", "source_dataset": "Tree Inventory", "source_department": "University of Mississippi", "source_last_edit_at": ""}}, {"type": "Feature", "geometry": {"type": "Point", "coordinates": [-89.54099517581153, 34.35308791279359]}, "properties": {"id": "oxford-6810", "species_group": "magnolia", "scientific_name": "Magnolia virginiana", "common_name": "Sweetbay Magnolia", "subtype_name": "Sweetbay Magnolia", "zip_code": "38655", "ownership": "public", "ownership_raw": "Not published in public inventory", "city": "Oxford", "source_dataset": "Tree Inventory", "source_department": "University of Mississippi", "source_last_edit_at": ""}}, {"type": "Feature", "geometry": {"type": "Point", "coordinates": [-89.5410736096809, 34.3531530337882]}, "properties": {"id": "oxford-6811", "species_group": "magnolia", "scientific_name": "Magnolia virginiana", "common_name": "Sweetbay Magnolia", "subtype_name": "Sweetbay Magnolia", "zip_code": "38655", "ownership": "public", "ownership_raw": "Not published in public inventory", "city": "Oxford", "source_dataset": "Tree Inventory", "source_department": "University of Mississippi", "source_last_edit_at": ""}}, {"type": "Feature", "geometry": {"type": "Point", "coordinates": [-89.54109897857626, 34.353174596932895]}, "properties": {"id": "oxford-6812", "species_group": "magnolia", "scientific_name": "Magnolia virginiana", "common_name": "Sweetbay Magnolia", "subtype_name": "Sweetbay Magnolia", "zip_code": "38655", "ownership": "public", "ownership_raw": "Not published in public inventory", "city": "Oxford", "source_dataset": "Tree Inventory", "source_department": "University of Mississippi", "source_last_edit_at": ""}}, {"type": "Feature", "geometry": {"type": "Point", "coordinates": [-89.54119628355403, 34.353275207004366]}, "properties": {"id": "oxford-6813", "species_group": "magnolia", "scientific_name": "Magnolia virginiana", "common_name": "Sweetbay Magnolia", "subtype_name": "Sweetbay Magnolia", "zip_code": "38655", "ownership": "public", "ownership_raw": "Not published in public inventory", "city": "Oxford", "source_dataset": "Tree Inventory", "source_department": "University of Mississippi", "source_last_edit_at": ""}}, {"type": "Feature", "geometry": {"type": "Point", "coordinates": [-89.54131131073073, 34.35337188659663]}, "properties": {"id": "oxford-6814", "species_group": "magnolia", "scientific_name": "Magnolia virginiana", "common_name": "Sweetbay Magnolia", "subtype_name": "Sweetbay Magnolia", "zip_code": "38655", "ownership": "public", "ownership_raw": "Not published in public inventory", "city": "Oxford", "source_dataset": "Tree Inventory", "source_department": "University of Mississippi", "source_last_edit_at": ""}}, {"type": "Feature", "geometry": {"type": "Point", "coordinates": [-89.54233538431647, 34.35946853127284]}, "properties": {"id": "oxford-7177", "species_group": "magnolia", "scientific_name": "Magnolia species", "common_name": "Southern magnolia 'Little Gem'", "subtype_name": "Little Gem Magnolia", "zip_code": "38677", "ownership": "public", "ownership_raw": "Not published in public inventory", "city": "Oxford", "source_dataset": "Tree Inventory", "source_department": "University of Mississippi", "source_last_edit_at": ""}}, {"type": "Feature", "geometry": {"type": "Point", "coordinates": [-89.54236622972013, 34.35946299577692]}, "properties": {"id": "oxford-7178", "species_group": "magnolia", "scientific_name": "Magnolia species", "common_name": "Southern magnolia 'Little Gem'", "subtype_name": "Little Gem Magnolia", "zip_code": "38677", "ownership": "public", "ownership_raw": "Not published in public inventory", "city": "Oxford", "source_dataset": "Tree Inventory", "source_department": "University of Mississippi", "source_last_edit_at": ""}}, {"type": "Feature", "geometry": {"type": "Point", "coordinates": [-89.54238902849676, 34.35945856737996]}, "properties": {"id": "oxford-7179", "species_group": "magnolia", "scientific_name": "Magnolia species", "common_name": "Southern magnolia 'Little Gem'", "subtype_name": "Little Gem Magnolia", "zip_code": "38677", "ownership": "public", "ownership_raw": "Not published in public inventory", "city": "Oxford", "source_dataset": "Tree Inventory", "source_department": "University of Mississippi", "source_last_edit_at": ""}}, {"type": "Feature", "geometry": {"type": "Point", "coordinates": [-89.54241048616888, 34.35945524608207]}, "properties": {"id": "oxford-7180", "species_group": "magnolia", "scientific_name": "Magnolia species", "common_name": "Southern magnolia 'Little Gem'", "subtype_name": "Little Gem Magnolia", "zip_code": "38677", "ownership": "public", "ownership_raw": "Not published in public inventory", "city": "Oxford", "source_dataset": "Tree Inventory", "source_department": "University of Mississippi", "source_last_edit_at": ""}}, {"type": "Feature", "geometry": {"type": "Point", "coordinates": [-89.54242523831846, 34.359476280966476]}, "properties": {"id": "oxford-7181", "species_group": "magnolia", "scientific_name": "Magnolia species", "common_name": "Southern magnolia 'Little Gem'", "subtype_name": "Little Gem Magnolia", "zip_code": "38677", "ownership": "public", "ownership_raw": "Not published in public inventory", "city": "Oxford", "source_dataset": "Tree Inventory", "source_department": "University of Mississippi", "source_last_edit_at": ""}}, {"type": "Feature", "geometry": {"type": "Point", "coordinates": [-89.54243730825903, 34.359488459055044]}, "properties": {"id": "oxford-7182", "species_group": "magnolia", "scientific_name": "Magnolia species", "common_name": "Southern magnolia 'Little Gem'", "subtype_name": "Little Gem Magnolia", "zip_code": "38677", "ownership": "public", "ownership_raw": "Not published in public inventory", "city": "Oxford", "source_dataset": "Tree Inventory", "source_department": "University of Mississippi", "source_last_edit_at": ""}}, {"type": "Feature", "geometry": {"type": "Point", "coordinates": [-89.54235013646604, 34.35946853127284]}, "properties": {"id": "oxford-7183", "species_group": "magnolia", "scientific_name": "Magnolia species", "common_name": "Southern magnolia 'Little Gem'", "subtype_name": "Little Gem Magnolia", "zip_code": "38677", "ownership": "public", "ownership_raw": "Not published in public inventory", "city": "Oxford", "source_dataset": "Tree Inventory", "source_department": "University of Mississippi", "source_last_edit_at": ""}}, {"type": "Feature", "geometry": {"type": "Point", "coordinates": [-89.54232465548039, 34.359471852570195]}, "properties": {"id": "oxford-7185", "species_group": "magnolia", "scientific_name": "Magnolia species", "common_name": "Southern magnolia 'Little Gem'", "subtype_name": "Little Gem Magnolia", "zip_code": "38677", "ownership": "public", "ownership_raw": "Not published in public inventory", "city": "Oxford", "source_dataset": "Tree Inventory", "source_department": "University of Mississippi", "source_last_edit_at": ""}}, {"type": "Feature", "geometry": {"type": "Point", "coordinates": [-89.54244267267703, 34.35950063714183]}, "properties": {"id": "oxford-7186", "species_group": "magnolia", "scientific_name": "Magnolia species", "common_name": "Southern magnolia 'Little Gem'", "subtype_name": "Little Gem Magnolia", "zip_code": "38677", "ownership": "public", "ownership_raw": "Not published in public inventory", "city": "Oxford", "source_dataset": "Tree Inventory", "source_department": "University of Mississippi", "source_last_edit_at": ""}}, {"type": "Feature", "geometry": {"type": "Point", "coordinates": [-89.54237561745164, 34.35946631707451]}, "properties": {"id": "oxford-7187", "species_group": "magnolia", "scientific_name": "Magnolia species", "common_name": "Southern magnolia 'Little Gem'", "subtype_name": "Little Gem Magnolia", "zip_code": "38677", "ownership": "public", "ownership_raw": "Not published in public inventory", "city": "Oxford", "source_dataset": "Tree Inventory", "source_department": "University of Mississippi", "source_last_edit_at": ""}}, {"type": "Feature", "geometry": {"type": "Point", "coordinates": [-89.54241987390039, 34.35946520997533]}, "properties": {"id": "oxford-7188", "species_group": "magnolia", "scientific_name": "Magnolia species", "common_name": "Southern magnolia 'Little Gem'", "subtype_name": "Little Gem Magnolia", "zip_code": "38677", "ownership": "public", "ownership_raw": "Not published in public inventory", "city": "Oxford", "source_dataset": "Tree Inventory", "source_department": "University of Mississippi", "source_last_edit_at": ""}}, {"type": "Feature", "geometry": {"type": "Point", "coordinates": [-89.54244669599053, 34.35951281522686]}, "properties": {"id": "oxford-7189", "species_group": "magnolia", "scientific_name": "Magnolia species", "common_name": "Southern magnolia 'Little Gem'", "subtype_name": "Little Gem Magnolia", "zip_code": "38677", "ownership": "public", "ownership_raw": "Not published in public inventory", "city": "Oxford", "source_dataset": "Tree Inventory", "source_department": "University of Mississippi", "source_last_edit_at": ""}}, {"type": "Feature", "geometry": {"type": "Point", "coordinates": [-89.5337404462318, 34.36027588527877]}, "properties": {"id": "oxford-7194", "species_group": "magnolia", "scientific_name": "Magnolia grandiflora", "common_name": "Southern magnolia", "subtype_name": "Southern Magnolia", "zip_code": "38677", "ownership": "public", "ownership_raw": "Not published in public inventory", "city": "Oxford", "source_dataset": "Tree Inventory", "source_department": "University of Mississippi", "source_last_edit_at": ""}}, {"type": "Feature", "geometry": {"type": "Point", "coordinates": [-89.53374312844083, 34.360198389049486]}, "properties": {"id": "oxford-7195", "species_group": "magnolia", "scientific_name": "Magnolia grandiflora", "common_name": "Southern magnolia", "subtype_name": "Southern Magnolia", "zip_code": "38677", "ownership": "public", "ownership_raw": "Not published in public inventory", "city": "Oxford", "source_dataset": "Tree Inventory", "source_department": "University of Mississippi", "source_last_edit_at": ""}}, {"type": "Feature", "geometry": {"type": "Point", "coordinates": [-89.53378067936703, 34.35997475667182]}, "properties": {"id": "oxford-7196", "species_group": "magnolia", "scientific_name": "Magnolia grandiflora", "common_name": "Southern magnolia", "subtype_name": "Southern Magnolia", "zip_code": "38677", "ownership": "public", "ownership_raw": "Not published in public inventory", "city": "Oxford", "source_dataset": "Tree Inventory", "source_department": "University of Mississippi", "source_last_edit_at": ""}}, {"type": "Feature", "geometry": {"type": "Point", "coordinates": [-89.52798037802927, 34.36285349429029]}, "properties": {"id": "oxford-7277", "species_group": "magnolia", "scientific_name": "Magnolia grandiflora 'little gem'", "common_name": "Little Gem Southern Magnolia", "subtype_name": "Southern Magnolia", "zip_code": "38677", "ownership": "public", "ownership_raw": "Not published in public inventory", "city": "Oxford", "source_dataset": "Tree Inventory", "source_department": "University of Mississippi", "source_last_edit_at": ""}}, {"type": "Feature", "geometry": {"type": "Point", "coordinates": [-89.54522029143233, 34.35920396668802]}, "properties": {"id": "oxford-7282", "species_group": "cherry", "scientific_name": "Prunus yedoensis", "common_name": "Yoshino Cherry", "subtype_name": "Yoshino", "zip_code": "38677", "ownership": "public", "ownership_raw": "Not published in public inventory", "city": "Oxford", "source_dataset": "Tree Inventory", "source_department": "University of Mississippi", "source_last_edit_at": ""}}, {"type": "Feature", "geometry": {"type": "Point", "coordinates": [-89.52875829, 34.36458673000001]}, "properties": {"id": "oxford-78", "species_group": "magnolia", "scientific_name": "Magnolia grandiflora", "common_name": "Southern magnolia", "subtype_name": "Southern Magnolia", "zip_code": "38677", "ownership": "public", "ownership_raw": "Not published in public inventory", "city": "Oxford", "source_dataset": "Tree Inventory", "source_department": "University of Mississippi", "source_last_edit_at": ""}}, {"type": "Feature", "geometry": {"type": "Point", "coordinates": [-89.54413834537223, 34.35925901883799]}, "properties": {"id": "oxford-8307", "species_group": "magnolia", "scientific_name": "Magnolia grandiflora 'little gem'", "common_name": "Little Gem Southern Magnolia", "subtype_name": "Southern Magnolia", "zip_code": "38677", "ownership": "public", "ownership_raw": "Not published in public inventory", "city": "Oxford", "source_dataset": "Tree Inventory", "source_department": "University of Mississippi", "source_last_edit_at": ""}}, {"type": "Feature", "geometry": {"type": "Point", "coordinates": [-89.54415577973084, 34.3592396445523]}, "properties": {"id": "oxford-8308", "species_group": "magnolia", "scientific_name": "Magnolia grandiflora 'little gem'", "common_name": "Little Gem Southern Magnolia", "subtype_name": "Southern Magnolia", "zip_code": "38677", "ownership": "public", "ownership_raw": "Not published in public inventory", "city": "Oxford", "source_dataset": "Tree Inventory", "source_department": "University of Mississippi", "source_last_edit_at": ""}}, {"type": "Feature", "geometry": {"type": "Point", "coordinates": [-89.54416784967141, 34.35922137736457]}, "properties": {"id": "oxford-8309", "species_group": "magnolia", "scientific_name": "Magnolia grandiflora 'little gem'", "common_name": "Little Gem Southern Magnolia", "subtype_name": "Southern Magnolia", "zip_code": "38677", "ownership": "public", "ownership_raw": "Not published in public inventory", "city": "Oxford", "source_dataset": "Tree Inventory", "source_department": "University of Mississippi", "source_last_edit_at": ""}}, {"type": "Feature", "geometry": {"type": "Point", "coordinates": [-89.54419064844802, 34.35921085989101]}, "properties": {"id": "oxford-8310", "species_group": "magnolia", "scientific_name": "Magnolia grandiflora 'little gem'", "common_name": "Little Gem Southern Magnolia", "subtype_name": "Southern Magnolia", "zip_code": "38677", "ownership": "public", "ownership_raw": "Not published in public inventory", "city": "Oxford", "source_dataset": "Tree Inventory", "source_department": "University of Mississippi", "source_last_edit_at": ""}}, {"type": "Feature", "geometry": {"type": "Point", "coordinates": [-89.54421478832916, 34.359198128210764]}, "properties": {"id": "oxford-8311", "species_group": "magnolia", "scientific_name": "Magnolia grandiflora 'little gem'", "common_name": "Little Gem Southern Magnolia", "subtype_name": "Southern Magnolia", "zip_code": "38677", "ownership": "public", "ownership_raw": "Not published in public inventory", "city": "Oxford", "source_dataset": "Tree Inventory", "source_department": "University of Mississippi", "source_last_edit_at": ""}}, {"type": "Feature", "geometry": {"type": "Point", "coordinates": [-89.54424026931478, 34.359186503631435]}, "properties": {"id": "oxford-8312", "species_group": "magnolia", "scientific_name": "Magnolia grandiflora 'little gem'", "common_name": "Little Gem Southern Magnolia", "subtype_name": "Southern Magnolia", "zip_code": "38677", "ownership": "public", "ownership_raw": "Not published in public inventory", "city": "Oxford", "source_dataset": "Tree Inventory", "source_department": "University of Mississippi", "source_last_edit_at": ""}}, {"type": "Feature", "geometry": {"type": "Point", "coordinates": [-89.5442590447779, 34.35917598615352]}, "properties": {"id": "oxford-8313", "species_group": "magnolia", "scientific_name": "Magnolia grandiflora 'little gem'", "common_name": "Little Gem Southern Magnolia", "subtype_name": "Southern Magnolia", "zip_code": "38677", "ownership": "public", "ownership_raw": "Not published in public inventory", "city": "Oxford", "source_dataset": "Tree Inventory", "source_department": "University of Mississippi", "source_last_edit_at": ""}}, {"type": "Feature", "geometry": {"type": "Point", "coordinates": [-89.54428586686802, 34.359167682880546]}, "properties": {"id": "oxford-8314", "species_group": "magnolia", "scientific_name": "Magnolia grandiflora 'little gem'", "common_name": "Little Gem Southern Magnolia", "subtype_name": "Southern Magnolia", "zip_code": "38677", "ownership": "public", "ownership_raw": "Not published in public inventory", "city": "Oxford", "source_dataset": "Tree Inventory", "source_department": "University of Mississippi", "source_last_edit_at": ""}}, {"type": "Feature", "geometry": {"type": "Point", "coordinates": [-89.54431134785368, 34.359154951193716]}, "properties": {"id": "oxford-8315", "species_group": "magnolia", "scientific_name": "Magnolia grandiflora 'little gem'", "common_name": "Little Gem Southern Magnolia", "subtype_name": "Southern Magnolia", "zip_code": "38677", "ownership": "public", "ownership_raw": "Not published in public inventory", "city": "Oxford", "source_dataset": "Tree Inventory", "source_department": "University of Mississippi", "source_last_edit_at": ""}}, {"type": "Feature", "geometry": {"type": "Point", "coordinates": [-89.54433146442128, 34.359154397642094]}, "properties": {"id": "oxford-8316", "species_group": "magnolia", "scientific_name": "Magnolia grandiflora 'little gem'", "common_name": "Little Gem Southern Magnolia", "subtype_name": "Southern Magnolia", "zip_code": "38677", "ownership": "public", "ownership_raw": "Not published in public inventory", "city": "Oxford", "source_dataset": "Tree Inventory", "source_department": "University of Mississippi", "source_last_edit_at": ""}}, {"type": "Feature", "geometry": {"type": "Point", "coordinates": [-89.5443542631979, 34.359149415677116]}, "properties": {"id": "oxford-8317", "species_group": "magnolia", "scientific_name": "Magnolia grandiflora 'little gem'", "common_name": "Little Gem Southern Magnolia", "subtype_name": "Southern Magnolia", "zip_code": "38677", "ownership": "public", "ownership_raw": "Not published in public inventory", "city": "Oxford", "source_dataset": "Tree Inventory", "source_department": "University of Mississippi", "source_last_edit_at": ""}}, {"type": "Feature", "geometry": {"type": "Point", "coordinates": [-89.54438376749707, 34.35913336267688]}, "properties": {"id": "oxford-8318", "species_group": "magnolia", "scientific_name": "Magnolia grandiflora 'little gem'", "common_name": "Little Gem Southern Magnolia", "subtype_name": "Southern Magnolia", "zip_code": "38677", "ownership": "public", "ownership_raw": "Not published in public inventory", "city": "Oxford", "source_dataset": "Tree Inventory", "source_department": "University of Mississippi", "source_last_edit_at": ""}}, {"type": "Feature", "geometry": {"type": "Point", "coordinates": [-89.5444119306917, 34.359137237539294]}, "properties": {"id": "oxford-8319", "species_group": "magnolia", "scientific_name": "Magnolia grandiflora 'little gem'", "common_name": "Little Gem Southern Magnolia", "subtype_name": "Southern Magnolia", "zip_code": "38677", "ownership": "public", "ownership_raw": "Not published in public inventory", "city": "Oxford", "source_dataset": "Tree Inventory", "source_department": "University of Mississippi", "source_last_edit_at": ""}}, {"type": "Feature", "geometry": {"type": "Point", "coordinates": [-89.54443875278184, 34.359126720055194]}, "properties": {"id": "oxford-8320", "species_group": "magnolia", "scientific_name": "Magnolia grandiflora 'little gem'", "common_name": "Little Gem Southern Magnolia", "subtype_name": "Southern Magnolia", "zip_code": "38677", "ownership": "public", "ownership_raw": "Not published in public inventory", "city": "Oxford", "source_dataset": "Tree Inventory", "source_department": "University of Mississippi", "source_last_edit_at": ""}}, {"type": "Feature", "geometry": {"type": "Point", "coordinates": [-89.5441249343271, 34.35927008985636]}, "properties": {"id": "oxford-8321", "species_group": "magnolia", "scientific_name": "Magnolia grandiflora 'little gem'", "common_name": "Little Gem Southern Magnolia", "subtype_name": "Southern Magnolia", "zip_code": "38677", "ownership": "public", "ownership_raw": "Not published in public inventory", "city": "Oxford", "source_dataset": "Tree Inventory", "source_department": "University of Mississippi", "source_last_edit_at": ""}}, {"type": "Feature", "geometry": {"type": "Point", "coordinates": [-89.54598872935532, 34.359447018588256]}, "properties": {"id": "oxford-8337", "species_group": "magnolia", "scientific_name": "Magnolia grandiflora 'little gem'", "common_name": "Little Gem Southern Magnolia", "subtype_name": "Southern Magnolia", "zip_code": "38677", "ownership": "public", "ownership_raw": "Not published in public inventory", "city": "Oxford", "source_dataset": "Tree Inventory", "source_department": "University of Mississippi", "source_last_edit_at": ""}}, {"type": "Feature", "geometry": {"type": "Point", "coordinates": [-89.54605243181942, 34.359446465038545]}, "properties": {"id": "oxford-8338", "species_group": "magnolia", "scientific_name": "Magnolia grandiflora 'little gem'", "common_name": "Little Gem Southern Magnolia", "subtype_name": "Southern Magnolia", "zip_code": "38677", "ownership": "public", "ownership_raw": "Not published in public inventory", "city": "Oxford", "source_dataset": "Tree Inventory", "source_department": "University of Mississippi", "source_last_edit_at": ""}}, {"type": "Feature", "geometry": {"type": "Point", "coordinates": [-89.54598068272827, 34.35937394999419]}, "properties": {"id": "oxford-8339", "species_group": "magnolia", "scientific_name": "Magnolia grandiflora 'little gem'", "common_name": "Little Gem Southern Magnolia", "subtype_name": "Southern Magnolia", "zip_code": "38677", "ownership": "public", "ownership_raw": "Not published in public inventory", "city": "Oxford", "source_dataset": "Tree Inventory", "source_department": "University of Mississippi", "source_last_edit_at": ""}}, {"type": "Feature", "geometry": {"type": "Point", "coordinates": [-89.5459759888625, 34.359235008779756]}, "properties": {"id": "oxford-8340", "species_group": "magnolia", "scientific_name": "Magnolia grandiflora 'little gem'", "common_name": "Little Gem Southern Magnolia", "subtype_name": "Southern Magnolia", "zip_code": "38677", "ownership": "public", "ownership_raw": "Not published in public inventory", "city": "Oxford", "source_dataset": "Tree Inventory", "source_department": "University of Mississippi", "source_last_edit_at": ""}}, {"type": "Feature", "geometry": {"type": "Point", "coordinates": [-89.52940797, 34.36414770999999]}, "properties": {"id": "oxford-935", "species_group": "magnolia", "scientific_name": "Magnolia grandiflora", "common_name": "Southern magnolia", "subtype_name": "Southern Magnolia", "zip_code": "38677", "ownership": "public", "ownership_raw": "Not published in public inventory", "city": "Oxford", "source_dataset": "Tree Inventory", "source_department": "University of Mississippi", "source_last_edit_at": ""}}]}