{"type": "FeatureCollection", "features": [{"type": "Feature", "geometry": {"type": "Point", "coordinates": [-79.42916701692175, 44.0558191068642]}, "properties": {"id": "newmarket-2026", "species_group": "crabapple", "scientific_name": "Malus sp.", "common_name": "Apple Species", "subtype_name": "Apple", "zip_code": null, "ownership": "public", "ownership_raw": "York Region", "city": "Newmarket", "source_dataset": "Street Trees", "source_department": "York Region", "source_last_edit_at": ""}}, {"type": "Feature", "geometry": {"type": "Point", "coordinates": [-79.44044730502355, 44.05429093829746]}, "properties": {"id": "newmarket-2096", "species_group": "cherry", "scientific_name": "Prunus sp.", "common_name": "Cherry Species", "subtype_name": null, "zip_code": null, "ownership": "public", "ownership_raw": "York Region", "city": "Newmarket", "source_dataset": "Street Trees", "source_department": "York Region", "source_last_edit_at": ""}}, {"type": "Feature", "geometry": {"type": "Point", "coordinates": [-79.44129862160449, 44.05413788847961]}, "properties": {"id": "newmarket-2097", "species_group": "cherry", "scientific_name": "Prunus sp.", "common_name": "Cherry Species", "subtype_name": null, "zip_code": null, "ownership": "public", "ownership_raw": "York Region", "city": "Newmarket", "source_dataset": "Street Trees", "source_department": "York Region", "source_last_edit_at": ""}}, {"type": "Feature", "geometry": {"type": "Point", "coordinates": [-79.4414628710122, 44.05409608813508]}, "properties": {"id": "newmarket-2098", "species_group": "cherry", "scientific_name": "Prunus sp.", "common_name": "Cherry Species", "subtype_name": null, "zip_code": null, "ownership": "public", "ownership_raw": "York Region", "city": "Newmarket", "source_dataset": "Street Trees", "source_department": "York Region", "source_last_edit_at": ""}}, {"type": "Feature", "geometry": {"type": "Point", "coordinates": [-79.44162997159734, 44.0540614723789]}, "properties": {"id": "newmarket-2099", "species_group": "cherry", "scientific_name": "Prunus sp.", "common_name": "Cherry Species", "subtype_name": null, "zip_code": null, "ownership": "public", "ownership_raw": "York Region", "city": "Newmarket", "source_dataset": "Street Trees", "source_department": "York Region", "source_last_edit_at": ""}}, {"type": "Feature", "geometry": {"type": "Point", "coordinates": [-79.44179358804584, 44.05402727162022]}, "properties": {"id": "newmarket-2100", "species_group": "cherry", "scientific_name": "Prunus sp.", "common_name": "Cherry Species", "subtype_name": null, "zip_code": null, "ownership": "public", "ownership_raw": "York Region", "city": "Newmarket", "source_dataset": "Street Trees", "source_department": "York Region", "source_last_edit_at": ""}}, {"type": "Feature", "geometry": {"type": "Point", "coordinates": [-79.45641926002557, 44.051564487168136]}, "properties": {"id": "newmarket-2102", "species_group": "crabapple", "scientific_name": "Malus sp.", "common_name": "Apple Species", "subtype_name": "Apple", "zip_code": null, "ownership": "public", "ownership_raw": "York Region", "city": "Newmarket", "source_dataset": "Street Trees", "source_department": "York Region", "source_last_edit_at": ""}}, {"type": "Feature", "geometry": {"type": "Point", "coordinates": [-79.43985715455119, 44.05465405531132]}, "properties": {"id": "newmarket-2220", "species_group": "cherry", "scientific_name": "Prunus sp.", "common_name": "Cherry Species", "subtype_name": null, "zip_code": null, "ownership": "public", "ownership_raw": "York Region", "city": "Newmarket", "source_dataset": "Street Trees", "source_department": "York Region", "source_last_edit_at": ""}}, {"type": "Feature", "geometry": {"type": "Point", "coordinates": [-79.43907895492262, 44.05461915547634]}, "properties": {"id": "newmarket-2221", "species_group": "cherry", "scientific_name": "Prunus sp.", "common_name": "Cherry Species", "subtype_name": null, "zip_code": null, "ownership": "public", "ownership_raw": "York Region", "city": "Newmarket", "source_dataset": "Street Trees", "source_department": "York Region", "source_last_edit_at": ""}}, {"type": "Feature", "geometry": {"type": "Point", "coordinates": [-79.43917388736844, 44.05460445560488]}, "properties": {"id": "newmarket-2222", "species_group": "cherry", "scientific_name": "Prunus sp.", "common_name": "Cherry Species", "subtype_name": null, "zip_code": null, "ownership": "public", "ownership_raw": "York Region", "city": "Newmarket", "source_dataset": "Street Trees", "source_department": "York Region", "source_last_edit_at": ""}}, {"type": "Feature", "geometry": {"type": "Point", "coordinates": [-79.43930755479077, 44.054586221701754]}, "properties": {"id": "newmarket-2223", "species_group": "cherry", "scientific_name": "Prunus sp.", "common_name": "Cherry Species", "subtype_name": null, "zip_code": null, "ownership": "public", "ownership_raw": "York Region", "city": "Newmarket", "source_dataset": "Street Trees", "source_department": "York Region", "source_last_edit_at": ""}}, {"type": "Feature", "geometry": {"type": "Point", "coordinates": [-79.43949312217023, 44.05455217200214]}, "properties": {"id": "newmarket-2224", "species_group": "cherry", "scientific_name": "Prunus sp.", "common_name": "Cherry Species", "subtype_name": null, "zip_code": null, "ownership": "public", "ownership_raw": "York Region", "city": "Newmarket", "source_dataset": "Street Trees", "source_department": "York Region", "source_last_edit_at": ""}}, {"type": "Feature", "geometry": {"type": "Point", "coordinates": [-79.4399881888435, 44.05442882196905]}, "properties": {"id": "newmarket-2225", "species_group": "cherry", "scientific_name": "Prunus sp.", "common_name": "Cherry Species", "subtype_name": null, "zip_code": null, "ownership": "public", "ownership_raw": "York Region", "city": "Newmarket", "source_dataset": "Street Trees", "source_department": "York Region", "source_last_edit_at": ""}}, {"type": "Feature", "geometry": {"type": "Point", "coordinates": [-79.43207473573942, 44.056220239121]}, "properties": {"id": "newmarket-2265", "species_group": "cherry", "scientific_name": "Prunus sp.", "common_name": "Cherry Species", "subtype_name": null, "zip_code": null, "ownership": "public", "ownership_raw": "York Region", "city": "Newmarket", "source_dataset": "Street Trees", "source_department": "York Region", "source_last_edit_at": ""}}, {"type": "Feature", "geometry": {"type": "Point", "coordinates": [-79.43137215103235, 44.05636950679709]}, "properties": {"id": "newmarket-2267", "species_group": "cherry", "scientific_name": "Prunus sp.", "common_name": "Cherry Species", "subtype_name": null, "zip_code": null, "ownership": "public", "ownership_raw": "York Region", "city": "Newmarket", "source_dataset": "Street Trees", "source_department": "York Region", "source_last_edit_at": ""}}, {"type": "Feature", "geometry": {"type": "Point", "coordinates": [-79.43149948412332, 44.05636478915202]}, "properties": {"id": "newmarket-2268", "species_group": "cherry", "scientific_name": "Prunus sp.", "common_name": "Cherry Species", "subtype_name": null, "zip_code": null, "ownership": "public", "ownership_raw": "York Region", "city": "Newmarket", "source_dataset": "Street Trees", "source_department": "York Region", "source_last_edit_at": ""}}, {"type": "Feature", "geometry": {"type": "Point", "coordinates": [-79.43167735329187, 44.05631088961435]}, "properties": {"id": "newmarket-2269", "species_group": "cherry", "scientific_name": "Prunus sp.", "common_name": "Cherry Species", "subtype_name": null, "zip_code": null, "ownership": "public", "ownership_raw": "York Region", "city": "Newmarket", "source_dataset": "Street Trees", "source_department": "York Region", "source_last_edit_at": ""}}, {"type": "Feature", "geometry": {"type": "Point", "coordinates": [-79.43180000247219, 44.05628605606227]}, "properties": {"id": "newmarket-2270", "species_group": "cherry", "scientific_name": "Prunus sp.", "common_name": "Cherry Species", "subtype_name": null, "zip_code": null, "ownership": "public", "ownership_raw": "York Region", "city": "Newmarket", "source_dataset": "Street Trees", "source_department": "York Region", "source_last_edit_at": ""}}, {"type": "Feature", "geometry": {"type": "Point", "coordinates": [-79.431127717008, 44.056437422715966]}, "properties": {"id": "newmarket-2271", "species_group": "cherry", "scientific_name": "Prunus sp.", "common_name": "Cherry Species", "subtype_name": null, "zip_code": null, "ownership": "public", "ownership_raw": "York Region", "city": "Newmarket", "source_dataset": "Street Trees", "source_department": "York Region", "source_last_edit_at": ""}}, {"type": "Feature", "geometry": {"type": "Point", "coordinates": [-79.43196568523894, 44.05623347251446]}, "properties": {"id": "newmarket-2272", "species_group": "cherry", "scientific_name": "Prunus sp.", "common_name": "Cherry Species", "subtype_name": null, "zip_code": null, "ownership": "public", "ownership_raw": "York Region", "city": "Newmarket", "source_dataset": "Street Trees", "source_department": "York Region", "source_last_edit_at": ""}}, {"type": "Feature", "geometry": {"type": "Point", "coordinates": [-79.43325298498037, 44.056154372456504]}, "properties": {"id": "newmarket-2273", "species_group": "cherry", "scientific_name": "Prunus sp.", "common_name": "Cherry Species", "subtype_name": null, "zip_code": null, "ownership": "public", "ownership_raw": "York Region", "city": "Newmarket", "source_dataset": "Street Trees", "source_department": "York Region", "source_last_edit_at": ""}}, {"type": "Feature", "geometry": {"type": "Point", "coordinates": [-79.43266275251827, 44.05607000648909]}, "properties": {"id": "newmarket-2276", "species_group": "cherry", "scientific_name": "Prunus sp.", "common_name": "Cherry Species", "subtype_name": null, "zip_code": null, "ownership": "public", "ownership_raw": "York Region", "city": "Newmarket", "source_dataset": "Street Trees", "source_department": "York Region", "source_last_edit_at": ""}}, {"type": "Feature", "geometry": {"type": "Point", "coordinates": [-79.4327741533671, 44.056043239394725]}, "properties": {"id": "newmarket-2277", "species_group": "cherry", "scientific_name": "Prunus sp.", "common_name": "Cherry Species", "subtype_name": null, "zip_code": null, "ownership": "public", "ownership_raw": "York Region", "city": "Newmarket", "source_dataset": "Street Trees", "source_department": "York Region", "source_last_edit_at": ""}}, {"type": "Feature", "geometry": {"type": "Point", "coordinates": [-79.43303708568104, 44.05599582303867]}, "properties": {"id": "newmarket-2278", "species_group": "cherry", "scientific_name": "Prunus sp.", "common_name": "Cherry Species", "subtype_name": null, "zip_code": null, "ownership": "public", "ownership_raw": "York Region", "city": "Newmarket", "source_dataset": "Street Trees", "source_department": "York Region", "source_last_edit_at": ""}}, {"type": "Feature", "geometry": {"type": "Point", "coordinates": [-79.43316136890097, 44.05597023975418]}, "properties": {"id": "newmarket-2279", "species_group": "cherry", "scientific_name": "Prunus sp.", "common_name": "Cherry Species", "subtype_name": null, "zip_code": null, "ownership": "public", "ownership_raw": "York Region", "city": "Newmarket", "source_dataset": "Street Trees", "source_department": "York Region", "source_last_edit_at": ""}}, {"type": "Feature", "geometry": {"type": "Point", "coordinates": [-79.43329086911133, 44.05594892252932]}, "properties": {"id": "newmarket-2280", "species_group": "cherry", "scientific_name": "Prunus sp.", "common_name": "Cherry Species", "subtype_name": null, "zip_code": null, "ownership": "public", "ownership_raw": "York Region", "city": "Newmarket", "source_dataset": "Street Trees", "source_department": "York Region", "source_last_edit_at": ""}}, {"type": "Feature", "geometry": {"type": "Point", "coordinates": [-79.43339643620412, 44.05590678899875]}, "properties": {"id": "newmarket-2281", "species_group": "cherry", "scientific_name": "Prunus sp.", "common_name": "Cherry Species", "subtype_name": null, "zip_code": null, "ownership": "public", "ownership_raw": "York Region", "city": "Newmarket", "source_dataset": "Street Trees", "source_department": "York Region", "source_last_edit_at": ""}}, {"type": "Feature", "geometry": {"type": "Point", "coordinates": [-79.43358066839397, 44.055864856319964]}, "properties": {"id": "newmarket-2282", "species_group": "cherry", "scientific_name": "Prunus sp.", "common_name": "Cherry Species", "subtype_name": null, "zip_code": null, "ownership": "public", "ownership_raw": "York Region", "city": "Newmarket", "source_dataset": "Street Trees", "source_department": "York Region", "source_last_edit_at": ""}}, {"type": "Feature", "geometry": {"type": "Point", "coordinates": [-79.43427226953668, 44.05591233940279]}, "properties": {"id": "newmarket-2283", "species_group": "cherry", "scientific_name": "Prunus sp.", "common_name": "Cherry Species", "subtype_name": null, "zip_code": null, "ownership": "public", "ownership_raw": "York Region", "city": "Newmarket", "source_dataset": "Street Trees", "source_department": "York Region", "source_last_edit_at": ""}}, {"type": "Feature", "geometry": {"type": "Point", "coordinates": [-79.43470708652225, 44.055817739811054]}, "properties": {"id": "newmarket-2284", "species_group": "cherry", "scientific_name": "Prunus sp.", "common_name": "Cherry Species", "subtype_name": null, "zip_code": null, "ownership": "public", "ownership_raw": "York Region", "city": "Newmarket", "source_dataset": "Street Trees", "source_department": "York Region", "source_last_edit_at": ""}}, {"type": "Feature", "geometry": {"type": "Point", "coordinates": [-79.43575476955145, 44.05538108991027]}, "properties": {"id": "newmarket-2285", "species_group": "cherry", "scientific_name": "Prunus sp.", "common_name": "Cherry Species", "subtype_name": null, "zip_code": null, "ownership": "public", "ownership_raw": "York Region", "city": "Newmarket", "source_dataset": "Street Trees", "source_department": "York Region", "source_last_edit_at": ""}}, {"type": "Feature", "geometry": {"type": "Point", "coordinates": [-79.4358435033549, 44.05536590547912]}, "properties": {"id": "newmarket-2286", "species_group": "cherry", "scientific_name": "Prunus sp.", "common_name": "Cherry Species", "subtype_name": null, "zip_code": null, "ownership": "public", "ownership_raw": "York Region", "city": "Newmarket", "source_dataset": "Street Trees", "source_department": "York Region", "source_last_edit_at": ""}}, {"type": "Feature", "geometry": {"type": "Point", "coordinates": [-79.437478053391, 44.055167623101994]}, "properties": {"id": "newmarket-2287", "species_group": "cherry", "scientific_name": "Prunus sp.", "common_name": "Cherry Species", "subtype_name": null, "zip_code": null, "ownership": "public", "ownership_raw": "York Region", "city": "Newmarket", "source_dataset": "Street Trees", "source_department": "York Region", "source_last_edit_at": ""}}, {"type": "Feature", "geometry": {"type": "Point", "coordinates": [-79.43762326964597, 44.05515037295273]}, "properties": {"id": "newmarket-2288", "species_group": "cherry", "scientific_name": "Prunus sp.", "common_name": "Cherry Species", "subtype_name": null, "zip_code": null, "ownership": "public", "ownership_raw": "York Region", "city": "Newmarket", "source_dataset": "Street Trees", "source_department": "York Region", "source_last_edit_at": ""}}, {"type": "Feature", "geometry": {"type": "Point", "coordinates": [-79.4377092534956, 44.0551261722582]}, "properties": {"id": "newmarket-2289", "species_group": "cherry", "scientific_name": "Prunus sp.", "common_name": "Cherry Species", "subtype_name": null, "zip_code": null, "ownership": "public", "ownership_raw": "York Region", "city": "Newmarket", "source_dataset": "Street Trees", "source_department": "York Region", "source_last_edit_at": ""}}, {"type": "Feature", "geometry": {"type": "Point", "coordinates": [-79.43827375350688, 44.05502680525701]}, "properties": {"id": "newmarket-2292", "species_group": "cherry", "scientific_name": "Prunus sp.", "common_name": "Cherry Species", "subtype_name": null, "zip_code": null, "ownership": "public", "ownership_raw": "York Region", "city": "Newmarket", "source_dataset": "Street Trees", "source_department": "York Region", "source_last_edit_at": ""}}, {"type": "Feature", "geometry": {"type": "Point", "coordinates": [-79.4393003704325, 44.05477268921616]}, "properties": {"id": "newmarket-2326", "species_group": "cherry", "scientific_name": "Prunus sp.", "common_name": "Cherry Species", "subtype_name": null, "zip_code": null, "ownership": "public", "ownership_raw": "York Region", "city": "Newmarket", "source_dataset": "Street Trees", "source_department": "York Region", "source_last_edit_at": ""}}, {"type": "Feature", "geometry": {"type": "Point", "coordinates": [-79.43966047108259, 44.05468045490188]}, "properties": {"id": "newmarket-2327", "species_group": "cherry", "scientific_name": "Prunus sp.", "common_name": "Cherry Species", "subtype_name": null, "zip_code": null, "ownership": "public", "ownership_raw": "York Region", "city": "Newmarket", "source_dataset": "Street Trees", "source_department": "York Region", "source_last_edit_at": ""}}, {"type": "Feature", "geometry": {"type": "Point", "coordinates": [-79.43101228492957, 44.05647930609981]}, "properties": {"id": "newmarket-2376", "species_group": "cherry", "scientific_name": "Prunus sp.", "common_name": "Cherry Species", "subtype_name": null, "zip_code": null, "ownership": "public", "ownership_raw": "York Region", "city": "Newmarket", "source_dataset": "Street Trees", "source_department": "York Region", "source_last_edit_at": ""}}, {"type": "Feature", "geometry": {"type": "Point", "coordinates": [-79.45819368120755, 44.049806584753114]}, "properties": {"id": "newmarket-2386", "species_group": "cherry", "scientific_name": "Prunus sp.", "common_name": "Cherry Species", "subtype_name": null, "zip_code": null, "ownership": "public", "ownership_raw": "York Region", "city": "Newmarket", "source_dataset": "Street Trees", "source_department": "York Region", "source_last_edit_at": ""}}, {"type": "Feature", "geometry": {"type": "Point", "coordinates": [-79.42884548351367, 44.052888497945624]}, "properties": {"id": "newmarket-2564", "species_group": "crabapple", "scientific_name": "Malus sp.", "common_name": "Apple Species", "subtype_name": "Apple", "zip_code": null, "ownership": "public", "ownership_raw": "York Region", "city": "Newmarket", "source_dataset": "Street Trees", "source_department": "York Region", "source_last_edit_at": ""}}, {"type": "Feature", "geometry": {"type": "Point", "coordinates": [-79.42900608113997, 44.05360824806909]}, "properties": {"id": "newmarket-2565", "species_group": "crabapple", "scientific_name": "Malus sp.", "common_name": "Apple Species", "subtype_name": "Apple", "zip_code": null, "ownership": "public", "ownership_raw": "York Region", "city": "Newmarket", "source_dataset": "Street Trees", "source_department": "York Region", "source_last_edit_at": ""}}, {"type": "Feature", "geometry": {"type": "Point", "coordinates": [-79.42950515136114, 44.05560742307419]}, "properties": {"id": "newmarket-2831", "species_group": "crabapple", "scientific_name": "Malus sp.", "common_name": "Apple Species", "subtype_name": "Apple", "zip_code": null, "ownership": "public", "ownership_raw": "York Region", "city": "Newmarket", "source_dataset": "Street Trees", "source_department": "York Region", "source_last_edit_at": ""}}, {"type": "Feature", "geometry": {"type": "Point", "coordinates": [-79.43577273253261, 44.079786781445904]}, "properties": {"id": "newmarket-43151", "species_group": "crabapple", "scientific_name": "Malus 'Hargozam'", "common_name": "Harvest Gold Crabapple", "subtype_name": "Harvest Gold Crabapple", "zip_code": null, "ownership": "public", "ownership_raw": "York Region", "city": "Newmarket", "source_dataset": "Street Trees", "source_department": "York Region", "source_last_edit_at": ""}}, {"type": "Feature", "geometry": {"type": "Point", "coordinates": [-79.43579418915449, 44.079752098465285]}, "properties": {"id": "newmarket-43707", "species_group": "crabapple", "scientific_name": "Malus 'Hargozam'", "common_name": "Harvest Gold Crabapple", "subtype_name": "Harvest Gold Crabapple", "zip_code": null, "ownership": "public", "ownership_raw": "York Region", "city": "Newmarket", "source_dataset": "Street Trees", "source_department": "York Region", "source_last_edit_at": ""}}, {"type": "Feature", "geometry": {"type": "Point", "coordinates": [-79.43574658079521, 44.079522806604956]}, "properties": {"id": "newmarket-43708", "species_group": "crabapple", "scientific_name": "Malus 'Hargozam'", "common_name": "Harvest Gold Crabapple", "subtype_name": "Harvest Gold Crabapple", "zip_code": null, "ownership": "public", "ownership_raw": "York Region", "city": "Newmarket", "source_dataset": "Street Trees", "source_department": "York Region", "source_last_edit_at": ""}}, {"type": "Feature", "geometry": {"type": "Point", "coordinates": [-79.43569561915731, 44.07949920257412]}, "properties": {"id": "newmarket-43709", "species_group": "crabapple", "scientific_name": "Malus 'Hargozam'", "common_name": "Harvest Gold Crabapple", "subtype_name": "Harvest Gold Crabapple", "zip_code": null, "ownership": "public", "ownership_raw": "York Region", "city": "Newmarket", "source_dataset": "Street Trees", "source_department": "York Region", "source_last_edit_at": ""}}, {"type": "Feature", "geometry": {"type": "Point", "coordinates": [-79.43256324834903, 44.046492272401494]}, "properties": {"id": "newmarket-51264", "species_group": "crabapple", "scientific_name": "Malus 'Royalty'", "common_name": "Royalty Crabapple", "subtype_name": "Royalty Crabapple", "zip_code": null, "ownership": "public", "ownership_raw": "York Region", "city": "Newmarket", "source_dataset": "Street Trees", "source_department": "York Region", "source_last_edit_at": ""}}, {"type": "Feature", "geometry": {"type": "Point", "coordinates": [-79.43726425758089, 44.045438942585875]}, "properties": {"id": "newmarket-51331", "species_group": "crabapple", "scientific_name": "Malus 'Profusion'", "common_name": "Profusion Crabapple", "subtype_name": "Profusion Crabapple", "zip_code": null, "ownership": "public", "ownership_raw": "York Region", "city": "Newmarket", "source_dataset": "Street Trees", "source_department": "York Region", "source_last_edit_at": ""}}, {"type": "Feature", "geometry": {"type": "Point", "coordinates": [-79.46799724418946, 44.038228201054324]}, "properties": {"id": "newmarket-52056", "species_group": "crabapple", "scientific_name": "Malus sp.", "common_name": "Apple Species", "subtype_name": "Apple", "zip_code": null, "ownership": "public", "ownership_raw": "York Region", "city": "Newmarket", "source_dataset": "Street Trees", "source_department": "York Region", "source_last_edit_at": ""}}, {"type": "Feature", "geometry": {"type": "Point", "coordinates": [-79.46778452151759, 44.03827115421843]}, "properties": {"id": "newmarket-52058", "species_group": "crabapple", "scientific_name": "Malus sp.", "common_name": "Apple Species", "subtype_name": "Apple", "zip_code": null, "ownership": "public", "ownership_raw": "York Region", "city": "Newmarket", "source_dataset": "Street Trees", "source_department": "York Region", "source_last_edit_at": ""}}, {"type": "Feature", "geometry": {"type": "Point", "coordinates": [-79.46720114127068, 44.03840130651511]}, "properties": {"id": "newmarket-52059", "species_group": "crabapple", "scientific_name": "Malus sp.", "common_name": "Apple Species", "subtype_name": "Apple", "zip_code": null, "ownership": "public", "ownership_raw": "York Region", "city": "Newmarket", "source_dataset": "Street Trees", "source_department": "York Region", "source_last_edit_at": ""}}, {"type": "Feature", "geometry": {"type": "Point", "coordinates": [-79.46538260322653, 44.03879754402496]}, "properties": {"id": "newmarket-52060", "species_group": "crabapple", "scientific_name": "Malus sp.", "common_name": "Apple Species", "subtype_name": "Apple", "zip_code": null, "ownership": "public", "ownership_raw": "York Region", "city": "Newmarket", "source_dataset": "Street Trees", "source_department": "York Region", "source_last_edit_at": ""}}, {"type": "Feature", "geometry": {"type": "Point", "coordinates": [-79.46519619003814, 44.03883996347969]}, "properties": {"id": "newmarket-52061", "species_group": "crabapple", "scientific_name": "Malus sp.", "common_name": "Apple Species", "subtype_name": "Apple", "zip_code": null, "ownership": "public", "ownership_raw": "York Region", "city": "Newmarket", "source_dataset": "Street Trees", "source_department": "York Region", "source_last_edit_at": ""}}, {"type": "Feature", "geometry": {"type": "Point", "coordinates": [-79.4687253061199, 44.03811015171149]}, "properties": {"id": "newmarket-52126", "species_group": "crabapple", "scientific_name": "Malus sp.", "common_name": "Apple Species", "subtype_name": "Apple", "zip_code": null, "ownership": "public", "ownership_raw": "York Region", "city": "Newmarket", "source_dataset": "Street Trees", "source_department": "York Region", "source_last_edit_at": ""}}, {"type": "Feature", "geometry": {"type": "Point", "coordinates": [-79.46986952942181, 44.03780978411073]}, "properties": {"id": "newmarket-52127", "species_group": "crabapple", "scientific_name": "Malus sp.", "common_name": "Apple Species", "subtype_name": "Apple", "zip_code": null, "ownership": "public", "ownership_raw": "York Region", "city": "Newmarket", "source_dataset": "Street Trees", "source_department": "York Region", "source_last_edit_at": ""}}, {"type": "Feature", "geometry": {"type": "Point", "coordinates": [-79.47023694898131, 44.037732871073594]}, "properties": {"id": "newmarket-52128", "species_group": "crabapple", "scientific_name": "Malus sp.", "common_name": "Apple Species", "subtype_name": "Apple", "zip_code": null, "ownership": "public", "ownership_raw": "York Region", "city": "Newmarket", "source_dataset": "Street Trees", "source_department": "York Region", "source_last_edit_at": ""}}, {"type": "Feature", "geometry": {"type": "Point", "coordinates": [-79.47062318734031, 44.0376388719787]}, "properties": {"id": "newmarket-52129", "species_group": "crabapple", "scientific_name": "Malus sp.", "common_name": "Apple Species", "subtype_name": "Apple", "zip_code": null, "ownership": "public", "ownership_raw": "York Region", "city": "Newmarket", "source_dataset": "Street Trees", "source_department": "York Region", "source_last_edit_at": ""}}, {"type": "Feature", "geometry": {"type": "Point", "coordinates": [-79.47080289549702, 44.03759452350951]}, "properties": {"id": "newmarket-52130", "species_group": "crabapple", "scientific_name": "Malus sp.", "common_name": "Apple Species", "subtype_name": "Apple", "zip_code": null, "ownership": "public", "ownership_raw": "York Region", "city": "Newmarket", "source_dataset": "Street Trees", "source_department": "York Region", "source_last_edit_at": ""}}, {"type": "Feature", "geometry": {"type": "Point", "coordinates": [-79.47151877936999, 44.037483315005765]}, "properties": {"id": "newmarket-52131", "species_group": "crabapple", "scientific_name": "Malus sp.", "common_name": "Apple Species", "subtype_name": "Apple", "zip_code": null, "ownership": "public", "ownership_raw": "York Region", "city": "Newmarket", "source_dataset": "Street Trees", "source_department": "York Region", "source_last_edit_at": ""}}, {"type": "Feature", "geometry": {"type": "Point", "coordinates": [-79.4712858295197, 44.037513800924344]}, "properties": {"id": "newmarket-52132", "species_group": "crabapple", "scientific_name": "Malus sp.", "common_name": "Apple Species", "subtype_name": "Apple", "zip_code": null, "ownership": "public", "ownership_raw": "York Region", "city": "Newmarket", "source_dataset": "Street Trees", "source_department": "York Region", "source_last_edit_at": ""}}, {"type": "Feature", "geometry": {"type": "Point", "coordinates": [-79.47098941836022, 44.03760474067623]}, "properties": {"id": "newmarket-52133", "species_group": "crabapple", "scientific_name": "Malus sp.", "common_name": "Apple Species", "subtype_name": "Apple", "zip_code": null, "ownership": "public", "ownership_raw": "York Region", "city": "Newmarket", "source_dataset": "Street Trees", "source_department": "York Region", "source_last_edit_at": ""}}, {"type": "Feature", "geometry": {"type": "Point", "coordinates": [-79.4649675316999, 44.03888672086534]}, "properties": {"id": "newmarket-52411", "species_group": "crabapple", "scientific_name": "Malus sp.", "common_name": "Apple Species", "subtype_name": "Apple", "zip_code": null, "ownership": "public", "ownership_raw": "York Region", "city": "Newmarket", "source_dataset": "Street Trees", "source_department": "York Region", "source_last_edit_at": ""}}, {"type": "Feature", "geometry": {"type": "Point", "coordinates": [-79.4656277955179, 44.03878405194089]}, "properties": {"id": "newmarket-52457", "species_group": "crabapple", "scientific_name": "Malus sp.", "common_name": "Apple Species", "subtype_name": "Apple", "zip_code": null, "ownership": "public", "ownership_raw": "York Region", "city": "Newmarket", "source_dataset": "Street Trees", "source_department": "York Region", "source_last_edit_at": ""}}, {"type": "Feature", "geometry": {"type": "Point", "coordinates": [-79.48549061741127, 44.03440031381826]}, "properties": {"id": "newmarket-53312", "species_group": "cherry", "scientific_name": "Prunus sp.", "common_name": "Cherry Species", "subtype_name": null, "zip_code": null, "ownership": "public", "ownership_raw": "York Region", "city": "Newmarket", "source_dataset": "Street Trees", "source_department": "York Region", "source_last_edit_at": ""}}, {"type": "Feature", "geometry": {"type": "Point", "coordinates": [-79.46999777969383, 44.037844481185225]}, "properties": {"id": "newmarket-53722", "species_group": "crabapple", "scientific_name": "Malus sp.", "common_name": "Apple Species", "subtype_name": "Apple", "zip_code": null, "ownership": "public", "ownership_raw": "York Region", "city": "Newmarket", "source_dataset": "Street Trees", "source_department": "York Region", "source_last_edit_at": ""}}, {"type": "Feature", "geometry": {"type": "Point", "coordinates": [-79.46820696954528, 44.03819354529153]}, "properties": {"id": "newmarket-53775", "species_group": "crabapple", "scientific_name": "Malus sp.", "common_name": "Apple Species", "subtype_name": "Apple", "zip_code": null, "ownership": "public", "ownership_raw": "York Region", "city": "Newmarket", "source_dataset": "Street Trees", "source_department": "York Region", "source_last_edit_at": ""}}, {"type": "Feature", "geometry": {"type": "Point", "coordinates": [-79.4677857780978, 44.03831914805817]}, "properties": {"id": "newmarket-53810", "species_group": "crabapple", "scientific_name": "Malus sp.", "common_name": "Apple Species", "subtype_name": "Apple", "zip_code": null, "ownership": "public", "ownership_raw": "York Region", "city": "Newmarket", "source_dataset": "Street Trees", "source_department": "York Region", "source_last_edit_at": ""}}, {"type": "Feature", "geometry": {"type": "Point", "coordinates": [-79.44938407276426, 44.04186795342436]}, "properties": {"id": "newmarket-54989", "species_group": "crabapple", "scientific_name": "Malus sp.", "common_name": "Apple Species", "subtype_name": "Apple", "zip_code": null, "ownership": "public", "ownership_raw": "York Region", "city": "Newmarket", "source_dataset": "Street Trees", "source_department": "York Region", "source_last_edit_at": ""}}, {"type": "Feature", "geometry": {"type": "Point", "coordinates": [-79.44860827327987, 44.04209010262541]}, "properties": {"id": "newmarket-54990", "species_group": "crabapple", "scientific_name": "Malus 'Profusion'", "common_name": "Profusion Crabapple", "subtype_name": "Profusion Crabapple", "zip_code": null, "ownership": "public", "ownership_raw": "York Region", "city": "Newmarket", "source_dataset": "Street Trees", "source_department": "York Region", "source_last_edit_at": ""}}, {"type": "Feature", "geometry": {"type": "Point", "coordinates": [-79.44841503939526, 44.04213485270823]}, "properties": {"id": "newmarket-54991", "species_group": "crabapple", "scientific_name": "Malus sp.", "common_name": "Apple Species", "subtype_name": "Apple", "zip_code": null, "ownership": "public", "ownership_raw": "York Region", "city": "Newmarket", "source_dataset": "Street Trees", "source_department": "York Region", "source_last_edit_at": ""}}, {"type": "Feature", "geometry": {"type": "Point", "coordinates": [-79.44715865103939, 44.0428241219774]}, "properties": {"id": "newmarket-55004", "species_group": "crabapple", "scientific_name": "Malus 'Profusion'", "common_name": "Profusion Crabapple", "subtype_name": "Profusion Crabapple", "zip_code": null, "ownership": "public", "ownership_raw": "York Region", "city": "Newmarket", "source_dataset": "Street Trees", "source_department": "York Region", "source_last_edit_at": ""}}, {"type": "Feature", "geometry": {"type": "Point", "coordinates": [-79.43935862547569, 44.04493884128738]}, "properties": {"id": "newmarket-55006", "species_group": "crabapple", "scientific_name": "Malus 'Royalty'", "common_name": "Royalty Crabapple", "subtype_name": "Royalty Crabapple", "zip_code": null, "ownership": "public", "ownership_raw": "York Region", "city": "Newmarket", "source_dataset": "Street Trees", "source_department": "York Region", "source_last_edit_at": ""}}, {"type": "Feature", "geometry": {"type": "Point", "coordinates": [-79.43898445650933, 44.04502318926142]}, "properties": {"id": "newmarket-55007", "species_group": "crabapple", "scientific_name": "Malus 'Profusion'", "common_name": "Profusion Crabapple", "subtype_name": "Profusion Crabapple", "zip_code": null, "ownership": "public", "ownership_raw": "York Region", "city": "Newmarket", "source_dataset": "Street Trees", "source_department": "York Region", "source_last_edit_at": ""}}, {"type": "Feature", "geometry": {"type": "Point", "coordinates": [-79.44729050273786, 44.04233128675187]}, "properties": {"id": "newmarket-55008", "species_group": "crabapple", "scientific_name": "Malus sp.", "common_name": "Apple Species", "subtype_name": "Apple", "zip_code": null, "ownership": "public", "ownership_raw": "York Region", "city": "Newmarket", "source_dataset": "Street Trees", "source_department": "York Region", "source_last_edit_at": ""}}, {"type": "Feature", "geometry": {"type": "Point", "coordinates": [-79.4475607354307, 44.042140892017024]}, "properties": {"id": "newmarket-55009", "species_group": "crabapple", "scientific_name": "Malus sp.", "common_name": "Apple Species", "subtype_name": "Apple", "zip_code": null, "ownership": "public", "ownership_raw": "York Region", "city": "Newmarket", "source_dataset": "Street Trees", "source_department": "York Region", "source_last_edit_at": ""}}, {"type": "Feature", "geometry": {"type": "Point", "coordinates": [-79.44784840306662, 44.04199002226958]}, "properties": {"id": "newmarket-55010", "species_group": "crabapple", "scientific_name": "Malus sp.", "common_name": "Apple Species", "subtype_name": "Apple", "zip_code": null, "ownership": "public", "ownership_raw": "York Region", "city": "Newmarket", "source_dataset": "Street Trees", "source_department": "York Region", "source_last_edit_at": ""}}, {"type": "Feature", "geometry": {"type": "Point", "coordinates": [-79.44862557246985, 44.04171286398264]}, "properties": {"id": "newmarket-55014", "species_group": "crabapple", "scientific_name": "Malus sp.", "common_name": "Apple Species", "subtype_name": "Apple", "zip_code": null, "ownership": "public", "ownership_raw": "York Region", "city": "Newmarket", "source_dataset": "Street Trees", "source_department": "York Region", "source_last_edit_at": ""}}, {"type": "Feature", "geometry": {"type": "Point", "coordinates": [-79.43588607464602, 44.06498916578717]}, "properties": {"id": "newmarket-55056", "species_group": "crabapple", "scientific_name": "Malus sp.", "common_name": "Apple Species", "subtype_name": "Apple", "zip_code": null, "ownership": "public", "ownership_raw": "York Region", "city": "Newmarket", "source_dataset": "Street Trees", "source_department": "York Region", "source_last_edit_at": ""}}, {"type": "Feature", "geometry": {"type": "Point", "coordinates": [-79.4374095701636, 44.064642249497204]}, "properties": {"id": "newmarket-55058", "species_group": "crabapple", "scientific_name": "Malus 'Profusion'", "common_name": "Profusion Crabapple", "subtype_name": "Profusion Crabapple", "zip_code": null, "ownership": "public", "ownership_raw": "York Region", "city": "Newmarket", "source_dataset": "Street Trees", "source_department": "York Region", "source_last_edit_at": ""}}, {"type": "Feature", "geometry": {"type": "Point", "coordinates": [-79.43952785669535, 44.06417080968328]}, "properties": {"id": "newmarket-55063", "species_group": "crabapple", "scientific_name": "Malus sp.", "common_name": "Apple Species", "subtype_name": "Apple", "zip_code": null, "ownership": "public", "ownership_raw": "York Region", "city": "Newmarket", "source_dataset": "Street Trees", "source_department": "York Region", "source_last_edit_at": ""}}, {"type": "Feature", "geometry": {"type": "Point", "coordinates": [-79.44023527649576, 44.06401586891653]}, "properties": {"id": "newmarket-55064", "species_group": "crabapple", "scientific_name": "Malus 'Profusion'", "common_name": "Profusion Crabapple", "subtype_name": "Profusion Crabapple", "zip_code": null, "ownership": "public", "ownership_raw": "York Region", "city": "Newmarket", "source_dataset": "Street Trees", "source_department": "York Region", "source_last_edit_at": ""}}, {"type": "Feature", "geometry": {"type": "Point", "coordinates": [-79.44046929988698, 44.06396286658565]}, "properties": {"id": "newmarket-55065", "species_group": "crabapple", "scientific_name": "Malus sp.", "common_name": "Apple Species", "subtype_name": "Apple", "zip_code": null, "ownership": "public", "ownership_raw": "York Region", "city": "Newmarket", "source_dataset": "Street Trees", "source_department": "York Region", "source_last_edit_at": ""}}, {"type": "Feature", "geometry": {"type": "Point", "coordinates": [-79.44075897817214, 44.063925283564735]}, "properties": {"id": "newmarket-55066", "species_group": "crabapple", "scientific_name": "Malus sp.", "common_name": "Apple Species", "subtype_name": "Apple", "zip_code": null, "ownership": "public", "ownership_raw": "York Region", "city": "Newmarket", "source_dataset": "Street Trees", "source_department": "York Region", "source_last_edit_at": ""}}, {"type": "Feature", "geometry": {"type": "Point", "coordinates": [-79.44110900707253, 44.063840962635865]}, "properties": {"id": "newmarket-55068", "species_group": "crabapple", "scientific_name": "Malus sp.", "common_name": "Apple Species", "subtype_name": "Apple", "zip_code": null, "ownership": "public", "ownership_raw": "York Region", "city": "Newmarket", "source_dataset": "Street Trees", "source_department": "York Region", "source_last_edit_at": ""}}, {"type": "Feature", "geometry": {"type": "Point", "coordinates": [-79.44147378729885, 44.06375278681679]}, "properties": {"id": "newmarket-55069", "species_group": "crabapple", "scientific_name": "Malus 'Profusion'", "common_name": "Profusion Crabapple", "subtype_name": "Profusion Crabapple", "zip_code": null, "ownership": "public", "ownership_raw": "York Region", "city": "Newmarket", "source_dataset": "Street Trees", "source_department": "York Region", "source_last_edit_at": ""}}, {"type": "Feature", "geometry": {"type": "Point", "coordinates": [-79.44373958257398, 44.06323818284065]}, "properties": {"id": "newmarket-55086", "species_group": "crabapple", "scientific_name": "Malus 'Profusion'", "common_name": "Profusion Crabapple", "subtype_name": "Profusion Crabapple", "zip_code": null, "ownership": "public", "ownership_raw": "York Region", "city": "Newmarket", "source_dataset": "Street Trees", "source_department": "York Region", "source_last_edit_at": ""}}, {"type": "Feature", "geometry": {"type": "Point", "coordinates": [-79.44385625935185, 44.06321071877498]}, "properties": {"id": "newmarket-55087", "species_group": "crabapple", "scientific_name": "Malus 'Profusion'", "common_name": "Profusion Crabapple", "subtype_name": "Profusion Crabapple", "zip_code": null, "ownership": "public", "ownership_raw": "York Region", "city": "Newmarket", "source_dataset": "Street Trees", "source_department": "York Region", "source_last_edit_at": ""}}, {"type": "Feature", "geometry": {"type": "Point", "coordinates": [-79.43172700466582, 44.06425543223435]}, "properties": {"id": "newmarket-55165", "species_group": "crabapple", "scientific_name": "Malus 'Profusion'", "common_name": "Profusion Crabapple", "subtype_name": "Profusion Crabapple", "zip_code": null, "ownership": "public", "ownership_raw": "York Region", "city": "Newmarket", "source_dataset": "Street Trees", "source_department": "York Region", "source_last_edit_at": ""}}, {"type": "Feature", "geometry": {"type": "Point", "coordinates": [-79.43123037611882, 44.06223431979282]}, "properties": {"id": "newmarket-55316", "species_group": "crabapple", "scientific_name": "Malus sp.", "common_name": "Apple Species", "subtype_name": "Apple", "zip_code": null, "ownership": "public", "ownership_raw": "York Region", "city": "Newmarket", "source_dataset": "Street Trees", "source_department": "York Region", "source_last_edit_at": ""}}, {"type": "Feature", "geometry": {"type": "Point", "coordinates": [-79.4337754730122, 44.074062288536936]}, "properties": {"id": "newmarket-55323", "species_group": "crabapple", "scientific_name": "Malus 'Profusion'", "common_name": "Profusion Crabapple", "subtype_name": "Profusion Crabapple", "zip_code": null, "ownership": "public", "ownership_raw": "York Region", "city": "Newmarket", "source_dataset": "Street Trees", "source_department": "York Region", "source_last_edit_at": ""}}, {"type": "Feature", "geometry": {"type": "Point", "coordinates": [-79.43382845519821, 44.074247875745215]}, "properties": {"id": "newmarket-55325", "species_group": "crabapple", "scientific_name": "Malus 'Profusion'", "common_name": "Profusion Crabapple", "subtype_name": "Profusion Crabapple", "zip_code": null, "ownership": "public", "ownership_raw": "York Region", "city": "Newmarket", "source_dataset": "Street Trees", "source_department": "York Region", "source_last_edit_at": ""}}, {"type": "Feature", "geometry": {"type": "Point", "coordinates": [-79.44156699369235, 44.06346898441903]}, "properties": {"id": "newmarket-55387", "species_group": "crabapple", "scientific_name": "Malus 'Profusion'", "common_name": "Profusion Crabapple", "subtype_name": "Profusion Crabapple", "zip_code": null, "ownership": "public", "ownership_raw": "York Region", "city": "Newmarket", "source_dataset": "Street Trees", "source_department": "York Region", "source_last_edit_at": ""}}, {"type": "Feature", "geometry": {"type": "Point", "coordinates": [-79.44121562434793, 44.06354511527508]}, "properties": {"id": "newmarket-55389", "species_group": "crabapple", "scientific_name": "Malus sp.", "common_name": "Apple Species", "subtype_name": "Apple", "zip_code": null, "ownership": "public", "ownership_raw": "York Region", "city": "Newmarket", "source_dataset": "Street Trees", "source_department": "York Region", "source_last_edit_at": ""}}, {"type": "Feature", "geometry": {"type": "Point", "coordinates": [-79.44049478137413, 44.06370990314453]}, "properties": {"id": "newmarket-55412", "species_group": "crabapple", "scientific_name": "Malus sp.", "common_name": "Apple Species", "subtype_name": "Apple", "zip_code": null, "ownership": "public", "ownership_raw": "York Region", "city": "Newmarket", "source_dataset": "Street Trees", "source_department": "York Region", "source_last_edit_at": ""}}, {"type": "Feature", "geometry": {"type": "Point", "coordinates": [-79.44019102025014, 44.063785070122115]}, "properties": {"id": "newmarket-55414", "species_group": "crabapple", "scientific_name": "Malus 'Profusion'", "common_name": "Profusion Crabapple", "subtype_name": "Profusion Crabapple", "zip_code": null, "ownership": "public", "ownership_raw": "York Region", "city": "Newmarket", "source_dataset": "Street Trees", "source_department": "York Region", "source_last_edit_at": ""}}, {"type": "Feature", "geometry": {"type": "Point", "coordinates": [-79.43978801831639, 44.06387228222062]}, "properties": {"id": "newmarket-55415", "species_group": "crabapple", "scientific_name": "Malus 'Profusion'", "common_name": "Profusion Crabapple", "subtype_name": "Profusion Crabapple", "zip_code": null, "ownership": "public", "ownership_raw": "York Region", "city": "Newmarket", "source_dataset": "Street Trees", "source_department": "York Region", "source_last_edit_at": ""}}, {"type": "Feature", "geometry": {"type": "Point", "coordinates": [-79.4394730215501, 44.06393624047119]}, "properties": {"id": "newmarket-55417", "species_group": "crabapple", "scientific_name": "Malus sp.", "common_name": "Apple Species", "subtype_name": "Apple", "zip_code": null, "ownership": "public", "ownership_raw": "York Region", "city": "Newmarket", "source_dataset": "Street Trees", "source_department": "York Region", "source_last_edit_at": ""}}, {"type": "Feature", "geometry": {"type": "Point", "coordinates": [-79.43326463339659, 44.065594336683844]}, "properties": {"id": "newmarket-55419", "species_group": "crabapple", "scientific_name": "Malus sp.", "common_name": "Apple Species", "subtype_name": "Apple", "zip_code": null, "ownership": "public", "ownership_raw": "York Region", "city": "Newmarket", "source_dataset": "Street Trees", "source_department": "York Region", "source_last_edit_at": ""}}, {"type": "Feature", "geometry": {"type": "Point", "coordinates": [-79.4341960305047, 44.06537125320908]}, "properties": {"id": "newmarket-55420", "species_group": "crabapple", "scientific_name": "Malus sp.", "common_name": "Apple Species", "subtype_name": "Apple", "zip_code": null, "ownership": "public", "ownership_raw": "York Region", "city": "Newmarket", "source_dataset": "Street Trees", "source_department": "York Region", "source_last_edit_at": ""}}, {"type": "Feature", "geometry": {"type": "Point", "coordinates": [-79.4402649918336, 44.06375325238769]}, "properties": {"id": "newmarket-56095", "species_group": "crabapple", "scientific_name": "Malus 'Profusion'", "common_name": "Profusion Crabapple", "subtype_name": "Profusion Crabapple", "zip_code": null, "ownership": "public", "ownership_raw": "York Region", "city": "Newmarket", "source_dataset": "Street Trees", "source_department": "York Region", "source_last_edit_at": ""}}, {"type": "Feature", "geometry": {"type": "Point", "coordinates": [-79.44970557312553, 44.031913031204795]}, "properties": {"id": "newmarket-56642", "species_group": "crabapple", "scientific_name": "Malus sp.", "common_name": "Apple Species", "subtype_name": "Apple", "zip_code": null, "ownership": "public", "ownership_raw": "York Region", "city": "Newmarket", "source_dataset": "Street Trees", "source_department": "York Region", "source_last_edit_at": ""}}, {"type": "Feature", "geometry": {"type": "Point", "coordinates": [-79.44940060561622, 44.02908448098203]}, "properties": {"id": "newmarket-56987", "species_group": "cherry", "scientific_name": "Prunus 'Kwanzan'", "common_name": "Kwanzan cherry", "subtype_name": "Kwanzan", "zip_code": null, "ownership": "public", "ownership_raw": "York Region", "city": "Newmarket", "source_dataset": "Street Trees", "source_department": "York Region", "source_last_edit_at": ""}}, {"type": "Feature", "geometry": {"type": "Point", "coordinates": [-79.44930079206316, 44.02869777192798]}, "properties": {"id": "newmarket-56988", "species_group": "cherry", "scientific_name": "Prunus 'Kwanzan'", "common_name": "Kwanzan cherry", "subtype_name": "Kwanzan", "zip_code": null, "ownership": "public", "ownership_raw": "York Region", "city": "Newmarket", "source_dataset": "Street Trees", "source_department": "York Region", "source_last_edit_at": ""}}, {"type": "Feature", "geometry": {"type": "Point", "coordinates": [-79.44928442716099, 44.028641128485866]}, "properties": {"id": "newmarket-56989", "species_group": "cherry", "scientific_name": "Prunus 'Kwanzan'", "common_name": "Kwanzan cherry", "subtype_name": "Kwanzan", "zip_code": null, "ownership": "public", "ownership_raw": "York Region", "city": "Newmarket", "source_dataset": "Street Trees", "source_department": "York Region", "source_last_edit_at": ""}}, {"type": "Feature", "geometry": {"type": "Point", "coordinates": [-79.44927665258342, 44.02859357799617]}, "properties": {"id": "newmarket-56990", "species_group": "cherry", "scientific_name": "Prunus 'Kwanzan'", "common_name": "Kwanzan cherry", "subtype_name": "Kwanzan", "zip_code": null, "ownership": "public", "ownership_raw": "York Region", "city": "Newmarket", "source_dataset": "Street Trees", "source_department": "York Region", "source_last_edit_at": ""}}, {"type": "Feature", "geometry": {"type": "Point", "coordinates": [-79.44921697359726, 44.02833039402133]}, "properties": {"id": "newmarket-56991", "species_group": "cherry", "scientific_name": "Prunus 'Kwanzan'", "common_name": "Kwanzan cherry", "subtype_name": "Kwanzan", "zip_code": null, "ownership": "public", "ownership_raw": "York Region", "city": "Newmarket", "source_dataset": "Street Trees", "source_department": "York Region", "source_last_edit_at": ""}}, {"type": "Feature", "geometry": {"type": "Point", "coordinates": [-79.45152924243085, 44.04031373613826]}, "properties": {"id": "newmarket-57369", "species_group": "cherry", "scientific_name": "Prunus sp.", "common_name": "Cherry Species", "subtype_name": null, "zip_code": null, "ownership": "public", "ownership_raw": "York Region", "city": "Newmarket", "source_dataset": "Street Trees", "source_department": "York Region", "source_last_edit_at": ""}}, {"type": "Feature", "geometry": {"type": "Point", "coordinates": [-79.42808100471075, 44.049403348914694]}, "properties": {"id": "newmarket-64504", "species_group": "cherry", "scientific_name": "Prunus sp.", "common_name": "Cherry Species", "subtype_name": null, "zip_code": null, "ownership": "public", "ownership_raw": "York Region", "city": "Newmarket", "source_dataset": "Street Trees", "source_department": "York Region", "source_last_edit_at": ""}}, {"type": "Feature", "geometry": {"type": "Point", "coordinates": [-79.42783960717226, 44.048091210151114]}, "properties": {"id": "newmarket-64511", "species_group": "crabapple", "scientific_name": "Malus sp.", "common_name": "Apple Species", "subtype_name": "Apple", "zip_code": null, "ownership": "public", "ownership_raw": "York Region", "city": "Newmarket", "source_dataset": "Street Trees", "source_department": "York Region", "source_last_edit_at": ""}}]}