{"type": "FeatureCollection", "features": [{"type": "Feature", "geometry": {"type": "Point", "coordinates": [-72.60427461399996, 43.93937387900007]}, "properties": {"id": "randolph-10737", "species_group": "crabapple", "scientific_name": "Malus species", "common_name": "Crabapple", "subtype_name": null, "zip_code": "05061", "ownership": "public", "ownership_raw": "Town of Randolph", "city": "Randolph", "source_dataset": "Municipal Tree Inventory", "source_department": "Town of Randolph", "source_last_edit_at": ""}}, {"type": "Feature", "geometry": {"type": "Point", "coordinates": [-72.60423837299999, 43.93905383400005]}, "properties": {"id": "randolph-10914", "species_group": "crabapple", "scientific_name": "Malus species", "common_name": "Crabapple", "subtype_name": null, "zip_code": "05061", "ownership": "public", "ownership_raw": "Town of Randolph", "city": "Randolph", "source_dataset": "Municipal Tree Inventory", "source_department": "Town of Randolph", "source_last_edit_at": ""}}, {"type": "Feature", "geometry": {"type": "Point", "coordinates": [-72.60400232499995, 43.93940284100006]}, "properties": {"id": "randolph-11026", "species_group": "crabapple", "scientific_name": "Malus species", "common_name": "Crabapple", "subtype_name": null, "zip_code": "05061", "ownership": "public", "ownership_raw": "Town of Randolph", "city": "Randolph", "source_dataset": "Municipal Tree Inventory", "source_department": "Town of Randolph", "source_last_edit_at": ""}}, {"type": "Feature", "geometry": {"type": "Point", "coordinates": [-72.60276371299994, 43.93911397200003]}, "properties": {"id": "randolph-11599", "species_group": "crabapple", "scientific_name": "Malus species", "common_name": "Crabapple", "subtype_name": null, "zip_code": "05061", "ownership": "public", "ownership_raw": "Town of Randolph", "city": "Randolph", "source_dataset": "Municipal Tree Inventory", "source_department": "Town of Randolph", "source_last_edit_at": ""}}, {"type": "Feature", "geometry": {"type": "Point", "coordinates": [-72.60410063299997, 43.938923282000076]}, "properties": {"id": "randolph-11772", "species_group": "crabapple", "scientific_name": "Malus species", "common_name": "Crabapple", "subtype_name": null, "zip_code": "05061", "ownership": "public", "ownership_raw": "Town of Randolph", "city": "Randolph", "source_dataset": "Municipal Tree Inventory", "source_department": "Town of Randolph", "source_last_edit_at": ""}}, {"type": "Feature", "geometry": {"type": "Point", "coordinates": [-72.60422828499998, 43.93901199000004]}, "properties": {"id": "randolph-12770", "species_group": "crabapple", "scientific_name": "Malus species", "common_name": "Crabapple", "subtype_name": null, "zip_code": "05061", "ownership": "public", "ownership_raw": "Town of Randolph", "city": "Randolph", "source_dataset": "Municipal Tree Inventory", "source_department": "Town of Randolph", "source_last_edit_at": ""}}, {"type": "Feature", "geometry": {"type": "Point", "coordinates": [-72.60499350099997, 43.939602172000036]}, "properties": {"id": "randolph-14519", "species_group": "crabapple", "scientific_name": "Malus species", "common_name": "Crabapple", "subtype_name": null, "zip_code": "05061", "ownership": "public", "ownership_raw": "Town of Randolph", "city": "Randolph", "source_dataset": "Municipal Tree Inventory", "source_department": "Town of Randolph", "source_last_edit_at": ""}}, {"type": "Feature", "geometry": {"type": "Point", "coordinates": [-72.60414088799996, 43.939381568000044]}, "properties": {"id": "randolph-14630", "species_group": "crabapple", "scientific_name": "Malus species", "common_name": "Crabapple", "subtype_name": null, "zip_code": "05061", "ownership": "public", "ownership_raw": "Town of Randolph", "city": "Randolph", "source_dataset": "Municipal Tree Inventory", "source_department": "Town of Randolph", "source_last_edit_at": ""}}, {"type": "Feature", "geometry": {"type": "Point", "coordinates": [-72.60308590999995, 43.93730165300008]}, "properties": {"id": "randolph-14661", "species_group": "crabapple", "scientific_name": "Malus species", "common_name": "Crabapple", "subtype_name": null, "zip_code": "05061", "ownership": "public", "ownership_raw": "Town of Randolph", "city": "Randolph", "source_dataset": "Municipal Tree Inventory", "source_department": "Town of Randolph", "source_last_edit_at": ""}}, {"type": "Feature", "geometry": {"type": "Point", "coordinates": [-72.60406544299997, 43.93938476400007]}, "properties": {"id": "randolph-15782", "species_group": "crabapple", "scientific_name": "Malus species", "common_name": "Crabapple", "subtype_name": null, "zip_code": "05061", "ownership": "public", "ownership_raw": "Town of Randolph", "city": "Randolph", "source_dataset": "Municipal Tree Inventory", "source_department": "Town of Randolph", "source_last_edit_at": ""}}, {"type": "Feature", "geometry": {"type": "Point", "coordinates": [-72.60545977099997, 43.93979551500007]}, "properties": {"id": "randolph-16357", "species_group": "crabapple", "scientific_name": "Malus species", "common_name": "Crabapple", "subtype_name": null, "zip_code": "05061", "ownership": "public", "ownership_raw": "Town of Randolph", "city": "Randolph", "source_dataset": "Municipal Tree Inventory", "source_department": "Town of Randolph", "source_last_edit_at": ""}}, {"type": "Feature", "geometry": {"type": "Point", "coordinates": [-72.60401512999994, 43.93927585900008]}, "properties": {"id": "randolph-16611", "species_group": "crabapple", "scientific_name": "Malus species", "common_name": "Crabapple", "subtype_name": null, "zip_code": "05061", "ownership": "public", "ownership_raw": "Town of Randolph", "city": "Randolph", "source_dataset": "Municipal Tree Inventory", "source_department": "Town of Randolph", "source_last_edit_at": ""}}, {"type": "Feature", "geometry": {"type": "Point", "coordinates": [-72.60401883099996, 43.939190101000065]}, "properties": {"id": "randolph-16748", "species_group": "crabapple", "scientific_name": "Malus species", "common_name": "Crabapple", "subtype_name": null, "zip_code": "05061", "ownership": "public", "ownership_raw": "Town of Randolph", "city": "Randolph", "source_dataset": "Municipal Tree Inventory", "source_department": "Town of Randolph", "source_last_edit_at": ""}}, {"type": "Feature", "geometry": {"type": "Point", "coordinates": [-72.60404851699997, 43.93898244800005]}, "properties": {"id": "randolph-16918", "species_group": "plum", "scientific_name": "Prunus species", "common_name": "Plum", "subtype_name": null, "zip_code": "05061", "ownership": "public", "ownership_raw": "Town of Randolph", "city": "Randolph", "source_dataset": "Municipal Tree Inventory", "source_department": "Town of Randolph", "source_last_edit_at": ""}}, {"type": "Feature", "geometry": {"type": "Point", "coordinates": [-72.60470569699999, 43.93933356000008]}, "properties": {"id": "randolph-17745", "species_group": "crabapple", "scientific_name": "Malus species", "common_name": "Crabapple", "subtype_name": null, "zip_code": "05061", "ownership": "public", "ownership_raw": "Town of Randolph", "city": "Randolph", "source_dataset": "Municipal Tree Inventory", "source_department": "Town of Randolph", "source_last_edit_at": ""}}, {"type": "Feature", "geometry": {"type": "Point", "coordinates": [-72.60388046599996, 43.939303377000044]}, "properties": {"id": "randolph-18636", "species_group": "crabapple", "scientific_name": "Malus species", "common_name": "Crabapple", "subtype_name": null, "zip_code": "05061", "ownership": "public", "ownership_raw": "Town of Randolph", "city": "Randolph", "source_dataset": "Municipal Tree Inventory", "source_department": "Town of Randolph", "source_last_edit_at": ""}}, {"type": "Feature", "geometry": {"type": "Point", "coordinates": [-72.60533044799996, 43.939804655000046]}, "properties": {"id": "randolph-2113", "species_group": "crabapple", "scientific_name": "Malus species", "common_name": "Crabapple", "subtype_name": null, "zip_code": "05061", "ownership": "public", "ownership_raw": "Town of Randolph", "city": "Randolph", "source_dataset": "Municipal Tree Inventory", "source_department": "Town of Randolph", "source_last_edit_at": ""}}, {"type": "Feature", "geometry": {"type": "Point", "coordinates": [-72.60539673199997, 43.93980378700007]}, "properties": {"id": "randolph-22092", "species_group": "crabapple", "scientific_name": "Malus species", "common_name": "Crabapple", "subtype_name": null, "zip_code": "05061", "ownership": "public", "ownership_raw": "Town of Randolph", "city": "Randolph", "source_dataset": "Municipal Tree Inventory", "source_department": "Town of Randolph", "source_last_edit_at": ""}}, {"type": "Feature", "geometry": {"type": "Point", "coordinates": [-72.60515493699995, 43.939822219000064]}, "properties": {"id": "randolph-23228", "species_group": "crabapple", "scientific_name": "Malus species", "common_name": "Crabapple", "subtype_name": null, "zip_code": "05061", "ownership": "public", "ownership_raw": "Town of Randolph", "city": "Randolph", "source_dataset": "Municipal Tree Inventory", "source_department": "Town of Randolph", "source_last_edit_at": ""}}, {"type": "Feature", "geometry": {"type": "Point", "coordinates": [-72.60422415299996, 43.93937326300005]}, "properties": {"id": "randolph-23578", "species_group": "crabapple", "scientific_name": "Malus species", "common_name": "Crabapple", "subtype_name": null, "zip_code": "05061", "ownership": "public", "ownership_raw": "Town of Randolph", "city": "Randolph", "source_dataset": "Municipal Tree Inventory", "source_department": "Town of Randolph", "source_last_edit_at": ""}}, {"type": "Feature", "geometry": {"type": "Point", "coordinates": [-72.60509226299996, 43.93983125500006]}, "properties": {"id": "randolph-23849", "species_group": "crabapple", "scientific_name": "Malus species", "common_name": "Crabapple", "subtype_name": null, "zip_code": "05061", "ownership": "public", "ownership_raw": "Town of Randolph", "city": "Randolph", "source_dataset": "Municipal Tree Inventory", "source_department": "Town of Randolph", "source_last_edit_at": ""}}, {"type": "Feature", "geometry": {"type": "Point", "coordinates": [-72.60310425099993, 43.93968732400003]}, "properties": {"id": "randolph-24455", "species_group": "crabapple", "scientific_name": "Malus species", "common_name": "Crabapple", "subtype_name": null, "zip_code": "05061", "ownership": "public", "ownership_raw": "Town of Randolph", "city": "Randolph", "source_dataset": "Municipal Tree Inventory", "source_department": "Town of Randolph", "source_last_edit_at": ""}}, {"type": "Feature", "geometry": {"type": "Point", "coordinates": [-72.60390454999998, 43.93899669500007]}, "properties": {"id": "randolph-24572", "species_group": "cherry", "scientific_name": "Prunus species", "common_name": "Cherry Plum", "subtype_name": "Cherry Plum", "zip_code": "05061", "ownership": "public", "ownership_raw": "Town of Randolph", "city": "Randolph", "source_dataset": "Municipal Tree Inventory", "source_department": "Town of Randolph", "source_last_edit_at": ""}}, {"type": "Feature", "geometry": {"type": "Point", "coordinates": [-72.60552147799996, 43.93987617200003]}, "properties": {"id": "randolph-25912", "species_group": "crabapple", "scientific_name": "Malus species", "common_name": "Crabapple", "subtype_name": null, "zip_code": "05061", "ownership": "public", "ownership_raw": "Town of Randolph", "city": "Randolph", "source_dataset": "Municipal Tree Inventory", "source_department": "Town of Randolph", "source_last_edit_at": ""}}, {"type": "Feature", "geometry": {"type": "Point", "coordinates": [-72.60551588399994, 43.93979512100003]}, "properties": {"id": "randolph-26501", "species_group": "crabapple", "scientific_name": "Malus species", "common_name": "Crabapple", "subtype_name": null, "zip_code": "05061", "ownership": "public", "ownership_raw": "Town of Randolph", "city": "Randolph", "source_dataset": "Municipal Tree Inventory", "source_department": "Town of Randolph", "source_last_edit_at": ""}}, {"type": "Feature", "geometry": {"type": "Point", "coordinates": [-72.60402997699998, 43.93933006100008]}, "properties": {"id": "randolph-27501", "species_group": "crabapple", "scientific_name": "Malus species", "common_name": "Crabapple", "subtype_name": null, "zip_code": "05061", "ownership": "public", "ownership_raw": "Town of Randolph", "city": "Randolph", "source_dataset": "Municipal Tree Inventory", "source_department": "Town of Randolph", "source_last_edit_at": ""}}, {"type": "Feature", "geometry": {"type": "Point", "coordinates": [-72.60501970999997, 43.93981665100006]}, "properties": {"id": "randolph-28298", "species_group": "crabapple", "scientific_name": "Malus species", "common_name": "Crabapple", "subtype_name": null, "zip_code": "05061", "ownership": "public", "ownership_raw": "Town of Randolph", "city": "Randolph", "source_dataset": "Municipal Tree Inventory", "source_department": "Town of Randolph", "source_last_edit_at": ""}}, {"type": "Feature", "geometry": {"type": "Point", "coordinates": [-72.60410205599999, 43.93938196700003]}, "properties": {"id": "randolph-28978", "species_group": "crabapple", "scientific_name": "Malus species", "common_name": "Crabapple", "subtype_name": null, "zip_code": "05061", "ownership": "public", "ownership_raw": "Town of Randolph", "city": "Randolph", "source_dataset": "Municipal Tree Inventory", "source_department": "Town of Randolph", "source_last_edit_at": ""}}, {"type": "Feature", "geometry": {"type": "Point", "coordinates": [-72.60552438899998, 43.93991588800003]}, "properties": {"id": "randolph-29686", "species_group": "crabapple", "scientific_name": "Malus species", "common_name": "Crabapple", "subtype_name": null, "zip_code": "05061", "ownership": "public", "ownership_raw": "Town of Randolph", "city": "Randolph", "source_dataset": "Municipal Tree Inventory", "source_department": "Town of Randolph", "source_last_edit_at": ""}}, {"type": "Feature", "geometry": {"type": "Point", "coordinates": [-72.60313152799995, 43.93965752500003]}, "properties": {"id": "randolph-31145", "species_group": "crabapple", "scientific_name": "Malus species", "common_name": "Crabapple", "subtype_name": null, "zip_code": "05061", "ownership": "public", "ownership_raw": "Town of Randolph", "city": "Randolph", "source_dataset": "Municipal Tree Inventory", "source_department": "Town of Randolph", "source_last_edit_at": ""}}, {"type": "Feature", "geometry": {"type": "Point", "coordinates": [-72.60421114999997, 43.93907027700004]}, "properties": {"id": "randolph-3307", "species_group": "crabapple", "scientific_name": "Malus species", "common_name": "Crabapple", "subtype_name": null, "zip_code": "05061", "ownership": "public", "ownership_raw": "Town of Randolph", "city": "Randolph", "source_dataset": "Municipal Tree Inventory", "source_department": "Town of Randolph", "source_last_edit_at": ""}}, {"type": "Feature", "geometry": {"type": "Point", "coordinates": [-72.60405550699994, 43.93918818700007]}, "properties": {"id": "randolph-3410", "species_group": "crabapple", "scientific_name": "Malus species", "common_name": "Crabapple", "subtype_name": null, "zip_code": "05061", "ownership": "public", "ownership_raw": "Town of Randolph", "city": "Randolph", "source_dataset": "Municipal Tree Inventory", "source_department": "Town of Randolph", "source_last_edit_at": ""}}, {"type": "Feature", "geometry": {"type": "Point", "coordinates": [-72.60419083699998, 43.938913650000075]}, "properties": {"id": "randolph-4195", "species_group": "crabapple", "scientific_name": "Malus species", "common_name": "Crabapple", "subtype_name": null, "zip_code": "05061", "ownership": "public", "ownership_raw": "Town of Randolph", "city": "Randolph", "source_dataset": "Municipal Tree Inventory", "source_department": "Town of Randolph", "source_last_edit_at": ""}}, {"type": "Feature", "geometry": {"type": "Point", "coordinates": [-72.60521872099997, 43.939817050000045]}, "properties": {"id": "randolph-4679", "species_group": "crabapple", "scientific_name": "Malus species", "common_name": "Crabapple", "subtype_name": null, "zip_code": "05061", "ownership": "public", "ownership_raw": "Town of Randolph", "city": "Randolph", "source_dataset": "Municipal Tree Inventory", "source_department": "Town of Randolph", "source_last_edit_at": ""}}, {"type": "Feature", "geometry": {"type": "Point", "coordinates": [-72.60546267299998, 43.93974958300004]}, "properties": {"id": "randolph-5392", "species_group": "crabapple", "scientific_name": "Malus species", "common_name": "Crabapple", "subtype_name": null, "zip_code": "05061", "ownership": "public", "ownership_raw": "Town of Randolph", "city": "Randolph", "source_dataset": "Municipal Tree Inventory", "source_department": "Town of Randolph", "source_last_edit_at": ""}}, {"type": "Feature", "geometry": {"type": "Point", "coordinates": [-72.60414211499995, 43.93891939400004]}, "properties": {"id": "randolph-5563", "species_group": "crabapple", "scientific_name": "Malus species", "common_name": "Crabapple", "subtype_name": null, "zip_code": "05061", "ownership": "public", "ownership_raw": "Town of Randolph", "city": "Randolph", "source_dataset": "Municipal Tree Inventory", "source_department": "Town of Randolph", "source_last_edit_at": ""}}, {"type": "Feature", "geometry": {"type": "Point", "coordinates": [-72.60547772899997, 43.93989406500003]}, "properties": {"id": "randolph-7329", "species_group": "crabapple", "scientific_name": "Malus species", "common_name": "Crabapple", "subtype_name": null, "zip_code": "05061", "ownership": "public", "ownership_raw": "Town of Randolph", "city": "Randolph", "source_dataset": "Municipal Tree Inventory", "source_department": "Town of Randolph", "source_last_edit_at": ""}}]}