{"type": "FeatureCollection", "features": [{"type": "Feature", "geometry": {"type": "Point", "coordinates": [-123.11770223813177, 45.533945081494636]}, "properties": {"id": "forest-grove-670475", "species_group": "cherry", "scientific_name": "Prunus serrulata", "common_name": "Japanese cherry spp", "subtype_name": "Japanese cherry spp", "zip_code": "97116", "ownership": "public", "ownership_raw": "Oregon Department of Forestry", "city": "Forest Grove", "source_dataset": "Tree Inventory", "source_department": "Oregon Department of Forestry", "source_last_edit_at": ""}}, {"type": "Feature", "geometry": {"type": "Point", "coordinates": [-123.11761700294856, 45.533943813954004]}, "properties": {"id": "forest-grove-670476", "species_group": "cherry", "scientific_name": "Prunus serrulata", "common_name": "Japanese cherry spp", "subtype_name": "Japanese cherry spp", "zip_code": "97116", "ownership": "public", "ownership_raw": "Oregon Department of Forestry", "city": "Forest Grove", "source_dataset": "Tree Inventory", "source_department": "Oregon Department of Forestry", "source_last_edit_at": ""}}, {"type": "Feature", "geometry": {"type": "Point", "coordinates": [-123.11803809602607, 45.53394080387158]}, "properties": {"id": "forest-grove-670486", "species_group": "cherry", "scientific_name": "Prunus serrulata", "common_name": "Japanese cherry spp", "subtype_name": "Japanese cherry spp", "zip_code": "97116", "ownership": "public", "ownership_raw": "Oregon Department of Forestry", "city": "Forest Grove", "source_dataset": "Tree Inventory", "source_department": "Oregon Department of Forestry", "source_last_edit_at": ""}}, {"type": "Feature", "geometry": {"type": "Point", "coordinates": [-123.11886424535346, 45.53483745387122]}, "properties": {"id": "forest-grove-670919", "species_group": "cherry", "scientific_name": "Prunus x yedoensis 'Yoshino'", "common_name": "Yoshino cherry", "subtype_name": "Yoshino", "zip_code": "97116", "ownership": "public", "ownership_raw": "Oregon Department of Forestry", "city": "Forest Grove", "source_dataset": "Tree Inventory", "source_department": "Oregon Department of Forestry", "source_last_edit_at": ""}}, {"type": "Feature", "geometry": {"type": "Point", "coordinates": [-123.11966629710341, 45.53475980651176]}, "properties": {"id": "forest-grove-670933", "species_group": "cherry", "scientific_name": "Prunus serrulata", "common_name": "Japanese cherry spp", "subtype_name": "Japanese cherry spp", "zip_code": "97116", "ownership": "public", "ownership_raw": "Oregon Department of Forestry", "city": "Forest Grove", "source_dataset": "Tree Inventory", "source_department": "Oregon Department of Forestry", "source_last_edit_at": ""}}, {"type": "Feature", "geometry": {"type": "Point", "coordinates": [-123.12073457116271, 45.53428480369832]}, "properties": {"id": "forest-grove-670936", "species_group": "cherry", "scientific_name": "Prunus serrulata", "common_name": "Japanese cherry spp", "subtype_name": "Japanese cherry spp", "zip_code": "97116", "ownership": "public", "ownership_raw": "Oregon Department of Forestry", "city": "Forest Grove", "source_dataset": "Tree Inventory", "source_department": "Oregon Department of Forestry", "source_last_edit_at": ""}}, {"type": "Feature", "geometry": {"type": "Point", "coordinates": [-123.12062996205213, 45.53433524628367]}, "properties": {"id": "forest-grove-670937", "species_group": "cherry", "scientific_name": "Prunus serrulata", "common_name": "Japanese cherry spp", "subtype_name": "Japanese cherry spp", "zip_code": "97116", "ownership": "public", "ownership_raw": "Oregon Department of Forestry", "city": "Forest Grove", "source_dataset": "Tree Inventory", "source_department": "Oregon Department of Forestry", "source_last_edit_at": ""}}, {"type": "Feature", "geometry": {"type": "Point", "coordinates": [-123.1237344538077, 45.53635658928575]}, "properties": {"id": "forest-grove-671376", "species_group": "cherry", "scientific_name": "Prunus serrulata", "common_name": "Japanese cherry spp", "subtype_name": "Japanese cherry spp", "zip_code": "97116", "ownership": "public", "ownership_raw": "Oregon Department of Forestry", "city": "Forest Grove", "source_dataset": "Tree Inventory", "source_department": "Oregon Department of Forestry", "source_last_edit_at": ""}}, {"type": "Feature", "geometry": {"type": "Point", "coordinates": [-123.12355046769433, 45.536419486174125]}, "properties": {"id": "forest-grove-671379", "species_group": "cherry", "scientific_name": "Prunus x yedoensis 'Yoshino'", "common_name": "Yoshino cherry", "subtype_name": "Yoshino", "zip_code": "97116", "ownership": "public", "ownership_raw": "Oregon Department of Forestry", "city": "Forest Grove", "source_dataset": "Tree Inventory", "source_department": "Oregon Department of Forestry", "source_last_edit_at": ""}}, {"type": "Feature", "geometry": {"type": "Point", "coordinates": [-123.11333946083239, 45.51957553511015]}, "properties": {"id": "forest-grove-671417", "species_group": "crabapple", "scientific_name": "Malus domestica", "common_name": "apple (edible)", "subtype_name": "Apple", "zip_code": "97116", "ownership": "public", "ownership_raw": "Oregon Department of Forestry", "city": "Forest Grove", "source_dataset": "Tree Inventory", "source_department": "Oregon Department of Forestry", "source_last_edit_at": ""}}, {"type": "Feature", "geometry": {"type": "Point", "coordinates": [-123.11326436709902, 45.51959636506132]}, "properties": {"id": "forest-grove-671419", "species_group": "plum", "scientific_name": "Prunus domestica", "common_name": "plum (edible)", "subtype_name": "European Plum", "zip_code": "97116", "ownership": "public", "ownership_raw": "Oregon Department of Forestry", "city": "Forest Grove", "source_dataset": "Tree Inventory", "source_department": "Oregon Department of Forestry", "source_last_edit_at": ""}}, {"type": "Feature", "geometry": {"type": "Point", "coordinates": [-123.11321985747205, 45.51958264925736]}, "properties": {"id": "forest-grove-671420", "species_group": "plum", "scientific_name": "Prunus domestica", "common_name": "plum (edible)", "subtype_name": "European Plum", "zip_code": "97116", "ownership": "public", "ownership_raw": "Oregon Department of Forestry", "city": "Forest Grove", "source_dataset": "Tree Inventory", "source_department": "Oregon Department of Forestry", "source_last_edit_at": ""}}, {"type": "Feature", "geometry": {"type": "Point", "coordinates": [-123.11319571759091, 45.5196061408922]}, "properties": {"id": "forest-grove-671423", "species_group": "plum", "scientific_name": "Prunus domestica", "common_name": "plum (edible)", "subtype_name": "European Plum", "zip_code": "97116", "ownership": "public", "ownership_raw": "Oregon Department of Forestry", "city": "Forest Grove", "source_dataset": "Tree Inventory", "source_department": "Oregon Department of Forestry", "source_last_edit_at": ""}}, {"type": "Feature", "geometry": {"type": "Point", "coordinates": [-123.11313409956072, 45.51929048960147]}, "properties": {"id": "forest-grove-671425", "species_group": "crabapple", "scientific_name": "Malus domestica", "common_name": "apple (edible)", "subtype_name": "Apple", "zip_code": "97116", "ownership": "public", "ownership_raw": "Oregon Department of Forestry", "city": "Forest Grove", "source_dataset": "Tree Inventory", "source_department": "Oregon Department of Forestry", "source_last_edit_at": ""}}, {"type": "Feature", "geometry": {"type": "Point", "coordinates": [-123.11306672182222, 45.51929458222143]}, "properties": {"id": "forest-grove-671426", "species_group": "crabapple", "scientific_name": "Malus domestica", "common_name": "apple (edible)", "subtype_name": "Apple", "zip_code": "97116", "ownership": "public", "ownership_raw": "Oregon Department of Forestry", "city": "Forest Grove", "source_dataset": "Tree Inventory", "source_department": "Oregon Department of Forestry", "source_last_edit_at": ""}}, {"type": "Feature", "geometry": {"type": "Point", "coordinates": [-123.11313544066525, 45.519262299480346]}, "properties": {"id": "forest-grove-671431", "species_group": "plum", "scientific_name": "Prunus domestica", "common_name": "plum (edible)", "subtype_name": "European Plum", "zip_code": "97116", "ownership": "public", "ownership_raw": "Oregon Department of Forestry", "city": "Forest Grove", "source_dataset": "Tree Inventory", "source_department": "Oregon Department of Forestry", "source_last_edit_at": ""}}, {"type": "Feature", "geometry": {"type": "Point", "coordinates": [-123.11286643906577, 45.51908363225061]}, "properties": {"id": "forest-grove-671439", "species_group": "magnolia", "scientific_name": "Magnolia", "common_name": "magnolia spp", "subtype_name": "magnolia spp", "zip_code": "97116", "ownership": "public", "ownership_raw": "Oregon Department of Forestry", "city": "Forest Grove", "source_dataset": "Tree Inventory", "source_department": "Oregon Department of Forestry", "source_last_edit_at": ""}}, {"type": "Feature", "geometry": {"type": "Point", "coordinates": [-123.11313406570235, 45.51921530165983]}, "properties": {"id": "forest-grove-671589", "species_group": "plum", "scientific_name": "Prunus domestica", "common_name": "plum (edible)", "subtype_name": "European Plum", "zip_code": "97116", "ownership": "public", "ownership_raw": "Oregon Department of Forestry", "city": "Forest Grove", "source_dataset": "Tree Inventory", "source_department": "Oregon Department of Forestry", "source_last_edit_at": ""}}, {"type": "Feature", "geometry": {"type": "Point", "coordinates": [-123.09190478411833, 45.51524845855279]}, "properties": {"id": "forest-grove-671852", "species_group": "cherry", "scientific_name": "Prunus x yedoensis 'Yoshino'", "common_name": "Yoshino cherry", "subtype_name": "Yoshino", "zip_code": "97116", "ownership": "public", "ownership_raw": "Oregon Department of Forestry", "city": "Forest Grove", "source_dataset": "Tree Inventory", "source_department": "Oregon Department of Forestry", "source_last_edit_at": ""}}, {"type": "Feature", "geometry": {"type": "Point", "coordinates": [-123.09238278318487, 45.515253863805064]}, "properties": {"id": "forest-grove-671856", "species_group": "cherry", "scientific_name": "Prunus x yedoensis 'Yoshino'", "common_name": "Yoshino cherry", "subtype_name": "Yoshino", "zip_code": "97116", "ownership": "public", "ownership_raw": "Oregon Department of Forestry", "city": "Forest Grove", "source_dataset": "Tree Inventory", "source_department": "Oregon Department of Forestry", "source_last_edit_at": ""}}, {"type": "Feature", "geometry": {"type": "Point", "coordinates": [-123.09426653210362, 45.51695769191303]}, "properties": {"id": "forest-grove-671940", "species_group": "cherry", "scientific_name": "Prunus serrulata", "common_name": "Japanese cherry spp", "subtype_name": "Japanese cherry spp", "zip_code": "97116", "ownership": "public", "ownership_raw": "Oregon Department of Forestry", "city": "Forest Grove", "source_dataset": "Tree Inventory", "source_department": "Oregon Department of Forestry", "source_last_edit_at": ""}}, {"type": "Feature", "geometry": {"type": "Point", "coordinates": [-123.0943952781363, 45.516865600313835]}, "properties": {"id": "forest-grove-671941", "species_group": "cherry", "scientific_name": "Prunus serrulata", "common_name": "Japanese cherry spp", "subtype_name": "Japanese cherry spp", "zip_code": "97116", "ownership": "public", "ownership_raw": "Oregon Department of Forestry", "city": "Forest Grove", "source_dataset": "Tree Inventory", "source_department": "Oregon Department of Forestry", "source_last_edit_at": ""}}, {"type": "Feature", "geometry": {"type": "Point", "coordinates": [-123.09441673580847, 45.51672408827163]}, "properties": {"id": "forest-grove-671942", "species_group": "magnolia", "scientific_name": "Magnolia grandiflora", "common_name": "southern magnolia", "subtype_name": "Southern Magnolia", "zip_code": "97116", "ownership": "public", "ownership_raw": "Oregon Department of Forestry", "city": "Forest Grove", "source_dataset": "Tree Inventory", "source_department": "Oregon Department of Forestry", "source_last_edit_at": ""}}, {"type": "Feature", "geometry": {"type": "Point", "coordinates": [-123.07562684257955, 45.515842812186534]}, "properties": {"id": "forest-grove-672008", "species_group": "plum", "scientific_name": "Prunus cerasifera", "common_name": "purple-leaf plum", "subtype_name": "Purpleleaf Plum", "zip_code": "97116", "ownership": "public", "ownership_raw": "Oregon Department of Forestry", "city": "Forest Grove", "source_dataset": "Tree Inventory", "source_department": "Oregon Department of Forestry", "source_last_edit_at": ""}}, {"type": "Feature", "geometry": {"type": "Point", "coordinates": [-123.07564159472913, 45.515736622817315]}, "properties": {"id": "forest-grove-672010", "species_group": "plum", "scientific_name": "Prunus cerasifera", "common_name": "purple-leaf plum", "subtype_name": "Purpleleaf Plum", "zip_code": "97116", "ownership": "public", "ownership_raw": "Oregon Department of Forestry", "city": "Forest Grove", "source_dataset": "Tree Inventory", "source_department": "Oregon Department of Forestry", "source_last_edit_at": ""}}]}