{"type": "FeatureCollection", "features": [{"type": "Feature", "geometry": {"type": "Point", "coordinates": [-123.01799062686273, 44.047864290502716]}, "properties": {"id": "springfield-537990", "species_group": "magnolia", "scientific_name": "Magnolia", "common_name": "magnolia spp", "subtype_name": "magnolia spp", "zip_code": "97477", "ownership": "public", "ownership_raw": "Oregon Department of Forestry", "city": "Springfield", "source_dataset": "Tree Inventory", "source_department": "Oregon Department of Forestry", "source_last_edit_at": ""}}, {"type": "Feature", "geometry": {"type": "Point", "coordinates": [-123.01811998561168, 44.047871166252975]}, "properties": {"id": "springfield-558825", "species_group": "magnolia", "scientific_name": "Magnolia", "common_name": "magnolia spp", "subtype_name": "magnolia spp", "zip_code": "97477", "ownership": "public", "ownership_raw": "Oregon Department of Forestry", "city": "Springfield", "source_dataset": "Tree Inventory", "source_department": "Oregon Department of Forestry", "source_last_edit_at": ""}}, {"type": "Feature", "geometry": {"type": "Point", "coordinates": [-123.01820453984422, 44.04778434445779]}, "properties": {"id": "springfield-579620", "species_group": "magnolia", "scientific_name": "Magnolia", "common_name": "magnolia spp", "subtype_name": "magnolia spp", "zip_code": "97477", "ownership": "public", "ownership_raw": "Oregon Department of Forestry", "city": "Springfield", "source_dataset": "Tree Inventory", "source_department": "Oregon Department of Forestry", "source_last_edit_at": ""}}, {"type": "Feature", "geometry": {"type": "Point", "coordinates": [-123.01692403336202, 44.048478689290164]}, "properties": {"id": "springfield-581285", "species_group": "magnolia", "scientific_name": "Magnolia grandiflora", "common_name": "southern magnolia", "subtype_name": "Southern Magnolia", "zip_code": "97477", "ownership": "public", "ownership_raw": "Oregon Department of Forestry", "city": "Springfield", "source_dataset": "Tree Inventory", "source_department": "Oregon Department of Forestry", "source_last_edit_at": ""}}, {"type": "Feature", "geometry": {"type": "Point", "coordinates": [-123.0197415, 44.04887808000001]}, "properties": {"id": "springfield-581287", "species_group": "magnolia", "scientific_name": "Magnolia grandiflora", "common_name": "southern magnolia", "subtype_name": "Southern Magnolia", "zip_code": "97477", "ownership": "public", "ownership_raw": "Oregon Department of Forestry", "city": "Springfield", "source_dataset": "Tree Inventory", "source_department": "Oregon Department of Forestry", "source_last_edit_at": ""}}, {"type": "Feature", "geometry": {"type": "Point", "coordinates": [-123.019869, 44.04891260999999]}, "properties": {"id": "springfield-581289", "species_group": "magnolia", "scientific_name": "Magnolia grandiflora", "common_name": "southern magnolia", "subtype_name": "Southern Magnolia", "zip_code": "97477", "ownership": "public", "ownership_raw": "Oregon Department of Forestry", "city": "Springfield", "source_dataset": "Tree Inventory", "source_department": "Oregon Department of Forestry", "source_last_edit_at": ""}}, {"type": "Feature", "geometry": {"type": "Point", "coordinates": [-123.01762140000001, 44.05065316000001]}, "properties": {"id": "springfield-581296", "species_group": "magnolia", "scientific_name": "Magnolia grandiflora", "common_name": "southern magnolia", "subtype_name": "Southern Magnolia", "zip_code": "97477", "ownership": "public", "ownership_raw": "Oregon Department of Forestry", "city": "Springfield", "source_dataset": "Tree Inventory", "source_department": "Oregon Department of Forestry", "source_last_edit_at": ""}}, {"type": "Feature", "geometry": {"type": "Point", "coordinates": [-123.0175285, 44.05065122999999]}, "properties": {"id": "springfield-581297", "species_group": "magnolia", "scientific_name": "Magnolia grandiflora", "common_name": "southern magnolia", "subtype_name": "Southern Magnolia", "zip_code": "97477", "ownership": "public", "ownership_raw": "Oregon Department of Forestry", "city": "Springfield", "source_dataset": "Tree Inventory", "source_department": "Oregon Department of Forestry", "source_last_edit_at": ""}}, {"type": "Feature", "geometry": {"type": "Point", "coordinates": [-123.02078370000001, 44.0550632]}, "properties": {"id": "springfield-581305", "species_group": "magnolia", "scientific_name": "Magnolia", "common_name": "magnolia spp", "subtype_name": "magnolia spp", "zip_code": "97477", "ownership": "public", "ownership_raw": "Oregon Department of Forestry", "city": "Springfield", "source_dataset": "Tree Inventory", "source_department": "Oregon Department of Forestry", "source_last_edit_at": ""}}, {"type": "Feature", "geometry": {"type": "Point", "coordinates": [-123.02509649999999, 44.05994173]}, "properties": {"id": "springfield-581354", "species_group": "crabapple", "scientific_name": "Malus domestica", "common_name": "apple (edible)", "subtype_name": "Apple", "zip_code": "97477", "ownership": "public", "ownership_raw": "Oregon Department of Forestry", "city": "Springfield", "source_dataset": "Tree Inventory", "source_department": "Oregon Department of Forestry", "source_last_edit_at": ""}}, {"type": "Feature", "geometry": {"type": "Point", "coordinates": [-123.02505669999998, 44.059810999999996]}, "properties": {"id": "springfield-581356", "species_group": "crabapple", "scientific_name": "Malus domestica", "common_name": "apple (edible)", "subtype_name": "Apple", "zip_code": "97477", "ownership": "public", "ownership_raw": "Oregon Department of Forestry", "city": "Springfield", "source_dataset": "Tree Inventory", "source_department": "Oregon Department of Forestry", "source_last_edit_at": ""}}, {"type": "Feature", "geometry": {"type": "Point", "coordinates": [-123.0248407, 44.059167740000014]}, "properties": {"id": "springfield-581361", "species_group": "crabapple", "scientific_name": "Malus domestica", "common_name": "apple (edible)", "subtype_name": "Apple", "zip_code": "97477", "ownership": "public", "ownership_raw": "Oregon Department of Forestry", "city": "Springfield", "source_dataset": "Tree Inventory", "source_department": "Oregon Department of Forestry", "source_last_edit_at": ""}}, {"type": "Feature", "geometry": {"type": "Point", "coordinates": [-123.0193746, 44.05292569000001]}, "properties": {"id": "springfield-581456", "species_group": "crabapple", "scientific_name": "Malus domestica", "common_name": "apple (edible)", "subtype_name": "Apple", "zip_code": "97477", "ownership": "public", "ownership_raw": "Oregon Department of Forestry", "city": "Springfield", "source_dataset": "Tree Inventory", "source_department": "Oregon Department of Forestry", "source_last_edit_at": ""}}, {"type": "Feature", "geometry": {"type": "Point", "coordinates": [-123.01960330000001, 44.04912792000001]}, "properties": {"id": "springfield-581526", "species_group": "crabapple", "scientific_name": "Malus domestica", "common_name": "apple (edible)", "subtype_name": "Apple", "zip_code": "97477", "ownership": "public", "ownership_raw": "Oregon Department of Forestry", "city": "Springfield", "source_dataset": "Tree Inventory", "source_department": "Oregon Department of Forestry", "source_last_edit_at": ""}}, {"type": "Feature", "geometry": {"type": "Point", "coordinates": [-123.01960510000002, 44.04986250000001]}, "properties": {"id": "springfield-581531", "species_group": "crabapple", "scientific_name": "Malus domestica", "common_name": "apple (edible)", "subtype_name": "Apple", "zip_code": "97477", "ownership": "public", "ownership_raw": "Oregon Department of Forestry", "city": "Springfield", "source_dataset": "Tree Inventory", "source_department": "Oregon Department of Forestry", "source_last_edit_at": ""}}, {"type": "Feature", "geometry": {"type": "Point", "coordinates": [-123.0196032, 44.049928230000035]}, "properties": {"id": "springfield-581532", "species_group": "crabapple", "scientific_name": "Malus domestica", "common_name": "apple (edible)", "subtype_name": "Apple", "zip_code": "97477", "ownership": "public", "ownership_raw": "Oregon Department of Forestry", "city": "Springfield", "source_dataset": "Tree Inventory", "source_department": "Oregon Department of Forestry", "source_last_edit_at": ""}}, {"type": "Feature", "geometry": {"type": "Point", "coordinates": [-123.01960210000001, 44.05001160000001]}, "properties": {"id": "springfield-581533", "species_group": "crabapple", "scientific_name": "Malus domestica", "common_name": "apple (edible)", "subtype_name": "Apple", "zip_code": "97477", "ownership": "public", "ownership_raw": "Oregon Department of Forestry", "city": "Springfield", "source_dataset": "Tree Inventory", "source_department": "Oregon Department of Forestry", "source_last_edit_at": ""}}, {"type": "Feature", "geometry": {"type": "Point", "coordinates": [-123.0196061, 44.050087270000006]}, "properties": {"id": "springfield-581534", "species_group": "crabapple", "scientific_name": "Malus domestica", "common_name": "apple (edible)", "subtype_name": "Apple", "zip_code": "97477", "ownership": "public", "ownership_raw": "Oregon Department of Forestry", "city": "Springfield", "source_dataset": "Tree Inventory", "source_department": "Oregon Department of Forestry", "source_last_edit_at": ""}}, {"type": "Feature", "geometry": {"type": "Point", "coordinates": [-123.0195788, 44.05247557999999]}, "properties": {"id": "springfield-581563", "species_group": "crabapple", "scientific_name": "Malus domestica", "common_name": "apple (edible)", "subtype_name": "Apple", "zip_code": "97477", "ownership": "public", "ownership_raw": "Oregon Department of Forestry", "city": "Springfield", "source_dataset": "Tree Inventory", "source_department": "Oregon Department of Forestry", "source_last_edit_at": ""}}, {"type": "Feature", "geometry": {"type": "Point", "coordinates": [-123.01957099999998, 44.05303606]}, "properties": {"id": "springfield-581564", "species_group": "crabapple", "scientific_name": "Malus domestica", "common_name": "apple (edible)", "subtype_name": "Apple", "zip_code": "97477", "ownership": "public", "ownership_raw": "Oregon Department of Forestry", "city": "Springfield", "source_dataset": "Tree Inventory", "source_department": "Oregon Department of Forestry", "source_last_edit_at": ""}}, {"type": "Feature", "geometry": {"type": "Point", "coordinates": [-123.0193515, 44.05521192]}, "properties": {"id": "springfield-581577", "species_group": "crabapple", "scientific_name": "Malus domestica", "common_name": "apple (edible)", "subtype_name": "Apple", "zip_code": "97477", "ownership": "public", "ownership_raw": "Oregon Department of Forestry", "city": "Springfield", "source_dataset": "Tree Inventory", "source_department": "Oregon Department of Forestry", "source_last_edit_at": ""}}, {"type": "Feature", "geometry": {"type": "Point", "coordinates": [-123.01936900000001, 44.054427190000006]}, "properties": {"id": "springfield-581588", "species_group": "crabapple", "scientific_name": "Malus domestica", "common_name": "apple (edible)", "subtype_name": "Apple", "zip_code": "97477", "ownership": "public", "ownership_raw": "Oregon Department of Forestry", "city": "Springfield", "source_dataset": "Tree Inventory", "source_department": "Oregon Department of Forestry", "source_last_edit_at": ""}}, {"type": "Feature", "geometry": {"type": "Point", "coordinates": [-123.0194168, 44.05173083999999]}, "properties": {"id": "springfield-581829", "species_group": "crabapple", "scientific_name": "Malus domestica", "common_name": "apple (edible)", "subtype_name": "Apple", "zip_code": "97477", "ownership": "public", "ownership_raw": "Oregon Department of Forestry", "city": "Springfield", "source_dataset": "Tree Inventory", "source_department": "Oregon Department of Forestry", "source_last_edit_at": ""}}, {"type": "Feature", "geometry": {"type": "Point", "coordinates": [-122.9621653, 44.03785788999999]}, "properties": {"id": "springfield-581913", "species_group": "magnolia", "scientific_name": "Magnolia grandiflora", "common_name": "southern magnolia", "subtype_name": "Southern Magnolia", "zip_code": "97478", "ownership": "public", "ownership_raw": "Oregon Department of Forestry", "city": "Springfield", "source_dataset": "Tree Inventory", "source_department": "Oregon Department of Forestry", "source_last_edit_at": ""}}, {"type": "Feature", "geometry": {"type": "Point", "coordinates": [-123.0225716, 44.05193650999999]}, "properties": {"id": "springfield-581941", "species_group": "crabapple", "scientific_name": "Malus domestica", "common_name": "apple (edible)", "subtype_name": "Apple", "zip_code": "97477", "ownership": "public", "ownership_raw": "Oregon Department of Forestry", "city": "Springfield", "source_dataset": "Tree Inventory", "source_department": "Oregon Department of Forestry", "source_last_edit_at": ""}}, {"type": "Feature", "geometry": {"type": "Point", "coordinates": [-123.0184815, 44.047871000000015]}, "properties": {"id": "springfield-582234", "species_group": "magnolia", "scientific_name": "Magnolia", "common_name": "magnolia spp", "subtype_name": "magnolia spp", "zip_code": "97477", "ownership": "public", "ownership_raw": "Oregon Department of Forestry", "city": "Springfield", "source_dataset": "Tree Inventory", "source_department": "Oregon Department of Forestry", "source_last_edit_at": ""}}, {"type": "Feature", "geometry": {"type": "Point", "coordinates": [-123.01838980000001, 44.0477923]}, "properties": {"id": "springfield-582235", "species_group": "magnolia", "scientific_name": "Magnolia", "common_name": "magnolia spp", "subtype_name": "magnolia spp", "zip_code": "97477", "ownership": "public", "ownership_raw": "Oregon Department of Forestry", "city": "Springfield", "source_dataset": "Tree Inventory", "source_department": "Oregon Department of Forestry", "source_last_edit_at": ""}}, {"type": "Feature", "geometry": {"type": "Point", "coordinates": [-123.01839279999999, 44.04773457000001]}, "properties": {"id": "springfield-582236", "species_group": "magnolia", "scientific_name": "Magnolia", "common_name": "magnolia spp", "subtype_name": "magnolia spp", "zip_code": "97477", "ownership": "public", "ownership_raw": "Oregon Department of Forestry", "city": "Springfield", "source_dataset": "Tree Inventory", "source_department": "Oregon Department of Forestry", "source_last_edit_at": ""}}, {"type": "Feature", "geometry": {"type": "Point", "coordinates": [-123.02068160000002, 44.05042142999999]}, "properties": {"id": "springfield-582288", "species_group": "crabapple", "scientific_name": "Malus domestica", "common_name": "apple (edible)", "subtype_name": "Apple", "zip_code": "97477", "ownership": "public", "ownership_raw": "Oregon Department of Forestry", "city": "Springfield", "source_dataset": "Tree Inventory", "source_department": "Oregon Department of Forestry", "source_last_edit_at": ""}}, {"type": "Feature", "geometry": {"type": "Point", "coordinates": [-123.0206587, 44.050468839999986]}, "properties": {"id": "springfield-582289", "species_group": "crabapple", "scientific_name": "Malus domestica", "common_name": "apple (edible)", "subtype_name": "Apple", "zip_code": "97477", "ownership": "public", "ownership_raw": "Oregon Department of Forestry", "city": "Springfield", "source_dataset": "Tree Inventory", "source_department": "Oregon Department of Forestry", "source_last_edit_at": ""}}, {"type": "Feature", "geometry": {"type": "Point", "coordinates": [-123.02084070000001, 44.04938513]}, "properties": {"id": "springfield-582296", "species_group": "crabapple", "scientific_name": "Malus domestica", "common_name": "apple (edible)", "subtype_name": "Apple", "zip_code": "97477", "ownership": "public", "ownership_raw": "Oregon Department of Forestry", "city": "Springfield", "source_dataset": "Tree Inventory", "source_department": "Oregon Department of Forestry", "source_last_edit_at": ""}}, {"type": "Feature", "geometry": {"type": "Point", "coordinates": [-123.0262671, 44.0518615]}, "properties": {"id": "springfield-582361", "species_group": "crabapple", "scientific_name": "Malus domestica", "common_name": "apple (edible)", "subtype_name": "Apple", "zip_code": "97477", "ownership": "public", "ownership_raw": "Oregon Department of Forestry", "city": "Springfield", "source_dataset": "Tree Inventory", "source_department": "Oregon Department of Forestry", "source_last_edit_at": ""}}, {"type": "Feature", "geometry": {"type": "Point", "coordinates": [-123.02630649999999, 44.05205258]}, "properties": {"id": "springfield-582362", "species_group": "crabapple", "scientific_name": "Malus domestica", "common_name": "apple (edible)", "subtype_name": "Apple", "zip_code": "97477", "ownership": "public", "ownership_raw": "Oregon Department of Forestry", "city": "Springfield", "source_dataset": "Tree Inventory", "source_department": "Oregon Department of Forestry", "source_last_edit_at": ""}}, {"type": "Feature", "geometry": {"type": "Point", "coordinates": [-123.0263421, 44.05215405]}, "properties": {"id": "springfield-582363", "species_group": "crabapple", "scientific_name": "Malus domestica", "common_name": "apple (edible)", "subtype_name": "Apple", "zip_code": "97477", "ownership": "public", "ownership_raw": "Oregon Department of Forestry", "city": "Springfield", "source_dataset": "Tree Inventory", "source_department": "Oregon Department of Forestry", "source_last_edit_at": ""}}, {"type": "Feature", "geometry": {"type": "Point", "coordinates": [-123.02707670000001, 44.054897960000005]}, "properties": {"id": "springfield-582366", "species_group": "crabapple", "scientific_name": "Malus domestica", "common_name": "apple (edible)", "subtype_name": "Apple", "zip_code": "97477", "ownership": "public", "ownership_raw": "Oregon Department of Forestry", "city": "Springfield", "source_dataset": "Tree Inventory", "source_department": "Oregon Department of Forestry", "source_last_edit_at": ""}}, {"type": "Feature", "geometry": {"type": "Point", "coordinates": [-123.02722399999999, 44.05548223000001]}, "properties": {"id": "springfield-582367", "species_group": "crabapple", "scientific_name": "Malus domestica", "common_name": "apple (edible)", "subtype_name": "Apple", "zip_code": "97477", "ownership": "public", "ownership_raw": "Oregon Department of Forestry", "city": "Springfield", "source_dataset": "Tree Inventory", "source_department": "Oregon Department of Forestry", "source_last_edit_at": ""}}, {"type": "Feature", "geometry": {"type": "Point", "coordinates": [-123.0274206, 44.05653508]}, "properties": {"id": "springfield-582370", "species_group": "crabapple", "scientific_name": "Malus domestica", "common_name": "apple (edible)", "subtype_name": "Apple", "zip_code": "97477", "ownership": "public", "ownership_raw": "Oregon Department of Forestry", "city": "Springfield", "source_dataset": "Tree Inventory", "source_department": "Oregon Department of Forestry", "source_last_edit_at": ""}}, {"type": "Feature", "geometry": {"type": "Point", "coordinates": [-123.0232432, 44.05509416999998]}, "properties": {"id": "springfield-582575", "species_group": "crabapple", "scientific_name": "Malus domestica", "common_name": "apple (edible)", "subtype_name": "Apple", "zip_code": "97477", "ownership": "public", "ownership_raw": "Oregon Department of Forestry", "city": "Springfield", "source_dataset": "Tree Inventory", "source_department": "Oregon Department of Forestry", "source_last_edit_at": ""}}, {"type": "Feature", "geometry": {"type": "Point", "coordinates": [-123.0174772, 44.05064728999999]}, "properties": {"id": "springfield-582579", "species_group": "magnolia", "scientific_name": "Magnolia grandiflora", "common_name": "southern magnolia", "subtype_name": "Southern Magnolia", "zip_code": "97477", "ownership": "public", "ownership_raw": "Oregon Department of Forestry", "city": "Springfield", "source_dataset": "Tree Inventory", "source_department": "Oregon Department of Forestry", "source_last_edit_at": ""}}, {"type": "Feature", "geometry": {"type": "Point", "coordinates": [-123.02742830000001, 44.056723610000006]}, "properties": {"id": "springfield-582587", "species_group": "crabapple", "scientific_name": "Malus domestica", "common_name": "apple (edible)", "subtype_name": "Apple", "zip_code": "97477", "ownership": "public", "ownership_raw": "Oregon Department of Forestry", "city": "Springfield", "source_dataset": "Tree Inventory", "source_department": "Oregon Department of Forestry", "source_last_edit_at": ""}}, {"type": "Feature", "geometry": {"type": "Point", "coordinates": [-123.02086019999999, 44.04930111000001]}, "properties": {"id": "springfield-582873", "species_group": "crabapple", "scientific_name": "Malus domestica", "common_name": "apple (edible)", "subtype_name": "Apple", "zip_code": "97477", "ownership": "public", "ownership_raw": "Oregon Department of Forestry", "city": "Springfield", "source_dataset": "Tree Inventory", "source_department": "Oregon Department of Forestry", "source_last_edit_at": ""}}, {"type": "Feature", "geometry": {"type": "Point", "coordinates": [-123.0208526, 44.049212270000005]}, "properties": {"id": "springfield-582874", "species_group": "crabapple", "scientific_name": "Malus domestica", "common_name": "apple (edible)", "subtype_name": "Apple", "zip_code": "97477", "ownership": "public", "ownership_raw": "Oregon Department of Forestry", "city": "Springfield", "source_dataset": "Tree Inventory", "source_department": "Oregon Department of Forestry", "source_last_edit_at": ""}}, {"type": "Feature", "geometry": {"type": "Point", "coordinates": [-123.02492150000002, 44.059321049999994]}, "properties": {"id": "springfield-582899", "species_group": "crabapple", "scientific_name": "Malus domestica", "common_name": "apple (edible)", "subtype_name": "Apple", "zip_code": "97477", "ownership": "public", "ownership_raw": "Oregon Department of Forestry", "city": "Springfield", "source_dataset": "Tree Inventory", "source_department": "Oregon Department of Forestry", "source_last_edit_at": ""}}, {"type": "Feature", "geometry": {"type": "Point", "coordinates": [-123.01938490000002, 44.052833340000014]}, "properties": {"id": "springfield-583009", "species_group": "crabapple", "scientific_name": "Malus domestica", "common_name": "apple (edible)", "subtype_name": "Apple", "zip_code": "97477", "ownership": "public", "ownership_raw": "Oregon Department of Forestry", "city": "Springfield", "source_dataset": "Tree Inventory", "source_department": "Oregon Department of Forestry", "source_last_edit_at": ""}}, {"type": "Feature", "geometry": {"type": "Point", "coordinates": [-123.01941040000001, 44.05175281999999]}, "properties": {"id": "springfield-583010", "species_group": "crabapple", "scientific_name": "Malus domestica", "common_name": "apple (edible)", "subtype_name": "Apple", "zip_code": "97477", "ownership": "public", "ownership_raw": "Oregon Department of Forestry", "city": "Springfield", "source_dataset": "Tree Inventory", "source_department": "Oregon Department of Forestry", "source_last_edit_at": ""}}, {"type": "Feature", "geometry": {"type": "Point", "coordinates": [-123.01691913863311, 44.048473956252316]}, "properties": {"id": "springfield-583392", "species_group": "magnolia", "scientific_name": "Magnolia", "common_name": "magnolia spp", "subtype_name": "magnolia spp", "zip_code": "97477", "ownership": "public", "ownership_raw": "Oregon Department of Forestry", "city": "Springfield", "source_dataset": "Tree Inventory", "source_department": "Oregon Department of Forestry", "source_last_edit_at": ""}}, {"type": "Feature", "geometry": {"type": "Point", "coordinates": [-123.01672990584284, 44.050789736593664]}, "properties": {"id": "springfield-583403", "species_group": "crabapple", "scientific_name": "Malus", "common_name": "crabapple spp", "subtype_name": "crabapple spp", "zip_code": "97477", "ownership": "public", "ownership_raw": "Oregon Department of Forestry", "city": "Springfield", "source_dataset": "Tree Inventory", "source_department": "Oregon Department of Forestry", "source_last_edit_at": ""}}, {"type": "Feature", "geometry": {"type": "Point", "coordinates": [-123.01671057434955, 44.052493492761876]}, "properties": {"id": "springfield-583417", "species_group": "crabapple", "scientific_name": "Malus", "common_name": "crabapple spp", "subtype_name": "crabapple spp", "zip_code": "97477", "ownership": "public", "ownership_raw": "Oregon Department of Forestry", "city": "Springfield", "source_dataset": "Tree Inventory", "source_department": "Oregon Department of Forestry", "source_last_edit_at": ""}}, {"type": "Feature", "geometry": {"type": "Point", "coordinates": [-123.016700432567, 44.05363193690443]}, "properties": {"id": "springfield-583427", "species_group": "magnolia", "scientific_name": "Magnolia virginiana", "common_name": "sweetbay magnolia", "subtype_name": "Sweetbay Magnolia", "zip_code": "97477", "ownership": "public", "ownership_raw": "Oregon Department of Forestry", "city": "Springfield", "source_dataset": "Tree Inventory", "source_department": "Oregon Department of Forestry", "source_last_edit_at": ""}}, {"type": "Feature", "geometry": {"type": "Point", "coordinates": [-123.01668836262645, 44.05371771836995]}, "properties": {"id": "springfield-583428", "species_group": "magnolia", "scientific_name": "Magnolia virginiana", "common_name": "sweetbay magnolia", "subtype_name": "Sweetbay Magnolia", "zip_code": "97477", "ownership": "public", "ownership_raw": "Oregon Department of Forestry", "city": "Springfield", "source_dataset": "Tree Inventory", "source_department": "Oregon Department of Forestry", "source_last_edit_at": ""}}, {"type": "Feature", "geometry": {"type": "Point", "coordinates": [-123.016700432567, 44.05378518685106]}, "properties": {"id": "springfield-583429", "species_group": "magnolia", "scientific_name": "Magnolia virginiana", "common_name": "sweetbay magnolia", "subtype_name": "Sweetbay Magnolia", "zip_code": "97477", "ownership": "public", "ownership_raw": "Oregon Department of Forestry", "city": "Springfield", "source_dataset": "Tree Inventory", "source_department": "Oregon Department of Forestry", "source_last_edit_at": ""}}, {"type": "Feature", "geometry": {"type": "Point", "coordinates": [-123.01669372704448, 44.05383337857621]}, "properties": {"id": "springfield-583430", "species_group": "magnolia", "scientific_name": "Magnolia virginiana", "common_name": "sweetbay magnolia", "subtype_name": "Sweetbay Magnolia", "zip_code": "97477", "ownership": "public", "ownership_raw": "Oregon Department of Forestry", "city": "Springfield", "source_dataset": "Tree Inventory", "source_department": "Oregon Department of Forestry", "source_last_edit_at": ""}}, {"type": "Feature", "geometry": {"type": "Point", "coordinates": [-123.01668970373095, 44.053878678762096]}, "properties": {"id": "springfield-583431", "species_group": "magnolia", "scientific_name": "Magnolia virginiana", "common_name": "sweetbay magnolia", "subtype_name": "Sweetbay Magnolia", "zip_code": "97477", "ownership": "public", "ownership_raw": "Oregon Department of Forestry", "city": "Springfield", "source_dataset": "Tree Inventory", "source_department": "Oregon Department of Forestry", "source_last_edit_at": ""}}, {"type": "Feature", "geometry": {"type": "Point", "coordinates": [-123.01832331181753, 44.053718257084924]}, "properties": {"id": "springfield-583461", "species_group": "crabapple", "scientific_name": "Malus domestica", "common_name": "apple (edible)", "subtype_name": "Apple", "zip_code": "97477", "ownership": "public", "ownership_raw": "Oregon Department of Forestry", "city": "Springfield", "source_dataset": "Tree Inventory", "source_department": "Oregon Department of Forestry", "source_last_edit_at": ""}}, {"type": "Feature", "geometry": {"type": "Point", "coordinates": [-123.02932977477813, 44.08564662500916]}, "properties": {"id": "springfield-653122", "species_group": "crabapple", "scientific_name": "Malus", "common_name": "crabapple spp", "subtype_name": "crabapple spp", "zip_code": "97477", "ownership": "public", "ownership_raw": "Oregon Department of Forestry", "city": "Springfield", "source_dataset": "Tree Inventory", "source_department": "Oregon Department of Forestry", "source_last_edit_at": ""}}, {"type": "Feature", "geometry": {"type": "Point", "coordinates": [-123.02901729742793, 44.08564855164148]}, "properties": {"id": "springfield-653123", "species_group": "crabapple", "scientific_name": "Malus", "common_name": "crabapple spp", "subtype_name": "crabapple spp", "zip_code": "97477", "ownership": "public", "ownership_raw": "Oregon Department of Forestry", "city": "Springfield", "source_dataset": "Tree Inventory", "source_department": "Oregon Department of Forestry", "source_last_edit_at": ""}}, {"type": "Feature", "geometry": {"type": "Point", "coordinates": [-123.02892878453042, 44.08565625817023]}, "properties": {"id": "springfield-653124", "species_group": "crabapple", "scientific_name": "Malus", "common_name": "crabapple spp", "subtype_name": "crabapple spp", "zip_code": "97477", "ownership": "public", "ownership_raw": "Oregon Department of Forestry", "city": "Springfield", "source_dataset": "Tree Inventory", "source_department": "Oregon Department of Forestry", "source_last_edit_at": ""}}, {"type": "Feature", "geometry": {"type": "Point", "coordinates": [-123.02884563605096, 44.085652404906]}, "properties": {"id": "springfield-653125", "species_group": "crabapple", "scientific_name": "Malus", "common_name": "crabapple spp", "subtype_name": "crabapple spp", "zip_code": "97477", "ownership": "public", "ownership_raw": "Oregon Department of Forestry", "city": "Springfield", "source_dataset": "Tree Inventory", "source_department": "Oregon Department of Forestry", "source_last_edit_at": ""}}, {"type": "Feature", "geometry": {"type": "Point", "coordinates": [-123.02879199187066, 44.085654331538144]}, "properties": {"id": "springfield-653126", "species_group": "crabapple", "scientific_name": "Malus", "common_name": "crabapple spp", "subtype_name": "crabapple spp", "zip_code": "97477", "ownership": "public", "ownership_raw": "Oregon Department of Forestry", "city": "Springfield", "source_dataset": "Tree Inventory", "source_department": "Oregon Department of Forestry", "source_last_edit_at": ""}}, {"type": "Feature", "geometry": {"type": "Point", "coordinates": [-123.03315892045377, 44.084964626259605]}, "properties": {"id": "springfield-653160", "species_group": "cherry", "scientific_name": "Prunus serrulata", "common_name": "Japanese cherry spp", "subtype_name": "Japanese cherry spp", "zip_code": "97477", "ownership": "public", "ownership_raw": "Oregon Department of Forestry", "city": "Springfield", "source_dataset": "Tree Inventory", "source_department": "Oregon Department of Forestry", "source_last_edit_at": ""}}, {"type": "Feature", "geometry": {"type": "Point", "coordinates": [-123.0333305818307, 44.08516499799721]}, "properties": {"id": "springfield-653162", "species_group": "cherry", "scientific_name": "Prunus serrulata", "common_name": "Japanese cherry spp", "subtype_name": "Japanese cherry spp", "zip_code": "97477", "ownership": "public", "ownership_raw": "Oregon Department of Forestry", "city": "Springfield", "source_dataset": "Tree Inventory", "source_department": "Oregon Department of Forestry", "source_last_edit_at": ""}}, {"type": "Feature", "geometry": {"type": "Point", "coordinates": [-123.03350224320766, 44.08538078218639]}, "properties": {"id": "springfield-653164", "species_group": "cherry", "scientific_name": "Prunus serrulata", "common_name": "Japanese cherry spp", "subtype_name": "Japanese cherry spp", "zip_code": "97477", "ownership": "public", "ownership_raw": "Oregon Department of Forestry", "city": "Springfield", "source_dataset": "Tree Inventory", "source_department": "Oregon Department of Forestry", "source_last_edit_at": ""}}, {"type": "Feature", "geometry": {"type": "Point", "coordinates": [-123.03357198064204, 44.08543472811071]}, "properties": {"id": "springfield-653165", "species_group": "cherry", "scientific_name": "Prunus serrulata", "common_name": "Japanese cherry spp", "subtype_name": "Japanese cherry spp", "zip_code": "97477", "ownership": "public", "ownership_raw": "Oregon Department of Forestry", "city": "Springfield", "source_dataset": "Tree Inventory", "source_department": "Oregon Department of Forestry", "source_last_edit_at": ""}}, {"type": "Feature", "geometry": {"type": "Point", "coordinates": [-123.03357198064204, 44.08553491326819]}, "properties": {"id": "springfield-653166", "species_group": "cherry", "scientific_name": "Prunus serrulata", "common_name": "Japanese cherry spp", "subtype_name": "Japanese cherry spp", "zip_code": "97477", "ownership": "public", "ownership_raw": "Oregon Department of Forestry", "city": "Springfield", "source_dataset": "Tree Inventory", "source_department": "Oregon Department of Forestry", "source_last_edit_at": ""}}, {"type": "Feature", "geometry": {"type": "Point", "coordinates": [-123.03241515086751, 44.085649880407715]}, "properties": {"id": "springfield-653173", "species_group": "crabapple", "scientific_name": "Malus", "common_name": "crabapple spp", "subtype_name": "crabapple spp", "zip_code": "97477", "ownership": "public", "ownership_raw": "Oregon Department of Forestry", "city": "Springfield", "source_dataset": "Tree Inventory", "source_department": "Oregon Department of Forestry", "source_last_edit_at": ""}}, {"type": "Feature", "geometry": {"type": "Point", "coordinates": [-123.03220057414633, 44.08564602714305]}, "properties": {"id": "springfield-653174", "species_group": "crabapple", "scientific_name": "Malus", "common_name": "crabapple spp", "subtype_name": "crabapple spp", "zip_code": "97477", "ownership": "public", "ownership_raw": "Oregon Department of Forestry", "city": "Springfield", "source_dataset": "Tree Inventory", "source_department": "Oregon Department of Forestry", "source_last_edit_at": ""}}, {"type": "Feature", "geometry": {"type": "Point", "coordinates": [-123.03202354835138, 44.08565373367213]}, "properties": {"id": "springfield-653176", "species_group": "crabapple", "scientific_name": "Malus", "common_name": "crabapple spp", "subtype_name": "crabapple spp", "zip_code": "97477", "ownership": "public", "ownership_raw": "Oregon Department of Forestry", "city": "Springfield", "source_dataset": "Tree Inventory", "source_department": "Oregon Department of Forestry", "source_last_edit_at": ""}}, {"type": "Feature", "geometry": {"type": "Point", "coordinates": [-123.0319001667367, 44.085649880407715]}, "properties": {"id": "springfield-653177", "species_group": "crabapple", "scientific_name": "Malus", "common_name": "crabapple spp", "subtype_name": "crabapple spp", "zip_code": "97477", "ownership": "public", "ownership_raw": "Oregon Department of Forestry", "city": "Springfield", "source_dataset": "Tree Inventory", "source_department": "Oregon Department of Forestry", "source_last_edit_at": ""}}, {"type": "Feature", "geometry": {"type": "Point", "coordinates": [-123.0318089716301, 44.08563446734757]}, "properties": {"id": "springfield-653178", "species_group": "crabapple", "scientific_name": "Malus", "common_name": "crabapple spp", "subtype_name": "crabapple spp", "zip_code": "97477", "ownership": "public", "ownership_raw": "Oregon Department of Forestry", "city": "Springfield", "source_dataset": "Tree Inventory", "source_department": "Oregon Department of Forestry", "source_last_edit_at": ""}}, {"type": "Feature", "geometry": {"type": "Point", "coordinates": [-123.03213620112992, 44.08564217387815]}, "properties": {"id": "springfield-653179", "species_group": "crabapple", "scientific_name": "Malus", "common_name": "crabapple spp", "subtype_name": "crabapple spp", "zip_code": "97477", "ownership": "public", "ownership_raw": "Oregon Department of Forestry", "city": "Springfield", "source_dataset": "Tree Inventory", "source_department": "Oregon Department of Forestry", "source_last_edit_at": ""}}, {"type": "Feature", "geometry": {"type": "Point", "coordinates": [-123.03208255694962, 44.08563446734757]}, "properties": {"id": "springfield-653180", "species_group": "crabapple", "scientific_name": "Malus", "common_name": "crabapple spp", "subtype_name": "crabapple spp", "zip_code": "97477", "ownership": "public", "ownership_raw": "Oregon Department of Forestry", "city": "Springfield", "source_dataset": "Tree Inventory", "source_department": "Oregon Department of Forestry", "source_last_edit_at": ""}}, {"type": "Feature", "geometry": {"type": "Point", "coordinates": [-123.03194844649886, 44.08565373367213]}, "properties": {"id": "springfield-653181", "species_group": "cherry", "scientific_name": "Prunus serrulata", "common_name": "Japanese cherry spp", "subtype_name": "Japanese cherry spp", "zip_code": "97477", "ownership": "public", "ownership_raw": "Oregon Department of Forestry", "city": "Springfield", "source_dataset": "Tree Inventory", "source_department": "Oregon Department of Forestry", "source_last_edit_at": ""}}, {"type": "Feature", "geometry": {"type": "Point", "coordinates": [-123.03185188697431, 44.08562676081597]}, "properties": {"id": "springfield-653182", "species_group": "cherry", "scientific_name": "Prunus serrulata", "common_name": "Japanese cherry spp", "subtype_name": "Japanese cherry spp", "zip_code": "97477", "ownership": "public", "ownership_raw": "Oregon Department of Forestry", "city": "Springfield", "source_dataset": "Tree Inventory", "source_department": "Oregon Department of Forestry", "source_last_edit_at": ""}}, {"type": "Feature", "geometry": {"type": "Point", "coordinates": [-123.03175532744979, 44.08564602714305]}, "properties": {"id": "springfield-653183", "species_group": "cherry", "scientific_name": "Prunus serrulata", "common_name": "Japanese cherry spp", "subtype_name": "Japanese cherry spp", "zip_code": "97477", "ownership": "public", "ownership_raw": "Oregon Department of Forestry", "city": "Springfield", "source_dataset": "Tree Inventory", "source_department": "Oregon Department of Forestry", "source_last_edit_at": ""}}, {"type": "Feature", "geometry": {"type": "Point", "coordinates": [-123.04453475834794, 44.0877167037375]}, "properties": {"id": "springfield-658158", "species_group": "magnolia", "scientific_name": "Magnolia", "common_name": "magnolia spp", "subtype_name": "magnolia spp", "zip_code": "97477", "ownership": "public", "ownership_raw": "Oregon Department of Forestry", "city": "Springfield", "source_dataset": "Tree Inventory", "source_department": "Oregon Department of Forestry", "source_last_edit_at": ""}}, {"type": "Feature", "geometry": {"type": "Point", "coordinates": [-123.04459376694626, 44.08775523502397]}, "properties": {"id": "springfield-658159", "species_group": "magnolia", "scientific_name": "Magnolia", "common_name": "magnolia spp", "subtype_name": "magnolia spp", "zip_code": "97477", "ownership": "public", "ownership_raw": "Oregon Department of Forestry", "city": "Springfield", "source_dataset": "Tree Inventory", "source_department": "Oregon Department of Forestry", "source_last_edit_at": ""}}, {"type": "Feature", "geometry": {"type": "Point", "coordinates": [-123.04464472891756, 44.08779087644161]}, "properties": {"id": "springfield-658160", "species_group": "magnolia", "scientific_name": "Magnolia", "common_name": "magnolia spp", "subtype_name": "magnolia spp", "zip_code": "97477", "ownership": "public", "ownership_raw": "Oregon Department of Forestry", "city": "Springfield", "source_dataset": "Tree Inventory", "source_department": "Oregon Department of Forestry", "source_last_edit_at": ""}}, {"type": "Feature", "geometry": {"type": "Point", "coordinates": [-123.04471714856093, 44.08786215921246]}, "properties": {"id": "springfield-658161", "species_group": "magnolia", "scientific_name": "Magnolia", "common_name": "magnolia spp", "subtype_name": "magnolia spp", "zip_code": "97477", "ownership": "public", "ownership_raw": "Oregon Department of Forestry", "city": "Springfield", "source_dataset": "Tree Inventory", "source_department": "Oregon Department of Forestry", "source_last_edit_at": ""}}, {"type": "Feature", "geometry": {"type": "Point", "coordinates": [-123.04476408721868, 44.08789876384518]}, "properties": {"id": "springfield-658162", "species_group": "magnolia", "scientific_name": "Magnolia", "common_name": "magnolia spp", "subtype_name": "magnolia spp", "zip_code": "97477", "ownership": "public", "ownership_raw": "Oregon Department of Forestry", "city": "Springfield", "source_dataset": "Tree Inventory", "source_department": "Oregon Department of Forestry", "source_last_edit_at": ""}}, {"type": "Feature", "geometry": {"type": "Point", "coordinates": [-123.04487747303082, 44.08798650392335]}, "properties": {"id": "springfield-658163", "species_group": "magnolia", "scientific_name": "Magnolia", "common_name": "magnolia spp", "subtype_name": "magnolia spp", "zip_code": "97477", "ownership": "public", "ownership_raw": "Oregon Department of Forestry", "city": "Springfield", "source_dataset": "Tree Inventory", "source_department": "Oregon Department of Forestry", "source_last_edit_at": ""}}, {"type": "Feature", "geometry": {"type": "Point", "coordinates": [-123.04498342028691, 44.088067419226874]}, "properties": {"id": "springfield-658164", "species_group": "magnolia", "scientific_name": "Magnolia", "common_name": "magnolia spp", "subtype_name": "magnolia spp", "zip_code": "97477", "ownership": "public", "ownership_raw": "Oregon Department of Forestry", "city": "Springfield", "source_dataset": "Tree Inventory", "source_department": "Oregon Department of Forestry", "source_last_edit_at": ""}}, {"type": "Feature", "geometry": {"type": "Point", "coordinates": [-123.04503438225818, 44.08811558304545]}, "properties": {"id": "springfield-658165", "species_group": "magnolia", "scientific_name": "Magnolia", "common_name": "magnolia spp", "subtype_name": "magnolia spp", "zip_code": "97477", "ownership": "public", "ownership_raw": "Oregon Department of Forestry", "city": "Springfield", "source_dataset": "Tree Inventory", "source_department": "Oregon Department of Forestry", "source_last_edit_at": ""}}, {"type": "Feature", "geometry": {"type": "Point", "coordinates": [-123.04507863870691, 44.08816085699917]}, "properties": {"id": "springfield-658166", "species_group": "magnolia", "scientific_name": "Magnolia", "common_name": "magnolia spp", "subtype_name": "magnolia spp", "zip_code": "97477", "ownership": "public", "ownership_raw": "Oregon Department of Forestry", "city": "Springfield", "source_dataset": "Tree Inventory", "source_department": "Oregon Department of Forestry", "source_last_edit_at": ""}}]}