{"type": "FeatureCollection", "features": [{"type": "Feature", "geometry": {"type": "Point", "coordinates": [-71.4268902879363, 42.98898889672505]}, "properties": {"id": "manchester-40", "species_group": "cherry", "scientific_name": "Prunus species", "common_name": "Prunus (Cherry)", "subtype_name": "Prunus (Cherry)", "zip_code": "03104", "ownership": "public", "ownership_raw": "City of Manchester", "city": "Manchester", "source_dataset": "Manchester Trees 2022", "source_department": "City of Manchester", "source_last_edit_at": ""}}]}