{"type": "FeatureCollection", "features": [{"type": "Feature", "geometry": {"type": "Point", "coordinates": [140.983826, 37.154732]}, "properties": {"id": "iwaki-061323f29a8a39bd", "species_group": "cherry", "scientific_name": "Prunus species", "common_name": "シダレザクラ （エドヒガン）", "subtype_name": "シダレザクラ （エドヒガン）", "zip_code": null, "ownership": "unknown", "ownership_raw": "", "city": "Iwaki", "source_dataset": "Protected Green Information / 保護樹木", "source_department": "Iwaki City Park & Greenery Association", "source_last_edit_at": ""}}, {"type": "Feature", "geometry": {"type": "Point", "coordinates": [140.676392, 37.138458]}, "properties": {"id": "iwaki-4caee5557a43a1da", "species_group": "cherry", "scientific_name": "Prunus species", "common_name": "ヤマザクラ", "subtype_name": "ヤマザクラ", "zip_code": null, "ownership": "unknown", "ownership_raw": "", "city": "Iwaki", "source_dataset": "Protected Green Information / 保護樹木", "source_department": "Iwaki City Park & Greenery Association", "source_last_edit_at": ""}}, {"type": "Feature", "geometry": {"type": "Point", "coordinates": [140.906876, 37.067032]}, "properties": {"id": "iwaki-81bf0b29a1e70acb", "species_group": "cherry", "scientific_name": "Prunus species", "common_name": "シダレザクラ （エドヒガン）", "subtype_name": "シダレザクラ （エドヒガン）", "zip_code": null, "ownership": "unknown", "ownership_raw": "", "city": "Iwaki", "source_dataset": "Protected Green Information / 保護樹木", "source_department": "Iwaki City Park & Greenery Association", "source_last_edit_at": ""}}, {"type": "Feature", "geometry": {"type": "Point", "coordinates": [140.745102, 36.950939]}, "properties": {"id": "iwaki-985ae5501f2e0fa8", "species_group": "cherry", "scientific_name": "Prunus species", "common_name": "エドヒガン（紫金桜）", "subtype_name": "エドヒガン（紫金桜）", "zip_code": null, "ownership": "unknown", "ownership_raw": "", "city": "Iwaki", "source_dataset": "Protected Green Information / 保護樹木", "source_department": "Iwaki City Park & Greenery Association", "source_last_edit_at": ""}}, {"type": "Feature", "geometry": {"type": "Point", "coordinates": [140.918365, 37.070526]}, "properties": {"id": "iwaki-b74e8f1dc87c3a72", "species_group": "cherry", "scientific_name": "Prunus species", "common_name": "シダレザクラ（エドヒガン）", "subtype_name": "シダレザクラ（エドヒガン）", "zip_code": null, "ownership": "unknown", "ownership_raw": "", "city": "Iwaki", "source_dataset": "Protected Green Information / 保護樹木", "source_department": "Iwaki City Park & Greenery Association", "source_last_edit_at": ""}}, {"type": "Feature", "geometry": {"type": "Point", "coordinates": [140.795059, 37.047104]}, "properties": {"id": "iwaki-d431a92145cac63b", "species_group": "cherry", "scientific_name": "Prunus species", "common_name": "ヤマザクラ", "subtype_name": "ヤマザクラ", "zip_code": null, "ownership": "unknown", "ownership_raw": "", "city": "Iwaki", "source_dataset": "Protected Green Information / 保護樹木", "source_department": "Iwaki City Park & Greenery Association", "source_last_edit_at": ""}}, {"type": "Feature", "geometry": {"type": "Point", "coordinates": [140.636215, 36.931637]}, "properties": {"id": "iwaki-d6d27ce35b4c801b", "species_group": "cherry", "scientific_name": "Prunus species", "common_name": "ヤマザクラ（石割桜）", "subtype_name": "ヤマザクラ（石割桜）", "zip_code": null, "ownership": "unknown", "ownership_raw": "", "city": "Iwaki", "source_dataset": "Protected Green Information / 保護樹木", "source_department": "Iwaki City Park & Greenery Association", "source_last_edit_at": ""}}, {"type": "Feature", "geometry": {"type": "Point", "coordinates": [140.915985, 37.114277]}, "properties": {"id": "iwaki-e1b5671c88785557", "species_group": "cherry", "scientific_name": "Prunus species", "common_name": "シダレザクラ （エドヒガン）", "subtype_name": "シダレザクラ （エドヒガン）", "zip_code": null, "ownership": "unknown", "ownership_raw": "", "city": "Iwaki", "source_dataset": "Protected Green Information / 保護樹木", "source_department": "Iwaki City Park & Greenery Association", "source_last_edit_at": ""}}]}