{"type": "FeatureCollection", "features": [{"type": "Feature", "geometry": {"type": "Point", "coordinates": [-73.25049999999999, 44.54800000000006]}, "properties": {"id": "colchester-10118", "species_group": "crabapple", "scientific_name": "Malus species", "common_name": "Crabapple", "subtype_name": null, "zip_code": "05446", "ownership": "public", "ownership_raw": "Town of Colchester", "city": "Colchester", "source_dataset": "Municipal Tree Inventory", "source_department": "Town of Colchester", "source_last_edit_at": ""}}, {"type": "Feature", "geometry": {"type": "Point", "coordinates": [-73.26959999999997, 44.547300000000064]}, "properties": {"id": "colchester-10435", "species_group": "crabapple", "scientific_name": "Malus species", "common_name": "Crabapple", "subtype_name": null, "zip_code": "05446", "ownership": "public", "ownership_raw": "Town of Colchester", "city": "Colchester", "source_dataset": "Municipal Tree Inventory", "source_department": "Town of Colchester", "source_last_edit_at": ""}}, {"type": "Feature", "geometry": {"type": "Point", "coordinates": [-73.15649999999994, 44.498800000000074]}, "properties": {"id": "colchester-10480", "species_group": "crabapple", "scientific_name": "Malus species", "common_name": "Crabapple", "subtype_name": null, "zip_code": "05446", "ownership": "public", "ownership_raw": "Town of Colchester", "city": "Colchester", "source_dataset": "Municipal Tree Inventory", "source_department": "Town of Colchester", "source_last_edit_at": ""}}, {"type": "Feature", "geometry": {"type": "Point", "coordinates": [-73.26959999999997, 44.547300000000064]}, "properties": {"id": "colchester-1078", "species_group": "crabapple", "scientific_name": "Malus species", "common_name": "Crabapple", "subtype_name": null, "zip_code": "05446", "ownership": "public", "ownership_raw": "Town of Colchester", "city": "Colchester", "source_dataset": "Municipal Tree Inventory", "source_department": "Town of Colchester", "source_last_edit_at": ""}}, {"type": "Feature", "geometry": {"type": "Point", "coordinates": [-73.24109999999996, 44.53570000000008]}, "properties": {"id": "colchester-11080", "species_group": "crabapple", "scientific_name": "Malus species", "common_name": "Crabapple", "subtype_name": null, "zip_code": "05446", "ownership": "public", "ownership_raw": "Town of Colchester", "city": "Colchester", "source_dataset": "Municipal Tree Inventory", "source_department": "Town of Colchester", "source_last_edit_at": ""}}, {"type": "Feature", "geometry": {"type": "Point", "coordinates": [-73.15689999999995, 44.49920000000003]}, "properties": {"id": "colchester-1112", "species_group": "crabapple", "scientific_name": "Malus species", "common_name": "Crabapple", "subtype_name": null, "zip_code": "05446", "ownership": "public", "ownership_raw": "Town of Colchester", "city": "Colchester", "source_dataset": "Municipal Tree Inventory", "source_department": "Town of Colchester", "source_last_edit_at": ""}}, {"type": "Feature", "geometry": {"type": "Point", "coordinates": [-73.15679999999998, 44.49890000000005]}, "properties": {"id": "colchester-11742", "species_group": "crabapple", "scientific_name": "Malus species", "common_name": "Crabapple", "subtype_name": null, "zip_code": "05446", "ownership": "public", "ownership_raw": "Town of Colchester", "city": "Colchester", "source_dataset": "Municipal Tree Inventory", "source_department": "Town of Colchester", "source_last_edit_at": ""}}, {"type": "Feature", "geometry": {"type": "Point", "coordinates": [-73.15639999999996, 44.49890000000005]}, "properties": {"id": "colchester-12855", "species_group": "crabapple", "scientific_name": "Malus species", "common_name": "Crabapple", "subtype_name": null, "zip_code": "05446", "ownership": "public", "ownership_raw": "Town of Colchester", "city": "Colchester", "source_dataset": "Municipal Tree Inventory", "source_department": "Town of Colchester", "source_last_edit_at": ""}}, {"type": "Feature", "geometry": {"type": "Point", "coordinates": [-73.27979999999997, 44.549600000000055]}, "properties": {"id": "colchester-15368", "species_group": "crabapple", "scientific_name": "Malus species", "common_name": "Crabapple", "subtype_name": null, "zip_code": "05446", "ownership": "public", "ownership_raw": "Town of Colchester", "city": "Colchester", "source_dataset": "Municipal Tree Inventory", "source_department": "Town of Colchester", "source_last_edit_at": ""}}, {"type": "Feature", "geometry": {"type": "Point", "coordinates": [-73.25909999999999, 44.551000000000045]}, "properties": {"id": "colchester-16289", "species_group": "crabapple", "scientific_name": "Malus species", "common_name": "Crabapple", "subtype_name": null, "zip_code": "05446", "ownership": "public", "ownership_raw": "Town of Colchester", "city": "Colchester", "source_dataset": "Municipal Tree Inventory", "source_department": "Town of Colchester", "source_last_edit_at": ""}}, {"type": "Feature", "geometry": {"type": "Point", "coordinates": [-73.15679999999998, 44.49900000000008]}, "properties": {"id": "colchester-16882", "species_group": "crabapple", "scientific_name": "Malus species", "common_name": "Crabapple", "subtype_name": null, "zip_code": "05446", "ownership": "public", "ownership_raw": "Town of Colchester", "city": "Colchester", "source_dataset": "Municipal Tree Inventory", "source_department": "Town of Colchester", "source_last_edit_at": ""}}, {"type": "Feature", "geometry": {"type": "Point", "coordinates": [-73.16179980299995, 44.49771785000007]}, "properties": {"id": "colchester-17483", "species_group": "crabapple", "scientific_name": "Malus species", "common_name": "Crabapple", "subtype_name": null, "zip_code": "05439", "ownership": "public", "ownership_raw": "Town of Colchester", "city": "Colchester", "source_dataset": "Municipal Tree Inventory", "source_department": "Town of Colchester", "source_last_edit_at": ""}}, {"type": "Feature", "geometry": {"type": "Point", "coordinates": [-73.25249999999994, 44.54910000000007]}, "properties": {"id": "colchester-18341", "species_group": "crabapple", "scientific_name": "Malus species", "common_name": "Crabapple", "subtype_name": null, "zip_code": "05446", "ownership": "public", "ownership_raw": "Town of Colchester", "city": "Colchester", "source_dataset": "Municipal Tree Inventory", "source_department": "Town of Colchester", "source_last_edit_at": ""}}, {"type": "Feature", "geometry": {"type": "Point", "coordinates": [-73.15699999999998, 44.49900000000008]}, "properties": {"id": "colchester-18823", "species_group": "crabapple", "scientific_name": "Malus species", "common_name": "Crabapple", "subtype_name": null, "zip_code": "05446", "ownership": "public", "ownership_raw": "Town of Colchester", "city": "Colchester", "source_dataset": "Municipal Tree Inventory", "source_department": "Town of Colchester", "source_last_edit_at": ""}}, {"type": "Feature", "geometry": {"type": "Point", "coordinates": [-73.16305001299997, 44.493488127000035]}, "properties": {"id": "colchester-19403", "species_group": "crabapple", "scientific_name": "Malus species", "common_name": "Crabapple", "subtype_name": null, "zip_code": "05439", "ownership": "public", "ownership_raw": "Town of Colchester", "city": "Colchester", "source_dataset": "Municipal Tree Inventory", "source_department": "Town of Colchester", "source_last_edit_at": ""}}, {"type": "Feature", "geometry": {"type": "Point", "coordinates": [-73.15679999999998, 44.49920000000003]}, "properties": {"id": "colchester-20006", "species_group": "crabapple", "scientific_name": "Malus species", "common_name": "Crabapple", "subtype_name": null, "zip_code": "05446", "ownership": "public", "ownership_raw": "Town of Colchester", "city": "Colchester", "source_dataset": "Municipal Tree Inventory", "source_department": "Town of Colchester", "source_last_edit_at": ""}}, {"type": "Feature", "geometry": {"type": "Point", "coordinates": [-73.15659999999997, 44.499100000000055]}, "properties": {"id": "colchester-20013", "species_group": "crabapple", "scientific_name": "Malus species", "common_name": "Crabapple", "subtype_name": null, "zip_code": "05446", "ownership": "public", "ownership_raw": "Town of Colchester", "city": "Colchester", "source_dataset": "Municipal Tree Inventory", "source_department": "Town of Colchester", "source_last_edit_at": ""}}, {"type": "Feature", "geometry": {"type": "Point", "coordinates": [-73.15649999999994, 44.49900000000008]}, "properties": {"id": "colchester-2107", "species_group": "crabapple", "scientific_name": "Malus species", "common_name": "Crabapple", "subtype_name": null, "zip_code": "05446", "ownership": "public", "ownership_raw": "Town of Colchester", "city": "Colchester", "source_dataset": "Municipal Tree Inventory", "source_department": "Town of Colchester", "source_last_edit_at": ""}}, {"type": "Feature", "geometry": {"type": "Point", "coordinates": [-73.15739999999994, 44.49920000000003]}, "properties": {"id": "colchester-22140", "species_group": "crabapple", "scientific_name": "Malus species", "common_name": "Crabapple", "subtype_name": null, "zip_code": "05446", "ownership": "public", "ownership_raw": "Town of Colchester", "city": "Colchester", "source_dataset": "Municipal Tree Inventory", "source_department": "Town of Colchester", "source_last_edit_at": ""}}, {"type": "Feature", "geometry": {"type": "Point", "coordinates": [-73.15669999999994, 44.49890000000005]}, "properties": {"id": "colchester-22156", "species_group": "crabapple", "scientific_name": "Malus species", "common_name": "Crabapple", "subtype_name": null, "zip_code": "05446", "ownership": "public", "ownership_raw": "Town of Colchester", "city": "Colchester", "source_dataset": "Municipal Tree Inventory", "source_department": "Town of Colchester", "source_last_edit_at": ""}}, {"type": "Feature", "geometry": {"type": "Point", "coordinates": [-73.15709999999996, 44.499100000000055]}, "properties": {"id": "colchester-22639", "species_group": "crabapple", "scientific_name": "Malus species", "common_name": "Crabapple", "subtype_name": null, "zip_code": "05446", "ownership": "public", "ownership_raw": "Town of Colchester", "city": "Colchester", "source_dataset": "Municipal Tree Inventory", "source_department": "Town of Colchester", "source_last_edit_at": ""}}, {"type": "Feature", "geometry": {"type": "Point", "coordinates": [-73.15749999999997, 44.499100000000055]}, "properties": {"id": "colchester-22757", "species_group": "crabapple", "scientific_name": "Malus species", "common_name": "Crabapple", "subtype_name": null, "zip_code": "05446", "ownership": "public", "ownership_raw": "Town of Colchester", "city": "Colchester", "source_dataset": "Municipal Tree Inventory", "source_department": "Town of Colchester", "source_last_edit_at": ""}}, {"type": "Feature", "geometry": {"type": "Point", "coordinates": [-73.15629999999999, 44.49890000000005]}, "properties": {"id": "colchester-22779", "species_group": "crabapple", "scientific_name": "Malus species", "common_name": "Crabapple", "subtype_name": null, "zip_code": "05446", "ownership": "public", "ownership_raw": "Town of Colchester", "city": "Colchester", "source_dataset": "Municipal Tree Inventory", "source_department": "Town of Colchester", "source_last_edit_at": ""}}, {"type": "Feature", "geometry": {"type": "Point", "coordinates": [-73.15609999999998, 44.499600000000044]}, "properties": {"id": "colchester-23346", "species_group": "crabapple", "scientific_name": "Malus species", "common_name": "Crabapple", "subtype_name": null, "zip_code": "05446", "ownership": "public", "ownership_raw": "Town of Colchester", "city": "Colchester", "source_dataset": "Municipal Tree Inventory", "source_department": "Town of Colchester", "source_last_edit_at": ""}}, {"type": "Feature", "geometry": {"type": "Point", "coordinates": [-73.15729999999996, 44.499100000000055]}, "properties": {"id": "colchester-25078", "species_group": "crabapple", "scientific_name": "Malus species", "common_name": "Crabapple", "subtype_name": null, "zip_code": "05446", "ownership": "public", "ownership_raw": "Town of Colchester", "city": "Colchester", "source_dataset": "Municipal Tree Inventory", "source_department": "Town of Colchester", "source_last_edit_at": ""}}, {"type": "Feature", "geometry": {"type": "Point", "coordinates": [-73.27979999999997, 44.54970000000003]}, "properties": {"id": "colchester-26669", "species_group": "crabapple", "scientific_name": "Malus species", "common_name": "Crabapple", "subtype_name": null, "zip_code": "05446", "ownership": "public", "ownership_raw": "Town of Colchester", "city": "Colchester", "source_dataset": "Municipal Tree Inventory", "source_department": "Town of Colchester", "source_last_edit_at": ""}}, {"type": "Feature", "geometry": {"type": "Point", "coordinates": [-73.15689999999995, 44.49920000000003]}, "properties": {"id": "colchester-26795", "species_group": "crabapple", "scientific_name": "Malus species", "common_name": "Crabapple", "subtype_name": null, "zip_code": "05446", "ownership": "public", "ownership_raw": "Town of Colchester", "city": "Colchester", "source_dataset": "Municipal Tree Inventory", "source_department": "Town of Colchester", "source_last_edit_at": ""}}, {"type": "Feature", "geometry": {"type": "Point", "coordinates": [-73.26969999999994, 44.547300000000064]}, "properties": {"id": "colchester-27012", "species_group": "crabapple", "scientific_name": "Malus species", "common_name": "Crabapple", "subtype_name": null, "zip_code": "05446", "ownership": "public", "ownership_raw": "Town of Colchester", "city": "Colchester", "source_dataset": "Municipal Tree Inventory", "source_department": "Town of Colchester", "source_last_edit_at": ""}}, {"type": "Feature", "geometry": {"type": "Point", "coordinates": [-73.27849999999995, 44.55080000000004]}, "properties": {"id": "colchester-2705", "species_group": "crabapple", "scientific_name": "Malus species", "common_name": "Crabapple", "subtype_name": null, "zip_code": "05446", "ownership": "public", "ownership_raw": "Town of Colchester", "city": "Colchester", "source_dataset": "Municipal Tree Inventory", "source_department": "Town of Colchester", "source_last_edit_at": ""}}, {"type": "Feature", "geometry": {"type": "Point", "coordinates": [-73.15709999999996, 44.49930000000006]}, "properties": {"id": "colchester-27382", "species_group": "crabapple", "scientific_name": "Malus species", "common_name": "Crabapple", "subtype_name": null, "zip_code": "05446", "ownership": "public", "ownership_raw": "Town of Colchester", "city": "Colchester", "source_dataset": "Municipal Tree Inventory", "source_department": "Town of Colchester", "source_last_edit_at": ""}}, {"type": "Feature", "geometry": {"type": "Point", "coordinates": [-73.15699999999998, 44.49920000000003]}, "properties": {"id": "colchester-27862", "species_group": "crabapple", "scientific_name": "Malus species", "common_name": "Crabapple", "subtype_name": null, "zip_code": "05446", "ownership": "public", "ownership_raw": "Town of Colchester", "city": "Colchester", "source_dataset": "Municipal Tree Inventory", "source_department": "Town of Colchester", "source_last_edit_at": ""}}, {"type": "Feature", "geometry": {"type": "Point", "coordinates": [-73.15689999999995, 44.49900000000008]}, "properties": {"id": "colchester-27938", "species_group": "crabapple", "scientific_name": "Malus species", "common_name": "Crabapple", "subtype_name": null, "zip_code": "05446", "ownership": "public", "ownership_raw": "Town of Colchester", "city": "Colchester", "source_dataset": "Municipal Tree Inventory", "source_department": "Town of Colchester", "source_last_edit_at": ""}}, {"type": "Feature", "geometry": {"type": "Point", "coordinates": [-73.15599999999995, 44.499600000000044]}, "properties": {"id": "colchester-28418", "species_group": "crabapple", "scientific_name": "Malus species", "common_name": "Crabapple", "subtype_name": null, "zip_code": "05446", "ownership": "public", "ownership_raw": "Town of Colchester", "city": "Colchester", "source_dataset": "Municipal Tree Inventory", "source_department": "Town of Colchester", "source_last_edit_at": ""}}, {"type": "Feature", "geometry": {"type": "Point", "coordinates": [-73.16175305899998, 44.49790860300004]}, "properties": {"id": "colchester-29042", "species_group": "crabapple", "scientific_name": "Malus species", "common_name": "Crabapple", "subtype_name": null, "zip_code": "05439", "ownership": "public", "ownership_raw": "Town of Colchester", "city": "Colchester", "source_dataset": "Municipal Tree Inventory", "source_department": "Town of Colchester", "source_last_edit_at": ""}}, {"type": "Feature", "geometry": {"type": "Point", "coordinates": [-73.15709999999996, 44.49930000000006]}, "properties": {"id": "colchester-29177", "species_group": "crabapple", "scientific_name": "Malus species", "common_name": "Crabapple", "subtype_name": null, "zip_code": "05446", "ownership": "public", "ownership_raw": "Town of Colchester", "city": "Colchester", "source_dataset": "Municipal Tree Inventory", "source_department": "Town of Colchester", "source_last_edit_at": ""}}, {"type": "Feature", "geometry": {"type": "Point", "coordinates": [-73.15649999999994, 44.49900000000008]}, "properties": {"id": "colchester-29515", "species_group": "crabapple", "scientific_name": "Malus species", "common_name": "Crabapple", "subtype_name": null, "zip_code": "05446", "ownership": "public", "ownership_raw": "Town of Colchester", "city": "Colchester", "source_dataset": "Municipal Tree Inventory", "source_department": "Town of Colchester", "source_last_edit_at": ""}}, {"type": "Feature", "geometry": {"type": "Point", "coordinates": [-73.16651131999998, 44.493994060000034]}, "properties": {"id": "colchester-3042", "species_group": "plum", "scientific_name": "Prunus species", "common_name": "Plum", "subtype_name": null, "zip_code": "05439", "ownership": "public", "ownership_raw": "Town of Colchester", "city": "Colchester", "source_dataset": "Municipal Tree Inventory", "source_department": "Town of Colchester", "source_last_edit_at": ""}}, {"type": "Feature", "geometry": {"type": "Point", "coordinates": [-73.15629999999999, 44.498800000000074]}, "properties": {"id": "colchester-3690", "species_group": "crabapple", "scientific_name": "Malus species", "common_name": "Crabapple", "subtype_name": null, "zip_code": "05446", "ownership": "public", "ownership_raw": "Town of Colchester", "city": "Colchester", "source_dataset": "Municipal Tree Inventory", "source_department": "Town of Colchester", "source_last_edit_at": ""}}, {"type": "Feature", "geometry": {"type": "Point", "coordinates": [-73.15619999999996, 44.498800000000074]}, "properties": {"id": "colchester-4217", "species_group": "crabapple", "scientific_name": "Malus species", "common_name": "Crabapple", "subtype_name": null, "zip_code": "05446", "ownership": "public", "ownership_raw": "Town of Colchester", "city": "Colchester", "source_dataset": "Municipal Tree Inventory", "source_department": "Town of Colchester", "source_last_edit_at": ""}}, {"type": "Feature", "geometry": {"type": "Point", "coordinates": [-73.15659999999997, 44.498800000000074]}, "properties": {"id": "colchester-4302", "species_group": "crabapple", "scientific_name": "Malus species", "common_name": "Crabapple", "subtype_name": null, "zip_code": "05446", "ownership": "public", "ownership_raw": "Town of Colchester", "city": "Colchester", "source_dataset": "Municipal Tree Inventory", "source_department": "Town of Colchester", "source_last_edit_at": ""}}, {"type": "Feature", "geometry": {"type": "Point", "coordinates": [-73.25169999999997, 44.54850000000005]}, "properties": {"id": "colchester-4313", "species_group": "crabapple", "scientific_name": "Malus species", "common_name": "Crabapple", "subtype_name": null, "zip_code": "05446", "ownership": "public", "ownership_raw": "Town of Colchester", "city": "Colchester", "source_dataset": "Municipal Tree Inventory", "source_department": "Town of Colchester", "source_last_edit_at": ""}}, {"type": "Feature", "geometry": {"type": "Point", "coordinates": [-73.16730999499998, 44.494183631000055]}, "properties": {"id": "colchester-4478", "species_group": "plum", "scientific_name": "Prunus species", "common_name": "Plum", "subtype_name": null, "zip_code": "05439", "ownership": "public", "ownership_raw": "Town of Colchester", "city": "Colchester", "source_dataset": "Municipal Tree Inventory", "source_department": "Town of Colchester", "source_last_edit_at": ""}}, {"type": "Feature", "geometry": {"type": "Point", "coordinates": [-73.15519999999998, 44.52350000000007]}, "properties": {"id": "colchester-4591", "species_group": "crabapple", "scientific_name": "Malus species", "common_name": "Crabapple", "subtype_name": null, "zip_code": "05446", "ownership": "public", "ownership_raw": "Town of Colchester", "city": "Colchester", "source_dataset": "Municipal Tree Inventory", "source_department": "Town of Colchester", "source_last_edit_at": ""}}, {"type": "Feature", "geometry": {"type": "Point", "coordinates": [-73.24159999999995, 44.535600000000045]}, "properties": {"id": "colchester-4994", "species_group": "crabapple", "scientific_name": "Malus species", "common_name": "Crabapple", "subtype_name": null, "zip_code": "05446", "ownership": "public", "ownership_raw": "Town of Colchester", "city": "Colchester", "source_dataset": "Municipal Tree Inventory", "source_department": "Town of Colchester", "source_last_edit_at": ""}}, {"type": "Feature", "geometry": {"type": "Point", "coordinates": [-73.15669999999994, 44.499100000000055]}, "properties": {"id": "colchester-5293", "species_group": "crabapple", "scientific_name": "Malus species", "common_name": "Crabapple", "subtype_name": null, "zip_code": "05446", "ownership": "public", "ownership_raw": "Town of Colchester", "city": "Colchester", "source_dataset": "Municipal Tree Inventory", "source_department": "Town of Colchester", "source_last_edit_at": ""}}, {"type": "Feature", "geometry": {"type": "Point", "coordinates": [-73.15499999999997, 44.52340000000004]}, "properties": {"id": "colchester-6386", "species_group": "crabapple", "scientific_name": "Malus species", "common_name": "Crabapple", "subtype_name": null, "zip_code": "05446", "ownership": "public", "ownership_raw": "Town of Colchester", "city": "Colchester", "source_dataset": "Municipal Tree Inventory", "source_department": "Town of Colchester", "source_last_edit_at": ""}}, {"type": "Feature", "geometry": {"type": "Point", "coordinates": [-73.15719999999999, 44.499100000000055]}, "properties": {"id": "colchester-6943", "species_group": "crabapple", "scientific_name": "Malus species", "common_name": "Crabapple", "subtype_name": null, "zip_code": "05446", "ownership": "public", "ownership_raw": "Town of Colchester", "city": "Colchester", "source_dataset": "Municipal Tree Inventory", "source_department": "Town of Colchester", "source_last_edit_at": ""}}, {"type": "Feature", "geometry": {"type": "Point", "coordinates": [-73.16648742299998, 44.494073411000045]}, "properties": {"id": "colchester-7473", "species_group": "plum", "scientific_name": "Prunus species", "common_name": "Plum", "subtype_name": null, "zip_code": "05439", "ownership": "public", "ownership_raw": "Town of Colchester", "city": "Colchester", "source_dataset": "Municipal Tree Inventory", "source_department": "Town of Colchester", "source_last_edit_at": ""}}, {"type": "Feature", "geometry": {"type": "Point", "coordinates": [-73.16275385199998, 44.494348768000066]}, "properties": {"id": "colchester-7626", "species_group": "crabapple", "scientific_name": "Malus species", "common_name": "Crabapple", "subtype_name": null, "zip_code": "05439", "ownership": "public", "ownership_raw": "Town of Colchester", "city": "Colchester", "source_dataset": "Municipal Tree Inventory", "source_department": "Town of Colchester", "source_last_edit_at": ""}}, {"type": "Feature", "geometry": {"type": "Point", "coordinates": [-73.27859999999998, 44.55070000000006]}, "properties": {"id": "colchester-8251", "species_group": "crabapple", "scientific_name": "Malus species", "common_name": "Crabapple", "subtype_name": null, "zip_code": "05446", "ownership": "public", "ownership_raw": "Town of Colchester", "city": "Colchester", "source_dataset": "Municipal Tree Inventory", "source_department": "Town of Colchester", "source_last_edit_at": ""}}, {"type": "Feature", "geometry": {"type": "Point", "coordinates": [-73.15609999999998, 44.499600000000044]}, "properties": {"id": "colchester-9072", "species_group": "crabapple", "scientific_name": "Malus species", "common_name": "Crabapple", "subtype_name": null, "zip_code": "05446", "ownership": "public", "ownership_raw": "Town of Colchester", "city": "Colchester", "source_dataset": "Municipal Tree Inventory", "source_department": "Town of Colchester", "source_last_edit_at": ""}}]}