{"type": "FeatureCollection", "features": [{"type": "Feature", "geometry": {"type": "Point", "coordinates": [-79.24002983746773, 42.983436637997684]}, "properties": {"id": "welland-10083", "species_group": "crabapple", "scientific_name": "Malus Apple - Crab", "common_name": "Apple - Crab", "subtype_name": "Apple - Crab", "zip_code": null, "ownership": "public", "ownership_raw": "City of Welland", "city": "Welland", "source_dataset": "Welland Trees", "source_department": "City of Welland", "source_last_edit_at": ""}}, {"type": "Feature", "geometry": {"type": "Point", "coordinates": [-79.23856725457654, 42.98344358332404]}, "properties": {"id": "welland-10093", "species_group": "crabapple", "scientific_name": "Malus Apple - Crab", "common_name": "Apple - Crab", "subtype_name": "Apple - Crab", "zip_code": null, "ownership": "public", "ownership_raw": "City of Welland", "city": "Welland", "source_dataset": "Welland Trees", "source_department": "City of Welland", "source_last_edit_at": ""}}, {"type": "Feature", "geometry": {"type": "Point", "coordinates": [-79.23746585933044, 42.983444550474914]}, "properties": {"id": "welland-10109", "species_group": "crabapple", "scientific_name": "Malus Apple - Crab", "common_name": "Apple - Crab", "subtype_name": "Apple - Crab", "zip_code": null, "ownership": "public", "ownership_raw": "City of Welland", "city": "Welland", "source_dataset": "Welland Trees", "source_department": "City of Welland", "source_last_edit_at": ""}}, {"type": "Feature", "geometry": {"type": "Point", "coordinates": [-79.23077567537626, 42.978945478860545]}, "properties": {"id": "welland-10192", "species_group": "crabapple", "scientific_name": "Malus Apple - Crab", "common_name": "Apple - Crab", "subtype_name": "Apple - Crab", "zip_code": null, "ownership": "public", "ownership_raw": "City of Welland", "city": "Welland", "source_dataset": "Welland Trees", "source_department": "City of Welland", "source_last_edit_at": ""}}, {"type": "Feature", "geometry": {"type": "Point", "coordinates": [-79.23077760093521, 42.97912157168491]}, "properties": {"id": "welland-10193", "species_group": "crabapple", "scientific_name": "Malus Apple - Crab", "common_name": "Apple - Crab", "subtype_name": "Apple - Crab", "zip_code": null, "ownership": "public", "ownership_raw": "City of Welland", "city": "Welland", "source_dataset": "Welland Trees", "source_department": "City of Welland", "source_last_edit_at": ""}}, {"type": "Feature", "geometry": {"type": "Point", "coordinates": [-79.23078584344985, 42.979776656231266]}, "properties": {"id": "welland-10196", "species_group": "crabapple", "scientific_name": "Malus Apple - Crab", "common_name": "Apple - Crab", "subtype_name": "Apple - Crab", "zip_code": null, "ownership": "public", "ownership_raw": "City of Welland", "city": "Welland", "source_dataset": "Welland Trees", "source_department": "City of Welland", "source_last_edit_at": ""}}, {"type": "Feature", "geometry": {"type": "Point", "coordinates": [-79.2309503146615, 42.980274737591934]}, "properties": {"id": "welland-10199", "species_group": "crabapple", "scientific_name": "Malus Apple - Crab", "common_name": "Apple - Crab", "subtype_name": "Apple - Crab", "zip_code": null, "ownership": "public", "ownership_raw": "City of Welland", "city": "Welland", "source_dataset": "Welland Trees", "source_department": "City of Welland", "source_last_edit_at": ""}}, {"type": "Feature", "geometry": {"type": "Point", "coordinates": [-79.23403091529136, 42.98084547035488]}, "properties": {"id": "welland-10206", "species_group": "crabapple", "scientific_name": "Malus Apple - Crab", "common_name": "Apple - Crab", "subtype_name": "Apple - Crab", "zip_code": null, "ownership": "public", "ownership_raw": "City of Welland", "city": "Welland", "source_dataset": "Welland Trees", "source_department": "City of Welland", "source_last_edit_at": ""}}, {"type": "Feature", "geometry": {"type": "Point", "coordinates": [-79.23415651453206, 42.97142739360903]}, "properties": {"id": "welland-10211", "species_group": "crabapple", "scientific_name": "Malus Apple - Crab", "common_name": "Apple - Crab", "subtype_name": "Apple - Crab", "zip_code": null, "ownership": "public", "ownership_raw": "City of Welland", "city": "Welland", "source_dataset": "Welland Trees", "source_department": "City of Welland", "source_last_edit_at": ""}}, {"type": "Feature", "geometry": {"type": "Point", "coordinates": [-79.2350107414707, 42.97705753397586]}, "properties": {"id": "welland-10245", "species_group": "crabapple", "scientific_name": "Malus Apple - Crab", "common_name": "Apple - Crab", "subtype_name": "Apple - Crab", "zip_code": null, "ownership": "public", "ownership_raw": "City of Welland", "city": "Welland", "source_dataset": "Welland Trees", "source_department": "City of Welland", "source_last_edit_at": ""}}, {"type": "Feature", "geometry": {"type": "Point", "coordinates": [-79.23501499713618, 42.97718308538082]}, "properties": {"id": "welland-10248", "species_group": "crabapple", "scientific_name": "Malus Apple - Crab", "common_name": "Apple - Crab", "subtype_name": "Apple - Crab", "zip_code": null, "ownership": "public", "ownership_raw": "City of Welland", "city": "Welland", "source_dataset": "Welland Trees", "source_department": "City of Welland", "source_last_edit_at": ""}}, {"type": "Feature", "geometry": {"type": "Point", "coordinates": [-79.23501888590104, 42.977473810126185]}, "properties": {"id": "welland-10250", "species_group": "crabapple", "scientific_name": "Malus Apple - Crab", "common_name": "Apple - Crab", "subtype_name": "Apple - Crab", "zip_code": null, "ownership": "public", "ownership_raw": "City of Welland", "city": "Welland", "source_dataset": "Welland Trees", "source_department": "City of Welland", "source_last_edit_at": ""}}, {"type": "Feature", "geometry": {"type": "Point", "coordinates": [-79.23502111274765, 42.97757884246537]}, "properties": {"id": "welland-10251", "species_group": "crabapple", "scientific_name": "Malus Apple - Crab", "common_name": "Apple - Crab", "subtype_name": "Apple - Crab", "zip_code": null, "ownership": "public", "ownership_raw": "City of Welland", "city": "Welland", "source_dataset": "Welland Trees", "source_department": "City of Welland", "source_last_edit_at": ""}}, {"type": "Feature", "geometry": {"type": "Point", "coordinates": [-79.23502168074322, 42.97771137964887]}, "properties": {"id": "welland-10253", "species_group": "crabapple", "scientific_name": "Malus Apple - Crab", "common_name": "Apple - Crab", "subtype_name": "Apple - Crab", "zip_code": null, "ownership": "public", "ownership_raw": "City of Welland", "city": "Welland", "source_dataset": "Welland Trees", "source_department": "City of Welland", "source_last_edit_at": ""}}, {"type": "Feature", "geometry": {"type": "Point", "coordinates": [-79.23502465486129, 42.977881726454996]}, "properties": {"id": "welland-10254", "species_group": "crabapple", "scientific_name": "Malus Apple - Crab", "common_name": "Apple - Crab", "subtype_name": "Apple - Crab", "zip_code": null, "ownership": "public", "ownership_raw": "City of Welland", "city": "Welland", "source_dataset": "Welland Trees", "source_department": "City of Welland", "source_last_edit_at": ""}}, {"type": "Feature", "geometry": {"type": "Point", "coordinates": [-79.23502801344317, 42.9780386349927]}, "properties": {"id": "welland-10255", "species_group": "crabapple", "scientific_name": "Malus Apple - Crab", "common_name": "Apple - Crab", "subtype_name": "Apple - Crab", "zip_code": null, "ownership": "public", "ownership_raw": "City of Welland", "city": "Welland", "source_dataset": "Welland Trees", "source_department": "City of Welland", "source_last_edit_at": ""}}, {"type": "Feature", "geometry": {"type": "Point", "coordinates": [-79.23502798107559, 42.97825311215418]}, "properties": {"id": "welland-10258", "species_group": "crabapple", "scientific_name": "Malus Apple - Crab", "common_name": "Apple - Crab", "subtype_name": "Apple - Crab", "zip_code": null, "ownership": "public", "ownership_raw": "City of Welland", "city": "Welland", "source_dataset": "Welland Trees", "source_department": "City of Welland", "source_last_edit_at": ""}}, {"type": "Feature", "geometry": {"type": "Point", "coordinates": [-79.23403966756777, 42.981373717037556]}, "properties": {"id": "welland-10263", "species_group": "crabapple", "scientific_name": "Malus Apple - Crab", "common_name": "Apple - Crab", "subtype_name": "Apple - Crab", "zip_code": null, "ownership": "public", "ownership_raw": "City of Welland", "city": "Welland", "source_dataset": "Welland Trees", "source_department": "City of Welland", "source_last_edit_at": ""}}, {"type": "Feature", "geometry": {"type": "Point", "coordinates": [-79.22693594827328, 42.97342174277801]}, "properties": {"id": "welland-10275", "species_group": "crabapple", "scientific_name": "Malus Apple - Crab", "common_name": "Apple - Crab", "subtype_name": "Apple - Crab", "zip_code": null, "ownership": "public", "ownership_raw": "City of Welland", "city": "Welland", "source_dataset": "Welland Trees", "source_department": "City of Welland", "source_last_edit_at": ""}}, {"type": "Feature", "geometry": {"type": "Point", "coordinates": [-79.22795127583943, 42.974533912110665]}, "properties": {"id": "welland-10279", "species_group": "crabapple", "scientific_name": "Malus Apple - Crab", "common_name": "Apple - Crab", "subtype_name": "Apple - Crab", "zip_code": null, "ownership": "public", "ownership_raw": "City of Welland", "city": "Welland", "source_dataset": "Welland Trees", "source_department": "City of Welland", "source_last_edit_at": ""}}, {"type": "Feature", "geometry": {"type": "Point", "coordinates": [-79.23313681648547, 42.974627526758475]}, "properties": {"id": "welland-10297", "species_group": "crabapple", "scientific_name": "Malus Apple - Crab", "common_name": "Apple - Crab", "subtype_name": "Apple - Crab", "zip_code": null, "ownership": "public", "ownership_raw": "City of Welland", "city": "Welland", "source_dataset": "Welland Trees", "source_department": "City of Welland", "source_last_edit_at": ""}}, {"type": "Feature", "geometry": {"type": "Point", "coordinates": [-79.2341971032605, 42.974632353695576]}, "properties": {"id": "welland-10298", "species_group": "crabapple", "scientific_name": "Malus Apple - Crab", "common_name": "Apple - Crab", "subtype_name": "Apple - Crab", "zip_code": null, "ownership": "public", "ownership_raw": "City of Welland", "city": "Welland", "source_dataset": "Welland Trees", "source_department": "City of Welland", "source_last_edit_at": ""}}, {"type": "Feature", "geometry": {"type": "Point", "coordinates": [-79.23470410295701, 42.974626388098265]}, "properties": {"id": "welland-10299", "species_group": "crabapple", "scientific_name": "Malus Apple - Crab", "common_name": "Apple - Crab", "subtype_name": "Apple - Crab", "zip_code": null, "ownership": "public", "ownership_raw": "City of Welland", "city": "Welland", "source_dataset": "Welland Trees", "source_department": "City of Welland", "source_last_edit_at": ""}}, {"type": "Feature", "geometry": {"type": "Point", "coordinates": [-79.23401311098726, 42.97476096759407]}, "properties": {"id": "welland-10300", "species_group": "crabapple", "scientific_name": "Malus Apple - Crab", "common_name": "Apple - Crab", "subtype_name": "Apple - Crab", "zip_code": null, "ownership": "public", "ownership_raw": "City of Welland", "city": "Welland", "source_dataset": "Welland Trees", "source_department": "City of Welland", "source_last_edit_at": ""}}, {"type": "Feature", "geometry": {"type": "Point", "coordinates": [-79.23406909280732, 42.983483091764086]}, "properties": {"id": "welland-10364", "species_group": "crabapple", "scientific_name": "Malus Apple - Crab", "common_name": "Apple - Crab", "subtype_name": "Apple - Crab", "zip_code": null, "ownership": "public", "ownership_raw": "City of Welland", "city": "Welland", "source_dataset": "Welland Trees", "source_department": "City of Welland", "source_last_edit_at": ""}}, {"type": "Feature", "geometry": {"type": "Point", "coordinates": [-79.23407162124201, 42.98339477918812]}, "properties": {"id": "welland-10365", "species_group": "crabapple", "scientific_name": "Malus Apple - Crab", "common_name": "Apple - Crab", "subtype_name": "Apple - Crab", "zip_code": null, "ownership": "public", "ownership_raw": "City of Welland", "city": "Welland", "source_dataset": "Welland Trees", "source_department": "City of Welland", "source_last_edit_at": ""}}, {"type": "Feature", "geometry": {"type": "Point", "coordinates": [-79.23503131026754, 42.97838056997247]}, "properties": {"id": "welland-10420", "species_group": "crabapple", "scientific_name": "Malus Apple - Crab", "common_name": "Apple - Crab", "subtype_name": "Apple - Crab", "zip_code": null, "ownership": "public", "ownership_raw": "City of Welland", "city": "Welland", "source_dataset": "Welland Trees", "source_department": "City of Welland", "source_last_edit_at": ""}}, {"type": "Feature", "geometry": {"type": "Point", "coordinates": [-79.23403169922433, 42.981007482657226]}, "properties": {"id": "welland-10428", "species_group": "crabapple", "scientific_name": "Malus Apple - Crab", "common_name": "Apple - Crab", "subtype_name": "Apple - Crab", "zip_code": null, "ownership": "public", "ownership_raw": "City of Welland", "city": "Welland", "source_dataset": "Welland Trees", "source_department": "City of Welland", "source_last_edit_at": ""}}, {"type": "Feature", "geometry": {"type": "Point", "coordinates": [-79.23403667019133, 42.980920297325405]}, "properties": {"id": "welland-10429", "species_group": "crabapple", "scientific_name": "Malus Apple - Crab", "common_name": "Apple - Crab", "subtype_name": "Apple - Crab", "zip_code": null, "ownership": "public", "ownership_raw": "City of Welland", "city": "Welland", "source_dataset": "Welland Trees", "source_department": "City of Welland", "source_last_edit_at": ""}}, {"type": "Feature", "geometry": {"type": "Point", "coordinates": [-79.23078780492509, 42.97944309509565]}, "properties": {"id": "welland-10435", "species_group": "crabapple", "scientific_name": "Malus Apple - Crab", "common_name": "Apple - Crab", "subtype_name": "Apple - Crab", "zip_code": null, "ownership": "public", "ownership_raw": "City of Welland", "city": "Welland", "source_dataset": "Welland Trees", "source_department": "City of Welland", "source_last_edit_at": ""}}, {"type": "Feature", "geometry": {"type": "Point", "coordinates": [-79.23826990880251, 42.99536501758733]}, "properties": {"id": "welland-11445", "species_group": "crabapple", "scientific_name": "Malus Apple - Crab", "common_name": "Apple - Crab", "subtype_name": "Apple - Crab", "zip_code": null, "ownership": "public", "ownership_raw": "City of Welland", "city": "Welland", "source_dataset": "Welland Trees", "source_department": "City of Welland", "source_last_edit_at": ""}}, {"type": "Feature", "geometry": {"type": "Point", "coordinates": [-79.23839186714726, 42.99536784886485]}, "properties": {"id": "welland-11446", "species_group": "crabapple", "scientific_name": "Malus Apple - Crab", "common_name": "Apple - Crab", "subtype_name": "Apple - Crab", "zip_code": null, "ownership": "public", "ownership_raw": "City of Welland", "city": "Welland", "source_dataset": "Welland Trees", "source_department": "City of Welland", "source_last_edit_at": ""}}, {"type": "Feature", "geometry": {"type": "Point", "coordinates": [-79.28113245017505, 42.998293356959195]}, "properties": {"id": "welland-2140", "species_group": "crabapple", "scientific_name": "Malus Apple - Crab", "common_name": "Apple - Crab", "subtype_name": "Apple - Crab", "zip_code": null, "ownership": "public", "ownership_raw": "City of Welland", "city": "Welland", "source_dataset": "Welland Trees", "source_department": "City of Welland", "source_last_edit_at": ""}}, {"type": "Feature", "geometry": {"type": "Point", "coordinates": [-79.28102515711815, 42.99829366589846]}, "properties": {"id": "welland-2141", "species_group": "crabapple", "scientific_name": "Malus Apple - Crab", "common_name": "Apple - Crab", "subtype_name": "Apple - Crab", "zip_code": null, "ownership": "public", "ownership_raw": "City of Welland", "city": "Welland", "source_dataset": "Welland Trees", "source_department": "City of Welland", "source_last_edit_at": ""}}, {"type": "Feature", "geometry": {"type": "Point", "coordinates": [-79.26796367630669, 42.9960028275374]}, "properties": {"id": "welland-2684", "species_group": "crabapple", "scientific_name": "Malus Apple - Crab", "common_name": "Apple - Crab", "subtype_name": "Apple - Crab", "zip_code": null, "ownership": "public", "ownership_raw": "City of Welland", "city": "Welland", "source_dataset": "Welland Trees", "source_department": "City of Welland", "source_last_edit_at": ""}}, {"type": "Feature", "geometry": {"type": "Point", "coordinates": [-79.2679690766616, 42.99608998033258]}, "properties": {"id": "welland-2685", "species_group": "crabapple", "scientific_name": "Malus Apple - Crab", "common_name": "Apple - Crab", "subtype_name": "Apple - Crab", "zip_code": null, "ownership": "public", "ownership_raw": "City of Welland", "city": "Welland", "source_dataset": "Welland Trees", "source_department": "City of Welland", "source_last_edit_at": ""}}, {"type": "Feature", "geometry": {"type": "Point", "coordinates": [-79.26836827047401, 42.996845092142976]}, "properties": {"id": "welland-2689", "species_group": "crabapple", "scientific_name": "Malus Apple - Crab", "common_name": "Apple - Crab", "subtype_name": "Apple - Crab", "zip_code": null, "ownership": "public", "ownership_raw": "City of Welland", "city": "Welland", "source_dataset": "Welland Trees", "source_department": "City of Welland", "source_last_edit_at": ""}}, {"type": "Feature", "geometry": {"type": "Point", "coordinates": [-79.26820890862564, 42.99054793190382]}, "properties": {"id": "welland-3137", "species_group": "crabapple", "scientific_name": "Malus Apple - Crab", "common_name": "Apple - Crab", "subtype_name": "Apple - Crab", "zip_code": null, "ownership": "public", "ownership_raw": "City of Welland", "city": "Welland", "source_dataset": "Welland Trees", "source_department": "City of Welland", "source_last_edit_at": ""}}, {"type": "Feature", "geometry": {"type": "Point", "coordinates": [-79.26829629007413, 42.990572942406956]}, "properties": {"id": "welland-3138", "species_group": "crabapple", "scientific_name": "Malus Apple - Crab", "common_name": "Apple - Crab", "subtype_name": "Apple - Crab", "zip_code": null, "ownership": "public", "ownership_raw": "City of Welland", "city": "Welland", "source_dataset": "Welland Trees", "source_department": "City of Welland", "source_last_edit_at": ""}}, {"type": "Feature", "geometry": {"type": "Point", "coordinates": [-79.26601333827156, 42.99099741537286]}, "properties": {"id": "welland-3260", "species_group": "crabapple", "scientific_name": "Malus Apple - Crab", "common_name": "Apple - Crab", "subtype_name": "Apple - Crab", "zip_code": null, "ownership": "public", "ownership_raw": "City of Welland", "city": "Welland", "source_dataset": "Welland Trees", "source_department": "City of Welland", "source_last_edit_at": ""}}, {"type": "Feature", "geometry": {"type": "Point", "coordinates": [-79.26570613155897, 42.99107486908612]}, "properties": {"id": "welland-3302", "species_group": "crabapple", "scientific_name": "Malus Apple - Crab", "common_name": "Apple - Crab", "subtype_name": "Apple - Crab", "zip_code": null, "ownership": "public", "ownership_raw": "City of Welland", "city": "Welland", "source_dataset": "Welland Trees", "source_department": "City of Welland", "source_last_edit_at": ""}}, {"type": "Feature", "geometry": {"type": "Point", "coordinates": [-79.26503493097474, 42.99433454508557]}, "properties": {"id": "welland-3444", "species_group": "crabapple", "scientific_name": "Malus Apple - Crab", "common_name": "Apple - Crab", "subtype_name": "Apple - Crab", "zip_code": null, "ownership": "public", "ownership_raw": "City of Welland", "city": "Welland", "source_dataset": "Welland Trees", "source_department": "City of Welland", "source_last_edit_at": ""}}, {"type": "Feature", "geometry": {"type": "Point", "coordinates": [-79.26400857050632, 43.00718756724373]}, "properties": {"id": "welland-4177", "species_group": "crabapple", "scientific_name": "Malus Apple - Crab", "common_name": "Apple - Crab", "subtype_name": "Apple - Crab", "zip_code": null, "ownership": "public", "ownership_raw": "City of Welland", "city": "Welland", "source_dataset": "Welland Trees", "source_department": "City of Welland", "source_last_edit_at": ""}}, {"type": "Feature", "geometry": {"type": "Point", "coordinates": [-79.26337865223303, 43.00719017304203]}, "properties": {"id": "welland-4181", "species_group": "crabapple", "scientific_name": "Malus Apple - Crab", "common_name": "Apple - Crab", "subtype_name": "Apple - Crab", "zip_code": null, "ownership": "public", "ownership_raw": "City of Welland", "city": "Welland", "source_dataset": "Welland Trees", "source_department": "City of Welland", "source_last_edit_at": ""}}, {"type": "Feature", "geometry": {"type": "Point", "coordinates": [-79.26222892165485, 43.00718872248263]}, "properties": {"id": "welland-4186", "species_group": "crabapple", "scientific_name": "Malus Apple - Crab", "common_name": "Apple - Crab", "subtype_name": "Apple - Crab", "zip_code": null, "ownership": "public", "ownership_raw": "City of Welland", "city": "Welland", "source_dataset": "Welland Trees", "source_department": "City of Welland", "source_last_edit_at": ""}}, {"type": "Feature", "geometry": {"type": "Point", "coordinates": [-79.26176444143714, 43.007078590397576]}, "properties": {"id": "welland-4190", "species_group": "crabapple", "scientific_name": "Malus Apple - Crab", "common_name": "Apple - Crab", "subtype_name": "Apple - Crab", "zip_code": null, "ownership": "public", "ownership_raw": "City of Welland", "city": "Welland", "source_dataset": "Welland Trees", "source_department": "City of Welland", "source_last_edit_at": ""}}, {"type": "Feature", "geometry": {"type": "Point", "coordinates": [-79.26225627165843, 43.00609498602742]}, "properties": {"id": "welland-4213", "species_group": "crabapple", "scientific_name": "Malus Apple - Crab", "common_name": "Apple - Crab", "subtype_name": "Apple - Crab", "zip_code": null, "ownership": "public", "ownership_raw": "City of Welland", "city": "Welland", "source_dataset": "Welland Trees", "source_department": "City of Welland", "source_last_edit_at": ""}}, {"type": "Feature", "geometry": {"type": "Point", "coordinates": [-79.2620424579141, 43.00609814101069]}, "properties": {"id": "welland-4216", "species_group": "crabapple", "scientific_name": "Malus Apple - Crab", "common_name": "Apple - Crab", "subtype_name": "Apple - Crab", "zip_code": null, "ownership": "public", "ownership_raw": "City of Welland", "city": "Welland", "source_dataset": "Welland Trees", "source_department": "City of Welland", "source_last_edit_at": ""}}, {"type": "Feature", "geometry": {"type": "Point", "coordinates": [-79.26293640799614, 43.01131971631601]}, "properties": {"id": "welland-4461", "species_group": "crabapple", "scientific_name": "Malus Apple - Crab", "common_name": "Apple - Crab", "subtype_name": "Apple - Crab", "zip_code": null, "ownership": "public", "ownership_raw": "City of Welland", "city": "Welland", "source_dataset": "Welland Trees", "source_department": "City of Welland", "source_last_edit_at": ""}}, {"type": "Feature", "geometry": {"type": "Point", "coordinates": [-79.26124739870548, 42.99998787494279]}, "properties": {"id": "welland-4487", "species_group": "crabapple", "scientific_name": "Malus Apple - Crab", "common_name": "Apple - Crab", "subtype_name": "Apple - Crab", "zip_code": null, "ownership": "public", "ownership_raw": "City of Welland", "city": "Welland", "source_dataset": "Welland Trees", "source_department": "City of Welland", "source_last_edit_at": ""}}, {"type": "Feature", "geometry": {"type": "Point", "coordinates": [-79.26181590752438, 43.00720189224946]}, "properties": {"id": "welland-4533", "species_group": "crabapple", "scientific_name": "Malus Apple - Crab", "common_name": "Apple - Crab", "subtype_name": "Apple - Crab", "zip_code": null, "ownership": "public", "ownership_raw": "City of Welland", "city": "Welland", "source_dataset": "Welland Trees", "source_department": "City of Welland", "source_last_edit_at": ""}}, {"type": "Feature", "geometry": {"type": "Point", "coordinates": [-79.26457643323137, 43.00644827795497]}, "properties": {"id": "welland-4535", "species_group": "crabapple", "scientific_name": "Malus Apple - Crab", "common_name": "Apple - Crab", "subtype_name": "Apple - Crab", "zip_code": null, "ownership": "public", "ownership_raw": "City of Welland", "city": "Welland", "source_dataset": "Welland Trees", "source_department": "City of Welland", "source_last_edit_at": ""}}, {"type": "Feature", "geometry": {"type": "Point", "coordinates": [-79.2671521216501, 43.00279538026975]}, "properties": {"id": "welland-4539", "species_group": "crabapple", "scientific_name": "Malus Apple - Crab", "common_name": "Apple - Crab", "subtype_name": "Apple - Crab", "zip_code": null, "ownership": "public", "ownership_raw": "City of Welland", "city": "Welland", "source_dataset": "Welland Trees", "source_department": "City of Welland", "source_last_edit_at": ""}}, {"type": "Feature", "geometry": {"type": "Point", "coordinates": [-79.26114735623581, 42.99428830633122]}, "properties": {"id": "welland-4630", "species_group": "crabapple", "scientific_name": "Malus Apple - Crab", "common_name": "Apple - Crab", "subtype_name": "Apple - Crab", "zip_code": null, "ownership": "public", "ownership_raw": "City of Welland", "city": "Welland", "source_dataset": "Welland Trees", "source_department": "City of Welland", "source_last_edit_at": ""}}, {"type": "Feature", "geometry": {"type": "Point", "coordinates": [-79.26594025755705, 43.003075393142204]}, "properties": {"id": "welland-4646", "species_group": "crabapple", "scientific_name": "Malus Apple - Crab", "common_name": "Apple - Crab", "subtype_name": "Apple - Crab", "zip_code": null, "ownership": "public", "ownership_raw": "City of Welland", "city": "Welland", "source_dataset": "Welland Trees", "source_department": "City of Welland", "source_last_edit_at": ""}}, {"type": "Feature", "geometry": {"type": "Point", "coordinates": [-79.26593856519007, 43.003135549228226]}, "properties": {"id": "welland-4647", "species_group": "crabapple", "scientific_name": "Malus Apple - Crab", "common_name": "Apple - Crab", "subtype_name": "Apple - Crab", "zip_code": null, "ownership": "public", "ownership_raw": "City of Welland", "city": "Welland", "source_dataset": "Welland Trees", "source_department": "City of Welland", "source_last_edit_at": ""}}, {"type": "Feature", "geometry": {"type": "Point", "coordinates": [-79.26594388441308, 43.003194531091516]}, "properties": {"id": "welland-4648", "species_group": "crabapple", "scientific_name": "Malus Apple - Crab", "common_name": "Apple - Crab", "subtype_name": "Apple - Crab", "zip_code": null, "ownership": "public", "ownership_raw": "City of Welland", "city": "Welland", "source_dataset": "Welland Trees", "source_department": "City of Welland", "source_last_edit_at": ""}}, {"type": "Feature", "geometry": {"type": "Point", "coordinates": [-79.26594553583108, 43.00325985887654]}, "properties": {"id": "welland-4649", "species_group": "crabapple", "scientific_name": "Malus Apple - Crab", "common_name": "Apple - Crab", "subtype_name": "Apple - Crab", "zip_code": null, "ownership": "public", "ownership_raw": "City of Welland", "city": "Welland", "source_dataset": "Welland Trees", "source_department": "City of Welland", "source_last_edit_at": ""}}, {"type": "Feature", "geometry": {"type": "Point", "coordinates": [-79.26284414952967, 43.001379893028684]}, "properties": {"id": "welland-4658", "species_group": "crabapple", "scientific_name": "Malus Apple - Crab", "common_name": "Apple - Crab", "subtype_name": "Apple - Crab", "zip_code": null, "ownership": "public", "ownership_raw": "City of Welland", "city": "Welland", "source_dataset": "Welland Trees", "source_department": "City of Welland", "source_last_edit_at": ""}}, {"type": "Feature", "geometry": {"type": "Point", "coordinates": [-79.26429729890734, 43.00539179846692]}, "properties": {"id": "welland-4663", "species_group": "crabapple", "scientific_name": "Malus Apple - Crab", "common_name": "Apple - Crab", "subtype_name": "Apple - Crab", "zip_code": null, "ownership": "public", "ownership_raw": "City of Welland", "city": "Welland", "source_dataset": "Welland Trees", "source_department": "City of Welland", "source_last_edit_at": ""}}, {"type": "Feature", "geometry": {"type": "Point", "coordinates": [-79.26095712052195, 43.0004432250261]}, "properties": {"id": "welland-4677", "species_group": "crabapple", "scientific_name": "Malus Apple - Crab", "common_name": "Apple - Crab", "subtype_name": "Apple - Crab", "zip_code": null, "ownership": "public", "ownership_raw": "City of Welland", "city": "Welland", "source_dataset": "Welland Trees", "source_department": "City of Welland", "source_last_edit_at": ""}}, {"type": "Feature", "geometry": {"type": "Point", "coordinates": [-79.26107496792658, 42.99877986169606]}, "properties": {"id": "welland-4697", "species_group": "crabapple", "scientific_name": "Malus Apple - Crab", "common_name": "Apple - Crab", "subtype_name": "Apple - Crab", "zip_code": null, "ownership": "public", "ownership_raw": "City of Welland", "city": "Welland", "source_dataset": "Welland Trees", "source_department": "City of Welland", "source_last_edit_at": ""}}, {"type": "Feature", "geometry": {"type": "Point", "coordinates": [-79.2602554951708, 42.99927877396755]}, "properties": {"id": "welland-4716", "species_group": "crabapple", "scientific_name": "Malus Apple - Crab", "common_name": "Apple - Crab", "subtype_name": "Apple - Crab", "zip_code": null, "ownership": "public", "ownership_raw": "City of Welland", "city": "Welland", "source_dataset": "Welland Trees", "source_department": "City of Welland", "source_last_edit_at": ""}}, {"type": "Feature", "geometry": {"type": "Point", "coordinates": [-79.26021709587411, 42.99927947060481]}, "properties": {"id": "welland-4717", "species_group": "crabapple", "scientific_name": "Malus Apple - Crab", "common_name": "Apple - Crab", "subtype_name": "Apple - Crab", "zip_code": null, "ownership": "public", "ownership_raw": "City of Welland", "city": "Welland", "source_dataset": "Welland Trees", "source_department": "City of Welland", "source_last_edit_at": ""}}, {"type": "Feature", "geometry": {"type": "Point", "coordinates": [-79.264196520961, 43.00107849058925]}, "properties": {"id": "welland-4739", "species_group": "crabapple", "scientific_name": "Malus Apple - Crab", "common_name": "Apple - Crab", "subtype_name": "Apple - Crab", "zip_code": null, "ownership": "public", "ownership_raw": "City of Welland", "city": "Welland", "source_dataset": "Welland Trees", "source_department": "City of Welland", "source_last_edit_at": ""}}, {"type": "Feature", "geometry": {"type": "Point", "coordinates": [-79.25872856717501, 43.00680290860172]}, "properties": {"id": "welland-4895", "species_group": "crabapple", "scientific_name": "Malus Apple - Crab", "common_name": "Apple - Crab", "subtype_name": "Apple - Crab", "zip_code": null, "ownership": "public", "ownership_raw": "City of Welland", "city": "Welland", "source_dataset": "Welland Trees", "source_department": "City of Welland", "source_last_edit_at": ""}}, {"type": "Feature", "geometry": {"type": "Point", "coordinates": [-79.258408137159, 43.00668919280292]}, "properties": {"id": "welland-4898", "species_group": "crabapple", "scientific_name": "Malus Apple - Crab", "common_name": "Apple - Crab", "subtype_name": "Apple - Crab", "zip_code": null, "ownership": "public", "ownership_raw": "City of Welland", "city": "Welland", "source_dataset": "Welland Trees", "source_department": "City of Welland", "source_last_edit_at": ""}}, {"type": "Feature", "geometry": {"type": "Point", "coordinates": [-79.2566302508354, 43.00093846714711]}, "properties": {"id": "welland-5060", "species_group": "crabapple", "scientific_name": "Malus Apple - Crab", "common_name": "Apple - Crab", "subtype_name": "Apple - Crab", "zip_code": null, "ownership": "public", "ownership_raw": "City of Welland", "city": "Welland", "source_dataset": "Welland Trees", "source_department": "City of Welland", "source_last_edit_at": ""}}, {"type": "Feature", "geometry": {"type": "Point", "coordinates": [-79.25735426833631, 43.00093733242991]}, "properties": {"id": "welland-5062", "species_group": "crabapple", "scientific_name": "Malus Apple - Crab", "common_name": "Apple - Crab", "subtype_name": "Apple - Crab", "zip_code": null, "ownership": "public", "ownership_raw": "City of Welland", "city": "Welland", "source_dataset": "Welland Trees", "source_department": "City of Welland", "source_last_edit_at": ""}}, {"type": "Feature", "geometry": {"type": "Point", "coordinates": [-79.25808336951145, 43.000941550930364]}, "properties": {"id": "welland-5075", "species_group": "crabapple", "scientific_name": "Malus Apple - Crab", "common_name": "Apple - Crab", "subtype_name": "Apple - Crab", "zip_code": null, "ownership": "public", "ownership_raw": "City of Welland", "city": "Welland", "source_dataset": "Welland Trees", "source_department": "City of Welland", "source_last_edit_at": ""}}, {"type": "Feature", "geometry": {"type": "Point", "coordinates": [-79.25526616489213, 42.99806705295105]}, "properties": {"id": "welland-5119", "species_group": "crabapple", "scientific_name": "Malus Apple - Crab", "common_name": "Apple - Crab", "subtype_name": "Apple - Crab", "zip_code": null, "ownership": "public", "ownership_raw": "City of Welland", "city": "Welland", "source_dataset": "Welland Trees", "source_department": "City of Welland", "source_last_edit_at": ""}}, {"type": "Feature", "geometry": {"type": "Point", "coordinates": [-79.25526447848077, 42.99788007955059]}, "properties": {"id": "welland-5120", "species_group": "crabapple", "scientific_name": "Malus Apple - Crab", "common_name": "Apple - Crab", "subtype_name": "Apple - Crab", "zip_code": null, "ownership": "public", "ownership_raw": "City of Welland", "city": "Welland", "source_dataset": "Welland Trees", "source_department": "City of Welland", "source_last_edit_at": ""}}, {"type": "Feature", "geometry": {"type": "Point", "coordinates": [-79.25457788168248, 42.999764689058125]}, "properties": {"id": "welland-5152", "species_group": "crabapple", "scientific_name": "Malus Apple - Crab", "common_name": "Apple - Crab", "subtype_name": "Apple - Crab", "zip_code": null, "ownership": "public", "ownership_raw": "City of Welland", "city": "Welland", "source_dataset": "Welland Trees", "source_department": "City of Welland", "source_last_edit_at": ""}}, {"type": "Feature", "geometry": {"type": "Point", "coordinates": [-79.25568371870784, 42.996010277482235]}, "properties": {"id": "welland-5182", "species_group": "crabapple", "scientific_name": "Malus Apple - Crab", "common_name": "Apple - Crab", "subtype_name": "Apple - Crab", "zip_code": null, "ownership": "public", "ownership_raw": "City of Welland", "city": "Welland", "source_dataset": "Welland Trees", "source_department": "City of Welland", "source_last_edit_at": ""}}, {"type": "Feature", "geometry": {"type": "Point", "coordinates": [-79.25567540844658, 42.99590323230719]}, "properties": {"id": "welland-5183", "species_group": "crabapple", "scientific_name": "Malus Apple - Crab", "common_name": "Apple - Crab", "subtype_name": "Apple - Crab", "zip_code": null, "ownership": "public", "ownership_raw": "City of Welland", "city": "Welland", "source_dataset": "Welland Trees", "source_department": "City of Welland", "source_last_edit_at": ""}}, {"type": "Feature", "geometry": {"type": "Point", "coordinates": [-79.2535000628758, 42.99607332335357]}, "properties": {"id": "welland-5222", "species_group": "magnolia", "scientific_name": "Magnolia Magnolia", "common_name": "Magnolia", "subtype_name": "Magnolia Magnolia", "zip_code": null, "ownership": "public", "ownership_raw": "City of Welland", "city": "Welland", "source_dataset": "Welland Trees", "source_department": "City of Welland", "source_last_edit_at": ""}}, {"type": "Feature", "geometry": {"type": "Point", "coordinates": [-79.25907012194783, 43.000932439210736]}, "properties": {"id": "welland-5352", "species_group": "crabapple", "scientific_name": "Malus Apple - Crab", "common_name": "Apple - Crab", "subtype_name": "Apple - Crab", "zip_code": null, "ownership": "public", "ownership_raw": "City of Welland", "city": "Welland", "source_dataset": "Welland Trees", "source_department": "City of Welland", "source_last_edit_at": ""}}, {"type": "Feature", "geometry": {"type": "Point", "coordinates": [-79.2548183099231, 42.995477534449286]}, "properties": {"id": "welland-5993", "species_group": "crabapple", "scientific_name": "Malus Apple - Crab", "common_name": "Apple - Crab", "subtype_name": "Apple - Crab", "zip_code": null, "ownership": "public", "ownership_raw": "City of Welland", "city": "Welland", "source_dataset": "Welland Trees", "source_department": "City of Welland", "source_last_edit_at": ""}}, {"type": "Feature", "geometry": {"type": "Point", "coordinates": [-79.2782856102147, 43.02568725455512]}, "properties": {"id": "welland-6259", "species_group": "crabapple", "scientific_name": "Malus Apple - Crab", "common_name": "Apple - Crab", "subtype_name": "Apple - Crab", "zip_code": null, "ownership": "public", "ownership_raw": "City of Welland", "city": "Welland", "source_dataset": "Welland Trees", "source_department": "City of Welland", "source_last_edit_at": ""}}, {"type": "Feature", "geometry": {"type": "Point", "coordinates": [-79.27590132298641, 43.023577490340905]}, "properties": {"id": "welland-6558", "species_group": "crabapple", "scientific_name": "Malus Apple - Crab", "common_name": "Apple - Crab", "subtype_name": "Apple - Crab", "zip_code": null, "ownership": "public", "ownership_raw": "City of Welland", "city": "Welland", "source_dataset": "Welland Trees", "source_department": "City of Welland", "source_last_edit_at": ""}}, {"type": "Feature", "geometry": {"type": "Point", "coordinates": [-79.26647204473002, 43.00384066316833]}, "properties": {"id": "welland-6619", "species_group": "crabapple", "scientific_name": "Malus Apple - Crab", "common_name": "Apple - Crab", "subtype_name": "Apple - Crab", "zip_code": null, "ownership": "public", "ownership_raw": "City of Welland", "city": "Welland", "source_dataset": "Welland Trees", "source_department": "City of Welland", "source_last_edit_at": ""}}, {"type": "Feature", "geometry": {"type": "Point", "coordinates": [-79.2561747174885, 43.01574402238334]}, "properties": {"id": "welland-67", "species_group": "crabapple", "scientific_name": "Malus Apple - Crab", "common_name": "Apple - Crab", "subtype_name": "Apple - Crab", "zip_code": null, "ownership": "public", "ownership_raw": "City of Welland", "city": "Welland", "source_dataset": "Welland Trees", "source_department": "City of Welland", "source_last_edit_at": ""}}, {"type": "Feature", "geometry": {"type": "Point", "coordinates": [-79.28624786692434, 43.00677048019824]}, "properties": {"id": "welland-6778", "species_group": "crabapple", "scientific_name": "Malus Apple - Crab", "common_name": "Apple - Crab", "subtype_name": "Apple - Crab", "zip_code": null, "ownership": "public", "ownership_raw": "City of Welland", "city": "Welland", "source_dataset": "Welland Trees", "source_department": "City of Welland", "source_last_edit_at": ""}}, {"type": "Feature", "geometry": {"type": "Point", "coordinates": [-79.25614130907692, 43.01578384738485]}, "properties": {"id": "welland-68", "species_group": "crabapple", "scientific_name": "Malus Apple - Crab", "common_name": "Apple - Crab", "subtype_name": "Apple - Crab", "zip_code": null, "ownership": "public", "ownership_raw": "City of Welland", "city": "Welland", "source_dataset": "Welland Trees", "source_department": "City of Welland", "source_last_edit_at": ""}}, {"type": "Feature", "geometry": {"type": "Point", "coordinates": [-79.25983619948734, 43.021578822419286]}, "properties": {"id": "welland-6926", "species_group": "crabapple", "scientific_name": "Malus Apple - Crab", "common_name": "Apple - Crab", "subtype_name": "Apple - Crab", "zip_code": null, "ownership": "public", "ownership_raw": "City of Welland", "city": "Welland", "source_dataset": "Welland Trees", "source_department": "City of Welland", "source_last_edit_at": ""}}, {"type": "Feature", "geometry": {"type": "Point", "coordinates": [-79.26271487851007, 42.9801636460399]}, "properties": {"id": "welland-7304", "species_group": "crabapple", "scientific_name": "Malus Apple - Crab", "common_name": "Apple - Crab", "subtype_name": "Apple - Crab", "zip_code": null, "ownership": "public", "ownership_raw": "City of Welland", "city": "Welland", "source_dataset": "Welland Trees", "source_department": "City of Welland", "source_last_edit_at": ""}}, {"type": "Feature", "geometry": {"type": "Point", "coordinates": [-79.26213962992894, 42.981417752036606]}, "properties": {"id": "welland-7395", "species_group": "crabapple", "scientific_name": "Malus Apple - Crab", "common_name": "Apple - Crab", "subtype_name": "Apple - Crab", "zip_code": null, "ownership": "public", "ownership_raw": "City of Welland", "city": "Welland", "source_dataset": "Welland Trees", "source_department": "City of Welland", "source_last_edit_at": ""}}, {"type": "Feature", "geometry": {"type": "Point", "coordinates": [-79.26212594926953, 42.98094353306997]}, "properties": {"id": "welland-7396", "species_group": "crabapple", "scientific_name": "Malus Apple - Crab", "common_name": "Apple - Crab", "subtype_name": "Apple - Crab", "zip_code": null, "ownership": "public", "ownership_raw": "City of Welland", "city": "Welland", "source_dataset": "Welland Trees", "source_department": "City of Welland", "source_last_edit_at": ""}}, {"type": "Feature", "geometry": {"type": "Point", "coordinates": [-79.27157391587173, 42.97617406575327]}, "properties": {"id": "welland-7447", "species_group": "crabapple", "scientific_name": "Malus Apple - Crab", "common_name": "Apple - Crab", "subtype_name": "Apple - Crab", "zip_code": null, "ownership": "public", "ownership_raw": "City of Welland", "city": "Welland", "source_dataset": "Welland Trees", "source_department": "City of Welland", "source_last_edit_at": ""}}, {"type": "Feature", "geometry": {"type": "Point", "coordinates": [-79.25972910500357, 43.00158164458731]}, "properties": {"id": "welland-7573", "species_group": "crabapple", "scientific_name": "Malus Apple - Crab", "common_name": "Apple - Crab", "subtype_name": "Apple - Crab", "zip_code": null, "ownership": "public", "ownership_raw": "City of Welland", "city": "Welland", "source_dataset": "Welland Trees", "source_department": "City of Welland", "source_last_edit_at": ""}}, {"type": "Feature", "geometry": {"type": "Point", "coordinates": [-79.26811815491735, 42.97328633729152]}, "properties": {"id": "welland-7652", "species_group": "crabapple", "scientific_name": "Malus Apple - Crab", "common_name": "Apple - Crab", "subtype_name": "Apple - Crab", "zip_code": null, "ownership": "public", "ownership_raw": "City of Welland", "city": "Welland", "source_dataset": "Welland Trees", "source_department": "City of Welland", "source_last_edit_at": ""}}, {"type": "Feature", "geometry": {"type": "Point", "coordinates": [-79.26811771854642, 42.972883988270844]}, "properties": {"id": "welland-7656", "species_group": "crabapple", "scientific_name": "Malus Apple - Crab", "common_name": "Apple - Crab", "subtype_name": "Apple - Crab", "zip_code": null, "ownership": "public", "ownership_raw": "City of Welland", "city": "Welland", "source_dataset": "Welland Trees", "source_department": "City of Welland", "source_last_edit_at": ""}}, {"type": "Feature", "geometry": {"type": "Point", "coordinates": [-79.2681142459683, 42.972709217557295]}, "properties": {"id": "welland-7661", "species_group": "crabapple", "scientific_name": "Malus Apple - Crab", "common_name": "Apple - Crab", "subtype_name": "Apple - Crab", "zip_code": null, "ownership": "public", "ownership_raw": "City of Welland", "city": "Welland", "source_dataset": "Welland Trees", "source_department": "City of Welland", "source_last_edit_at": ""}}, {"type": "Feature", "geometry": {"type": "Point", "coordinates": [-79.26811999330897, 42.972444767625475]}, "properties": {"id": "welland-7662", "species_group": "crabapple", "scientific_name": "Malus Apple - Crab", "common_name": "Apple - Crab", "subtype_name": "Apple - Crab", "zip_code": null, "ownership": "public", "ownership_raw": "City of Welland", "city": "Welland", "source_dataset": "Welland Trees", "source_department": "City of Welland", "source_last_edit_at": ""}}, {"type": "Feature", "geometry": {"type": "Point", "coordinates": [-79.26811369009872, 42.97237084786589]}, "properties": {"id": "welland-7663", "species_group": "crabapple", "scientific_name": "Malus Apple - Crab", "common_name": "Apple - Crab", "subtype_name": "Apple - Crab", "zip_code": null, "ownership": "public", "ownership_raw": "City of Welland", "city": "Welland", "source_dataset": "Welland Trees", "source_department": "City of Welland", "source_last_edit_at": ""}}, {"type": "Feature", "geometry": {"type": "Point", "coordinates": [-79.26810588511779, 42.97229075327077]}, "properties": {"id": "welland-7664", "species_group": "crabapple", "scientific_name": "Malus Apple - Crab", "common_name": "Apple - Crab", "subtype_name": "Apple - Crab", "zip_code": null, "ownership": "public", "ownership_raw": "City of Welland", "city": "Welland", "source_dataset": "Welland Trees", "source_department": "City of Welland", "source_last_edit_at": ""}}, {"type": "Feature", "geometry": {"type": "Point", "coordinates": [-79.27017585063514, 42.97041493246805]}, "properties": {"id": "welland-7684", "species_group": "crabapple", "scientific_name": "Malus Apple - Crab", "common_name": "Apple - Crab", "subtype_name": "Apple - Crab", "zip_code": null, "ownership": "public", "ownership_raw": "City of Welland", "city": "Welland", "source_dataset": "Welland Trees", "source_department": "City of Welland", "source_last_edit_at": ""}}, {"type": "Feature", "geometry": {"type": "Point", "coordinates": [-79.26278458701947, 42.98714833749905]}, "properties": {"id": "welland-7729", "species_group": "crabapple", "scientific_name": "Malus Apple - Crab", "common_name": "Apple - Crab", "subtype_name": "Apple - Crab", "zip_code": null, "ownership": "public", "ownership_raw": "City of Welland", "city": "Welland", "source_dataset": "Welland Trees", "source_department": "City of Welland", "source_last_edit_at": ""}}, {"type": "Feature", "geometry": {"type": "Point", "coordinates": [-79.26809605919904, 42.97181666010257]}, "properties": {"id": "welland-7770", "species_group": "crabapple", "scientific_name": "Malus Apple - Crab", "common_name": "Apple - Crab", "subtype_name": "Apple - Crab", "zip_code": null, "ownership": "public", "ownership_raw": "City of Welland", "city": "Welland", "source_dataset": "Welland Trees", "source_department": "City of Welland", "source_last_edit_at": ""}}, {"type": "Feature", "geometry": {"type": "Point", "coordinates": [-79.26809338973275, 42.97172538627591]}, "properties": {"id": "welland-7772", "species_group": "crabapple", "scientific_name": "Malus Apple - Crab", "common_name": "Apple - Crab", "subtype_name": "Apple - Crab", "zip_code": null, "ownership": "public", "ownership_raw": "City of Welland", "city": "Welland", "source_dataset": "Welland Trees", "source_department": "City of Welland", "source_last_edit_at": ""}}, {"type": "Feature", "geometry": {"type": "Point", "coordinates": [-79.26808081654293, 42.97139675708273]}, "properties": {"id": "welland-7773", "species_group": "crabapple", "scientific_name": "Malus Apple - Crab", "common_name": "Apple - Crab", "subtype_name": "Apple - Crab", "zip_code": null, "ownership": "public", "ownership_raw": "City of Welland", "city": "Welland", "source_dataset": "Welland Trees", "source_department": "City of Welland", "source_last_edit_at": ""}}, {"type": "Feature", "geometry": {"type": "Point", "coordinates": [-79.26808460500865, 42.971137520067565]}, "properties": {"id": "welland-7777", "species_group": "crabapple", "scientific_name": "Malus Apple - Crab", "common_name": "Apple - Crab", "subtype_name": "Apple - Crab", "zip_code": null, "ownership": "public", "ownership_raw": "City of Welland", "city": "Welland", "source_dataset": "Welland Trees", "source_department": "City of Welland", "source_last_edit_at": ""}}, {"type": "Feature", "geometry": {"type": "Point", "coordinates": [-79.26808171453497, 42.970588155861776]}, "properties": {"id": "welland-7781", "species_group": "crabapple", "scientific_name": "Malus Apple - Crab", "common_name": "Apple - Crab", "subtype_name": "Apple - Crab", "zip_code": null, "ownership": "public", "ownership_raw": "City of Welland", "city": "Welland", "source_dataset": "Welland Trees", "source_department": "City of Welland", "source_last_edit_at": ""}}, {"type": "Feature", "geometry": {"type": "Point", "coordinates": [-79.26384784813678, 42.97276417299921]}, "properties": {"id": "welland-7816", "species_group": "crabapple", "scientific_name": "Malus Apple - Crab", "common_name": "Apple - Crab", "subtype_name": "Apple - Crab", "zip_code": null, "ownership": "public", "ownership_raw": "City of Welland", "city": "Welland", "source_dataset": "Welland Trees", "source_department": "City of Welland", "source_last_edit_at": ""}}, {"type": "Feature", "geometry": {"type": "Point", "coordinates": [-79.26389145217163, 42.97381737731765]}, "properties": {"id": "welland-7820", "species_group": "crabapple", "scientific_name": "Malus Apple - Crab", "common_name": "Apple - Crab", "subtype_name": "Apple - Crab", "zip_code": null, "ownership": "public", "ownership_raw": "City of Welland", "city": "Welland", "source_dataset": "Welland Trees", "source_department": "City of Welland", "source_last_edit_at": ""}}, {"type": "Feature", "geometry": {"type": "Point", "coordinates": [-79.26390688901479, 42.974182863801474]}, "properties": {"id": "welland-7823", "species_group": "crabapple", "scientific_name": "Malus Apple - Crab", "common_name": "Apple - Crab", "subtype_name": "Apple - Crab", "zip_code": null, "ownership": "public", "ownership_raw": "City of Welland", "city": "Welland", "source_dataset": "Welland Trees", "source_department": "City of Welland", "source_last_edit_at": ""}}, {"type": "Feature", "geometry": {"type": "Point", "coordinates": [-79.2639189573395, 42.9743117340757]}, "properties": {"id": "welland-7824", "species_group": "crabapple", "scientific_name": "Malus Apple - Crab", "common_name": "Apple - Crab", "subtype_name": "Apple - Crab", "zip_code": null, "ownership": "public", "ownership_raw": "City of Welland", "city": "Welland", "source_dataset": "Welland Trees", "source_department": "City of Welland", "source_last_edit_at": ""}}, {"type": "Feature", "geometry": {"type": "Point", "coordinates": [-79.26695595517582, 42.97188390950631]}, "properties": {"id": "welland-7835", "species_group": "crabapple", "scientific_name": "Malus Apple - Crab", "common_name": "Apple - Crab", "subtype_name": "Apple - Crab", "zip_code": null, "ownership": "public", "ownership_raw": "City of Welland", "city": "Welland", "source_dataset": "Welland Trees", "source_department": "City of Welland", "source_last_edit_at": ""}}, {"type": "Feature", "geometry": {"type": "Point", "coordinates": [-79.26693861758054, 42.971507830895845]}, "properties": {"id": "welland-7836", "species_group": "crabapple", "scientific_name": "Malus Apple - Crab", "common_name": "Apple - Crab", "subtype_name": "Apple - Crab", "zip_code": null, "ownership": "public", "ownership_raw": "City of Welland", "city": "Welland", "source_dataset": "Welland Trees", "source_department": "City of Welland", "source_last_edit_at": ""}}, {"type": "Feature", "geometry": {"type": "Point", "coordinates": [-79.26692024765919, 42.97119960069652]}, "properties": {"id": "welland-7837", "species_group": "crabapple", "scientific_name": "Malus Apple - Crab", "common_name": "Apple - Crab", "subtype_name": "Apple - Crab", "zip_code": null, "ownership": "public", "ownership_raw": "City of Welland", "city": "Welland", "source_dataset": "Welland Trees", "source_department": "City of Welland", "source_last_edit_at": ""}}, {"type": "Feature", "geometry": {"type": "Point", "coordinates": [-79.26688530621034, 42.97027073284192]}, "properties": {"id": "welland-7843", "species_group": "crabapple", "scientific_name": "Malus Apple - Crab", "common_name": "Apple - Crab", "subtype_name": "Apple - Crab", "zip_code": null, "ownership": "public", "ownership_raw": "City of Welland", "city": "Welland", "source_dataset": "Welland Trees", "source_department": "City of Welland", "source_last_edit_at": ""}}, {"type": "Feature", "geometry": {"type": "Point", "coordinates": [-79.26687236989656, 42.97011047947529]}, "properties": {"id": "welland-7844", "species_group": "crabapple", "scientific_name": "Malus Apple - Crab", "common_name": "Apple - Crab", "subtype_name": "Apple - Crab", "zip_code": null, "ownership": "public", "ownership_raw": "City of Welland", "city": "Welland", "source_dataset": "Welland Trees", "source_department": "City of Welland", "source_last_edit_at": ""}}, {"type": "Feature", "geometry": {"type": "Point", "coordinates": [-79.26705174453929, 42.974218867230235]}, "properties": {"id": "welland-7856", "species_group": "crabapple", "scientific_name": "Malus Apple - Crab", "common_name": "Apple - Crab", "subtype_name": "Apple - Crab", "zip_code": null, "ownership": "public", "ownership_raw": "City of Welland", "city": "Welland", "source_dataset": "Welland Trees", "source_department": "City of Welland", "source_last_edit_at": ""}}, {"type": "Feature", "geometry": {"type": "Point", "coordinates": [-79.26704773922103, 42.973926859913355]}, "properties": {"id": "welland-7857", "species_group": "crabapple", "scientific_name": "Malus Apple - Crab", "common_name": "Apple - Crab", "subtype_name": "Apple - Crab", "zip_code": null, "ownership": "public", "ownership_raw": "City of Welland", "city": "Welland", "source_dataset": "Welland Trees", "source_department": "City of Welland", "source_last_edit_at": ""}}, {"type": "Feature", "geometry": {"type": "Point", "coordinates": [-79.2670339948535, 42.97373330174024]}, "properties": {"id": "welland-7858", "species_group": "crabapple", "scientific_name": "Malus Apple - Crab", "common_name": "Apple - Crab", "subtype_name": "Apple - Crab", "zip_code": null, "ownership": "public", "ownership_raw": "City of Welland", "city": "Welland", "source_dataset": "Welland Trees", "source_department": "City of Welland", "source_last_edit_at": ""}}, {"type": "Feature", "geometry": {"type": "Point", "coordinates": [-79.26701302801007, 42.97317598197693]}, "properties": {"id": "welland-7860", "species_group": "crabapple", "scientific_name": "Malus Apple - Crab", "common_name": "Apple - Crab", "subtype_name": "Apple - Crab", "zip_code": null, "ownership": "public", "ownership_raw": "City of Welland", "city": "Welland", "source_dataset": "Welland Trees", "source_department": "City of Welland", "source_last_edit_at": ""}}, {"type": "Feature", "geometry": {"type": "Point", "coordinates": [-79.26700765592595, 42.97305681706035]}, "properties": {"id": "welland-7861", "species_group": "crabapple", "scientific_name": "Malus Apple - Crab", "common_name": "Apple - Crab", "subtype_name": "Apple - Crab", "zip_code": null, "ownership": "public", "ownership_raw": "City of Welland", "city": "Welland", "source_dataset": "Welland Trees", "source_department": "City of Welland", "source_last_edit_at": ""}}, {"type": "Feature", "geometry": {"type": "Point", "coordinates": [-79.26699502532252, 42.97294778611694]}, "properties": {"id": "welland-7862", "species_group": "crabapple", "scientific_name": "Malus Apple - Crab", "common_name": "Apple - Crab", "subtype_name": "Apple - Crab", "zip_code": null, "ownership": "public", "ownership_raw": "City of Welland", "city": "Welland", "source_dataset": "Welland Trees", "source_department": "City of Welland", "source_last_edit_at": ""}}, {"type": "Feature", "geometry": {"type": "Point", "coordinates": [-79.26699051688429, 42.972673697949936]}, "properties": {"id": "welland-7863", "species_group": "crabapple", "scientific_name": "Malus Apple - Crab", "common_name": "Apple - Crab", "subtype_name": "Apple - Crab", "zip_code": null, "ownership": "public", "ownership_raw": "City of Welland", "city": "Welland", "source_dataset": "Welland Trees", "source_department": "City of Welland", "source_last_edit_at": ""}}, {"type": "Feature", "geometry": {"type": "Point", "coordinates": [-79.2669831685695, 42.972500724404306]}, "properties": {"id": "welland-7864", "species_group": "crabapple", "scientific_name": "Malus Apple - Crab", "common_name": "Apple - Crab", "subtype_name": "Apple - Crab", "zip_code": null, "ownership": "public", "ownership_raw": "City of Welland", "city": "Welland", "source_dataset": "Welland Trees", "source_department": "City of Welland", "source_last_edit_at": ""}}, {"type": "Feature", "geometry": {"type": "Point", "coordinates": [-79.26697829983395, 42.97236364026626]}, "properties": {"id": "welland-7865", "species_group": "crabapple", "scientific_name": "Malus Apple - Crab", "common_name": "Apple - Crab", "subtype_name": "Apple - Crab", "zip_code": null, "ownership": "public", "ownership_raw": "City of Welland", "city": "Welland", "source_dataset": "Welland Trees", "source_department": "City of Welland", "source_last_edit_at": ""}}, {"type": "Feature", "geometry": {"type": "Point", "coordinates": [-79.2669627572605, 42.97223407830057]}, "properties": {"id": "welland-7866", "species_group": "crabapple", "scientific_name": "Malus Apple - Crab", "common_name": "Apple - Crab", "subtype_name": "Apple - Crab", "zip_code": null, "ownership": "public", "ownership_raw": "City of Welland", "city": "Welland", "source_dataset": "Welland Trees", "source_department": "City of Welland", "source_last_edit_at": ""}}, {"type": "Feature", "geometry": {"type": "Point", "coordinates": [-79.2668571429547, 42.97332471593618]}, "properties": {"id": "welland-7870", "species_group": "crabapple", "scientific_name": "Malus Apple - Crab", "common_name": "Apple - Crab", "subtype_name": "Apple - Crab", "zip_code": null, "ownership": "public", "ownership_raw": "City of Welland", "city": "Welland", "source_dataset": "Welland Trees", "source_department": "City of Welland", "source_last_edit_at": ""}}, {"type": "Feature", "geometry": {"type": "Point", "coordinates": [-79.26694598085729, 42.97172733359867]}, "properties": {"id": "welland-7879", "species_group": "crabapple", "scientific_name": "Malus Apple - Crab", "common_name": "Apple - Crab", "subtype_name": "Apple - Crab", "zip_code": null, "ownership": "public", "ownership_raw": "City of Welland", "city": "Welland", "source_dataset": "Welland Trees", "source_department": "City of Welland", "source_last_edit_at": ""}}, {"type": "Feature", "geometry": {"type": "Point", "coordinates": [-79.26385101016483, 42.97290910608015]}, "properties": {"id": "welland-7909", "species_group": "crabapple", "scientific_name": "Malus Apple - Crab", "common_name": "Apple - Crab", "subtype_name": "Apple - Crab", "zip_code": null, "ownership": "public", "ownership_raw": "City of Welland", "city": "Welland", "source_dataset": "Welland Trees", "source_department": "City of Welland", "source_last_edit_at": ""}}, {"type": "Feature", "geometry": {"type": "Point", "coordinates": [-79.2638732411651, 42.97313387898775]}, "properties": {"id": "welland-7913", "species_group": "crabapple", "scientific_name": "Malus Apple - Crab", "common_name": "Apple - Crab", "subtype_name": "Apple - Crab", "zip_code": null, "ownership": "public", "ownership_raw": "City of Welland", "city": "Welland", "source_dataset": "Welland Trees", "source_department": "City of Welland", "source_last_edit_at": ""}}, {"type": "Feature", "geometry": {"type": "Point", "coordinates": [-79.26387383738307, 42.97324513827116]}, "properties": {"id": "welland-7914", "species_group": "crabapple", "scientific_name": "Malus Apple - Crab", "common_name": "Apple - Crab", "subtype_name": "Apple - Crab", "zip_code": null, "ownership": "public", "ownership_raw": "City of Welland", "city": "Welland", "source_dataset": "Welland Trees", "source_department": "City of Welland", "source_last_edit_at": ""}}, {"type": "Feature", "geometry": {"type": "Point", "coordinates": [-79.26387701380366, 42.97331817245324]}, "properties": {"id": "welland-7915", "species_group": "crabapple", "scientific_name": "Malus Apple - Crab", "common_name": "Apple - Crab", "subtype_name": "Apple - Crab", "zip_code": null, "ownership": "public", "ownership_raw": "City of Welland", "city": "Welland", "source_dataset": "Welland Trees", "source_department": "City of Welland", "source_last_edit_at": ""}}, {"type": "Feature", "geometry": {"type": "Point", "coordinates": [-79.25263507407944, 42.97973849347447]}, "properties": {"id": "welland-7955", "species_group": "crabapple", "scientific_name": "Malus Apple - Crab", "common_name": "Apple - Crab", "subtype_name": "Apple - Crab", "zip_code": null, "ownership": "public", "ownership_raw": "City of Welland", "city": "Welland", "source_dataset": "Welland Trees", "source_department": "City of Welland", "source_last_edit_at": ""}}, {"type": "Feature", "geometry": {"type": "Point", "coordinates": [-79.2465461749484, 42.96807699558625]}, "properties": {"id": "welland-8116", "species_group": "crabapple", "scientific_name": "Malus Apple - Crab", "common_name": "Apple - Crab", "subtype_name": "Apple - Crab", "zip_code": null, "ownership": "public", "ownership_raw": "City of Welland", "city": "Welland", "source_dataset": "Welland Trees", "source_department": "City of Welland", "source_last_edit_at": ""}}, {"type": "Feature", "geometry": {"type": "Point", "coordinates": [-79.24654922300105, 42.96812313895111]}, "properties": {"id": "welland-8117", "species_group": "crabapple", "scientific_name": "Malus Apple - Crab", "common_name": "Apple - Crab", "subtype_name": "Apple - Crab", "zip_code": null, "ownership": "public", "ownership_raw": "City of Welland", "city": "Welland", "source_dataset": "Welland Trees", "source_department": "City of Welland", "source_last_edit_at": ""}}, {"type": "Feature", "geometry": {"type": "Point", "coordinates": [-79.24654961900674, 42.968201253871534]}, "properties": {"id": "welland-8118", "species_group": "crabapple", "scientific_name": "Malus Apple - Crab", "common_name": "Apple - Crab", "subtype_name": "Apple - Crab", "zip_code": null, "ownership": "public", "ownership_raw": "City of Welland", "city": "Welland", "source_dataset": "Welland Trees", "source_department": "City of Welland", "source_last_edit_at": ""}}, {"type": "Feature", "geometry": {"type": "Point", "coordinates": [-79.24655083193194, 42.968281301139896]}, "properties": {"id": "welland-8119", "species_group": "crabapple", "scientific_name": "Malus Apple - Crab", "common_name": "Apple - Crab", "subtype_name": "Apple - Crab", "zip_code": null, "ownership": "public", "ownership_raw": "City of Welland", "city": "Welland", "source_dataset": "Welland Trees", "source_department": "City of Welland", "source_last_edit_at": ""}}, {"type": "Feature", "geometry": {"type": "Point", "coordinates": [-79.24655053964729, 42.968322272268324]}, "properties": {"id": "welland-8120", "species_group": "crabapple", "scientific_name": "Malus Apple - Crab", "common_name": "Apple - Crab", "subtype_name": "Apple - Crab", "zip_code": null, "ownership": "public", "ownership_raw": "City of Welland", "city": "Welland", "source_dataset": "Welland Trees", "source_department": "City of Welland", "source_last_edit_at": ""}}, {"type": "Feature", "geometry": {"type": "Point", "coordinates": [-79.24654756031187, 42.96836576229733]}, "properties": {"id": "welland-8121", "species_group": "crabapple", "scientific_name": "Malus Apple - Crab", "common_name": "Apple - Crab", "subtype_name": "Apple - Crab", "zip_code": null, "ownership": "public", "ownership_raw": "City of Welland", "city": "Welland", "source_dataset": "Welland Trees", "source_department": "City of Welland", "source_last_edit_at": ""}}, {"type": "Feature", "geometry": {"type": "Point", "coordinates": [-79.24655171620421, 42.96840359946555]}, "properties": {"id": "welland-8122", "species_group": "crabapple", "scientific_name": "Malus Apple - Crab", "common_name": "Apple - Crab", "subtype_name": "Apple - Crab", "zip_code": null, "ownership": "public", "ownership_raw": "City of Welland", "city": "Welland", "source_dataset": "Welland Trees", "source_department": "City of Welland", "source_last_edit_at": ""}}, {"type": "Feature", "geometry": {"type": "Point", "coordinates": [-79.24655388612746, 42.96860338519212]}, "properties": {"id": "welland-8124", "species_group": "crabapple", "scientific_name": "Malus Apple - Crab", "common_name": "Apple - Crab", "subtype_name": "Apple - Crab", "zip_code": null, "ownership": "public", "ownership_raw": "City of Welland", "city": "Welland", "source_dataset": "Welland Trees", "source_department": "City of Welland", "source_last_edit_at": ""}}, {"type": "Feature", "geometry": {"type": "Point", "coordinates": [-79.24654813010191, 42.96862186406278]}, "properties": {"id": "welland-8125", "species_group": "crabapple", "scientific_name": "Malus Apple - Crab", "common_name": "Apple - Crab", "subtype_name": "Apple - Crab", "zip_code": null, "ownership": "public", "ownership_raw": "City of Welland", "city": "Welland", "source_dataset": "Welland Trees", "source_department": "City of Welland", "source_last_edit_at": ""}}, {"type": "Feature", "geometry": {"type": "Point", "coordinates": [-79.24655439257913, 42.96864692863246]}, "properties": {"id": "welland-8126", "species_group": "crabapple", "scientific_name": "Malus Apple - Crab", "common_name": "Apple - Crab", "subtype_name": "Apple - Crab", "zip_code": null, "ownership": "public", "ownership_raw": "City of Welland", "city": "Welland", "source_dataset": "Welland Trees", "source_department": "City of Welland", "source_last_edit_at": ""}}, {"type": "Feature", "geometry": {"type": "Point", "coordinates": [-79.24655230285857, 42.968689792047144]}, "properties": {"id": "welland-8127", "species_group": "crabapple", "scientific_name": "Malus Apple - Crab", "common_name": "Apple - Crab", "subtype_name": "Apple - Crab", "zip_code": null, "ownership": "public", "ownership_raw": "City of Welland", "city": "Welland", "source_dataset": "Welland Trees", "source_department": "City of Welland", "source_last_edit_at": ""}}, {"type": "Feature", "geometry": {"type": "Point", "coordinates": [-79.24655464310476, 42.96873016326771]}, "properties": {"id": "welland-8128", "species_group": "crabapple", "scientific_name": "Malus Apple - Crab", "common_name": "Apple - Crab", "subtype_name": "Apple - Crab", "zip_code": null, "ownership": "public", "ownership_raw": "City of Welland", "city": "Welland", "source_dataset": "Welland Trees", "source_department": "City of Welland", "source_last_edit_at": ""}}, {"type": "Feature", "geometry": {"type": "Point", "coordinates": [-79.24655159100874, 42.968776213154314]}, "properties": {"id": "welland-8129", "species_group": "crabapple", "scientific_name": "Malus Apple - Crab", "common_name": "Apple - Crab", "subtype_name": "Apple - Crab", "zip_code": null, "ownership": "public", "ownership_raw": "City of Welland", "city": "Welland", "source_dataset": "Welland Trees", "source_department": "City of Welland", "source_last_edit_at": ""}}, {"type": "Feature", "geometry": {"type": "Point", "coordinates": [-79.24655548566369, 42.97140058575253]}, "properties": {"id": "welland-8139", "species_group": "crabapple", "scientific_name": "Malus Apple - Crab", "common_name": "Apple - Crab", "subtype_name": "Apple - Crab", "zip_code": null, "ownership": "public", "ownership_raw": "City of Welland", "city": "Welland", "source_dataset": "Welland Trees", "source_department": "City of Welland", "source_last_edit_at": ""}}, {"type": "Feature", "geometry": {"type": "Point", "coordinates": [-79.2465574259072, 42.97145503528401]}, "properties": {"id": "welland-8140", "species_group": "crabapple", "scientific_name": "Malus Apple - Crab", "common_name": "Apple - Crab", "subtype_name": "Apple - Crab", "zip_code": null, "ownership": "public", "ownership_raw": "City of Welland", "city": "Welland", "source_dataset": "Welland Trees", "source_department": "City of Welland", "source_last_edit_at": ""}}, {"type": "Feature", "geometry": {"type": "Point", "coordinates": [-79.26603560396657, 42.973626448874676]}, "properties": {"id": "welland-8554", "species_group": "crabapple", "scientific_name": "Malus Apple - Crab", "common_name": "Apple - Crab", "subtype_name": "Apple - Crab", "zip_code": null, "ownership": "public", "ownership_raw": "City of Welland", "city": "Welland", "source_dataset": "Welland Trees", "source_department": "City of Welland", "source_last_edit_at": ""}}, {"type": "Feature", "geometry": {"type": "Point", "coordinates": [-79.27018748890993, 42.97081265592756]}, "properties": {"id": "welland-8609", "species_group": "crabapple", "scientific_name": "Malus Apple - Crab", "common_name": "Apple - Crab", "subtype_name": "Apple - Crab", "zip_code": null, "ownership": "public", "ownership_raw": "City of Welland", "city": "Welland", "source_dataset": "Welland Trees", "source_department": "City of Welland", "source_last_edit_at": ""}}, {"type": "Feature", "geometry": {"type": "Point", "coordinates": [-79.24655651624484, 42.96844945000209]}, "properties": {"id": "welland-8740", "species_group": "crabapple", "scientific_name": "Malus Apple - Crab", "common_name": "Apple - Crab", "subtype_name": "Apple - Crab", "zip_code": null, "ownership": "public", "ownership_raw": "City of Welland", "city": "Welland", "source_dataset": "Welland Trees", "source_department": "City of Welland", "source_last_edit_at": ""}}, {"type": "Feature", "geometry": {"type": "Point", "coordinates": [-79.24956495286699, 42.98412933470113]}, "properties": {"id": "welland-8758", "species_group": "crabapple", "scientific_name": "Malus Apple - Crab", "common_name": "Apple - Crab", "subtype_name": "Apple - Crab", "zip_code": null, "ownership": "public", "ownership_raw": "City of Welland", "city": "Welland", "source_dataset": "Welland Trees", "source_department": "City of Welland", "source_last_edit_at": ""}}, {"type": "Feature", "geometry": {"type": "Point", "coordinates": [-79.24874519710552, 42.98413087700306]}, "properties": {"id": "welland-8759", "species_group": "crabapple", "scientific_name": "Malus Apple - Crab", "common_name": "Apple - Crab", "subtype_name": "Apple - Crab", "zip_code": null, "ownership": "public", "ownership_raw": "City of Welland", "city": "Welland", "source_dataset": "Welland Trees", "source_department": "City of Welland", "source_last_edit_at": ""}}, {"type": "Feature", "geometry": {"type": "Point", "coordinates": [-79.24777362786318, 42.98413520984461]}, "properties": {"id": "welland-8760", "species_group": "crabapple", "scientific_name": "Malus Apple - Crab", "common_name": "Apple - Crab", "subtype_name": "Apple - Crab", "zip_code": null, "ownership": "public", "ownership_raw": "City of Welland", "city": "Welland", "source_dataset": "Welland Trees", "source_department": "City of Welland", "source_last_edit_at": ""}}, {"type": "Feature", "geometry": {"type": "Point", "coordinates": [-79.2461269969224, 42.98414327570298]}, "properties": {"id": "welland-8761", "species_group": "crabapple", "scientific_name": "Malus Apple - Crab", "common_name": "Apple - Crab", "subtype_name": "Apple - Crab", "zip_code": null, "ownership": "public", "ownership_raw": "City of Welland", "city": "Welland", "source_dataset": "Welland Trees", "source_department": "City of Welland", "source_last_edit_at": ""}}, {"type": "Feature", "geometry": {"type": "Point", "coordinates": [-79.24578349237137, 42.984140571119504]}, "properties": {"id": "welland-8762", "species_group": "crabapple", "scientific_name": "Malus Apple - Crab", "common_name": "Apple - Crab", "subtype_name": "Apple - Crab", "zip_code": null, "ownership": "public", "ownership_raw": "City of Welland", "city": "Welland", "source_dataset": "Welland Trees", "source_department": "City of Welland", "source_last_edit_at": ""}}, {"type": "Feature", "geometry": {"type": "Point", "coordinates": [-79.24556543305145, 42.984142349008394]}, "properties": {"id": "welland-8763", "species_group": "crabapple", "scientific_name": "Malus Apple - Crab", "common_name": "Apple - Crab", "subtype_name": "Apple - Crab", "zip_code": null, "ownership": "public", "ownership_raw": "City of Welland", "city": "Welland", "source_dataset": "Welland Trees", "source_department": "City of Welland", "source_last_edit_at": ""}}, {"type": "Feature", "geometry": {"type": "Point", "coordinates": [-79.24533161083203, 42.98414644663777]}, "properties": {"id": "welland-8764", "species_group": "crabapple", "scientific_name": "Malus Apple - Crab", "common_name": "Apple - Crab", "subtype_name": "Apple - Crab", "zip_code": null, "ownership": "public", "ownership_raw": "City of Welland", "city": "Welland", "source_dataset": "Welland Trees", "source_department": "City of Welland", "source_last_edit_at": ""}}, {"type": "Feature", "geometry": {"type": "Point", "coordinates": [-79.2446060299819, 42.98414812285502]}, "properties": {"id": "welland-8765", "species_group": "crabapple", "scientific_name": "Malus Apple - Crab", "common_name": "Apple - Crab", "subtype_name": "Apple - Crab", "zip_code": null, "ownership": "public", "ownership_raw": "City of Welland", "city": "Welland", "source_dataset": "Welland Trees", "source_department": "City of Welland", "source_last_edit_at": ""}}, {"type": "Feature", "geometry": {"type": "Point", "coordinates": [-79.2443898597139, 42.98414480644431]}, "properties": {"id": "welland-8766", "species_group": "crabapple", "scientific_name": "Malus Apple - Crab", "common_name": "Apple - Crab", "subtype_name": "Apple - Crab", "zip_code": null, "ownership": "public", "ownership_raw": "City of Welland", "city": "Welland", "source_dataset": "Welland Trees", "source_department": "City of Welland", "source_last_edit_at": ""}}, {"type": "Feature", "geometry": {"type": "Point", "coordinates": [-79.24360467877571, 42.98415708623059]}, "properties": {"id": "welland-8767", "species_group": "crabapple", "scientific_name": "Malus Apple - Crab", "common_name": "Apple - Crab", "subtype_name": "Apple - Crab", "zip_code": null, "ownership": "public", "ownership_raw": "City of Welland", "city": "Welland", "source_dataset": "Welland Trees", "source_department": "City of Welland", "source_last_edit_at": ""}}, {"type": "Feature", "geometry": {"type": "Point", "coordinates": [-79.2461011394843, 43.00955490962776]}, "properties": {"id": "welland-9141", "species_group": "magnolia", "scientific_name": "Magnolia Magnolia", "common_name": "Magnolia", "subtype_name": "Magnolia Magnolia", "zip_code": null, "ownership": "public", "ownership_raw": "City of Welland", "city": "Welland", "source_dataset": "Welland Trees", "source_department": "City of Welland", "source_last_edit_at": ""}}, {"type": "Feature", "geometry": {"type": "Point", "coordinates": [-79.24475409079156, 42.985073927671294]}, "properties": {"id": "welland-9228", "species_group": "crabapple", "scientific_name": "Malus Apple - Crab", "common_name": "Apple - Crab", "subtype_name": "Apple - Crab", "zip_code": null, "ownership": "public", "ownership_raw": "City of Welland", "city": "Welland", "source_dataset": "Welland Trees", "source_department": "City of Welland", "source_last_edit_at": ""}}, {"type": "Feature", "geometry": {"type": "Point", "coordinates": [-79.24476562459357, 42.98515893532128]}, "properties": {"id": "welland-9229", "species_group": "crabapple", "scientific_name": "Malus Apple - Crab", "common_name": "Apple - Crab", "subtype_name": "Apple - Crab", "zip_code": null, "ownership": "public", "ownership_raw": "City of Welland", "city": "Welland", "source_dataset": "Welland Trees", "source_department": "City of Welland", "source_last_edit_at": ""}}, {"type": "Feature", "geometry": {"type": "Point", "coordinates": [-79.24475752354418, 42.98529037855545]}, "properties": {"id": "welland-9231", "species_group": "crabapple", "scientific_name": "Malus Apple - Crab", "common_name": "Apple - Crab", "subtype_name": "Apple - Crab", "zip_code": null, "ownership": "public", "ownership_raw": "City of Welland", "city": "Welland", "source_dataset": "Welland Trees", "source_department": "City of Welland", "source_last_edit_at": ""}}, {"type": "Feature", "geometry": {"type": "Point", "coordinates": [-79.24475863264398, 42.985925503981726]}, "properties": {"id": "welland-9238", "species_group": "crabapple", "scientific_name": "Malus Apple - Crab", "common_name": "Apple - Crab", "subtype_name": "Apple - Crab", "zip_code": null, "ownership": "public", "ownership_raw": "City of Welland", "city": "Welland", "source_dataset": "Welland Trees", "source_department": "City of Welland", "source_last_edit_at": ""}}, {"type": "Feature", "geometry": {"type": "Point", "coordinates": [-79.24476236120223, 42.98585577659566]}, "properties": {"id": "welland-9239", "species_group": "crabapple", "scientific_name": "Malus Apple - Crab", "common_name": "Apple - Crab", "subtype_name": "Apple - Crab", "zip_code": null, "ownership": "public", "ownership_raw": "City of Welland", "city": "Welland", "source_dataset": "Welland Trees", "source_department": "City of Welland", "source_last_edit_at": ""}}, {"type": "Feature", "geometry": {"type": "Point", "coordinates": [-79.24078058686703, 42.997302447971705]}, "properties": {"id": "welland-9397", "species_group": "crabapple", "scientific_name": "Malus Apple - Crab", "common_name": "Apple - Crab", "subtype_name": "Apple - Crab", "zip_code": null, "ownership": "public", "ownership_raw": "City of Welland", "city": "Welland", "source_dataset": "Welland Trees", "source_department": "City of Welland", "source_last_edit_at": ""}}, {"type": "Feature", "geometry": {"type": "Point", "coordinates": [-79.24075551754676, 42.99732511120481]}, "properties": {"id": "welland-9398", "species_group": "crabapple", "scientific_name": "Malus Apple - Crab", "common_name": "Apple - Crab", "subtype_name": "Apple - Crab", "zip_code": null, "ownership": "public", "ownership_raw": "City of Welland", "city": "Welland", "source_dataset": "Welland Trees", "source_department": "City of Welland", "source_last_edit_at": ""}}, {"type": "Feature", "geometry": {"type": "Point", "coordinates": [-79.23406348664922, 42.982430145633735]}, "properties": {"id": "welland-9423", "species_group": "crabapple", "scientific_name": "Malus Apple - Crab", "common_name": "Apple - Crab", "subtype_name": "Apple - Crab", "zip_code": null, "ownership": "public", "ownership_raw": "City of Welland", "city": "Welland", "source_dataset": "Welland Trees", "source_department": "City of Welland", "source_last_edit_at": ""}}, {"type": "Feature", "geometry": {"type": "Point", "coordinates": [-79.23403400682383, 42.98067356483749]}, "properties": {"id": "welland-9562", "species_group": "crabapple", "scientific_name": "Malus Apple - Crab", "common_name": "Apple - Crab", "subtype_name": "Apple - Crab", "zip_code": null, "ownership": "public", "ownership_raw": "City of Welland", "city": "Welland", "source_dataset": "Welland Trees", "source_department": "City of Welland", "source_last_edit_at": ""}}, {"type": "Feature", "geometry": {"type": "Point", "coordinates": [-79.23403821728084, 42.98075020315558]}, "properties": {"id": "welland-9563", "species_group": "crabapple", "scientific_name": "Malus Apple - Crab", "common_name": "Apple - Crab", "subtype_name": "Apple - Crab", "zip_code": null, "ownership": "public", "ownership_raw": "City of Welland", "city": "Welland", "source_dataset": "Welland Trees", "source_department": "City of Welland", "source_last_edit_at": ""}}, {"type": "Feature", "geometry": {"type": "Point", "coordinates": [-79.23835979133186, 42.97278405562957]}, "properties": {"id": "welland-9570", "species_group": "crabapple", "scientific_name": "Malus Apple - Crab", "common_name": "Apple - Crab", "subtype_name": "Apple - Crab", "zip_code": null, "ownership": "public", "ownership_raw": "City of Welland", "city": "Welland", "source_dataset": "Welland Trees", "source_department": "City of Welland", "source_last_edit_at": ""}}, {"type": "Feature", "geometry": {"type": "Point", "coordinates": [-79.2306025421842, 42.97463127937622]}, "properties": {"id": "welland-9574", "species_group": "crabapple", "scientific_name": "Malus Apple - Crab", "common_name": "Apple - Crab", "subtype_name": "Apple - Crab", "zip_code": null, "ownership": "public", "ownership_raw": "City of Welland", "city": "Welland", "source_dataset": "Welland Trees", "source_department": "City of Welland", "source_last_edit_at": ""}}, {"type": "Feature", "geometry": {"type": "Point", "coordinates": [-79.2307935812228, 42.97409472100781]}, "properties": {"id": "welland-9576", "species_group": "crabapple", "scientific_name": "Malus Apple - Crab", "common_name": "Apple - Crab", "subtype_name": "Apple - Crab", "zip_code": null, "ownership": "public", "ownership_raw": "City of Welland", "city": "Welland", "source_dataset": "Welland Trees", "source_department": "City of Welland", "source_last_edit_at": ""}}, {"type": "Feature", "geometry": {"type": "Point", "coordinates": [-79.23078499636117, 42.97390764005307]}, "properties": {"id": "welland-9577", "species_group": "crabapple", "scientific_name": "Malus Apple - Crab", "common_name": "Apple - Crab", "subtype_name": "Apple - Crab", "zip_code": null, "ownership": "public", "ownership_raw": "City of Welland", "city": "Welland", "source_dataset": "Welland Trees", "source_department": "City of Welland", "source_last_edit_at": ""}}, {"type": "Feature", "geometry": {"type": "Point", "coordinates": [-79.22877696971564, 42.9739402796272]}, "properties": {"id": "welland-9590", "species_group": "crabapple", "scientific_name": "Malus Apple - Crab", "common_name": "Apple - Crab", "subtype_name": "Apple - Crab", "zip_code": null, "ownership": "public", "ownership_raw": "City of Welland", "city": "Welland", "source_dataset": "Welland Trees", "source_department": "City of Welland", "source_last_edit_at": ""}}, {"type": "Feature", "geometry": {"type": "Point", "coordinates": [-79.22877202352691, 42.974234069123256]}, "properties": {"id": "welland-9592", "species_group": "crabapple", "scientific_name": "Malus Apple - Crab", "common_name": "Apple - Crab", "subtype_name": "Apple - Crab", "zip_code": null, "ownership": "public", "ownership_raw": "City of Welland", "city": "Welland", "source_dataset": "Welland Trees", "source_department": "City of Welland", "source_last_edit_at": ""}}, {"type": "Feature", "geometry": {"type": "Point", "coordinates": [-79.22693797924761, 42.97394637175095]}, "properties": {"id": "welland-9604", "species_group": "crabapple", "scientific_name": "Malus Apple - Crab", "common_name": "Apple - Crab", "subtype_name": "Apple - Crab", "zip_code": null, "ownership": "public", "ownership_raw": "City of Welland", "city": "Welland", "source_dataset": "Welland Trees", "source_department": "City of Welland", "source_last_edit_at": ""}}, {"type": "Feature", "geometry": {"type": "Point", "coordinates": [-79.22693647930107, 42.97387720318713]}, "properties": {"id": "welland-9605", "species_group": "crabapple", "scientific_name": "Malus Apple - Crab", "common_name": "Apple - Crab", "subtype_name": "Apple - Crab", "zip_code": null, "ownership": "public", "ownership_raw": "City of Welland", "city": "Welland", "source_dataset": "Welland Trees", "source_department": "City of Welland", "source_last_edit_at": ""}}, {"type": "Feature", "geometry": {"type": "Point", "coordinates": [-79.22693943286099, 42.973744081148105]}, "properties": {"id": "welland-9606", "species_group": "crabapple", "scientific_name": "Malus Apple - Crab", "common_name": "Apple - Crab", "subtype_name": "Apple - Crab", "zip_code": null, "ownership": "public", "ownership_raw": "City of Welland", "city": "Welland", "source_dataset": "Welland Trees", "source_department": "City of Welland", "source_last_edit_at": ""}}, {"type": "Feature", "geometry": {"type": "Point", "coordinates": [-79.22693985663035, 42.97357762728007]}, "properties": {"id": "welland-9609", "species_group": "crabapple", "scientific_name": "Malus Apple - Crab", "common_name": "Apple - Crab", "subtype_name": "Apple - Crab", "zip_code": null, "ownership": "public", "ownership_raw": "City of Welland", "city": "Welland", "source_dataset": "Welland Trees", "source_department": "City of Welland", "source_last_edit_at": ""}}, {"type": "Feature", "geometry": {"type": "Point", "coordinates": [-79.23515949739827, 42.97463110910939]}, "properties": {"id": "welland-9622", "species_group": "crabapple", "scientific_name": "Malus Apple - Crab", "common_name": "Apple - Crab", "subtype_name": "Apple - Crab", "zip_code": null, "ownership": "public", "ownership_raw": "City of Welland", "city": "Welland", "source_dataset": "Welland Trees", "source_department": "City of Welland", "source_last_edit_at": ""}}, {"type": "Feature", "geometry": {"type": "Point", "coordinates": [-79.23496249738822, 42.97462935109889]}, "properties": {"id": "welland-9623", "species_group": "crabapple", "scientific_name": "Malus Apple - Crab", "common_name": "Apple - Crab", "subtype_name": "Apple - Crab", "zip_code": null, "ownership": "public", "ownership_raw": "City of Welland", "city": "Welland", "source_dataset": "Welland Trees", "source_department": "City of Welland", "source_last_edit_at": ""}}, {"type": "Feature", "geometry": {"type": "Point", "coordinates": [-79.22637396397431, 42.97464060586517]}, "properties": {"id": "welland-9627", "species_group": "crabapple", "scientific_name": "Malus Apple - Crab", "common_name": "Apple - Crab", "subtype_name": "Apple - Crab", "zip_code": null, "ownership": "public", "ownership_raw": "City of Welland", "city": "Welland", "source_dataset": "Welland Trees", "source_department": "City of Welland", "source_last_edit_at": ""}}, {"type": "Feature", "geometry": {"type": "Point", "coordinates": [-79.22670181733794, 42.97463992487363]}, "properties": {"id": "welland-9631", "species_group": "crabapple", "scientific_name": "Malus Apple - Crab", "common_name": "Apple - Crab", "subtype_name": "Apple - Crab", "zip_code": null, "ownership": "public", "ownership_raw": "City of Welland", "city": "Welland", "source_dataset": "Welland Trees", "source_department": "City of Welland", "source_last_edit_at": ""}}, {"type": "Feature", "geometry": {"type": "Point", "coordinates": [-79.22666648785344, 42.97477702685196]}, "properties": {"id": "welland-9632", "species_group": "crabapple", "scientific_name": "Malus Apple - Crab", "common_name": "Apple - Crab", "subtype_name": "Apple - Crab", "zip_code": null, "ownership": "public", "ownership_raw": "City of Welland", "city": "Welland", "source_dataset": "Welland Trees", "source_department": "City of Welland", "source_last_edit_at": ""}}, {"type": "Feature", "geometry": {"type": "Point", "coordinates": [-79.22649999282189, 42.974775727000875]}, "properties": {"id": "welland-9633", "species_group": "crabapple", "scientific_name": "Malus Apple - Crab", "common_name": "Apple - Crab", "subtype_name": "Apple - Crab", "zip_code": null, "ownership": "public", "ownership_raw": "City of Welland", "city": "Welland", "source_dataset": "Welland Trees", "source_department": "City of Welland", "source_last_edit_at": ""}}, {"type": "Feature", "geometry": {"type": "Point", "coordinates": [-79.22704989912111, 42.974784888758066]}, "properties": {"id": "welland-9635", "species_group": "crabapple", "scientific_name": "Malus Apple - Crab", "common_name": "Apple - Crab", "subtype_name": "Apple - Crab", "zip_code": null, "ownership": "public", "ownership_raw": "City of Welland", "city": "Welland", "source_dataset": "Welland Trees", "source_department": "City of Welland", "source_last_edit_at": ""}}, {"type": "Feature", "geometry": {"type": "Point", "coordinates": [-79.22724615490867, 42.97478216717241]}, "properties": {"id": "welland-9636", "species_group": "crabapple", "scientific_name": "Malus Apple - Crab", "common_name": "Apple - Crab", "subtype_name": "Apple - Crab", "zip_code": null, "ownership": "public", "ownership_raw": "City of Welland", "city": "Welland", "source_dataset": "Welland Trees", "source_department": "City of Welland", "source_last_edit_at": ""}}, {"type": "Feature", "geometry": {"type": "Point", "coordinates": [-79.22715079332158, 42.974641759802964]}, "properties": {"id": "welland-9637", "species_group": "crabapple", "scientific_name": "Malus Apple - Crab", "common_name": "Apple - Crab", "subtype_name": "Apple - Crab", "zip_code": null, "ownership": "public", "ownership_raw": "City of Welland", "city": "Welland", "source_dataset": "Welland Trees", "source_department": "City of Welland", "source_last_edit_at": ""}}, {"type": "Feature", "geometry": {"type": "Point", "coordinates": [-79.2269755821292, 42.97464032560529]}, "properties": {"id": "welland-9638", "species_group": "crabapple", "scientific_name": "Malus Apple - Crab", "common_name": "Apple - Crab", "subtype_name": "Apple - Crab", "zip_code": null, "ownership": "public", "ownership_raw": "City of Welland", "city": "Welland", "source_dataset": "Welland Trees", "source_department": "City of Welland", "source_last_edit_at": ""}}, {"type": "Feature", "geometry": {"type": "Point", "coordinates": [-79.22741977055239, 42.97477845429852]}, "properties": {"id": "welland-9639", "species_group": "crabapple", "scientific_name": "Malus Apple - Crab", "common_name": "Apple - Crab", "subtype_name": "Apple - Crab", "zip_code": null, "ownership": "public", "ownership_raw": "City of Welland", "city": "Welland", "source_dataset": "Welland Trees", "source_department": "City of Welland", "source_last_edit_at": ""}}, {"type": "Feature", "geometry": {"type": "Point", "coordinates": [-79.22764300695205, 42.97477743046155]}, "properties": {"id": "welland-9640", "species_group": "crabapple", "scientific_name": "Malus Apple - Crab", "common_name": "Apple - Crab", "subtype_name": "Apple - Crab", "zip_code": null, "ownership": "public", "ownership_raw": "City of Welland", "city": "Welland", "source_dataset": "Welland Trees", "source_department": "City of Welland", "source_last_edit_at": ""}}, {"type": "Feature", "geometry": {"type": "Point", "coordinates": [-79.22851668585402, 42.97477623460204]}, "properties": {"id": "welland-9643", "species_group": "crabapple", "scientific_name": "Malus Apple - Crab", "common_name": "Apple - Crab", "subtype_name": "Apple - Crab", "zip_code": null, "ownership": "public", "ownership_raw": "City of Welland", "city": "Welland", "source_dataset": "Welland Trees", "source_department": "City of Welland", "source_last_edit_at": ""}}, {"type": "Feature", "geometry": {"type": "Point", "coordinates": [-79.22851370081572, 42.9746372575119]}, "properties": {"id": "welland-9644", "species_group": "crabapple", "scientific_name": "Malus Apple - Crab", "common_name": "Apple - Crab", "subtype_name": "Apple - Crab", "zip_code": null, "ownership": "public", "ownership_raw": "City of Welland", "city": "Welland", "source_dataset": "Welland Trees", "source_department": "City of Welland", "source_last_edit_at": ""}}, {"type": "Feature", "geometry": {"type": "Point", "coordinates": [-79.22895190234637, 42.974771447021816]}, "properties": {"id": "welland-9645", "species_group": "crabapple", "scientific_name": "Malus Apple - Crab", "common_name": "Apple - Crab", "subtype_name": "Apple - Crab", "zip_code": null, "ownership": "public", "ownership_raw": "City of Welland", "city": "Welland", "source_dataset": "Welland Trees", "source_department": "City of Welland", "source_last_edit_at": ""}}, {"type": "Feature", "geometry": {"type": "Point", "coordinates": [-79.229183092765, 42.97476670182759]}, "properties": {"id": "welland-9646", "species_group": "crabapple", "scientific_name": "Malus Apple - Crab", "common_name": "Apple - Crab", "subtype_name": "Apple - Crab", "zip_code": null, "ownership": "public", "ownership_raw": "City of Welland", "city": "Welland", "source_dataset": "Welland Trees", "source_department": "City of Welland", "source_last_edit_at": ""}}, {"type": "Feature", "geometry": {"type": "Point", "coordinates": [-79.22998196966009, 42.97475921432547]}, "properties": {"id": "welland-9647", "species_group": "crabapple", "scientific_name": "Malus Apple - Crab", "common_name": "Apple - Crab", "subtype_name": "Apple - Crab", "zip_code": null, "ownership": "public", "ownership_raw": "City of Welland", "city": "Welland", "source_dataset": "Welland Trees", "source_department": "City of Welland", "source_last_edit_at": ""}}, {"type": "Feature", "geometry": {"type": "Point", "coordinates": [-79.2301762620574, 42.97476414025367]}, "properties": {"id": "welland-9648", "species_group": "crabapple", "scientific_name": "Malus Apple - Crab", "common_name": "Apple - Crab", "subtype_name": "Apple - Crab", "zip_code": null, "ownership": "public", "ownership_raw": "City of Welland", "city": "Welland", "source_dataset": "Welland Trees", "source_department": "City of Welland", "source_last_edit_at": ""}}, {"type": "Feature", "geometry": {"type": "Point", "coordinates": [-79.23037509569829, 42.974762733653385]}, "properties": {"id": "welland-9649", "species_group": "crabapple", "scientific_name": "Malus Apple - Crab", "common_name": "Apple - Crab", "subtype_name": "Apple - Crab", "zip_code": null, "ownership": "public", "ownership_raw": "City of Welland", "city": "Welland", "source_dataset": "Welland Trees", "source_department": "City of Welland", "source_last_edit_at": ""}}, {"type": "Feature", "geometry": {"type": "Point", "coordinates": [-79.23055039925634, 42.97476096285734]}, "properties": {"id": "welland-9650", "species_group": "crabapple", "scientific_name": "Malus Apple - Crab", "common_name": "Apple - Crab", "subtype_name": "Apple - Crab", "zip_code": null, "ownership": "public", "ownership_raw": "City of Welland", "city": "Welland", "source_dataset": "Welland Trees", "source_department": "City of Welland", "source_last_edit_at": ""}}, {"type": "Feature", "geometry": {"type": "Point", "coordinates": [-79.23111026042936, 42.974757455067795]}, "properties": {"id": "welland-9651", "species_group": "crabapple", "scientific_name": "Malus Apple - Crab", "common_name": "Apple - Crab", "subtype_name": "Apple - Crab", "zip_code": null, "ownership": "public", "ownership_raw": "City of Welland", "city": "Welland", "source_dataset": "Welland Trees", "source_department": "City of Welland", "source_last_edit_at": ""}}, {"type": "Feature", "geometry": {"type": "Point", "coordinates": [-79.23125342700996, 42.97462970060922]}, "properties": {"id": "welland-9652", "species_group": "crabapple", "scientific_name": "Malus Apple - Crab", "common_name": "Apple - Crab", "subtype_name": "Apple - Crab", "zip_code": null, "ownership": "public", "ownership_raw": "City of Welland", "city": "Welland", "source_dataset": "Welland Trees", "source_department": "City of Welland", "source_last_edit_at": ""}}, {"type": "Feature", "geometry": {"type": "Point", "coordinates": [-79.23191173071059, 42.97462899007482]}, "properties": {"id": "welland-9654", "species_group": "crabapple", "scientific_name": "Malus Apple - Crab", "common_name": "Apple - Crab", "subtype_name": "Apple - Crab", "zip_code": null, "ownership": "public", "ownership_raw": "City of Welland", "city": "Welland", "source_dataset": "Welland Trees", "source_department": "City of Welland", "source_last_edit_at": ""}}, {"type": "Feature", "geometry": {"type": "Point", "coordinates": [-79.23171532996666, 42.974758483711796]}, "properties": {"id": "welland-9655", "species_group": "crabapple", "scientific_name": "Malus Apple - Crab", "common_name": "Apple - Crab", "subtype_name": "Apple - Crab", "zip_code": null, "ownership": "public", "ownership_raw": "City of Welland", "city": "Welland", "source_dataset": "Welland Trees", "source_department": "City of Welland", "source_last_edit_at": ""}}, {"type": "Feature", "geometry": {"type": "Point", "coordinates": [-79.2320414058933, 42.97475904043094]}, "properties": {"id": "welland-9656", "species_group": "crabapple", "scientific_name": "Malus Apple - Crab", "common_name": "Apple - Crab", "subtype_name": "Apple - Crab", "zip_code": null, "ownership": "public", "ownership_raw": "City of Welland", "city": "Welland", "source_dataset": "Welland Trees", "source_department": "City of Welland", "source_last_edit_at": ""}}, {"type": "Feature", "geometry": {"type": "Point", "coordinates": [-79.23287846417774, 42.97475788478312]}, "properties": {"id": "welland-9659", "species_group": "crabapple", "scientific_name": "Malus Apple - Crab", "common_name": "Apple - Crab", "subtype_name": "Apple - Crab", "zip_code": null, "ownership": "public", "ownership_raw": "City of Welland", "city": "Welland", "source_dataset": "Welland Trees", "source_department": "City of Welland", "source_last_edit_at": ""}}, {"type": "Feature", "geometry": {"type": "Point", "coordinates": [-79.23346788313938, 42.97475738197607]}, "properties": {"id": "welland-9660", "species_group": "crabapple", "scientific_name": "Malus Apple - Crab", "common_name": "Apple - Crab", "subtype_name": "Apple - Crab", "zip_code": null, "ownership": "public", "ownership_raw": "City of Welland", "city": "Welland", "source_dataset": "Welland Trees", "source_department": "City of Welland", "source_last_edit_at": ""}}, {"type": "Feature", "geometry": {"type": "Point", "coordinates": [-79.2342325520687, 42.974757020491595]}, "properties": {"id": "welland-9661", "species_group": "crabapple", "scientific_name": "Malus Apple - Crab", "common_name": "Apple - Crab", "subtype_name": "Apple - Crab", "zip_code": null, "ownership": "public", "ownership_raw": "City of Welland", "city": "Welland", "source_dataset": "Welland Trees", "source_department": "City of Welland", "source_last_edit_at": ""}}, {"type": "Feature", "geometry": {"type": "Point", "coordinates": [-79.23352881569235, 42.9785065590771]}, "properties": {"id": "welland-9886", "species_group": "crabapple", "scientific_name": "Malus Apple - Crab", "common_name": "Apple - Crab", "subtype_name": "Apple - Crab", "zip_code": null, "ownership": "public", "ownership_raw": "City of Welland", "city": "Welland", "source_dataset": "Welland Trees", "source_department": "City of Welland", "source_last_edit_at": ""}}, {"type": "Feature", "geometry": {"type": "Point", "coordinates": [-79.23313190399078, 42.978512595719764]}, "properties": {"id": "welland-9890", "species_group": "crabapple", "scientific_name": "Malus Apple - Crab", "common_name": "Apple - Crab", "subtype_name": "Apple - Crab", "zip_code": null, "ownership": "public", "ownership_raw": "City of Welland", "city": "Welland", "source_dataset": "Welland Trees", "source_department": "City of Welland", "source_last_edit_at": ""}}, {"type": "Feature", "geometry": {"type": "Point", "coordinates": [-79.23492206887971, 42.98235087913828]}, "properties": {"id": "welland-9968", "species_group": "crabapple", "scientific_name": "Malus Apple - Crab", "common_name": "Apple - Crab", "subtype_name": "Apple - Crab", "zip_code": null, "ownership": "public", "ownership_raw": "City of Welland", "city": "Welland", "source_dataset": "Welland Trees", "source_department": "City of Welland", "source_last_edit_at": ""}}]}