{"type": "FeatureCollection", "features": [{"type": "Feature", "geometry": {"type": "Point", "coordinates": [139.74894100000012, 35.66034699994462]}, "properties": {"id": "minato-ward-301-0-125660347-319748941", "species_group": "cherry", "scientific_name": "Prunus species", "common_name": "サクラ", "subtype_name": "サクラ", "zip_code": null, "ownership": "public", "ownership_raw": "Tokyo Metropolitan Government", "city": "Minato Ward", "source_dataset": "Street Trees / 街路樹", "source_department": "Tokyo Metropolitan Government", "source_last_edit_at": ""}}, {"type": "Feature", "geometry": {"type": "Point", "coordinates": [139.7493030000001, 35.66202099994457]}, "properties": {"id": "minato-ward-301-0-125662021-319749303", "species_group": "cherry", "scientific_name": "Prunus species", "common_name": "サクラ", "subtype_name": "サクラ", "zip_code": null, "ownership": "public", "ownership_raw": "Tokyo Metropolitan Government", "city": "Minato Ward", "source_dataset": "Street Trees / 街路樹", "source_department": "Tokyo Metropolitan Government", "source_last_edit_at": ""}}, {"type": "Feature", "geometry": {"type": "Point", "coordinates": [139.7493030000001, 35.66209099994456]}, "properties": {"id": "minato-ward-301-0-125662091-319749303", "species_group": "cherry", "scientific_name": "Prunus species", "common_name": "サクラ", "subtype_name": "サクラ", "zip_code": null, "ownership": "public", "ownership_raw": "Tokyo Metropolitan Government", "city": "Minato Ward", "source_dataset": "Street Trees / 街路樹", "source_department": "Tokyo Metropolitan Government", "source_last_edit_at": ""}}, {"type": "Feature", "geometry": {"type": "Point", "coordinates": [139.7493030000001, 35.66218299994455]}, "properties": {"id": "minato-ward-301-0-125662183-319749303", "species_group": "cherry", "scientific_name": "Prunus species", "common_name": "サクラ", "subtype_name": "サクラ", "zip_code": null, "ownership": "public", "ownership_raw": "Tokyo Metropolitan Government", "city": "Minato Ward", "source_dataset": "Street Trees / 街路樹", "source_department": "Tokyo Metropolitan Government", "source_last_edit_at": ""}}, {"type": "Feature", "geometry": {"type": "Point", "coordinates": [139.7493050000001, 35.662363999944546]}, "properties": {"id": "minato-ward-301-0-125662364-319749305", "species_group": "cherry", "scientific_name": "Prunus species", "common_name": "サクラ", "subtype_name": "サクラ", "zip_code": null, "ownership": "public", "ownership_raw": "Tokyo Metropolitan Government", "city": "Minato Ward", "source_dataset": "Street Trees / 街路樹", "source_department": "Tokyo Metropolitan Government", "source_last_edit_at": ""}}, {"type": "Feature", "geometry": {"type": "Point", "coordinates": [139.7493060000001, 35.66252199994455]}, "properties": {"id": "minato-ward-301-0-125662522-319749306", "species_group": "cherry", "scientific_name": "Prunus species", "common_name": "サクラ", "subtype_name": "サクラ", "zip_code": null, "ownership": "public", "ownership_raw": "Tokyo Metropolitan Government", "city": "Minato Ward", "source_dataset": "Street Trees / 街路樹", "source_department": "Tokyo Metropolitan Government", "source_last_edit_at": ""}}, {"type": "Feature", "geometry": {"type": "Point", "coordinates": [139.74933400000015, 35.663255999944546]}, "properties": {"id": "minato-ward-301-0-125663256-319749334", "species_group": "cherry", "scientific_name": "Prunus species", "common_name": "サクラ", "subtype_name": "サクラ", "zip_code": null, "ownership": "public", "ownership_raw": "Tokyo Metropolitan Government", "city": "Minato Ward", "source_dataset": "Street Trees / 街路樹", "source_department": "Tokyo Metropolitan Government", "source_last_edit_at": ""}}, {"type": "Feature", "geometry": {"type": "Point", "coordinates": [139.74933800000014, 35.66342099994452]}, "properties": {"id": "minato-ward-301-0-125663421-319749338", "species_group": "cherry", "scientific_name": "Prunus species", "common_name": "サクラ", "subtype_name": "サクラ", "zip_code": null, "ownership": "public", "ownership_raw": "Tokyo Metropolitan Government", "city": "Minato Ward", "source_dataset": "Street Trees / 街路樹", "source_department": "Tokyo Metropolitan Government", "source_last_edit_at": ""}}, {"type": "Feature", "geometry": {"type": "Point", "coordinates": [139.74934700000009, 35.66351699994456]}, "properties": {"id": "minato-ward-301-0-125663517-319749347", "species_group": "cherry", "scientific_name": "Prunus species", "common_name": "サクラ", "subtype_name": "サクラ", "zip_code": null, "ownership": "public", "ownership_raw": "Tokyo Metropolitan Government", "city": "Minato Ward", "source_dataset": "Street Trees / 街路樹", "source_department": "Tokyo Metropolitan Government", "source_last_edit_at": ""}}, {"type": "Feature", "geometry": {"type": "Point", "coordinates": [139.74935100000008, 35.663613999944545]}, "properties": {"id": "minato-ward-301-0-125663614-319749351", "species_group": "cherry", "scientific_name": "Prunus species", "common_name": "サクラ", "subtype_name": "サクラ", "zip_code": null, "ownership": "public", "ownership_raw": "Tokyo Metropolitan Government", "city": "Minato Ward", "source_dataset": "Street Trees / 街路樹", "source_department": "Tokyo Metropolitan Government", "source_last_edit_at": ""}}, {"type": "Feature", "geometry": {"type": "Point", "coordinates": [139.75125100000008, 35.66919499994443]}, "properties": {"id": "minato-ward-301-0-125669195-319751251", "species_group": "cherry", "scientific_name": "Prunus species", "common_name": "サクラ", "subtype_name": "サクラ", "zip_code": null, "ownership": "public", "ownership_raw": "Tokyo Metropolitan Government", "city": "Minato Ward", "source_dataset": "Street Trees / 街路樹", "source_department": "Tokyo Metropolitan Government", "source_last_edit_at": ""}}, {"type": "Feature", "geometry": {"type": "Point", "coordinates": [139.7199630000002, 35.635241999945194]}, "properties": {"id": "minato-ward-312-0-125635242-319719963", "species_group": "cherry", "scientific_name": "Prunus species", "common_name": "サクラ", "subtype_name": "サクラ", "zip_code": null, "ownership": "public", "ownership_raw": "Tokyo Metropolitan Government", "city": "Minato Ward", "source_dataset": "Street Trees / 街路樹", "source_department": "Tokyo Metropolitan Government", "source_last_edit_at": ""}}, {"type": "Feature", "geometry": {"type": "Point", "coordinates": [139.72012200000015, 35.6353029999452]}, "properties": {"id": "minato-ward-312-0-125635303-319720122", "species_group": "cherry", "scientific_name": "Prunus species", "common_name": "サクラ", "subtype_name": "サクラ", "zip_code": null, "ownership": "public", "ownership_raw": "Tokyo Metropolitan Government", "city": "Minato Ward", "source_dataset": "Street Trees / 街路樹", "source_department": "Tokyo Metropolitan Government", "source_last_edit_at": ""}}, {"type": "Feature", "geometry": {"type": "Point", "coordinates": [139.72142200000016, 35.63590799994514]}, "properties": {"id": "minato-ward-312-0-125635908-319721422", "species_group": "cherry", "scientific_name": "Prunus species", "common_name": "サクラ", "subtype_name": "サクラ", "zip_code": null, "ownership": "public", "ownership_raw": "Tokyo Metropolitan Government", "city": "Minato Ward", "source_dataset": "Street Trees / 街路樹", "source_department": "Tokyo Metropolitan Government", "source_last_edit_at": ""}}, {"type": "Feature", "geometry": {"type": "Point", "coordinates": [139.7545350000001, 35.641910999945026]}, "properties": {"id": "minato-ward-316-0-125641911-319754535", "species_group": "cherry", "scientific_name": "Prunus species", "common_name": "サクラ", "subtype_name": "サクラ", "zip_code": null, "ownership": "public", "ownership_raw": "Tokyo Metropolitan Government", "city": "Minato Ward", "source_dataset": "Street Trees / 街路樹", "source_department": "Tokyo Metropolitan Government", "source_last_edit_at": ""}}, {"type": "Feature", "geometry": {"type": "Point", "coordinates": [139.75585300000017, 35.64375099994499]}, "properties": {"id": "minato-ward-316-0-125643751-319755853", "species_group": "plum", "scientific_name": "Prunus species", "common_name": "ウメ", "subtype_name": "ウメ", "zip_code": null, "ownership": "public", "ownership_raw": "Tokyo Metropolitan Government", "city": "Minato Ward", "source_dataset": "Street Trees / 街路樹", "source_department": "Tokyo Metropolitan Government", "source_last_edit_at": ""}}, {"type": "Feature", "geometry": {"type": "Point", "coordinates": [139.75653000000017, 35.64516199994493]}, "properties": {"id": "minato-ward-316-0-125645162-319756530", "species_group": "cherry", "scientific_name": "Prunus species", "common_name": "サクラ", "subtype_name": "サクラ", "zip_code": null, "ownership": "public", "ownership_raw": "Tokyo Metropolitan Government", "city": "Minato Ward", "source_dataset": "Street Trees / 街路樹", "source_department": "Tokyo Metropolitan Government", "source_last_edit_at": ""}}, {"type": "Feature", "geometry": {"type": "Point", "coordinates": [139.7387370000001, 35.65612499994468]}, "properties": {"id": "minato-ward-319-0-125656125-319738737", "species_group": "cherry", "scientific_name": "Prunus species", "common_name": "サクラ", "subtype_name": "サクラ", "zip_code": null, "ownership": "public", "ownership_raw": "Tokyo Metropolitan Government", "city": "Minato Ward", "source_dataset": "Street Trees / 街路樹", "source_department": "Tokyo Metropolitan Government", "source_last_edit_at": ""}}, {"type": "Feature", "geometry": {"type": "Point", "coordinates": [139.73871700000015, 35.656126999944675]}, "properties": {"id": "minato-ward-319-0-125656127-319738717", "species_group": "cherry", "scientific_name": "Prunus species", "common_name": "サクラ", "subtype_name": "サクラ", "zip_code": null, "ownership": "public", "ownership_raw": "Tokyo Metropolitan Government", "city": "Minato Ward", "source_dataset": "Street Trees / 街路樹", "source_department": "Tokyo Metropolitan Government", "source_last_edit_at": ""}}, {"type": "Feature", "geometry": {"type": "Point", "coordinates": [139.73865900000018, 35.65613699994471]}, "properties": {"id": "minato-ward-319-0-125656137-319738659", "species_group": "cherry", "scientific_name": "Prunus species", "common_name": "サクラ", "subtype_name": "サクラ", "zip_code": null, "ownership": "public", "ownership_raw": "Tokyo Metropolitan Government", "city": "Minato Ward", "source_dataset": "Street Trees / 街路樹", "source_department": "Tokyo Metropolitan Government", "source_last_edit_at": ""}}, {"type": "Feature", "geometry": {"type": "Point", "coordinates": [139.7386470000001, 35.6561389999447]}, "properties": {"id": "minato-ward-319-0-125656139-319738647", "species_group": "plum", "scientific_name": "Prunus species", "common_name": "ウメ", "subtype_name": "ウメ", "zip_code": null, "ownership": "public", "ownership_raw": "Tokyo Metropolitan Government", "city": "Minato Ward", "source_dataset": "Street Trees / 街路樹", "source_department": "Tokyo Metropolitan Government", "source_last_edit_at": ""}}, {"type": "Feature", "geometry": {"type": "Point", "coordinates": [139.73859400000012, 35.65614799994468]}, "properties": {"id": "minato-ward-319-0-125656148-319738594", "species_group": "cherry", "scientific_name": "Prunus species", "common_name": "サクラ", "subtype_name": "サクラ", "zip_code": null, "ownership": "public", "ownership_raw": "Tokyo Metropolitan Government", "city": "Minato Ward", "source_dataset": "Street Trees / 街路樹", "source_department": "Tokyo Metropolitan Government", "source_last_edit_at": ""}}, {"type": "Feature", "geometry": {"type": "Point", "coordinates": [139.73853900000015, 35.65615699994472]}, "properties": {"id": "minato-ward-319-0-125656157-319738539", "species_group": "cherry", "scientific_name": "Prunus species", "common_name": "サクラ", "subtype_name": "サクラ", "zip_code": null, "ownership": "public", "ownership_raw": "Tokyo Metropolitan Government", "city": "Minato Ward", "source_dataset": "Street Trees / 街路樹", "source_department": "Tokyo Metropolitan Government", "source_last_edit_at": ""}}, {"type": "Feature", "geometry": {"type": "Point", "coordinates": [139.7360010000002, 35.656632999944705]}, "properties": {"id": "minato-ward-319-0-125656633-319736001", "species_group": "cherry", "scientific_name": "Prunus species", "common_name": "サクラ", "subtype_name": "サクラ", "zip_code": null, "ownership": "public", "ownership_raw": "Tokyo Metropolitan Government", "city": "Minato Ward", "source_dataset": "Street Trees / 街路樹", "source_department": "Tokyo Metropolitan Government", "source_last_edit_at": ""}}, {"type": "Feature", "geometry": {"type": "Point", "coordinates": [139.7359850000001, 35.6566359999447]}, "properties": {"id": "minato-ward-319-0-125656636-319735985", "species_group": "cherry", "scientific_name": "Prunus species", "common_name": "サクラ", "subtype_name": "サクラ", "zip_code": null, "ownership": "public", "ownership_raw": "Tokyo Metropolitan Government", "city": "Minato Ward", "source_dataset": "Street Trees / 街路樹", "source_department": "Tokyo Metropolitan Government", "source_last_edit_at": ""}}, {"type": "Feature", "geometry": {"type": "Point", "coordinates": [139.73578700000016, 35.65667599994471]}, "properties": {"id": "minato-ward-319-0-125656676-319735787", "species_group": "cherry", "scientific_name": "Prunus species", "common_name": "サクラ", "subtype_name": "サクラ", "zip_code": null, "ownership": "public", "ownership_raw": "Tokyo Metropolitan Government", "city": "Minato Ward", "source_dataset": "Street Trees / 街路樹", "source_department": "Tokyo Metropolitan Government", "source_last_edit_at": ""}}, {"type": "Feature", "geometry": {"type": "Point", "coordinates": [139.7323410000001, 35.65846599994463]}, "properties": {"id": "minato-ward-319-0-125658466-319732341", "species_group": "magnolia", "scientific_name": "Magnolia species", "common_name": "コブシ", "subtype_name": "コブシ", "zip_code": null, "ownership": "public", "ownership_raw": "Tokyo Metropolitan Government", "city": "Minato Ward", "source_dataset": "Street Trees / 街路樹", "source_department": "Tokyo Metropolitan Government", "source_last_edit_at": ""}}, {"type": "Feature", "geometry": {"type": "Point", "coordinates": [139.73232500000015, 35.65852399994466]}, "properties": {"id": "minato-ward-319-0-125658524-319732325", "species_group": "magnolia", "scientific_name": "Magnolia species", "common_name": "コブシ", "subtype_name": "コブシ", "zip_code": null, "ownership": "public", "ownership_raw": "Tokyo Metropolitan Government", "city": "Minato Ward", "source_dataset": "Street Trees / 街路樹", "source_department": "Tokyo Metropolitan Government", "source_last_edit_at": ""}}, {"type": "Feature", "geometry": {"type": "Point", "coordinates": [139.7323060000002, 35.658583999944675]}, "properties": {"id": "minato-ward-319-0-125658584-319732306", "species_group": "magnolia", "scientific_name": "Magnolia species", "common_name": "コブシ", "subtype_name": "コブシ", "zip_code": null, "ownership": "public", "ownership_raw": "Tokyo Metropolitan Government", "city": "Minato Ward", "source_dataset": "Street Trees / 街路樹", "source_department": "Tokyo Metropolitan Government", "source_last_edit_at": ""}}, {"type": "Feature", "geometry": {"type": "Point", "coordinates": [139.73254300000016, 35.65863999994465]}, "properties": {"id": "minato-ward-319-0-125658640-319732543", "species_group": "magnolia", "scientific_name": "Magnolia species", "common_name": "コブシ", "subtype_name": "コブシ", "zip_code": null, "ownership": "public", "ownership_raw": "Tokyo Metropolitan Government", "city": "Minato Ward", "source_dataset": "Street Trees / 街路樹", "source_department": "Tokyo Metropolitan Government", "source_last_edit_at": ""}}, {"type": "Feature", "geometry": {"type": "Point", "coordinates": [139.7322890000001, 35.65864199994464]}, "properties": {"id": "minato-ward-319-0-125658642-319732289", "species_group": "magnolia", "scientific_name": "Magnolia species", "common_name": "コブシ", "subtype_name": "コブシ", "zip_code": null, "ownership": "public", "ownership_raw": "Tokyo Metropolitan Government", "city": "Minato Ward", "source_dataset": "Street Trees / 街路樹", "source_department": "Tokyo Metropolitan Government", "source_last_edit_at": ""}}, {"type": "Feature", "geometry": {"type": "Point", "coordinates": [139.73227300000016, 35.65870199994466]}, "properties": {"id": "minato-ward-319-0-125658702-319732273", "species_group": "magnolia", "scientific_name": "Magnolia species", "common_name": "コブシ", "subtype_name": "コブシ", "zip_code": null, "ownership": "public", "ownership_raw": "Tokyo Metropolitan Government", "city": "Minato Ward", "source_dataset": "Street Trees / 街路樹", "source_department": "Tokyo Metropolitan Government", "source_last_edit_at": ""}}, {"type": "Feature", "geometry": {"type": "Point", "coordinates": [139.7325210000001, 35.65870499994465]}, "properties": {"id": "minato-ward-319-0-125658705-319732521", "species_group": "magnolia", "scientific_name": "Magnolia species", "common_name": "コブシ", "subtype_name": "コブシ", "zip_code": null, "ownership": "public", "ownership_raw": "Tokyo Metropolitan Government", "city": "Minato Ward", "source_dataset": "Street Trees / 街路樹", "source_department": "Tokyo Metropolitan Government", "source_last_edit_at": ""}}, {"type": "Feature", "geometry": {"type": "Point", "coordinates": [139.7309510000002, 35.66057999994461]}, "properties": {"id": "minato-ward-319-0-125660580-319730951", "species_group": "magnolia", "scientific_name": "Magnolia species", "common_name": "コブシ", "subtype_name": "コブシ", "zip_code": null, "ownership": "public", "ownership_raw": "Tokyo Metropolitan Government", "city": "Minato Ward", "source_dataset": "Street Trees / 街路樹", "source_department": "Tokyo Metropolitan Government", "source_last_edit_at": ""}}, {"type": "Feature", "geometry": {"type": "Point", "coordinates": [139.73086900000015, 35.660596999944616]}, "properties": {"id": "minato-ward-319-0-125660597-319730869", "species_group": "magnolia", "scientific_name": "Magnolia species", "common_name": "コブシ", "subtype_name": "コブシ", "zip_code": null, "ownership": "public", "ownership_raw": "Tokyo Metropolitan Government", "city": "Minato Ward", "source_dataset": "Street Trees / 街路樹", "source_department": "Tokyo Metropolitan Government", "source_last_edit_at": ""}}, {"type": "Feature", "geometry": {"type": "Point", "coordinates": [139.73066300000013, 35.660642999944606]}, "properties": {"id": "minato-ward-319-0-125660643-319730663", "species_group": "magnolia", "scientific_name": "Magnolia species", "common_name": "コブシ", "subtype_name": "コブシ", "zip_code": null, "ownership": "public", "ownership_raw": "Tokyo Metropolitan Government", "city": "Minato Ward", "source_dataset": "Street Trees / 街路樹", "source_department": "Tokyo Metropolitan Government", "source_last_edit_at": ""}}, {"type": "Feature", "geometry": {"type": "Point", "coordinates": [139.73058100000011, 35.66065999994462]}, "properties": {"id": "minato-ward-319-0-125660660-319730581", "species_group": "magnolia", "scientific_name": "Magnolia species", "common_name": "コブシ", "subtype_name": "コブシ", "zip_code": null, "ownership": "public", "ownership_raw": "Tokyo Metropolitan Government", "city": "Minato Ward", "source_dataset": "Street Trees / 街路樹", "source_department": "Tokyo Metropolitan Government", "source_last_edit_at": ""}}, {"type": "Feature", "geometry": {"type": "Point", "coordinates": [139.73020400000016, 35.6607789999446]}, "properties": {"id": "minato-ward-319-0-125660779-319730204", "species_group": "magnolia", "scientific_name": "Magnolia species", "common_name": "コブシ", "subtype_name": "コブシ", "zip_code": null, "ownership": "public", "ownership_raw": "Tokyo Metropolitan Government", "city": "Minato Ward", "source_dataset": "Street Trees / 街路樹", "source_department": "Tokyo Metropolitan Government", "source_last_edit_at": ""}}, {"type": "Feature", "geometry": {"type": "Point", "coordinates": [139.7221060000001, 35.674794999944325]}, "properties": {"id": "minato-ward-319-0-125674795-319722106", "species_group": "cherry", "scientific_name": "Prunus species", "common_name": "サクラ", "subtype_name": "サクラ", "zip_code": null, "ownership": "public", "ownership_raw": "Tokyo Metropolitan Government", "city": "Minato Ward", "source_dataset": "Street Trees / 街路樹", "source_department": "Tokyo Metropolitan Government", "source_last_edit_at": ""}}, {"type": "Feature", "geometry": {"type": "Point", "coordinates": [139.7220370000002, 35.67491599994429]}, "properties": {"id": "minato-ward-319-0-125674916-319722037", "species_group": "cherry", "scientific_name": "Prunus species", "common_name": "サクラ", "subtype_name": "サクラ", "zip_code": null, "ownership": "public", "ownership_raw": "Tokyo Metropolitan Government", "city": "Minato Ward", "source_dataset": "Street Trees / 街路樹", "source_department": "Tokyo Metropolitan Government", "source_last_edit_at": ""}}, {"type": "Feature", "geometry": {"type": "Point", "coordinates": [139.72193800000008, 35.67510099994428]}, "properties": {"id": "minato-ward-319-0-125675101-319721938", "species_group": "cherry", "scientific_name": "Prunus species", "common_name": "サクラ", "subtype_name": "サクラ", "zip_code": null, "ownership": "public", "ownership_raw": "Tokyo Metropolitan Government", "city": "Minato Ward", "source_dataset": "Street Trees / 街路樹", "source_department": "Tokyo Metropolitan Government", "source_last_edit_at": ""}}, {"type": "Feature", "geometry": {"type": "Point", "coordinates": [139.7219070000002, 35.67516799994427]}, "properties": {"id": "minato-ward-319-0-125675168-319721907", "species_group": "cherry", "scientific_name": "Prunus species", "common_name": "サクラ", "subtype_name": "サクラ", "zip_code": null, "ownership": "public", "ownership_raw": "Tokyo Metropolitan Government", "city": "Minato Ward", "source_dataset": "Street Trees / 街路樹", "source_department": "Tokyo Metropolitan Government", "source_last_edit_at": ""}}, {"type": "Feature", "geometry": {"type": "Point", "coordinates": [139.72184200000012, 35.6752909999443]}, "properties": {"id": "minato-ward-319-0-125675291-319721842", "species_group": "cherry", "scientific_name": "Prunus species", "common_name": "サクラ", "subtype_name": "サクラ", "zip_code": null, "ownership": "public", "ownership_raw": "Tokyo Metropolitan Government", "city": "Minato Ward", "source_dataset": "Street Trees / 街路樹", "source_department": "Tokyo Metropolitan Government", "source_last_edit_at": ""}}, {"type": "Feature", "geometry": {"type": "Point", "coordinates": [139.72182200000017, 35.675336999944285]}, "properties": {"id": "minato-ward-319-0-125675337-319721822", "species_group": "cherry", "scientific_name": "Prunus species", "common_name": "サクラ", "subtype_name": "サクラ", "zip_code": null, "ownership": "public", "ownership_raw": "Tokyo Metropolitan Government", "city": "Minato Ward", "source_dataset": "Street Trees / 街路樹", "source_department": "Tokyo Metropolitan Government", "source_last_edit_at": ""}}, {"type": "Feature", "geometry": {"type": "Point", "coordinates": [139.72177800000017, 35.67541199994429]}, "properties": {"id": "minato-ward-319-0-125675412-319721778", "species_group": "cherry", "scientific_name": "Prunus species", "common_name": "サクラ", "subtype_name": "サクラ", "zip_code": null, "ownership": "public", "ownership_raw": "Tokyo Metropolitan Government", "city": "Minato Ward", "source_dataset": "Street Trees / 街路樹", "source_department": "Tokyo Metropolitan Government", "source_last_edit_at": ""}}, {"type": "Feature", "geometry": {"type": "Point", "coordinates": [139.7217150000001, 35.67553499994424]}, "properties": {"id": "minato-ward-319-0-125675535-319721715", "species_group": "cherry", "scientific_name": "Prunus species", "common_name": "サクラ", "subtype_name": "サクラ", "zip_code": null, "ownership": "public", "ownership_raw": "Tokyo Metropolitan Government", "city": "Minato Ward", "source_dataset": "Street Trees / 街路樹", "source_department": "Tokyo Metropolitan Government", "source_last_edit_at": ""}}, {"type": "Feature", "geometry": {"type": "Point", "coordinates": [139.72168500000015, 35.67559199994428]}, "properties": {"id": "minato-ward-319-0-125675592-319721685", "species_group": "cherry", "scientific_name": "Prunus species", "common_name": "サクラ", "subtype_name": "サクラ", "zip_code": null, "ownership": "public", "ownership_raw": "Tokyo Metropolitan Government", "city": "Minato Ward", "source_dataset": "Street Trees / 街路樹", "source_department": "Tokyo Metropolitan Government", "source_last_edit_at": ""}}, {"type": "Feature", "geometry": {"type": "Point", "coordinates": [139.72165300000015, 35.67565499994429]}, "properties": {"id": "minato-ward-319-0-125675655-319721653", "species_group": "cherry", "scientific_name": "Prunus species", "common_name": "サクラ", "subtype_name": "サクラ", "zip_code": null, "ownership": "public", "ownership_raw": "Tokyo Metropolitan Government", "city": "Minato Ward", "source_dataset": "Street Trees / 街路樹", "source_department": "Tokyo Metropolitan Government", "source_last_edit_at": ""}}, {"type": "Feature", "geometry": {"type": "Point", "coordinates": [139.72162000000012, 35.675715999944295]}, "properties": {"id": "minato-ward-319-0-125675716-319721620", "species_group": "cherry", "scientific_name": "Prunus species", "common_name": "サクラ", "subtype_name": "サクラ", "zip_code": null, "ownership": "public", "ownership_raw": "Tokyo Metropolitan Government", "city": "Minato Ward", "source_dataset": "Street Trees / 街路樹", "source_department": "Tokyo Metropolitan Government", "source_last_edit_at": ""}}, {"type": "Feature", "geometry": {"type": "Point", "coordinates": [139.7207180000001, 35.677974999944226]}, "properties": {"id": "minato-ward-319-0-125677975-319720718", "species_group": "peach", "scientific_name": "Prunus species", "common_name": "ハナモモ", "subtype_name": "ハナモモ", "zip_code": null, "ownership": "public", "ownership_raw": "Tokyo Metropolitan Government", "city": "Minato Ward", "source_dataset": "Street Trees / 街路樹", "source_department": "Tokyo Metropolitan Government", "source_last_edit_at": ""}}, {"type": "Feature", "geometry": {"type": "Point", "coordinates": [139.72071200000013, 35.677996999944234]}, "properties": {"id": "minato-ward-319-0-125677997-319720712", "species_group": "peach", "scientific_name": "Prunus species", "common_name": "ハナモモ", "subtype_name": "ハナモモ", "zip_code": null, "ownership": "public", "ownership_raw": "Tokyo Metropolitan Government", "city": "Minato Ward", "source_dataset": "Street Trees / 街路樹", "source_department": "Tokyo Metropolitan Government", "source_last_edit_at": ""}}, {"type": "Feature", "geometry": {"type": "Point", "coordinates": [139.7206800000001, 35.67803599994426]}, "properties": {"id": "minato-ward-319-0-125678036-319720680", "species_group": "cherry", "scientific_name": "Prunus species", "common_name": "サクラ", "subtype_name": "サクラ", "zip_code": null, "ownership": "public", "ownership_raw": "Tokyo Metropolitan Government", "city": "Minato Ward", "source_dataset": "Street Trees / 街路樹", "source_department": "Tokyo Metropolitan Government", "source_last_edit_at": ""}}, {"type": "Feature", "geometry": {"type": "Point", "coordinates": [139.7206690000001, 35.678076999944196]}, "properties": {"id": "minato-ward-319-0-125678077-319720669", "species_group": "cherry", "scientific_name": "Prunus species", "common_name": "サクラ", "subtype_name": "サクラ", "zip_code": null, "ownership": "public", "ownership_raw": "Tokyo Metropolitan Government", "city": "Minato Ward", "source_dataset": "Street Trees / 街路樹", "source_department": "Tokyo Metropolitan Government", "source_last_edit_at": ""}}, {"type": "Feature", "geometry": {"type": "Point", "coordinates": [139.72047000000018, 35.67845999994418]}, "properties": {"id": "minato-ward-319-0-125678460-319720470", "species_group": "cherry", "scientific_name": "Prunus species", "common_name": "サクラ", "subtype_name": "サクラ", "zip_code": null, "ownership": "public", "ownership_raw": "Tokyo Metropolitan Government", "city": "Minato Ward", "source_dataset": "Street Trees / 街路樹", "source_department": "Tokyo Metropolitan Government", "source_last_edit_at": ""}}, {"type": "Feature", "geometry": {"type": "Point", "coordinates": [139.7203610000001, 35.67855999994422]}, "properties": {"id": "minato-ward-319-0-125678560-319720361", "species_group": "cherry", "scientific_name": "Prunus species", "common_name": "サクラ", "subtype_name": "サクラ", "zip_code": null, "ownership": "public", "ownership_raw": "Tokyo Metropolitan Government", "city": "Minato Ward", "source_dataset": "Street Trees / 街路樹", "source_department": "Tokyo Metropolitan Government", "source_last_edit_at": ""}}, {"type": "Feature", "geometry": {"type": "Point", "coordinates": [139.74271500000015, 35.670603999944355]}, "properties": {"id": "minato-ward-405-0-125670604-319742715", "species_group": "cherry", "scientific_name": "Prunus species", "common_name": "サクラ", "subtype_name": "サクラ", "zip_code": null, "ownership": "public", "ownership_raw": "Tokyo Metropolitan Government", "city": "Minato Ward", "source_dataset": "Street Trees / 街路樹", "source_department": "Tokyo Metropolitan Government", "source_last_edit_at": ""}}, {"type": "Feature", "geometry": {"type": "Point", "coordinates": [139.7326200000002, 35.67971299994418]}, "properties": {"id": "minato-ward-405-0-125679713-319732620", "species_group": "cherry", "scientific_name": "Prunus species", "common_name": "サクラ", "subtype_name": "サクラ", "zip_code": null, "ownership": "public", "ownership_raw": "Tokyo Metropolitan Government", "city": "Minato Ward", "source_dataset": "Street Trees / 街路樹", "source_department": "Tokyo Metropolitan Government", "source_last_edit_at": ""}}, {"type": "Feature", "geometry": {"type": "Point", "coordinates": [139.73205200000012, 35.68042299994419]}, "properties": {"id": "minato-ward-405-0-125680423-319732052", "species_group": "cherry", "scientific_name": "Prunus species", "common_name": "サクラ", "subtype_name": "サクラ", "zip_code": null, "ownership": "public", "ownership_raw": "Tokyo Metropolitan Government", "city": "Minato Ward", "source_dataset": "Street Trees / 街路樹", "source_department": "Tokyo Metropolitan Government", "source_last_edit_at": ""}}, {"type": "Feature", "geometry": {"type": "Point", "coordinates": [139.73193000000012, 35.680516999944174]}, "properties": {"id": "minato-ward-405-0-125680517-319731930", "species_group": "cherry", "scientific_name": "Prunus species", "common_name": "サクラ", "subtype_name": "サクラ", "zip_code": null, "ownership": "public", "ownership_raw": "Tokyo Metropolitan Government", "city": "Minato Ward", "source_dataset": "Street Trees / 街路樹", "source_department": "Tokyo Metropolitan Government", "source_last_edit_at": ""}}, {"type": "Feature", "geometry": {"type": "Point", "coordinates": [139.73185600000016, 35.68056999994416]}, "properties": {"id": "minato-ward-405-0-125680570-319731856", "species_group": "cherry", "scientific_name": "Prunus species", "common_name": "サクラ", "subtype_name": "サクラ", "zip_code": null, "ownership": "public", "ownership_raw": "Tokyo Metropolitan Government", "city": "Minato Ward", "source_dataset": "Street Trees / 街路樹", "source_department": "Tokyo Metropolitan Government", "source_last_edit_at": ""}}, {"type": "Feature", "geometry": {"type": "Point", "coordinates": [139.73173200000016, 35.68065999994416]}, "properties": {"id": "minato-ward-405-0-125680660-319731732", "species_group": "cherry", "scientific_name": "Prunus species", "common_name": "サクラ", "subtype_name": "サクラ", "zip_code": null, "ownership": "public", "ownership_raw": "Tokyo Metropolitan Government", "city": "Minato Ward", "source_dataset": "Street Trees / 街路樹", "source_department": "Tokyo Metropolitan Government", "source_last_edit_at": ""}}, {"type": "Feature", "geometry": {"type": "Point", "coordinates": [139.7316750000002, 35.68069899994417]}, "properties": {"id": "minato-ward-405-0-125680699-319731675", "species_group": "cherry", "scientific_name": "Prunus species", "common_name": "サクラ", "subtype_name": "サクラ", "zip_code": null, "ownership": "public", "ownership_raw": "Tokyo Metropolitan Government", "city": "Minato Ward", "source_dataset": "Street Trees / 街路樹", "source_department": "Tokyo Metropolitan Government", "source_last_edit_at": ""}}, {"type": "Feature", "geometry": {"type": "Point", "coordinates": [139.73123500000017, 35.68100699994419]}, "properties": {"id": "minato-ward-405-0-125681007-319731235", "species_group": "cherry", "scientific_name": "Prunus species", "common_name": "サクラ", "subtype_name": "サクラ", "zip_code": null, "ownership": "public", "ownership_raw": "Tokyo Metropolitan Government", "city": "Minato Ward", "source_dataset": "Street Trees / 街路樹", "source_department": "Tokyo Metropolitan Government", "source_last_edit_at": ""}}, {"type": "Feature", "geometry": {"type": "Point", "coordinates": [139.73119200000016, 35.68104099994415]}, "properties": {"id": "minato-ward-405-0-125681041-319731192", "species_group": "cherry", "scientific_name": "Prunus species", "common_name": "サクラ", "subtype_name": "サクラ", "zip_code": null, "ownership": "public", "ownership_raw": "Tokyo Metropolitan Government", "city": "Minato Ward", "source_dataset": "Street Trees / 街路樹", "source_department": "Tokyo Metropolitan Government", "source_last_edit_at": ""}}, {"type": "Feature", "geometry": {"type": "Point", "coordinates": [139.7311330000002, 35.68107499994419]}, "properties": {"id": "minato-ward-405-0-125681075-319731133", "species_group": "cherry", "scientific_name": "Prunus species", "common_name": "サクラ", "subtype_name": "サクラ", "zip_code": null, "ownership": "public", "ownership_raw": "Tokyo Metropolitan Government", "city": "Minato Ward", "source_dataset": "Street Trees / 街路樹", "source_department": "Tokyo Metropolitan Government", "source_last_edit_at": ""}}, {"type": "Feature", "geometry": {"type": "Point", "coordinates": [139.7533610000001, 35.66476099994452]}, "properties": {"id": "minato-ward-409-0-125664761-319753361", "species_group": "cherry", "scientific_name": "Prunus species", "common_name": "サクラ", "subtype_name": "サクラ", "zip_code": null, "ownership": "public", "ownership_raw": "Tokyo Metropolitan Government", "city": "Minato Ward", "source_dataset": "Street Trees / 街路樹", "source_department": "Tokyo Metropolitan Government", "source_last_edit_at": ""}}, {"type": "Feature", "geometry": {"type": "Point", "coordinates": [139.71359600000014, 35.6645479999445]}, "properties": {"id": "minato-ward-413-0-125664548-319713596", "species_group": "plum", "scientific_name": "Prunus species", "common_name": "ウメ", "subtype_name": "ウメ", "zip_code": null, "ownership": "public", "ownership_raw": "Tokyo Metropolitan Government", "city": "Minato Ward", "source_dataset": "Street Trees / 街路樹", "source_department": "Tokyo Metropolitan Government", "source_last_edit_at": ""}}, {"type": "Feature", "geometry": {"type": "Point", "coordinates": [139.73229300000008, 35.6691599999444]}, "properties": {"id": "minato-ward-413-0-125669160-319732293", "species_group": "cherry", "scientific_name": "Prunus species", "common_name": "サクラ", "subtype_name": "サクラ", "zip_code": null, "ownership": "public", "ownership_raw": "Tokyo Metropolitan Government", "city": "Minato Ward", "source_dataset": "Street Trees / 街路樹", "source_department": "Tokyo Metropolitan Government", "source_last_edit_at": ""}}, {"type": "Feature", "geometry": {"type": "Point", "coordinates": [139.7326090000001, 35.66927999994444]}, "properties": {"id": "minato-ward-413-0-125669280-319732609", "species_group": "cherry", "scientific_name": "Prunus species", "common_name": "サクラ", "subtype_name": "サクラ", "zip_code": null, "ownership": "public", "ownership_raw": "Tokyo Metropolitan Government", "city": "Minato Ward", "source_dataset": "Street Trees / 街路樹", "source_department": "Tokyo Metropolitan Government", "source_last_edit_at": ""}}, {"type": "Feature", "geometry": {"type": "Point", "coordinates": [139.7369690000001, 35.655654999944694]}, "properties": {"id": "minato-ward-415-0-125655655-319736969", "species_group": "cherry", "scientific_name": "Prunus species", "common_name": "サクラ", "subtype_name": "サクラ", "zip_code": null, "ownership": "public", "ownership_raw": "Tokyo Metropolitan Government", "city": "Minato Ward", "source_dataset": "Street Trees / 街路樹", "source_department": "Tokyo Metropolitan Government", "source_last_edit_at": ""}}, {"type": "Feature", "geometry": {"type": "Point", "coordinates": [139.73812500000017, 35.66286799994457]}, "properties": {"id": "minato-ward-415-0-125662868-319738125", "species_group": "cherry", "scientific_name": "Prunus species", "common_name": "サクラ", "subtype_name": "サクラ", "zip_code": null, "ownership": "public", "ownership_raw": "Tokyo Metropolitan Government", "city": "Minato Ward", "source_dataset": "Street Trees / 街路樹", "source_department": "Tokyo Metropolitan Government", "source_last_edit_at": ""}}, {"type": "Feature", "geometry": {"type": "Point", "coordinates": [139.73815200000007, 35.66298499994455]}, "properties": {"id": "minato-ward-415-0-125662985-319738152", "species_group": "cherry", "scientific_name": "Prunus species", "common_name": "サクラ", "subtype_name": "サクラ", "zip_code": null, "ownership": "public", "ownership_raw": "Tokyo Metropolitan Government", "city": "Minato Ward", "source_dataset": "Street Trees / 街路樹", "source_department": "Tokyo Metropolitan Government", "source_last_edit_at": ""}}, {"type": "Feature", "geometry": {"type": "Point", "coordinates": [139.73820900000018, 35.66323699994454]}, "properties": {"id": "minato-ward-415-0-125663237-319738209", "species_group": "cherry", "scientific_name": "Prunus species", "common_name": "サクラ", "subtype_name": "サクラ", "zip_code": null, "ownership": "public", "ownership_raw": "Tokyo Metropolitan Government", "city": "Minato Ward", "source_dataset": "Street Trees / 街路樹", "source_department": "Tokyo Metropolitan Government", "source_last_edit_at": ""}}, {"type": "Feature", "geometry": {"type": "Point", "coordinates": [139.73865800000019, 35.66592399994452]}, "properties": {"id": "minato-ward-415-0-125665924-319738658", "species_group": "magnolia", "scientific_name": "Magnolia species", "common_name": "コブシ", "subtype_name": "コブシ", "zip_code": null, "ownership": "public", "ownership_raw": "Tokyo Metropolitan Government", "city": "Minato Ward", "source_dataset": "Street Trees / 街路樹", "source_department": "Tokyo Metropolitan Government", "source_last_edit_at": ""}}, {"type": "Feature", "geometry": {"type": "Point", "coordinates": [139.7195020000001, 35.635165999945144]}, "properties": {"id": "minato-ward-418-0-125635166-319719502", "species_group": "cherry", "scientific_name": "Prunus species", "common_name": "サクラ", "subtype_name": "サクラ", "zip_code": null, "ownership": "public", "ownership_raw": "Tokyo Metropolitan Government", "city": "Minato Ward", "source_dataset": "Street Trees / 街路樹", "source_department": "Tokyo Metropolitan Government", "source_last_edit_at": ""}}, {"type": "Feature", "geometry": {"type": "Point", "coordinates": [139.75886500000007, 35.66017099994461]}, "properties": {"id": "minato-ward-481-0-125660171-319758865", "species_group": "plum", "scientific_name": "Prunus species", "common_name": "ミロバランスモモ", "subtype_name": "ミロバランスモモ", "zip_code": null, "ownership": "public", "ownership_raw": "Tokyo Metropolitan Government", "city": "Minato Ward", "source_dataset": "Street Trees / 街路樹", "source_department": "Tokyo Metropolitan Government", "source_last_edit_at": ""}}, {"type": "Feature", "geometry": {"type": "Point", "coordinates": [139.75893100000013, 35.66020299994459]}, "properties": {"id": "minato-ward-481-0-125660203-319758931", "species_group": "plum", "scientific_name": "Prunus species", "common_name": "ミロバランスモモ", "subtype_name": "ミロバランスモモ", "zip_code": null, "ownership": "public", "ownership_raw": "Tokyo Metropolitan Government", "city": "Minato Ward", "source_dataset": "Street Trees / 街路樹", "source_department": "Tokyo Metropolitan Government", "source_last_edit_at": ""}}, {"type": "Feature", "geometry": {"type": "Point", "coordinates": [139.75888600000013, 35.6602659999446]}, "properties": {"id": "minato-ward-481-0-125660266-319758886", "species_group": "plum", "scientific_name": "Prunus species", "common_name": "ミロバランスモモ", "subtype_name": "ミロバランスモモ", "zip_code": null, "ownership": "public", "ownership_raw": "Tokyo Metropolitan Government", "city": "Minato Ward", "source_dataset": "Street Trees / 街路樹", "source_department": "Tokyo Metropolitan Government", "source_last_edit_at": ""}}, {"type": "Feature", "geometry": {"type": "Point", "coordinates": [139.75895200000005, 35.66028399994462]}, "properties": {"id": "minato-ward-481-0-125660284-319758952", "species_group": "plum", "scientific_name": "Prunus species", "common_name": "ミロバランスモモ", "subtype_name": "ミロバランスモモ", "zip_code": null, "ownership": "public", "ownership_raw": "Tokyo Metropolitan Government", "city": "Minato Ward", "source_dataset": "Street Trees / 街路樹", "source_department": "Tokyo Metropolitan Government", "source_last_edit_at": ""}}, {"type": "Feature", "geometry": {"type": "Point", "coordinates": [139.75891100000004, 35.6603989999446]}, "properties": {"id": "minato-ward-481-0-125660399-319758911", "species_group": "peach", "scientific_name": "Prunus species", "common_name": "ハナモモ", "subtype_name": "ハナモモ", "zip_code": null, "ownership": "public", "ownership_raw": "Tokyo Metropolitan Government", "city": "Minato Ward", "source_dataset": "Street Trees / 街路樹", "source_department": "Tokyo Metropolitan Government", "source_last_edit_at": ""}}, {"type": "Feature", "geometry": {"type": "Point", "coordinates": [139.75896900000015, 35.660414999944614]}, "properties": {"id": "minato-ward-481-0-125660415-319758969", "species_group": "peach", "scientific_name": "Prunus species", "common_name": "ハナモモ", "subtype_name": "ハナモモ", "zip_code": null, "ownership": "public", "ownership_raw": "Tokyo Metropolitan Government", "city": "Minato Ward", "source_dataset": "Street Trees / 街路樹", "source_department": "Tokyo Metropolitan Government", "source_last_edit_at": ""}}, {"type": "Feature", "geometry": {"type": "Point", "coordinates": [139.75892100000016, 35.66043699994462]}, "properties": {"id": "minato-ward-481-0-125660437-319758921", "species_group": "peach", "scientific_name": "Prunus species", "common_name": "ハナモモ", "subtype_name": "ハナモモ", "zip_code": null, "ownership": "public", "ownership_raw": "Tokyo Metropolitan Government", "city": "Minato Ward", "source_dataset": "Street Trees / 街路樹", "source_department": "Tokyo Metropolitan Government", "source_last_edit_at": ""}}, {"type": "Feature", "geometry": {"type": "Point", "coordinates": [139.7590310000001, 35.66073399994459]}, "properties": {"id": "minato-ward-481-0-125660734-319759031", "species_group": "peach", "scientific_name": "Prunus species", "common_name": "ハナモモ", "subtype_name": "ハナモモ", "zip_code": null, "ownership": "public", "ownership_raw": "Tokyo Metropolitan Government", "city": "Minato Ward", "source_dataset": "Street Trees / 街路樹", "source_department": "Tokyo Metropolitan Government", "source_last_edit_at": ""}}, {"type": "Feature", "geometry": {"type": "Point", "coordinates": [139.75907100000012, 35.6610699999446]}, "properties": {"id": "minato-ward-481-0-125661070-319759071", "species_group": "cherry", "scientific_name": "Prunus species", "common_name": "サクラ", "subtype_name": "サクラ", "zip_code": null, "ownership": "public", "ownership_raw": "Tokyo Metropolitan Government", "city": "Minato Ward", "source_dataset": "Street Trees / 街路樹", "source_department": "Tokyo Metropolitan Government", "source_last_edit_at": ""}}, {"type": "Feature", "geometry": {"type": "Point", "coordinates": [139.76230100000015, 35.665891999944485]}, "properties": {"id": "minato-ward-481-0-125665892-319762301", "species_group": "cherry", "scientific_name": "Prunus species", "common_name": "サクラ", "subtype_name": "サクラ", "zip_code": null, "ownership": "public", "ownership_raw": "Tokyo Metropolitan Government", "city": "Minato Ward", "source_dataset": "Street Trees / 街路樹", "source_department": "Tokyo Metropolitan Government", "source_last_edit_at": ""}}, {"type": "Feature", "geometry": {"type": "Point", "coordinates": [139.77109400000012, 35.625725999945374]}, "properties": {"id": "minato-ward-482-0-125625726-319771094", "species_group": "cherry", "scientific_name": "Prunus species", "common_name": "サクラ", "subtype_name": "サクラ", "zip_code": null, "ownership": "public", "ownership_raw": "Tokyo Metropolitan Government", "city": "Minato Ward", "source_dataset": "Street Trees / 街路樹", "source_department": "Tokyo Metropolitan Government", "source_last_edit_at": ""}}]}