{"type": "FeatureCollection", "features": [{"type": "Feature", "geometry": {"type": "Point", "coordinates": [-122.79696754747496, 45.48508166792902]}, "properties": {"id": "beaverton-112", "species_group": "plum", "scientific_name": "Prunus cerasifera 'Thundercloud'", "common_name": "Thundercloud Flowering Plum", "subtype_name": "Thundercloud", "zip_code": "97005", "ownership": "public", "ownership_raw": "City of Beaverton", "city": "Beaverton", "source_dataset": "Street of Trees", "source_department": "City of Beaverton", "source_last_edit_at": "2025-12-19T16:15:13.054000+00:00"}}, {"type": "Feature", "geometry": {"type": "Point", "coordinates": [-122.79727625641297, 45.484920200149176]}, "properties": {"id": "beaverton-113", "species_group": "plum", "scientific_name": "Prunus cerasifera 'krauter's vesuvius'", "common_name": "Krauter'S Vesuvius Flowering Plum", "subtype_name": "Vesuvius", "zip_code": "97005", "ownership": "public", "ownership_raw": "City of Beaverton", "city": "Beaverton", "source_dataset": "Street of Trees", "source_department": "City of Beaverton", "source_last_edit_at": "2025-12-19T16:15:13.054000+00:00"}}, {"type": "Feature", "geometry": {"type": "Point", "coordinates": [-122.79709239910976, 45.48471928344792]}, "properties": {"id": "beaverton-114", "species_group": "plum", "scientific_name": "Prunus cerasifera 'Newport'", "common_name": "Newport Flowering Plum", "subtype_name": "Newport", "zip_code": "97005", "ownership": "public", "ownership_raw": "City of Beaverton", "city": "Beaverton", "source_dataset": "Street of Trees", "source_department": "City of Beaverton", "source_last_edit_at": "2025-12-19T16:15:13.054000+00:00"}}, {"type": "Feature", "geometry": {"type": "Point", "coordinates": [-122.79731336623375, 45.48475773476466]}, "properties": {"id": "beaverton-115", "species_group": "crabapple", "scientific_name": "Malus 'spring snow'", "common_name": "Spring Snow Crabapple", "subtype_name": "Spring Snow Crabapple", "zip_code": "97005", "ownership": "public", "ownership_raw": "City of Beaverton", "city": "Beaverton", "source_dataset": "Street of Trees", "source_department": "City of Beaverton", "source_last_edit_at": "2025-12-19T16:15:13.054000+00:00"}}, {"type": "Feature", "geometry": {"type": "Point", "coordinates": [-122.79750077913003, 45.484971203504706]}, "properties": {"id": "beaverton-116", "species_group": "crabapple", "scientific_name": "Malus 'sugar tyme'", "common_name": "Sugar Tyme Crabapple", "subtype_name": "Sugar Tyme Crabapple", "zip_code": "97005", "ownership": "public", "ownership_raw": "City of Beaverton", "city": "Beaverton", "source_dataset": "Street of Trees", "source_department": "City of Beaverton", "source_last_edit_at": "2025-12-19T16:15:13.054000+00:00"}}, {"type": "Feature", "geometry": {"type": "Point", "coordinates": [-122.79775534028074, 45.48527097814838]}, "properties": {"id": "beaverton-117", "species_group": "crabapple", "scientific_name": "Malus 'Royalty'", "common_name": "Royalty Crabapple", "subtype_name": "Royalty Crabapple", "zip_code": "97005", "ownership": "public", "ownership_raw": "City of Beaverton", "city": "Beaverton", "source_dataset": "Street of Trees", "source_department": "City of Beaverton", "source_last_edit_at": "2025-12-19T16:15:13.054000+00:00"}}, {"type": "Feature", "geometry": {"type": "Point", "coordinates": [-122.79777338236839, 45.48558310660536]}, "properties": {"id": "beaverton-122", "species_group": "crabapple", "scientific_name": "Malus 'red baron'", "common_name": "Red Baron Crabapple", "subtype_name": "Red Baron Crabapple", "zip_code": "97005", "ownership": "public", "ownership_raw": "City of Beaverton", "city": "Beaverton", "source_dataset": "Street of Trees", "source_department": "City of Beaverton", "source_last_edit_at": "2025-12-19T16:15:13.054000+00:00"}}, {"type": "Feature", "geometry": {"type": "Point", "coordinates": [-122.79748526101571, 45.48525732784044]}, "properties": {"id": "beaverton-129", "species_group": "cherry", "scientific_name": "Prunus sargentii 'Columnaris'", "common_name": "Columnar Sargent Flowering Cherry", "subtype_name": "Sargent", "zip_code": "97005", "ownership": "public", "ownership_raw": "City of Beaverton", "city": "Beaverton", "source_dataset": "Street of Trees", "source_department": "City of Beaverton", "source_last_edit_at": "2025-12-19T16:15:13.054000+00:00"}}, {"type": "Feature", "geometry": {"type": "Point", "coordinates": [-122.79546958101147, 45.48466045324354]}, "properties": {"id": "beaverton-139", "species_group": "magnolia", "scientific_name": "Magnolia grandiflora", "common_name": "Southern Magnolia", "subtype_name": "Southern Magnolia", "zip_code": "97005", "ownership": "public", "ownership_raw": "City of Beaverton", "city": "Beaverton", "source_dataset": "Street of Trees", "source_department": "City of Beaverton", "source_last_edit_at": "2025-12-19T16:15:13.054000+00:00"}}, {"type": "Feature", "geometry": {"type": "Point", "coordinates": [-122.79735615084518, 45.48599283215384]}, "properties": {"id": "beaverton-2", "species_group": "cherry", "scientific_name": "Prunus x yedoensis 'Afterglow'", "common_name": "Afterglow Flowering Cherry", "subtype_name": "Yoshino", "zip_code": "97005", "ownership": "public", "ownership_raw": "City of Beaverton", "city": "Beaverton", "source_dataset": "Street of Trees", "source_department": "City of Beaverton", "source_last_edit_at": "2025-12-19T16:15:13.054000+00:00"}}, {"type": "Feature", "geometry": {"type": "Point", "coordinates": [-122.79458347307146, 45.48329687067651]}, "properties": {"id": "beaverton-33", "species_group": "crabapple", "scientific_name": "Malus 'Profusion'", "common_name": "Profusion Crabapple", "subtype_name": "Profusion Crabapple", "zip_code": "97005", "ownership": "public", "ownership_raw": "City of Beaverton", "city": "Beaverton", "source_dataset": "Street of Trees", "source_department": "City of Beaverton", "source_last_edit_at": "2025-12-19T16:15:13.054000+00:00"}}, {"type": "Feature", "geometry": {"type": "Point", "coordinates": [-122.79449510781765, 45.48295888733406]}, "properties": {"id": "beaverton-37", "species_group": "cherry", "scientific_name": "Prunus x yedoensis", "common_name": "Yoshino Flowering Cherry", "subtype_name": "Yoshino", "zip_code": "97005", "ownership": "public", "ownership_raw": "City of Beaverton", "city": "Beaverton", "source_dataset": "Street of Trees", "source_department": "City of Beaverton", "source_last_edit_at": "2025-12-19T16:15:13.054000+00:00"}}, {"type": "Feature", "geometry": {"type": "Point", "coordinates": [-122.79550528331484, 45.484551272535924]}, "properties": {"id": "beaverton-92", "species_group": "magnolia", "scientific_name": "Magnolia kobus", "common_name": "Kobus Magnolia", "subtype_name": "Kobus Magnolia", "zip_code": "97005", "ownership": "public", "ownership_raw": "City of Beaverton", "city": "Beaverton", "source_dataset": "Street of Trees", "source_department": "City of Beaverton", "source_last_edit_at": "2025-12-19T16:15:13.054000+00:00"}}]}