{"type": "FeatureCollection", "features": [{"type": "Feature", "geometry": {"type": "Point", "coordinates": [-111.96051377925694, 40.657488934565116]}, "properties": {"id": "taylorsville-14090", "species_group": "crabapple", "scientific_name": "Malus species", "common_name": "Crabapple", "subtype_name": null, "zip_code": "84129", "ownership": "public", "ownership_raw": "City of Taylorsville", "city": "Taylorsville", "source_dataset": "Utah Urban Tree Inventory", "source_department": "City of Taylorsville", "source_last_edit_at": "2026-03-28T17:19:55.001000+00:00"}}, {"type": "Feature", "geometry": {"type": "Point", "coordinates": [-111.95852524577829, 40.659054935927195]}, "properties": {"id": "taylorsville-14115", "species_group": "crabapple", "scientific_name": "Malus species", "common_name": "Crabapple", "subtype_name": null, "zip_code": "84129", "ownership": "public", "ownership_raw": "City of Taylorsville", "city": "Taylorsville", "source_dataset": "Utah Urban Tree Inventory", "source_department": "City of Taylorsville", "source_last_edit_at": "2026-03-28T17:19:55.001000+00:00"}}, {"type": "Feature", "geometry": {"type": "Point", "coordinates": [-111.95856137445044, 40.65909967889861]}, "properties": {"id": "taylorsville-14116", "species_group": "crabapple", "scientific_name": "Malus species", "common_name": "Crabapple", "subtype_name": null, "zip_code": "84129", "ownership": "public", "ownership_raw": "City of Taylorsville", "city": "Taylorsville", "source_dataset": "Utah Urban Tree Inventory", "source_department": "City of Taylorsville", "source_last_edit_at": "2026-03-28T17:19:55.001000+00:00"}}, {"type": "Feature", "geometry": {"type": "Point", "coordinates": [-111.95860933117157, 40.6591443236574]}, "properties": {"id": "taylorsville-14117", "species_group": "crabapple", "scientific_name": "Malus species", "common_name": "Crabapple", "subtype_name": null, "zip_code": "84129", "ownership": "public", "ownership_raw": "City of Taylorsville", "city": "Taylorsville", "source_dataset": "Utah Urban Tree Inventory", "source_department": "City of Taylorsville", "source_last_edit_at": "2026-03-28T17:19:55.001000+00:00"}}, {"type": "Feature", "geometry": {"type": "Point", "coordinates": [-111.95864584681544, 40.65921608913157]}, "properties": {"id": "taylorsville-14208", "species_group": "crabapple", "scientific_name": "Malus species", "common_name": "Crabapple", "subtype_name": null, "zip_code": "84129", "ownership": "public", "ownership_raw": "City of Taylorsville", "city": "Taylorsville", "source_dataset": "Utah Urban Tree Inventory", "source_department": "City of Taylorsville", "source_last_edit_at": "2026-03-28T17:19:55.001000+00:00"}}, {"type": "Feature", "geometry": {"type": "Point", "coordinates": [-111.95867001867676, 40.65925192276007]}, "properties": {"id": "taylorsville-14209", "species_group": "crabapple", "scientific_name": "Malus species", "common_name": "Crabapple", "subtype_name": null, "zip_code": "84129", "ownership": "public", "ownership_raw": "City of Taylorsville", "city": "Taylorsville", "source_dataset": "Utah Urban Tree Inventory", "source_department": "City of Taylorsville", "source_last_edit_at": "2026-03-28T17:19:55.001000+00:00"}}, {"type": "Feature", "geometry": {"type": "Point", "coordinates": [-111.95871797558047, 40.659296567470506]}, "properties": {"id": "taylorsville-14210", "species_group": "crabapple", "scientific_name": "Malus species", "common_name": "Crabapple", "subtype_name": null, "zip_code": "84129", "ownership": "public", "ownership_raw": "City of Taylorsville", "city": "Taylorsville", "source_dataset": "Utah Urban Tree Inventory", "source_department": "City of Taylorsville", "source_last_edit_at": "2026-03-28T17:19:55.001000+00:00"}}, {"type": "Feature", "geometry": {"type": "Point", "coordinates": [-111.95876567460373, 40.659323197140395]}, "properties": {"id": "taylorsville-14211", "species_group": "crabapple", "scientific_name": "Malus species", "common_name": "Crabapple", "subtype_name": null, "zip_code": "84129", "ownership": "public", "ownership_raw": "City of Taylorsville", "city": "Taylorsville", "source_dataset": "Utah Urban Tree Inventory", "source_department": "City of Taylorsville", "source_last_edit_at": "2026-03-28T17:19:55.001000+00:00"}}, {"type": "Feature", "geometry": {"type": "Point", "coordinates": [-111.95881337366473, 40.659349826789985]}, "properties": {"id": "taylorsville-14212", "species_group": "crabapple", "scientific_name": "Malus species", "common_name": "Crabapple", "subtype_name": null, "zip_code": "84129", "ownership": "public", "ownership_raw": "City of Taylorsville", "city": "Taylorsville", "source_dataset": "Utah Urban Tree Inventory", "source_department": "City of Taylorsville", "source_last_edit_at": "2026-03-28T17:19:55.001000+00:00"}}, {"type": "Feature", "geometry": {"type": "Point", "coordinates": [-111.95901599834045, 40.65945624694313]}, "properties": {"id": "taylorsville-14213", "species_group": "crabapple", "scientific_name": "Malus species", "common_name": "Crabapple", "subtype_name": null, "zip_code": "84129", "ownership": "public", "ownership_raw": "City of Taylorsville", "city": "Taylorsville", "source_dataset": "Utah Urban Tree Inventory", "source_department": "City of Taylorsville", "source_last_edit_at": "2026-03-28T17:19:55.001000+00:00"}}, {"type": "Feature", "geometry": {"type": "Point", "coordinates": [-111.95907539663871, 40.6594737707289]}, "properties": {"id": "taylorsville-14214", "species_group": "crabapple", "scientific_name": "Malus species", "common_name": "Crabapple", "subtype_name": null, "zip_code": "84129", "ownership": "public", "ownership_raw": "City of Taylorsville", "city": "Taylorsville", "source_dataset": "Utah Urban Tree Inventory", "source_department": "City of Taylorsville", "source_last_edit_at": "2026-03-28T17:19:55.001000+00:00"}}, {"type": "Feature", "geometry": {"type": "Point", "coordinates": [-111.96062087463395, 40.657533086519166]}, "properties": {"id": "taylorsville-14215", "species_group": "crabapple", "scientific_name": "Malus species", "common_name": "Crabapple", "subtype_name": null, "zip_code": "84129", "ownership": "public", "ownership_raw": "City of Taylorsville", "city": "Taylorsville", "source_dataset": "Utah Urban Tree Inventory", "source_department": "City of Taylorsville", "source_last_edit_at": "2026-03-28T17:19:55.001000+00:00"}}, {"type": "Feature", "geometry": {"type": "Point", "coordinates": [-111.96069248700199, 40.65757753361139]}, "properties": {"id": "taylorsville-14216", "species_group": "crabapple", "scientific_name": "Malus species", "common_name": "Crabapple", "subtype_name": null, "zip_code": "84129", "ownership": "public", "ownership_raw": "City of Taylorsville", "city": "Taylorsville", "source_dataset": "Utah Urban Tree Inventory", "source_department": "City of Taylorsville", "source_last_edit_at": "2026-03-28T17:19:55.001000+00:00"}}, {"type": "Feature", "geometry": {"type": "Point", "coordinates": [-111.96076409946485, 40.65762198065777]}, "properties": {"id": "taylorsville-14217", "species_group": "crabapple", "scientific_name": "Malus species", "common_name": "Crabapple", "subtype_name": null, "zip_code": "84129", "ownership": "public", "ownership_raw": "City of Taylorsville", "city": "Taylorsville", "source_dataset": "Utah Urban Tree Inventory", "source_department": "City of Taylorsville", "source_last_edit_at": "2026-03-28T17:19:55.001000+00:00"}}, {"type": "Feature", "geometry": {"type": "Point", "coordinates": [-111.96081192731931, 40.65765761700124]}, "properties": {"id": "taylorsville-14218", "species_group": "crabapple", "scientific_name": "Malus species", "common_name": "Crabapple", "subtype_name": null, "zip_code": "84129", "ownership": "public", "ownership_raw": "City of Taylorsville", "city": "Taylorsville", "source_dataset": "Utah Urban Tree Inventory", "source_department": "City of Taylorsville", "source_last_edit_at": "2026-03-28T17:19:55.001000+00:00"}}, {"type": "Feature", "geometry": {"type": "Point", "coordinates": [-111.96085975522465, 40.6576932533241]}, "properties": {"id": "taylorsville-14219", "species_group": "crabapple", "scientific_name": "Malus species", "common_name": "Crabapple", "subtype_name": null, "zip_code": "84129", "ownership": "public", "ownership_raw": "City of Taylorsville", "city": "Taylorsville", "source_dataset": "Utah Urban Tree Inventory", "source_department": "City of Taylorsville", "source_last_edit_at": "2026-03-28T17:19:55.001000+00:00"}}, {"type": "Feature", "geometry": {"type": "Point", "coordinates": [-111.96090771243402, 40.65773789713301]}, "properties": {"id": "taylorsville-14220", "species_group": "crabapple", "scientific_name": "Malus species", "common_name": "Crabapple", "subtype_name": null, "zip_code": "84129", "ownership": "public", "ownership_raw": "City of Taylorsville", "city": "Taylorsville", "source_dataset": "Utah Urban Tree Inventory", "source_department": "City of Taylorsville", "source_last_edit_at": "2026-03-28T17:19:55.001000+00:00"}}, {"type": "Feature", "geometry": {"type": "Point", "coordinates": [-111.96095554044774, 40.65777353341446]}, "properties": {"id": "taylorsville-14221", "species_group": "crabapple", "scientific_name": "Malus species", "common_name": "Crabapple", "subtype_name": null, "zip_code": "84129", "ownership": "public", "ownership_raw": "City of Taylorsville", "city": "Taylorsville", "source_dataset": "Utah Urban Tree Inventory", "source_department": "City of Taylorsville", "source_last_edit_at": "2026-03-28T17:19:55.001000+00:00"}}, {"type": "Feature", "geometry": {"type": "Point", "coordinates": [-111.9610034977787, 40.65781817718159]}, "properties": {"id": "taylorsville-14222", "species_group": "crabapple", "scientific_name": "Malus species", "common_name": "Crabapple", "subtype_name": null, "zip_code": "84129", "ownership": "public", "ownership_raw": "City of Taylorsville", "city": "Taylorsville", "source_dataset": "Utah Urban Tree Inventory", "source_department": "City of Taylorsville", "source_last_edit_at": "2026-03-28T17:19:55.001000+00:00"}}, {"type": "Feature", "geometry": {"type": "Point", "coordinates": [-111.9610515844469, 40.65787182843378]}, "properties": {"id": "taylorsville-14223", "species_group": "crabapple", "scientific_name": "Malus species", "common_name": "Crabapple", "subtype_name": null, "zip_code": "84129", "ownership": "public", "ownership_raw": "City of Taylorsville", "city": "Taylorsville", "source_dataset": "Utah Urban Tree Inventory", "source_department": "City of Taylorsville", "source_last_edit_at": "2026-03-28T17:19:55.001000+00:00"}}, {"type": "Feature", "geometry": {"type": "Point", "coordinates": [-111.96108797269441, 40.657934585623515]}, "properties": {"id": "taylorsville-14224", "species_group": "crabapple", "scientific_name": "Malus species", "common_name": "Crabapple", "subtype_name": null, "zip_code": "84129", "ownership": "public", "ownership_raw": "City of Taylorsville", "city": "Taylorsville", "source_dataset": "Utah Urban Tree Inventory", "source_department": "City of Taylorsville", "source_last_edit_at": "2026-03-28T17:19:55.001000+00:00"}}, {"type": "Feature", "geometry": {"type": "Point", "coordinates": [-111.96376371052534, 40.65974102383734]}, "properties": {"id": "taylorsville-14250", "species_group": "cherry", "scientific_name": "Prunus species", "common_name": "Cherry-Flowering", "subtype_name": "Flowering Cherry", "zip_code": "84129", "ownership": "public", "ownership_raw": "City of Taylorsville", "city": "Taylorsville", "source_dataset": "Utah Urban Tree Inventory", "source_department": "City of Taylorsville", "source_last_edit_at": "2026-03-28T17:19:55.001000+00:00"}}, {"type": "Feature", "geometry": {"type": "Point", "coordinates": [-111.96379971339371, 40.659776757624506]}, "properties": {"id": "taylorsville-14251", "species_group": "cherry", "scientific_name": "Prunus species", "common_name": "Cherry-Flowering", "subtype_name": "Flowering Cherry", "zip_code": "84129", "ownership": "public", "ownership_raw": "City of Taylorsville", "city": "Taylorsville", "source_dataset": "Utah Urban Tree Inventory", "source_department": "City of Taylorsville", "source_last_edit_at": "2026-03-28T17:19:55.001000+00:00"}}, {"type": "Feature", "geometry": {"type": "Point", "coordinates": [-111.96372874482873, 40.65977735000652]}, "properties": {"id": "taylorsville-14252", "species_group": "cherry", "scientific_name": "Prunus species", "common_name": "Cherry-Flowering", "subtype_name": "Flowering Cherry", "zip_code": "84129", "ownership": "public", "ownership_raw": "City of Taylorsville", "city": "Taylorsville", "source_dataset": "Utah Urban Tree Inventory", "source_department": "City of Taylorsville", "source_last_edit_at": "2026-03-28T17:19:55.001000+00:00"}}, {"type": "Feature", "geometry": {"type": "Point", "coordinates": [-111.96349334941031, 40.659860390866385]}, "properties": {"id": "taylorsville-14270", "species_group": "cherry", "scientific_name": "Prunus species", "common_name": "Cherry-Flowering", "subtype_name": "Flowering Cherry", "zip_code": "84129", "ownership": "public", "ownership_raw": "City of Taylorsville", "city": "Taylorsville", "source_dataset": "Utah Urban Tree Inventory", "source_department": "City of Taylorsville", "source_last_edit_at": "2026-03-28T17:19:55.001000+00:00"}}, {"type": "Feature", "geometry": {"type": "Point", "coordinates": [-111.96051377925694, 40.657488934565116]}, "properties": {"id": "taylorsville-14335", "species_group": "crabapple", "scientific_name": "Malus species", "common_name": "Crabapple", "subtype_name": null, "zip_code": "84129", "ownership": "public", "ownership_raw": "City of Taylorsville", "city": "Taylorsville", "source_dataset": "Utah Urban Tree Inventory", "source_department": "City of Taylorsville", "source_last_edit_at": "2026-03-28T17:19:55.001000+00:00"}}, {"type": "Feature", "geometry": {"type": "Point", "coordinates": [-111.95852524577829, 40.659054935927195]}, "properties": {"id": "taylorsville-14360", "species_group": "crabapple", "scientific_name": "Malus species", "common_name": "Crabapple", "subtype_name": null, "zip_code": "84129", "ownership": "public", "ownership_raw": "City of Taylorsville", "city": "Taylorsville", "source_dataset": "Utah Urban Tree Inventory", "source_department": "City of Taylorsville", "source_last_edit_at": "2026-03-28T17:19:55.001000+00:00"}}, {"type": "Feature", "geometry": {"type": "Point", "coordinates": [-111.95856137445044, 40.65909967889861]}, "properties": {"id": "taylorsville-14361", "species_group": "crabapple", "scientific_name": "Malus species", "common_name": "Crabapple", "subtype_name": null, "zip_code": "84129", "ownership": "public", "ownership_raw": "City of Taylorsville", "city": "Taylorsville", "source_dataset": "Utah Urban Tree Inventory", "source_department": "City of Taylorsville", "source_last_edit_at": "2026-03-28T17:19:55.001000+00:00"}}, {"type": "Feature", "geometry": {"type": "Point", "coordinates": [-111.95860933117157, 40.6591443236574]}, "properties": {"id": "taylorsville-14362", "species_group": "crabapple", "scientific_name": "Malus species", "common_name": "Crabapple", "subtype_name": null, "zip_code": "84129", "ownership": "public", "ownership_raw": "City of Taylorsville", "city": "Taylorsville", "source_dataset": "Utah Urban Tree Inventory", "source_department": "City of Taylorsville", "source_last_edit_at": "2026-03-28T17:19:55.001000+00:00"}}, {"type": "Feature", "geometry": {"type": "Point", "coordinates": [-111.95864584681544, 40.65921608913157]}, "properties": {"id": "taylorsville-14453", "species_group": "crabapple", "scientific_name": "Malus species", "common_name": "Crabapple", "subtype_name": null, "zip_code": "84129", "ownership": "public", "ownership_raw": "City of Taylorsville", "city": "Taylorsville", "source_dataset": "Utah Urban Tree Inventory", "source_department": "City of Taylorsville", "source_last_edit_at": "2026-03-28T17:19:55.001000+00:00"}}, {"type": "Feature", "geometry": {"type": "Point", "coordinates": [-111.95867001867676, 40.65925192276007]}, "properties": {"id": "taylorsville-14454", "species_group": "crabapple", "scientific_name": "Malus species", "common_name": "Crabapple", "subtype_name": null, "zip_code": "84129", "ownership": "public", "ownership_raw": "City of Taylorsville", "city": "Taylorsville", "source_dataset": "Utah Urban Tree Inventory", "source_department": "City of Taylorsville", "source_last_edit_at": "2026-03-28T17:19:55.001000+00:00"}}, {"type": "Feature", "geometry": {"type": "Point", "coordinates": [-111.95871797558047, 40.659296567470506]}, "properties": {"id": "taylorsville-14455", "species_group": "crabapple", "scientific_name": "Malus species", "common_name": "Crabapple", "subtype_name": null, "zip_code": "84129", "ownership": "public", "ownership_raw": "City of Taylorsville", "city": "Taylorsville", "source_dataset": "Utah Urban Tree Inventory", "source_department": "City of Taylorsville", "source_last_edit_at": "2026-03-28T17:19:55.001000+00:00"}}, {"type": "Feature", "geometry": {"type": "Point", "coordinates": [-111.95876567460373, 40.659323197140395]}, "properties": {"id": "taylorsville-14456", "species_group": "crabapple", "scientific_name": "Malus species", "common_name": "Crabapple", "subtype_name": null, "zip_code": "84129", "ownership": "public", "ownership_raw": "City of Taylorsville", "city": "Taylorsville", "source_dataset": "Utah Urban Tree Inventory", "source_department": "City of Taylorsville", "source_last_edit_at": "2026-03-28T17:19:55.001000+00:00"}}, {"type": "Feature", "geometry": {"type": "Point", "coordinates": [-111.95881337366473, 40.659349826789985]}, "properties": {"id": "taylorsville-14457", "species_group": "crabapple", "scientific_name": "Malus species", "common_name": "Crabapple", "subtype_name": null, "zip_code": "84129", "ownership": "public", "ownership_raw": "City of Taylorsville", "city": "Taylorsville", "source_dataset": "Utah Urban Tree Inventory", "source_department": "City of Taylorsville", "source_last_edit_at": "2026-03-28T17:19:55.001000+00:00"}}, {"type": "Feature", "geometry": {"type": "Point", "coordinates": [-111.95901599834045, 40.65945624694313]}, "properties": {"id": "taylorsville-14458", "species_group": "crabapple", "scientific_name": "Malus species", "common_name": "Crabapple", "subtype_name": null, "zip_code": "84129", "ownership": "public", "ownership_raw": "City of Taylorsville", "city": "Taylorsville", "source_dataset": "Utah Urban Tree Inventory", "source_department": "City of Taylorsville", "source_last_edit_at": "2026-03-28T17:19:55.001000+00:00"}}, {"type": "Feature", "geometry": {"type": "Point", "coordinates": [-111.95907539663871, 40.6594737707289]}, "properties": {"id": "taylorsville-14459", "species_group": "crabapple", "scientific_name": "Malus species", "common_name": "Crabapple", "subtype_name": null, "zip_code": "84129", "ownership": "public", "ownership_raw": "City of Taylorsville", "city": "Taylorsville", "source_dataset": "Utah Urban Tree Inventory", "source_department": "City of Taylorsville", "source_last_edit_at": "2026-03-28T17:19:55.001000+00:00"}}, {"type": "Feature", "geometry": {"type": "Point", "coordinates": [-111.96062087463395, 40.657533086519166]}, "properties": {"id": "taylorsville-14460", "species_group": "crabapple", "scientific_name": "Malus species", "common_name": "Crabapple", "subtype_name": null, "zip_code": "84129", "ownership": "public", "ownership_raw": "City of Taylorsville", "city": "Taylorsville", "source_dataset": "Utah Urban Tree Inventory", "source_department": "City of Taylorsville", "source_last_edit_at": "2026-03-28T17:19:55.001000+00:00"}}, {"type": "Feature", "geometry": {"type": "Point", "coordinates": [-111.96069248700199, 40.65757753361139]}, "properties": {"id": "taylorsville-14461", "species_group": "crabapple", "scientific_name": "Malus species", "common_name": "Crabapple", "subtype_name": null, "zip_code": "84129", "ownership": "public", "ownership_raw": "City of Taylorsville", "city": "Taylorsville", "source_dataset": "Utah Urban Tree Inventory", "source_department": "City of Taylorsville", "source_last_edit_at": "2026-03-28T17:19:55.001000+00:00"}}, {"type": "Feature", "geometry": {"type": "Point", "coordinates": [-111.96076409946485, 40.65762198065777]}, "properties": {"id": "taylorsville-14462", "species_group": "crabapple", "scientific_name": "Malus species", "common_name": "Crabapple", "subtype_name": null, "zip_code": "84129", "ownership": "public", "ownership_raw": "City of Taylorsville", "city": "Taylorsville", "source_dataset": "Utah Urban Tree Inventory", "source_department": "City of Taylorsville", "source_last_edit_at": "2026-03-28T17:19:55.001000+00:00"}}, {"type": "Feature", "geometry": {"type": "Point", "coordinates": [-111.96081192731931, 40.65765761700124]}, "properties": {"id": "taylorsville-14463", "species_group": "crabapple", "scientific_name": "Malus species", "common_name": "Crabapple", "subtype_name": null, "zip_code": "84129", "ownership": "public", "ownership_raw": "City of Taylorsville", "city": "Taylorsville", "source_dataset": "Utah Urban Tree Inventory", "source_department": "City of Taylorsville", "source_last_edit_at": "2026-03-28T17:19:55.001000+00:00"}}, {"type": "Feature", "geometry": {"type": "Point", "coordinates": [-111.96085975522465, 40.6576932533241]}, "properties": {"id": "taylorsville-14464", "species_group": "crabapple", "scientific_name": "Malus species", "common_name": "Crabapple", "subtype_name": null, "zip_code": "84129", "ownership": "public", "ownership_raw": "City of Taylorsville", "city": "Taylorsville", "source_dataset": "Utah Urban Tree Inventory", "source_department": "City of Taylorsville", "source_last_edit_at": "2026-03-28T17:19:55.001000+00:00"}}, {"type": "Feature", "geometry": {"type": "Point", "coordinates": [-111.96090771243402, 40.65773789713301]}, "properties": {"id": "taylorsville-14465", "species_group": "crabapple", "scientific_name": "Malus species", "common_name": "Crabapple", "subtype_name": null, "zip_code": "84129", "ownership": "public", "ownership_raw": "City of Taylorsville", "city": "Taylorsville", "source_dataset": "Utah Urban Tree Inventory", "source_department": "City of Taylorsville", "source_last_edit_at": "2026-03-28T17:19:55.001000+00:00"}}, {"type": "Feature", "geometry": {"type": "Point", "coordinates": [-111.96095554044774, 40.65777353341446]}, "properties": {"id": "taylorsville-14466", "species_group": "crabapple", "scientific_name": "Malus species", "common_name": "Crabapple", "subtype_name": null, "zip_code": "84129", "ownership": "public", "ownership_raw": "City of Taylorsville", "city": "Taylorsville", "source_dataset": "Utah Urban Tree Inventory", "source_department": "City of Taylorsville", "source_last_edit_at": "2026-03-28T17:19:55.001000+00:00"}}, {"type": "Feature", "geometry": {"type": "Point", "coordinates": [-111.9610034977787, 40.65781817718159]}, "properties": {"id": "taylorsville-14467", "species_group": "crabapple", "scientific_name": "Malus species", "common_name": "Crabapple", "subtype_name": null, "zip_code": "84129", "ownership": "public", "ownership_raw": "City of Taylorsville", "city": "Taylorsville", "source_dataset": "Utah Urban Tree Inventory", "source_department": "City of Taylorsville", "source_last_edit_at": "2026-03-28T17:19:55.001000+00:00"}}, {"type": "Feature", "geometry": {"type": "Point", "coordinates": [-111.9610515844469, 40.65787182843378]}, "properties": {"id": "taylorsville-14468", "species_group": "crabapple", "scientific_name": "Malus species", "common_name": "Crabapple", "subtype_name": null, "zip_code": "84129", "ownership": "public", "ownership_raw": "City of Taylorsville", "city": "Taylorsville", "source_dataset": "Utah Urban Tree Inventory", "source_department": "City of Taylorsville", "source_last_edit_at": "2026-03-28T17:19:55.001000+00:00"}}, {"type": "Feature", "geometry": {"type": "Point", "coordinates": [-111.96108797269441, 40.657934585623515]}, "properties": {"id": "taylorsville-14469", "species_group": "crabapple", "scientific_name": "Malus species", "common_name": "Crabapple", "subtype_name": null, "zip_code": "84129", "ownership": "public", "ownership_raw": "City of Taylorsville", "city": "Taylorsville", "source_dataset": "Utah Urban Tree Inventory", "source_department": "City of Taylorsville", "source_last_edit_at": "2026-03-28T17:19:55.001000+00:00"}}, {"type": "Feature", "geometry": {"type": "Point", "coordinates": [-111.96376371052534, 40.65974102383734]}, "properties": {"id": "taylorsville-14495", "species_group": "cherry", "scientific_name": "Prunus species", "common_name": "Cherry-Flowering", "subtype_name": "Flowering Cherry", "zip_code": "84129", "ownership": "public", "ownership_raw": "City of Taylorsville", "city": "Taylorsville", "source_dataset": "Utah Urban Tree Inventory", "source_department": "City of Taylorsville", "source_last_edit_at": "2026-03-28T17:19:55.001000+00:00"}}, {"type": "Feature", "geometry": {"type": "Point", "coordinates": [-111.96379971339371, 40.659776757624506]}, "properties": {"id": "taylorsville-14496", "species_group": "cherry", "scientific_name": "Prunus species", "common_name": "Cherry-Flowering", "subtype_name": "Flowering Cherry", "zip_code": "84129", "ownership": "public", "ownership_raw": "City of Taylorsville", "city": "Taylorsville", "source_dataset": "Utah Urban Tree Inventory", "source_department": "City of Taylorsville", "source_last_edit_at": "2026-03-28T17:19:55.001000+00:00"}}, {"type": "Feature", "geometry": {"type": "Point", "coordinates": [-111.96372874482873, 40.65977735000652]}, "properties": {"id": "taylorsville-14497", "species_group": "cherry", "scientific_name": "Prunus species", "common_name": "Cherry-Flowering", "subtype_name": "Flowering Cherry", "zip_code": "84129", "ownership": "public", "ownership_raw": "City of Taylorsville", "city": "Taylorsville", "source_dataset": "Utah Urban Tree Inventory", "source_department": "City of Taylorsville", "source_last_edit_at": "2026-03-28T17:19:55.001000+00:00"}}, {"type": "Feature", "geometry": {"type": "Point", "coordinates": [-111.96349334941031, 40.659860390866385]}, "properties": {"id": "taylorsville-14515", "species_group": "cherry", "scientific_name": "Prunus species", "common_name": "Cherry-Flowering", "subtype_name": "Flowering Cherry", "zip_code": "84129", "ownership": "public", "ownership_raw": "City of Taylorsville", "city": "Taylorsville", "source_dataset": "Utah Urban Tree Inventory", "source_department": "City of Taylorsville", "source_last_edit_at": "2026-03-28T17:19:55.001000+00:00"}}, {"type": "Feature", "geometry": {"type": "Point", "coordinates": [-111.95395589343529, 40.654925594238826]}, "properties": {"id": "taylorsville-3538", "species_group": "crabapple", "scientific_name": "Malus species", "common_name": "Apple", "subtype_name": "Apple", "zip_code": "84129", "ownership": "public", "ownership_raw": "City of Taylorsville", "city": "Taylorsville", "source_dataset": "Utah Urban Tree Inventory", "source_department": "City of Taylorsville", "source_last_edit_at": "2026-03-28T17:19:55.001000+00:00"}}, {"type": "Feature", "geometry": {"type": "Point", "coordinates": [-111.9539958103986, 40.654966612064136]}, "properties": {"id": "taylorsville-3539", "species_group": "crabapple", "scientific_name": "Malus species", "common_name": "Apple", "subtype_name": "Apple", "zip_code": "84129", "ownership": "public", "ownership_raw": "City of Taylorsville", "city": "Taylorsville", "source_dataset": "Utah Urban Tree Inventory", "source_department": "City of Taylorsville", "source_last_edit_at": "2026-03-28T17:19:55.001000+00:00"}}, {"type": "Feature", "geometry": {"type": "Point", "coordinates": [-111.95385159708907, 40.65495893454817]}, "properties": {"id": "taylorsville-3542", "species_group": "crabapple", "scientific_name": "Malus species", "common_name": "Apple", "subtype_name": "Apple", "zip_code": "84129", "ownership": "public", "ownership_raw": "City of Taylorsville", "city": "Taylorsville", "source_dataset": "Utah Urban Tree Inventory", "source_department": "City of Taylorsville", "source_last_edit_at": "2026-03-28T17:19:55.001000+00:00"}}, {"type": "Feature", "geometry": {"type": "Point", "coordinates": [-111.95381173478668, 40.65492615007187]}, "properties": {"id": "taylorsville-3543", "species_group": "crabapple", "scientific_name": "Malus species", "common_name": "Apple", "subtype_name": "Apple", "zip_code": "84129", "ownership": "public", "ownership_raw": "City of Taylorsville", "city": "Taylorsville", "source_dataset": "Utah Urban Tree Inventory", "source_department": "City of Taylorsville", "source_last_edit_at": "2026-03-28T17:19:55.001000+00:00"}}, {"type": "Feature", "geometry": {"type": "Point", "coordinates": [-111.95369660860113, 40.65495678884176]}, "properties": {"id": "taylorsville-3546", "species_group": "crabapple", "scientific_name": "Malus species", "common_name": "Apple", "subtype_name": "Apple", "zip_code": "84129", "ownership": "public", "ownership_raw": "City of Taylorsville", "city": "Taylorsville", "source_dataset": "Utah Urban Tree Inventory", "source_department": "City of Taylorsville", "source_last_edit_at": "2026-03-28T17:19:55.001000+00:00"}}, {"type": "Feature", "geometry": {"type": "Point", "coordinates": [-111.95402019800356, 40.65429952628148]}, "properties": {"id": "taylorsville-3547", "species_group": "crabapple", "scientific_name": "Malus species", "common_name": "Apple", "subtype_name": "Apple", "zip_code": "84129", "ownership": "public", "ownership_raw": "City of Taylorsville", "city": "Taylorsville", "source_dataset": "Utah Urban Tree Inventory", "source_department": "City of Taylorsville", "source_last_edit_at": "2026-03-28T17:19:55.001000+00:00"}}, {"type": "Feature", "geometry": {"type": "Point", "coordinates": [-111.95398798075936, 40.654332589144566]}, "properties": {"id": "taylorsville-3548", "species_group": "crabapple", "scientific_name": "Malus species", "common_name": "Apple", "subtype_name": "Apple", "zip_code": "84129", "ownership": "public", "ownership_raw": "City of Taylorsville", "city": "Taylorsville", "source_dataset": "Utah Urban Tree Inventory", "source_department": "City of Taylorsville", "source_last_edit_at": "2026-03-28T17:19:55.001000+00:00"}}, {"type": "Feature", "geometry": {"type": "Point", "coordinates": [-111.95394451481587, 40.654299819169]}, "properties": {"id": "taylorsville-3549", "species_group": "crabapple", "scientific_name": "Malus species", "common_name": "Apple", "subtype_name": "Apple", "zip_code": "84129", "ownership": "public", "ownership_raw": "City of Taylorsville", "city": "Taylorsville", "source_dataset": "Utah Urban Tree Inventory", "source_department": "City of Taylorsville", "source_last_edit_at": "2026-03-28T17:19:55.001000+00:00"}}, {"type": "Feature", "geometry": {"type": "Point", "coordinates": [-111.95378233773012, 40.654300446350916]}, "properties": {"id": "taylorsville-3553", "species_group": "crabapple", "scientific_name": "Malus species", "common_name": "Apple", "subtype_name": "Apple", "zip_code": "84129", "ownership": "public", "ownership_raw": "City of Taylorsville", "city": "Taylorsville", "source_dataset": "Utah Urban Tree Inventory", "source_department": "City of Taylorsville", "source_last_edit_at": "2026-03-28T17:19:55.001000+00:00"}}, {"type": "Feature", "geometry": {"type": "Point", "coordinates": [-111.95353741652625, 40.65432335024996]}, "properties": {"id": "taylorsville-3562", "species_group": "crabapple", "scientific_name": "Malus species", "common_name": "Apple", "subtype_name": "Apple", "zip_code": "84129", "ownership": "public", "ownership_raw": "City of Taylorsville", "city": "Taylorsville", "source_dataset": "Utah Urban Tree Inventory", "source_department": "City of Taylorsville", "source_last_edit_at": "2026-03-28T17:19:55.001000+00:00"}}, {"type": "Feature", "geometry": {"type": "Point", "coordinates": [-111.94582123935874, 40.659507820658085]}, "properties": {"id": "taylorsville-95468", "species_group": "cherry", "scientific_name": "Prunus species", "common_name": "Cherry-Flowering", "subtype_name": "Flowering Cherry", "zip_code": "84129", "ownership": "public", "ownership_raw": "City of Taylorsville", "city": "Taylorsville", "source_dataset": "Utah Urban Tree Inventory", "source_department": "City of Taylorsville", "source_last_edit_at": "2026-03-28T17:19:55.001000+00:00"}}, {"type": "Feature", "geometry": {"type": "Point", "coordinates": [-111.94579602185209, 40.659479260087366]}, "properties": {"id": "taylorsville-95469", "species_group": "cherry", "scientific_name": "Prunus species", "common_name": "Cherry-Flowering", "subtype_name": "Flowering Cherry", "zip_code": "84129", "ownership": "public", "ownership_raw": "City of Taylorsville", "city": "Taylorsville", "source_dataset": "Utah Urban Tree Inventory", "source_department": "City of Taylorsville", "source_last_edit_at": "2026-03-28T17:19:55.001000+00:00"}}, {"type": "Feature", "geometry": {"type": "Point", "coordinates": [-111.94586708937085, 40.659478133637656]}, "properties": {"id": "taylorsville-95470", "species_group": "cherry", "scientific_name": "Prunus species", "common_name": "Cherry-Flowering", "subtype_name": "Flowering Cherry", "zip_code": "84129", "ownership": "public", "ownership_raw": "City of Taylorsville", "city": "Taylorsville", "source_dataset": "Utah Urban Tree Inventory", "source_department": "City of Taylorsville", "source_last_edit_at": "2026-03-28T17:19:55.001000+00:00"}}, {"type": "Feature", "geometry": {"type": "Point", "coordinates": [-111.94549574829026, 40.65958103913553]}, "properties": {"id": "taylorsville-95471", "species_group": "cherry", "scientific_name": "Prunus species", "common_name": "Cherry-Flowering", "subtype_name": "Flowering Cherry", "zip_code": "84129", "ownership": "public", "ownership_raw": "City of Taylorsville", "city": "Taylorsville", "source_dataset": "Utah Urban Tree Inventory", "source_department": "City of Taylorsville", "source_last_edit_at": "2026-03-28T17:19:55.001000+00:00"}}, {"type": "Feature", "geometry": {"type": "Point", "coordinates": [-111.94549574829026, 40.65958103913553]}, "properties": {"id": "taylorsville-95472", "species_group": "cherry", "scientific_name": "Prunus species", "common_name": "Cherry-Flowering", "subtype_name": "Flowering Cherry", "zip_code": "84129", "ownership": "public", "ownership_raw": "City of Taylorsville", "city": "Taylorsville", "source_dataset": "Utah Urban Tree Inventory", "source_department": "City of Taylorsville", "source_last_edit_at": "2026-03-28T17:19:55.001000+00:00"}}, {"type": "Feature", "geometry": {"type": "Point", "coordinates": [-111.94549233918374, 40.659539498201546]}, "properties": {"id": "taylorsville-95473", "species_group": "cherry", "scientific_name": "Prunus species", "common_name": "Cherry-Flowering", "subtype_name": "Flowering Cherry", "zip_code": "84129", "ownership": "public", "ownership_raw": "City of Taylorsville", "city": "Taylorsville", "source_dataset": "Utah Urban Tree Inventory", "source_department": "City of Taylorsville", "source_last_edit_at": "2026-03-28T17:19:55.001000+00:00"}}, {"type": "Feature", "geometry": {"type": "Point", "coordinates": [-111.94544912572702, 40.65961853764471]}, "properties": {"id": "taylorsville-95486", "species_group": "cherry", "scientific_name": "Prunus species", "common_name": "Cherry-Flowering", "subtype_name": "Flowering Cherry", "zip_code": "84129", "ownership": "public", "ownership_raw": "City of Taylorsville", "city": "Taylorsville", "source_dataset": "Utah Urban Tree Inventory", "source_department": "City of Taylorsville", "source_last_edit_at": "2026-03-28T17:19:55.001000+00:00"}}, {"type": "Feature", "geometry": {"type": "Point", "coordinates": [-111.92531964090784, 40.653308718720446]}, "properties": {"id": "taylorsville-95687", "species_group": "crabapple", "scientific_name": "Malus species", "common_name": "Crabapple", "subtype_name": null, "zip_code": "84123", "ownership": "public", "ownership_raw": "City of Taylorsville", "city": "Taylorsville", "source_dataset": "Utah Urban Tree Inventory", "source_department": "City of Taylorsville", "source_last_edit_at": "2026-03-28T17:19:55.001000+00:00"}}, {"type": "Feature", "geometry": {"type": "Point", "coordinates": [-111.9251797363872, 40.65326748329139]}, "properties": {"id": "taylorsville-95689", "species_group": "crabapple", "scientific_name": "Malus species", "common_name": "Crabapple", "subtype_name": null, "zip_code": "84123", "ownership": "public", "ownership_raw": "City of Taylorsville", "city": "Taylorsville", "source_dataset": "Utah Urban Tree Inventory", "source_department": "City of Taylorsville", "source_last_edit_at": "2026-03-28T17:19:55.001000+00:00"}}, {"type": "Feature", "geometry": {"type": "Point", "coordinates": [-111.92501163734302, 40.653257282280876]}, "properties": {"id": "taylorsville-95691", "species_group": "crabapple", "scientific_name": "Malus species", "common_name": "Crabapple", "subtype_name": null, "zip_code": "84123", "ownership": "public", "ownership_raw": "City of Taylorsville", "city": "Taylorsville", "source_dataset": "Utah Urban Tree Inventory", "source_department": "City of Taylorsville", "source_last_edit_at": "2026-03-28T17:19:55.001000+00:00"}}, {"type": "Feature", "geometry": {"type": "Point", "coordinates": [-111.92485348534399, 40.65327319307594]}, "properties": {"id": "taylorsville-95693", "species_group": "cherry", "scientific_name": "Prunus species", "common_name": "Chokecherry", "subtype_name": "Chokecherry", "zip_code": "84123", "ownership": "public", "ownership_raw": "City of Taylorsville", "city": "Taylorsville", "source_dataset": "Utah Urban Tree Inventory", "source_department": "City of Taylorsville", "source_last_edit_at": "2026-03-28T17:19:55.001000+00:00"}}, {"type": "Feature", "geometry": {"type": "Point", "coordinates": [-111.92492887825084, 40.65330506508728]}, "properties": {"id": "taylorsville-95698", "species_group": "crabapple", "scientific_name": "Malus species", "common_name": "Crabapple", "subtype_name": null, "zip_code": "84123", "ownership": "public", "ownership_raw": "City of Taylorsville", "city": "Taylorsville", "source_dataset": "Utah Urban Tree Inventory", "source_department": "City of Taylorsville", "source_last_edit_at": "2026-03-28T17:19:55.001000+00:00"}}, {"type": "Feature", "geometry": {"type": "Point", "coordinates": [-111.92507466853326, 40.65331052952116]}, "properties": {"id": "taylorsville-95700", "species_group": "crabapple", "scientific_name": "Malus species", "common_name": "Crabapple", "subtype_name": null, "zip_code": "84123", "ownership": "public", "ownership_raw": "City of Taylorsville", "city": "Taylorsville", "source_dataset": "Utah Urban Tree Inventory", "source_department": "City of Taylorsville", "source_last_edit_at": "2026-03-28T17:19:55.001000+00:00"}}, {"type": "Feature", "geometry": {"type": "Point", "coordinates": [-111.92524217468933, 40.65333991464647]}, "properties": {"id": "taylorsville-95705", "species_group": "crabapple", "scientific_name": "Malus species", "common_name": "Crabapple", "subtype_name": null, "zip_code": "84123", "ownership": "public", "ownership_raw": "City of Taylorsville", "city": "Taylorsville", "source_dataset": "Utah Urban Tree Inventory", "source_department": "City of Taylorsville", "source_last_edit_at": "2026-03-28T17:19:55.001000+00:00"}}, {"type": "Feature", "geometry": {"type": "Point", "coordinates": [-111.94750700344785, 40.65912554985505]}, "properties": {"id": "taylorsville-95735", "species_group": "crabapple", "scientific_name": "Malus species", "common_name": "Crabapple", "subtype_name": null, "zip_code": "84129", "ownership": "public", "ownership_raw": "City of Taylorsville", "city": "Taylorsville", "source_dataset": "Utah Urban Tree Inventory", "source_department": "City of Taylorsville", "source_last_edit_at": "2026-03-28T17:19:55.001000+00:00"}}, {"type": "Feature", "geometry": {"type": "Point", "coordinates": [-111.94785528926668, 40.65931899601853]}, "properties": {"id": "taylorsville-95753", "species_group": "plum", "scientific_name": "Prunus species", "common_name": "Plum-Flowering", "subtype_name": "Plum-Flowering", "zip_code": "84129", "ownership": "public", "ownership_raw": "City of Taylorsville", "city": "Taylorsville", "source_dataset": "Utah Urban Tree Inventory", "source_department": "City of Taylorsville", "source_last_edit_at": "2026-03-28T17:19:55.001000+00:00"}}, {"type": "Feature", "geometry": {"type": "Point", "coordinates": [-111.98387653331802, 40.6407784052214]}, "properties": {"id": "taylorsville-95800", "species_group": "crabapple", "scientific_name": "Malus species", "common_name": "Crabapple", "subtype_name": null, "zip_code": "84129", "ownership": "public", "ownership_raw": "City of Taylorsville", "city": "Taylorsville", "source_dataset": "Utah Urban Tree Inventory", "source_department": "City of Taylorsville", "source_last_edit_at": "2026-03-28T17:19:55.001000+00:00"}}, {"type": "Feature", "geometry": {"type": "Point", "coordinates": [-111.98392410629884, 40.64075429028482]}, "properties": {"id": "taylorsville-95801", "species_group": "cherry", "scientific_name": "Prunus species", "common_name": "Cherry-Flowering", "subtype_name": "Flowering Cherry", "zip_code": "84129", "ownership": "public", "ownership_raw": "City of Taylorsville", "city": "Taylorsville", "source_dataset": "Utah Urban Tree Inventory", "source_department": "City of Taylorsville", "source_last_edit_at": "2026-03-28T17:19:55.001000+00:00"}}, {"type": "Feature", "geometry": {"type": "Point", "coordinates": [-111.98420592756642, 40.6408119550407]}, "properties": {"id": "taylorsville-95804", "species_group": "cherry", "scientific_name": "Prunus species", "common_name": "Cherry-Flowering", "subtype_name": "Flowering Cherry", "zip_code": "84129", "ownership": "public", "ownership_raw": "City of Taylorsville", "city": "Taylorsville", "source_dataset": "Utah Urban Tree Inventory", "source_department": "City of Taylorsville", "source_last_edit_at": "2026-03-28T17:19:55.001000+00:00"}}, {"type": "Feature", "geometry": {"type": "Point", "coordinates": [-111.98393851600589, 40.64106347918138]}, "properties": {"id": "taylorsville-95809", "species_group": "crabapple", "scientific_name": "Malus species", "common_name": "Crabapple", "subtype_name": null, "zip_code": "84129", "ownership": "public", "ownership_raw": "City of Taylorsville", "city": "Taylorsville", "source_dataset": "Utah Urban Tree Inventory", "source_department": "City of Taylorsville", "source_last_edit_at": "2026-03-28T17:19:55.001000+00:00"}}, {"type": "Feature", "geometry": {"type": "Point", "coordinates": [-111.98388087626337, 40.641014041311635]}, "properties": {"id": "taylorsville-95810", "species_group": "crabapple", "scientific_name": "Malus species", "common_name": "Crabapple", "subtype_name": null, "zip_code": "84129", "ownership": "public", "ownership_raw": "City of Taylorsville", "city": "Taylorsville", "source_dataset": "Utah Urban Tree Inventory", "source_department": "City of Taylorsville", "source_last_edit_at": "2026-03-28T17:19:55.001000+00:00"}}, {"type": "Feature", "geometry": {"type": "Point", "coordinates": [-111.98388078553353, 40.64084741128495]}, "properties": {"id": "taylorsville-95811", "species_group": "crabapple", "scientific_name": "Malus species", "common_name": "Crabapple", "subtype_name": null, "zip_code": "84129", "ownership": "public", "ownership_raw": "City of Taylorsville", "city": "Taylorsville", "source_dataset": "Utah Urban Tree Inventory", "source_department": "City of Taylorsville", "source_last_edit_at": "2026-03-28T17:19:55.001000+00:00"}}, {"type": "Feature", "geometry": {"type": "Point", "coordinates": [-111.93566638155309, 40.670216969514826]}, "properties": {"id": "taylorsville-95813", "species_group": "crabapple", "scientific_name": "Malus species", "common_name": "Crabapple", "subtype_name": null, "zip_code": "84123", "ownership": "public", "ownership_raw": "City of Taylorsville", "city": "Taylorsville", "source_dataset": "Utah Urban Tree Inventory", "source_department": "City of Taylorsville", "source_last_edit_at": "2026-03-28T17:19:55.001000+00:00"}}, {"type": "Feature", "geometry": {"type": "Point", "coordinates": [-111.93558080313855, 40.67023676205892]}, "properties": {"id": "taylorsville-95814", "species_group": "crabapple", "scientific_name": "Malus species", "common_name": "Crabapple", "subtype_name": null, "zip_code": "84123", "ownership": "public", "ownership_raw": "City of Taylorsville", "city": "Taylorsville", "source_dataset": "Utah Urban Tree Inventory", "source_department": "City of Taylorsville", "source_last_edit_at": "2026-03-28T17:19:55.001000+00:00"}}, {"type": "Feature", "geometry": {"type": "Point", "coordinates": [-111.93540439688364, 40.67030209231897]}, "properties": {"id": "taylorsville-95817", "species_group": "crabapple", "scientific_name": "Malus species", "common_name": "Crabapple", "subtype_name": null, "zip_code": "84123", "ownership": "public", "ownership_raw": "City of Taylorsville", "city": "Taylorsville", "source_dataset": "Utah Urban Tree Inventory", "source_department": "City of Taylorsville", "source_last_edit_at": "2026-03-28T17:19:55.001000+00:00"}}, {"type": "Feature", "geometry": {"type": "Point", "coordinates": [-111.93532658391543, 40.670349330784966]}, "properties": {"id": "taylorsville-95818", "species_group": "crabapple", "scientific_name": "Malus species", "common_name": "Crabapple", "subtype_name": null, "zip_code": "84123", "ownership": "public", "ownership_raw": "City of Taylorsville", "city": "Taylorsville", "source_dataset": "Utah Urban Tree Inventory", "source_department": "City of Taylorsville", "source_last_edit_at": "2026-03-28T17:19:55.001000+00:00"}}, {"type": "Feature", "geometry": {"type": "Point", "coordinates": [-111.93526830840631, 40.67032608186824]}, "properties": {"id": "taylorsville-95819", "species_group": "crabapple", "scientific_name": "Malus species", "common_name": "Crabapple", "subtype_name": null, "zip_code": "84123", "ownership": "public", "ownership_raw": "City of Taylorsville", "city": "Taylorsville", "source_dataset": "Utah Urban Tree Inventory", "source_department": "City of Taylorsville", "source_last_edit_at": "2026-03-28T17:19:55.001000+00:00"}}, {"type": "Feature", "geometry": {"type": "Point", "coordinates": [-111.93541334859546, 40.670578437994706]}, "properties": {"id": "taylorsville-95823", "species_group": "crabapple", "scientific_name": "Malus species", "common_name": "Crabapple", "subtype_name": null, "zip_code": "84123", "ownership": "public", "ownership_raw": "City of Taylorsville", "city": "Taylorsville", "source_dataset": "Utah Urban Tree Inventory", "source_department": "City of Taylorsville", "source_last_edit_at": "2026-03-28T17:19:55.001000+00:00"}}, {"type": "Feature", "geometry": {"type": "Point", "coordinates": [-111.93553259006796, 40.670569002055714]}, "properties": {"id": "taylorsville-95824", "species_group": "crabapple", "scientific_name": "Malus species", "common_name": "Crabapple", "subtype_name": null, "zip_code": "84123", "ownership": "public", "ownership_raw": "City of Taylorsville", "city": "Taylorsville", "source_dataset": "Utah Urban Tree Inventory", "source_department": "City of Taylorsville", "source_last_edit_at": "2026-03-28T17:19:55.001000+00:00"}}, {"type": "Feature", "geometry": {"type": "Point", "coordinates": [-111.93564654226006, 40.67054894599681]}, "properties": {"id": "taylorsville-95825", "species_group": "crabapple", "scientific_name": "Malus species", "common_name": "Crabapple", "subtype_name": null, "zip_code": "84123", "ownership": "public", "ownership_raw": "City of Taylorsville", "city": "Taylorsville", "source_dataset": "Utah Urban Tree Inventory", "source_department": "City of Taylorsville", "source_last_edit_at": "2026-03-28T17:19:55.001000+00:00"}}, {"type": "Feature", "geometry": {"type": "Point", "coordinates": [-111.93576550435652, 40.67053713624846]}, "properties": {"id": "taylorsville-95826", "species_group": "crabapple", "scientific_name": "Malus species", "common_name": "Crabapple", "subtype_name": null, "zip_code": "84123", "ownership": "public", "ownership_raw": "City of Taylorsville", "city": "Taylorsville", "source_dataset": "Utah Urban Tree Inventory", "source_department": "City of Taylorsville", "source_last_edit_at": "2026-03-28T17:19:55.001000+00:00"}}, {"type": "Feature", "geometry": {"type": "Point", "coordinates": [-111.93589162079631, 40.67051917810205]}, "properties": {"id": "taylorsville-95827", "species_group": "crabapple", "scientific_name": "Malus species", "common_name": "Crabapple", "subtype_name": null, "zip_code": "84123", "ownership": "public", "ownership_raw": "City of Taylorsville", "city": "Taylorsville", "source_dataset": "Utah Urban Tree Inventory", "source_department": "City of Taylorsville", "source_last_edit_at": "2026-03-28T17:19:55.001000+00:00"}}, {"type": "Feature", "geometry": {"type": "Point", "coordinates": [-111.93597573528582, 40.67041124057753]}, "properties": {"id": "taylorsville-95829", "species_group": "crabapple", "scientific_name": "Malus species", "common_name": "Crabapple", "subtype_name": null, "zip_code": "84123", "ownership": "public", "ownership_raw": "City of Taylorsville", "city": "Taylorsville", "source_dataset": "Utah Urban Tree Inventory", "source_department": "City of Taylorsville", "source_last_edit_at": "2026-03-28T17:19:55.001000+00:00"}}, {"type": "Feature", "geometry": {"type": "Point", "coordinates": [-111.9358712513368, 40.67027978160115]}, "properties": {"id": "taylorsville-95831", "species_group": "crabapple", "scientific_name": "Malus species", "common_name": "Crabapple", "subtype_name": null, "zip_code": "84123", "ownership": "public", "ownership_raw": "City of Taylorsville", "city": "Taylorsville", "source_dataset": "Utah Urban Tree Inventory", "source_department": "City of Taylorsville", "source_last_edit_at": "2026-03-28T17:19:55.001000+00:00"}}, {"type": "Feature", "geometry": {"type": "Point", "coordinates": [-111.92266906015244, 40.656112336906155]}, "properties": {"id": "taylorsville-97181", "species_group": "cherry", "scientific_name": "Prunus species", "common_name": "Chokecherry", "subtype_name": "Chokecherry", "zip_code": "84123", "ownership": "public", "ownership_raw": "City of Taylorsville", "city": "Taylorsville", "source_dataset": "Utah Urban Tree Inventory", "source_department": "City of Taylorsville", "source_last_edit_at": "2026-03-28T17:19:55.001000+00:00"}}, {"type": "Feature", "geometry": {"type": "Point", "coordinates": [-111.92242478307386, 40.656437166631186]}, "properties": {"id": "taylorsville-97204", "species_group": "cherry", "scientific_name": "Prunus species", "common_name": "Chokecherry", "subtype_name": "Chokecherry", "zip_code": "84123", "ownership": "public", "ownership_raw": "City of Taylorsville", "city": "Taylorsville", "source_dataset": "Utah Urban Tree Inventory", "source_department": "City of Taylorsville", "source_last_edit_at": "2026-03-28T17:19:55.001000+00:00"}}, {"type": "Feature", "geometry": {"type": "Point", "coordinates": [-111.9235849994841, 40.65502614676572]}, "properties": {"id": "taylorsville-97265", "species_group": "cherry", "scientific_name": "Prunus species", "common_name": "Cherry-Flowering", "subtype_name": "Flowering Cherry", "zip_code": "84123", "ownership": "public", "ownership_raw": "City of Taylorsville", "city": "Taylorsville", "source_dataset": "Utah Urban Tree Inventory", "source_department": "City of Taylorsville", "source_last_edit_at": "2026-03-28T17:19:55.001000+00:00"}}, {"type": "Feature", "geometry": {"type": "Point", "coordinates": [-111.92354248401836, 40.65516170307898]}, "properties": {"id": "taylorsville-97278", "species_group": "cherry", "scientific_name": "Prunus species", "common_name": "Cherry-Flowering", "subtype_name": "Flowering Cherry", "zip_code": "84123", "ownership": "public", "ownership_raw": "City of Taylorsville", "city": "Taylorsville", "source_dataset": "Utah Urban Tree Inventory", "source_department": "City of Taylorsville", "source_last_edit_at": "2026-03-28T17:19:55.001000+00:00"}}, {"type": "Feature", "geometry": {"type": "Point", "coordinates": [-111.9234593395489, 40.65524233765097]}, "properties": {"id": "taylorsville-97285", "species_group": "cherry", "scientific_name": "Prunus species", "common_name": "Cherry-Flowering", "subtype_name": "Flowering Cherry", "zip_code": "84123", "ownership": "public", "ownership_raw": "City of Taylorsville", "city": "Taylorsville", "source_dataset": "Utah Urban Tree Inventory", "source_department": "City of Taylorsville", "source_last_edit_at": "2026-03-28T17:19:55.001000+00:00"}}, {"type": "Feature", "geometry": {"type": "Point", "coordinates": [-111.92529464438677, 40.656305992846924]}, "properties": {"id": "taylorsville-97449", "species_group": "cherry", "scientific_name": "Prunus species", "common_name": "Cherry-Flowering", "subtype_name": "Flowering Cherry", "zip_code": "84123", "ownership": "public", "ownership_raw": "City of Taylorsville", "city": "Taylorsville", "source_dataset": "Utah Urban Tree Inventory", "source_department": "City of Taylorsville", "source_last_edit_at": "2026-03-28T17:19:55.001000+00:00"}}, {"type": "Feature", "geometry": {"type": "Point", "coordinates": [-111.93701699229456, 40.67076210093197]}, "properties": {"id": "taylorsville-97494", "species_group": "plum", "scientific_name": "Prunus species", "common_name": "Plum-Flowering", "subtype_name": "Plum-Flowering", "zip_code": "84123", "ownership": "public", "ownership_raw": "City of Taylorsville", "city": "Taylorsville", "source_dataset": "Utah Urban Tree Inventory", "source_department": "City of Taylorsville", "source_last_edit_at": "2026-03-28T17:19:55.001000+00:00"}}, {"type": "Feature", "geometry": {"type": "Point", "coordinates": [-111.93693267911696, 40.67028806201594]}, "properties": {"id": "taylorsville-97496", "species_group": "cherry", "scientific_name": "Prunus species", "common_name": "Cherry-Flowering", "subtype_name": "Flowering Cherry", "zip_code": "84123", "ownership": "public", "ownership_raw": "City of Taylorsville", "city": "Taylorsville", "source_dataset": "Utah Urban Tree Inventory", "source_department": "City of Taylorsville", "source_last_edit_at": "2026-03-28T17:19:55.001000+00:00"}}, {"type": "Feature", "geometry": {"type": "Point", "coordinates": [-111.93695590146538, 40.67094293034899]}, "properties": {"id": "taylorsville-97502", "species_group": "plum", "scientific_name": "Prunus species", "common_name": "Plum-Flowering", "subtype_name": "Plum-Flowering", "zip_code": "84123", "ownership": "public", "ownership_raw": "City of Taylorsville", "city": "Taylorsville", "source_dataset": "Utah Urban Tree Inventory", "source_department": "City of Taylorsville", "source_last_edit_at": "2026-03-28T17:19:55.001000+00:00"}}, {"type": "Feature", "geometry": {"type": "Point", "coordinates": [-111.9385877342981, 40.671457096639294]}, "properties": {"id": "taylorsville-97538", "species_group": "plum", "scientific_name": "Prunus species", "common_name": "Plum-Flowering", "subtype_name": "Plum-Flowering", "zip_code": "84123", "ownership": "public", "ownership_raw": "City of Taylorsville", "city": "Taylorsville", "source_dataset": "Utah Urban Tree Inventory", "source_department": "City of Taylorsville", "source_last_edit_at": "2026-03-28T17:19:55.001000+00:00"}}, {"type": "Feature", "geometry": {"type": "Point", "coordinates": [-111.93865595056415, 40.67068095162812]}, "properties": {"id": "taylorsville-97544", "species_group": "plum", "scientific_name": "Prunus species", "common_name": "Plum-Flowering", "subtype_name": "Plum-Flowering", "zip_code": "84123", "ownership": "public", "ownership_raw": "City of Taylorsville", "city": "Taylorsville", "source_dataset": "Utah Urban Tree Inventory", "source_department": "City of Taylorsville", "source_last_edit_at": "2026-03-28T17:19:55.001000+00:00"}}, {"type": "Feature", "geometry": {"type": "Point", "coordinates": [-111.93803259998762, 40.67083699950825]}, "properties": {"id": "taylorsville-97560", "species_group": "cherry", "scientific_name": "Prunus species", "common_name": "Cherry-Flowering", "subtype_name": "Flowering Cherry", "zip_code": "84123", "ownership": "public", "ownership_raw": "City of Taylorsville", "city": "Taylorsville", "source_dataset": "Utah Urban Tree Inventory", "source_department": "City of Taylorsville", "source_last_edit_at": "2026-03-28T17:19:55.001000+00:00"}}]}