{"type": "FeatureCollection", "features": [{"type": "Feature", "geometry": {"type": "Point", "coordinates": [139.477493, 35.729847]}, "properties": {"id": "kodaira-1bf61faebf950e52", "species_group": "magnolia", "scientific_name": "Magnolia species", "common_name": "ハクモクレン", "subtype_name": "ハクモクレン", "zip_code": null, "ownership": "unknown", "ownership_raw": "", "city": "Kodaira", "source_dataset": "Protected Trees / 保護指定樹木", "source_department": "Kodaira City", "source_last_edit_at": ""}}, {"type": "Feature", "geometry": {"type": "Point", "coordinates": [139.514282, 35.731354]}, "properties": {"id": "kodaira-2ecf68e297e565dc", "species_group": "cherry", "scientific_name": "Prunus species", "common_name": "サクラ", "subtype_name": "サクラ", "zip_code": null, "ownership": "unknown", "ownership_raw": "", "city": "Kodaira", "source_dataset": "Protected Trees / 保護指定樹木", "source_department": "Kodaira City", "source_last_edit_at": ""}}, {"type": "Feature", "geometry": {"type": "Point", "coordinates": [139.491241, 35.718868]}, "properties": {"id": "kodaira-62c730729eab007a", "species_group": "magnolia", "scientific_name": "Magnolia species", "common_name": "シモクレン", "subtype_name": "シモクレン", "zip_code": null, "ownership": "unknown", "ownership_raw": "", "city": "Kodaira", "source_dataset": "Protected Trees / 保護指定樹木", "source_department": "Kodaira City", "source_last_edit_at": ""}}, {"type": "Feature", "geometry": {"type": "Point", "coordinates": [139.475327, 35.718014]}, "properties": {"id": "kodaira-b699e0f8e12282e9", "species_group": "plum", "scientific_name": "Prunus species", "common_name": "ウメ", "subtype_name": "ウメ", "zip_code": null, "ownership": "unknown", "ownership_raw": "", "city": "Kodaira", "source_dataset": "Protected Trees / 保護指定樹木", "source_department": "Kodaira City", "source_last_edit_at": ""}}, {"type": "Feature", "geometry": {"type": "Point", "coordinates": [139.440826, 35.726398]}, "properties": {"id": "kodaira-d8faedf18884a33b", "species_group": "cherry", "scientific_name": "Prunus species", "common_name": "ヤマザクラ", "subtype_name": "ヤマザクラ", "zip_code": null, "ownership": "unknown", "ownership_raw": "", "city": "Kodaira", "source_dataset": "Protected Trees / 保護指定樹木", "source_department": "Kodaira City", "source_last_edit_at": ""}}, {"type": "Feature", "geometry": {"type": "Point", "coordinates": [139.463623, 35.737789]}, "properties": {"id": "kodaira-db7d9271c73fc7c5", "species_group": "cherry", "scientific_name": "Prunus species", "common_name": "サクラ", "subtype_name": "サクラ", "zip_code": null, "ownership": "unknown", "ownership_raw": "", "city": "Kodaira", "source_dataset": "Protected Trees / 保護指定樹木", "source_department": "Kodaira City", "source_last_edit_at": ""}}]}