{"type": "FeatureCollection", "features": [{"type": "Feature", "geometry": {"type": "Point", "coordinates": [-81.0288611100016, 34.010250000003175]}, "properties": {"id": "columbia-115", "species_group": "magnolia", "scientific_name": "Magnolia macrophylla", "common_name": "Bigleaf Magnolia", "subtype_name": "Bigleaf Magnolia", "zip_code": "29201", "ownership": "public", "ownership_raw": "Clemson University / Statewide champion tree inventory", "city": "Columbia", "source_dataset": "South Carolina Champion Tree Database", "source_department": "Clemson University", "source_last_edit_at": "2024-12-04T18:55:48.246000+00:00"}}]}