{"type": "FeatureCollection", "features": [{"type": "Feature", "geometry": {"type": "Point", "coordinates": [-109.54308105417941, 38.568503489151446]}, "properties": {"id": "moab-15382", "species_group": "crabapple", "scientific_name": "Malus species", "common_name": "Apple", "subtype_name": "Apple", "zip_code": "84532", "ownership": "public", "ownership_raw": "City of Moab", "city": "Moab", "source_dataset": "Utah Urban Tree Inventory", "source_department": "City of Moab", "source_last_edit_at": "2026-03-28T17:19:55.001000+00:00"}}, {"type": "Feature", "geometry": {"type": "Point", "coordinates": [-109.54321032379478, 38.5684372363995]}, "properties": {"id": "moab-15390", "species_group": "crabapple", "scientific_name": "Malus species", "common_name": "Apple", "subtype_name": "Apple", "zip_code": "84532", "ownership": "public", "ownership_raw": "City of Moab", "city": "Moab", "source_dataset": "Utah Urban Tree Inventory", "source_department": "City of Moab", "source_last_edit_at": "2026-03-28T17:19:55.001000+00:00"}}, {"type": "Feature", "geometry": {"type": "Point", "coordinates": [-109.54792458777614, 38.56844997482187]}, "properties": {"id": "moab-15440", "species_group": "plum", "scientific_name": "Prunus species", "common_name": "Plum-Flowering", "subtype_name": "Plum-Flowering", "zip_code": "84532", "ownership": "public", "ownership_raw": "City of Moab", "city": "Moab", "source_dataset": "Utah Urban Tree Inventory", "source_department": "City of Moab", "source_last_edit_at": "2026-03-28T17:19:55.001000+00:00"}}, {"type": "Feature", "geometry": {"type": "Point", "coordinates": [-109.54798729897823, 38.568425512925394]}, "properties": {"id": "moab-15441", "species_group": "plum", "scientific_name": "Prunus species", "common_name": "Plum-Flowering", "subtype_name": "Plum-Flowering", "zip_code": "84532", "ownership": "public", "ownership_raw": "City of Moab", "city": "Moab", "source_dataset": "Utah Urban Tree Inventory", "source_department": "City of Moab", "source_last_edit_at": "2026-03-28T17:19:55.001000+00:00"}}, {"type": "Feature", "geometry": {"type": "Point", "coordinates": [-109.54802539718956, 38.5684351060086]}, "properties": {"id": "moab-15442", "species_group": "plum", "scientific_name": "Prunus species", "common_name": "Plum-Flowering", "subtype_name": "Plum-Flowering", "zip_code": "84532", "ownership": "public", "ownership_raw": "City of Moab", "city": "Moab", "source_dataset": "Utah Urban Tree Inventory", "source_department": "City of Moab", "source_last_edit_at": "2026-03-28T17:19:55.001000+00:00"}}, {"type": "Feature", "geometry": {"type": "Point", "coordinates": [-109.54800796206656, 38.56848761074583]}, "properties": {"id": "moab-15443", "species_group": "plum", "scientific_name": "Prunus species", "common_name": "Plum-Flowering", "subtype_name": "Plum-Flowering", "zip_code": "84532", "ownership": "public", "ownership_raw": "City of Moab", "city": "Moab", "source_dataset": "Utah Urban Tree Inventory", "source_department": "City of Moab", "source_last_edit_at": "2026-03-28T17:19:55.001000+00:00"}}, {"type": "Feature", "geometry": {"type": "Point", "coordinates": [-109.54803741731034, 38.56846355445628]}, "properties": {"id": "moab-15444", "species_group": "plum", "scientific_name": "Prunus species", "common_name": "Plum-Flowering", "subtype_name": "Plum-Flowering", "zip_code": "84532", "ownership": "public", "ownership_raw": "City of Moab", "city": "Moab", "source_dataset": "Utah Urban Tree Inventory", "source_department": "City of Moab", "source_last_edit_at": "2026-03-28T17:19:55.001000+00:00"}}, {"type": "Feature", "geometry": {"type": "Point", "coordinates": [-109.54795232390985, 38.568486345524576]}, "properties": {"id": "moab-15445", "species_group": "plum", "scientific_name": "Prunus species", "common_name": "Plum-Flowering", "subtype_name": "Plum-Flowering", "zip_code": "84532", "ownership": "public", "ownership_raw": "City of Moab", "city": "Moab", "source_dataset": "Utah Urban Tree Inventory", "source_department": "City of Moab", "source_last_edit_at": "2026-03-28T17:19:55.001000+00:00"}}, {"type": "Feature", "geometry": {"type": "Point", "coordinates": [-109.54824460438202, 38.56834369437318]}, "properties": {"id": "moab-15473", "species_group": "crabapple", "scientific_name": "Malus species", "common_name": "Crabapple", "subtype_name": null, "zip_code": "84532", "ownership": "public", "ownership_raw": "City of Moab", "city": "Moab", "source_dataset": "Utah Urban Tree Inventory", "source_department": "City of Moab", "source_last_edit_at": "2026-03-28T17:19:55.001000+00:00"}}, {"type": "Feature", "geometry": {"type": "Point", "coordinates": [-109.54837051499524, 38.568186471239365]}, "properties": {"id": "moab-15475", "species_group": "plum", "scientific_name": "Prunus species", "common_name": "Plum-Flowering", "subtype_name": "Plum-Flowering", "zip_code": "84532", "ownership": "public", "ownership_raw": "City of Moab", "city": "Moab", "source_dataset": "Utah Urban Tree Inventory", "source_department": "City of Moab", "source_last_edit_at": "2026-03-28T17:19:55.001000+00:00"}}, {"type": "Feature", "geometry": {"type": "Point", "coordinates": [-109.53745555069997, 38.565276854067164]}, "properties": {"id": "moab-15528", "species_group": "crabapple", "scientific_name": "Malus species", "common_name": "Crabapple", "subtype_name": null, "zip_code": "84532", "ownership": "public", "ownership_raw": "City of Moab", "city": "Moab", "source_dataset": "Utah Urban Tree Inventory", "source_department": "City of Moab", "source_last_edit_at": "2026-03-28T17:19:55.001000+00:00"}}, {"type": "Feature", "geometry": {"type": "Point", "coordinates": [-109.53753755591447, 38.56530372252591]}, "properties": {"id": "moab-15529", "species_group": "crabapple", "scientific_name": "Malus species", "common_name": "Crabapple", "subtype_name": null, "zip_code": "84532", "ownership": "public", "ownership_raw": "City of Moab", "city": "Moab", "source_dataset": "Utah Urban Tree Inventory", "source_department": "City of Moab", "source_last_edit_at": "2026-03-28T17:19:55.001000+00:00"}}, {"type": "Feature", "geometry": {"type": "Point", "coordinates": [-109.53731459619017, 38.56522779096051]}, "properties": {"id": "moab-15530", "species_group": "crabapple", "scientific_name": "Malus species", "common_name": "Crabapple", "subtype_name": null, "zip_code": "84532", "ownership": "public", "ownership_raw": "City of Moab", "city": "Moab", "source_dataset": "Utah Urban Tree Inventory", "source_department": "City of Moab", "source_last_edit_at": "2026-03-28T17:19:55.001000+00:00"}}, {"type": "Feature", "geometry": {"type": "Point", "coordinates": [-109.53717837808557, 38.56516336212358]}, "properties": {"id": "moab-15531", "species_group": "crabapple", "scientific_name": "Malus species", "common_name": "Crabapple", "subtype_name": null, "zip_code": "84532", "ownership": "public", "ownership_raw": "City of Moab", "city": "Moab", "source_dataset": "Utah Urban Tree Inventory", "source_department": "City of Moab", "source_last_edit_at": "2026-03-28T17:19:55.001000+00:00"}}, {"type": "Feature", "geometry": {"type": "Point", "coordinates": [-109.53682789845557, 38.56499316909404]}, "properties": {"id": "moab-15540", "species_group": "crabapple", "scientific_name": "Malus species", "common_name": "Crabapple", "subtype_name": null, "zip_code": "84532", "ownership": "public", "ownership_raw": "City of Moab", "city": "Moab", "source_dataset": "Utah Urban Tree Inventory", "source_department": "City of Moab", "source_last_edit_at": "2026-03-28T17:19:55.001000+00:00"}}, {"type": "Feature", "geometry": {"type": "Point", "coordinates": [-109.53662346177369, 38.564983786963914]}, "properties": {"id": "moab-15543", "species_group": "cherry", "scientific_name": "Prunus species", "common_name": "Cherry-Flowering", "subtype_name": "Flowering Cherry", "zip_code": "84532", "ownership": "public", "ownership_raw": "City of Moab", "city": "Moab", "source_dataset": "Utah Urban Tree Inventory", "source_department": "City of Moab", "source_last_edit_at": "2026-03-28T17:19:55.001000+00:00"}}, {"type": "Feature", "geometry": {"type": "Point", "coordinates": [-109.53642219899959, 38.56465530021142]}, "properties": {"id": "moab-15576", "species_group": "cherry", "scientific_name": "Prunus species", "common_name": "Cherry-Flowering", "subtype_name": "Flowering Cherry", "zip_code": "84532", "ownership": "public", "ownership_raw": "City of Moab", "city": "Moab", "source_dataset": "Utah Urban Tree Inventory", "source_department": "City of Moab", "source_last_edit_at": "2026-03-28T17:19:55.001000+00:00"}}, {"type": "Feature", "geometry": {"type": "Point", "coordinates": [-109.53641864181876, 38.5646373789726]}, "properties": {"id": "moab-15577", "species_group": "cherry", "scientific_name": "Prunus species", "common_name": "Chokecherry", "subtype_name": "Chokecherry", "zip_code": "84532", "ownership": "public", "ownership_raw": "City of Moab", "city": "Moab", "source_dataset": "Utah Urban Tree Inventory", "source_department": "City of Moab", "source_last_edit_at": "2026-03-28T17:19:55.001000+00:00"}}, {"type": "Feature", "geometry": {"type": "Point", "coordinates": [-109.53638962575253, 38.564633397147595]}, "properties": {"id": "moab-15578", "species_group": "cherry", "scientific_name": "Prunus species", "common_name": "Chokecherry", "subtype_name": "Chokecherry", "zip_code": "84532", "ownership": "public", "ownership_raw": "City of Moab", "city": "Moab", "source_dataset": "Utah Urban Tree Inventory", "source_department": "City of Moab", "source_last_edit_at": "2026-03-28T17:19:55.001000+00:00"}}, {"type": "Feature", "geometry": {"type": "Point", "coordinates": [-109.53678541524596, 38.56485264724149]}, "properties": {"id": "moab-15596", "species_group": "plum", "scientific_name": "Prunus species", "common_name": "Plum-Flowering", "subtype_name": "Plum-Flowering", "zip_code": "84532", "ownership": "public", "ownership_raw": "City of Moab", "city": "Moab", "source_dataset": "Utah Urban Tree Inventory", "source_department": "City of Moab", "source_last_edit_at": "2026-03-28T17:19:55.001000+00:00"}}, {"type": "Feature", "geometry": {"type": "Point", "coordinates": [-109.53692304552355, 38.564838341122154]}, "properties": {"id": "moab-15603", "species_group": "crabapple", "scientific_name": "Malus species", "common_name": "Crabapple", "subtype_name": null, "zip_code": "84532", "ownership": "public", "ownership_raw": "City of Moab", "city": "Moab", "source_dataset": "Utah Urban Tree Inventory", "source_department": "City of Moab", "source_last_edit_at": "2026-03-28T17:19:55.001000+00:00"}}, {"type": "Feature", "geometry": {"type": "Point", "coordinates": [-109.53788351616821, 38.56481954319068]}, "properties": {"id": "moab-15657", "species_group": "crabapple", "scientific_name": "Malus species", "common_name": "Crabapple", "subtype_name": null, "zip_code": "84532", "ownership": "public", "ownership_raw": "City of Moab", "city": "Moab", "source_dataset": "Utah Urban Tree Inventory", "source_department": "City of Moab", "source_last_edit_at": "2026-03-28T17:19:55.001000+00:00"}}, {"type": "Feature", "geometry": {"type": "Point", "coordinates": [-109.53752504994343, 38.56511477985663]}, "properties": {"id": "moab-15676", "species_group": "crabapple", "scientific_name": "Malus species", "common_name": "Crabapple", "subtype_name": null, "zip_code": "84532", "ownership": "public", "ownership_raw": "City of Moab", "city": "Moab", "source_dataset": "Utah Urban Tree Inventory", "source_department": "City of Moab", "source_last_edit_at": "2026-03-28T17:19:55.001000+00:00"}}, {"type": "Feature", "geometry": {"type": "Point", "coordinates": [-109.5375339799901, 38.56508407165878]}, "properties": {"id": "moab-15677", "species_group": "crabapple", "scientific_name": "Malus species", "common_name": "Crabapple", "subtype_name": null, "zip_code": "84532", "ownership": "public", "ownership_raw": "City of Moab", "city": "Moab", "source_dataset": "Utah Urban Tree Inventory", "source_department": "City of Moab", "source_last_edit_at": "2026-03-28T17:19:55.001000+00:00"}}, {"type": "Feature", "geometry": {"type": "Point", "coordinates": [-109.53753731826716, 38.565043334220285]}, "properties": {"id": "moab-15678", "species_group": "crabapple", "scientific_name": "Malus species", "common_name": "Crabapple", "subtype_name": null, "zip_code": "84532", "ownership": "public", "ownership_raw": "City of Moab", "city": "Moab", "source_dataset": "Utah Urban Tree Inventory", "source_department": "City of Moab", "source_last_edit_at": "2026-03-28T17:19:55.001000+00:00"}}, {"type": "Feature", "geometry": {"type": "Point", "coordinates": [-109.53749812545921, 38.56501049815516]}, "properties": {"id": "moab-15679", "species_group": "crabapple", "scientific_name": "Malus species", "common_name": "Crabapple", "subtype_name": null, "zip_code": "84532", "ownership": "public", "ownership_raw": "City of Moab", "city": "Moab", "source_dataset": "Utah Urban Tree Inventory", "source_department": "City of Moab", "source_last_edit_at": "2026-03-28T17:19:55.001000+00:00"}}, {"type": "Feature", "geometry": {"type": "Point", "coordinates": [-109.5374275029176, 38.564998069356584]}, "properties": {"id": "moab-15680", "species_group": "crabapple", "scientific_name": "Malus species", "common_name": "Crabapple", "subtype_name": null, "zip_code": "84532", "ownership": "public", "ownership_raw": "City of Moab", "city": "Moab", "source_dataset": "Utah Urban Tree Inventory", "source_department": "City of Moab", "source_last_edit_at": "2026-03-28T17:19:55.001000+00:00"}}, {"type": "Feature", "geometry": {"type": "Point", "coordinates": [-109.53736523877384, 38.56498981270539]}, "properties": {"id": "moab-15681", "species_group": "crabapple", "scientific_name": "Malus species", "common_name": "Crabapple", "subtype_name": null, "zip_code": "84532", "ownership": "public", "ownership_raw": "City of Moab", "city": "Moab", "source_dataset": "Utah Urban Tree Inventory", "source_department": "City of Moab", "source_last_edit_at": "2026-03-28T17:19:55.001000+00:00"}}, {"type": "Feature", "geometry": {"type": "Point", "coordinates": [-109.53731982892357, 38.564987871864695]}, "properties": {"id": "moab-15682", "species_group": "crabapple", "scientific_name": "Malus species", "common_name": "Crabapple", "subtype_name": null, "zip_code": "84532", "ownership": "public", "ownership_raw": "City of Moab", "city": "Moab", "source_dataset": "Utah Urban Tree Inventory", "source_department": "City of Moab", "source_last_edit_at": "2026-03-28T17:19:55.001000+00:00"}}, {"type": "Feature", "geometry": {"type": "Point", "coordinates": [-109.53727418122365, 38.56498934063952]}, "properties": {"id": "moab-15683", "species_group": "crabapple", "scientific_name": "Malus species", "common_name": "Crabapple", "subtype_name": null, "zip_code": "84532", "ownership": "public", "ownership_raw": "City of Moab", "city": "Moab", "source_dataset": "Utah Urban Tree Inventory", "source_department": "City of Moab", "source_last_edit_at": "2026-03-28T17:19:55.001000+00:00"}}, {"type": "Feature", "geometry": {"type": "Point", "coordinates": [-109.53661563814663, 38.56458992923331]}, "properties": {"id": "moab-15684", "species_group": "crabapple", "scientific_name": "Malus species", "common_name": "Crabapple", "subtype_name": null, "zip_code": "84532", "ownership": "public", "ownership_raw": "City of Moab", "city": "Moab", "source_dataset": "Utah Urban Tree Inventory", "source_department": "City of Moab", "source_last_edit_at": "2026-03-28T17:19:55.001000+00:00"}}, {"type": "Feature", "geometry": {"type": "Point", "coordinates": [-109.53722077340014, 38.564983114920885]}, "properties": {"id": "moab-15685", "species_group": "crabapple", "scientific_name": "Malus species", "common_name": "Crabapple", "subtype_name": null, "zip_code": "84532", "ownership": "public", "ownership_raw": "City of Moab", "city": "Moab", "source_dataset": "Utah Urban Tree Inventory", "source_department": "City of Moab", "source_last_edit_at": "2026-03-28T17:19:55.001000+00:00"}}, {"type": "Feature", "geometry": {"type": "Point", "coordinates": [-109.54675468152993, 38.573825795316594]}, "properties": {"id": "moab-15804", "species_group": "plum", "scientific_name": "Prunus species", "common_name": "Plum-Flowering", "subtype_name": "Plum-Flowering", "zip_code": "84532", "ownership": "public", "ownership_raw": "City of Moab", "city": "Moab", "source_dataset": "Utah Urban Tree Inventory", "source_department": "City of Moab", "source_last_edit_at": "2026-03-28T17:19:55.001000+00:00"}}, {"type": "Feature", "geometry": {"type": "Point", "coordinates": [-109.55464597308303, 38.57794322300149]}, "properties": {"id": "moab-16014", "species_group": "plum", "scientific_name": "Prunus species", "common_name": "Plum-Flowering", "subtype_name": "Plum-Flowering", "zip_code": "84532", "ownership": "public", "ownership_raw": "City of Moab", "city": "Moab", "source_dataset": "Utah Urban Tree Inventory", "source_department": "City of Moab", "source_last_edit_at": "2026-03-28T17:19:55.001000+00:00"}}, {"type": "Feature", "geometry": {"type": "Point", "coordinates": [-109.5546450723819, 38.57802773579387]}, "properties": {"id": "moab-16015", "species_group": "plum", "scientific_name": "Prunus species", "common_name": "Plum-Flowering", "subtype_name": "Plum-Flowering", "zip_code": "84532", "ownership": "public", "ownership_raw": "City of Moab", "city": "Moab", "source_dataset": "Utah Urban Tree Inventory", "source_department": "City of Moab", "source_last_edit_at": "2026-03-28T17:19:55.001000+00:00"}}, {"type": "Feature", "geometry": {"type": "Point", "coordinates": [-109.55322902895827, 38.5792390474174]}, "properties": {"id": "moab-16089", "species_group": "plum", "scientific_name": "Prunus species", "common_name": "Plum-Flowering", "subtype_name": "Plum-Flowering", "zip_code": "84532", "ownership": "public", "ownership_raw": "City of Moab", "city": "Moab", "source_dataset": "Utah Urban Tree Inventory", "source_department": "City of Moab", "source_last_edit_at": "2026-03-28T17:19:55.001000+00:00"}}, {"type": "Feature", "geometry": {"type": "Point", "coordinates": [-109.55098494116955, 38.57746773658649]}, "properties": {"id": "moab-16253", "species_group": "plum", "scientific_name": "Prunus species", "common_name": "Plum-Flowering", "subtype_name": "Plum-Flowering", "zip_code": "84532", "ownership": "public", "ownership_raw": "City of Moab", "city": "Moab", "source_dataset": "Utah Urban Tree Inventory", "source_department": "City of Moab", "source_last_edit_at": "2026-03-28T17:19:55.001000+00:00"}}, {"type": "Feature", "geometry": {"type": "Point", "coordinates": [-109.54996794418813, 38.56410931697326]}, "properties": {"id": "moab-16319", "species_group": "plum", "scientific_name": "Prunus species", "common_name": "Plum-Flowering", "subtype_name": "Plum-Flowering", "zip_code": "84532", "ownership": "public", "ownership_raw": "City of Moab", "city": "Moab", "source_dataset": "Utah Urban Tree Inventory", "source_department": "City of Moab", "source_last_edit_at": "2026-03-28T17:19:55.001000+00:00"}}, {"type": "Feature", "geometry": {"type": "Point", "coordinates": [-109.54902698976737, 38.56255863993746]}, "properties": {"id": "moab-16324", "species_group": "crabapple", "scientific_name": "Malus species", "common_name": "Crabapple", "subtype_name": null, "zip_code": "84532", "ownership": "public", "ownership_raw": "City of Moab", "city": "Moab", "source_dataset": "Utah Urban Tree Inventory", "source_department": "City of Moab", "source_last_edit_at": "2026-03-28T17:19:55.001000+00:00"}}, {"type": "Feature", "geometry": {"type": "Point", "coordinates": [-109.5491686423152, 38.56275789396521]}, "properties": {"id": "moab-16328", "species_group": "plum", "scientific_name": "Prunus species", "common_name": "Plum-Flowering", "subtype_name": "Plum-Flowering", "zip_code": "84532", "ownership": "public", "ownership_raw": "City of Moab", "city": "Moab", "source_dataset": "Utah Urban Tree Inventory", "source_department": "City of Moab", "source_last_edit_at": "2026-03-28T17:19:55.001000+00:00"}}, {"type": "Feature", "geometry": {"type": "Point", "coordinates": [-109.54842364147984, 38.561734209811725]}, "properties": {"id": "moab-16329", "species_group": "plum", "scientific_name": "Prunus species", "common_name": "Plum-Flowering", "subtype_name": "Plum-Flowering", "zip_code": "84532", "ownership": "public", "ownership_raw": "City of Moab", "city": "Moab", "source_dataset": "Utah Urban Tree Inventory", "source_department": "City of Moab", "source_last_edit_at": "2026-03-28T17:19:55.001000+00:00"}}, {"type": "Feature", "geometry": {"type": "Point", "coordinates": [-109.5506524902255, 38.56946036900848]}, "properties": {"id": "moab-16402", "species_group": "crabapple", "scientific_name": "Malus species", "common_name": "Crabapple", "subtype_name": null, "zip_code": "84532", "ownership": "public", "ownership_raw": "City of Moab", "city": "Moab", "source_dataset": "Utah Urban Tree Inventory", "source_department": "City of Moab", "source_last_edit_at": "2026-03-28T17:19:55.001000+00:00"}}, {"type": "Feature", "geometry": {"type": "Point", "coordinates": [-109.5506183931944, 38.57718629169078]}, "properties": {"id": "moab-16419", "species_group": "crabapple", "scientific_name": "Malus species", "common_name": "Crabapple", "subtype_name": null, "zip_code": "84532", "ownership": "public", "ownership_raw": "City of Moab", "city": "Moab", "source_dataset": "Utah Urban Tree Inventory", "source_department": "City of Moab", "source_last_edit_at": "2026-03-28T17:19:55.001000+00:00"}}, {"type": "Feature", "geometry": {"type": "Point", "coordinates": [-109.54988128999656, 38.576283345524494]}, "properties": {"id": "moab-16449", "species_group": "cherry", "scientific_name": "Prunus species", "common_name": "Cherry-Flowering", "subtype_name": "Flowering Cherry", "zip_code": "84532", "ownership": "public", "ownership_raw": "City of Moab", "city": "Moab", "source_dataset": "Utah Urban Tree Inventory", "source_department": "City of Moab", "source_last_edit_at": "2026-03-28T17:19:55.001000+00:00"}}, {"type": "Feature", "geometry": {"type": "Point", "coordinates": [-109.54505567525631, 38.5749245910545]}, "properties": {"id": "moab-16454", "species_group": "plum", "scientific_name": "Prunus species", "common_name": "Plum-Flowering", "subtype_name": "Plum-Flowering", "zip_code": "84532", "ownership": "public", "ownership_raw": "City of Moab", "city": "Moab", "source_dataset": "Utah Urban Tree Inventory", "source_department": "City of Moab", "source_last_edit_at": "2026-03-28T17:19:55.001000+00:00"}}, {"type": "Feature", "geometry": {"type": "Point", "coordinates": [-109.54514958855844, 38.574924624063435]}, "properties": {"id": "moab-16456", "species_group": "plum", "scientific_name": "Prunus species", "common_name": "Plum-Flowering", "subtype_name": "Plum-Flowering", "zip_code": "84532", "ownership": "public", "ownership_raw": "City of Moab", "city": "Moab", "source_dataset": "Utah Urban Tree Inventory", "source_department": "City of Moab", "source_last_edit_at": "2026-03-28T17:19:55.001000+00:00"}}, {"type": "Feature", "geometry": {"type": "Point", "coordinates": [-109.54524823267859, 38.57492100402483]}, "properties": {"id": "moab-16457", "species_group": "plum", "scientific_name": "Prunus species", "common_name": "Plum-Flowering", "subtype_name": "Plum-Flowering", "zip_code": "84532", "ownership": "public", "ownership_raw": "City of Moab", "city": "Moab", "source_dataset": "Utah Urban Tree Inventory", "source_department": "City of Moab", "source_last_edit_at": "2026-03-28T17:19:55.001000+00:00"}}, {"type": "Feature", "geometry": {"type": "Point", "coordinates": [-109.5453475469109, 38.57491904761982]}, "properties": {"id": "moab-16459", "species_group": "plum", "scientific_name": "Prunus species", "common_name": "Plum-Flowering", "subtype_name": "Plum-Flowering", "zip_code": "84532", "ownership": "public", "ownership_raw": "City of Moab", "city": "Moab", "source_dataset": "Utah Urban Tree Inventory", "source_department": "City of Moab", "source_last_edit_at": "2026-03-28T17:19:55.001000+00:00"}}, {"type": "Feature", "geometry": {"type": "Point", "coordinates": [-109.54349840383888, 38.57471349058332]}, "properties": {"id": "moab-16464", "species_group": "plum", "scientific_name": "Prunus species", "common_name": "Plum-Flowering", "subtype_name": "Plum-Flowering", "zip_code": "84532", "ownership": "public", "ownership_raw": "City of Moab", "city": "Moab", "source_dataset": "Utah Urban Tree Inventory", "source_department": "City of Moab", "source_last_edit_at": "2026-03-28T17:19:55.001000+00:00"}}, {"type": "Feature", "geometry": {"type": "Point", "coordinates": [-109.54448437144444, 38.574719452326754]}, "properties": {"id": "moab-16469", "species_group": "crabapple", "scientific_name": "Malus species", "common_name": "Crabapple", "subtype_name": null, "zip_code": "84532", "ownership": "public", "ownership_raw": "City of Moab", "city": "Moab", "source_dataset": "Utah Urban Tree Inventory", "source_department": "City of Moab", "source_last_edit_at": "2026-03-28T17:19:55.001000+00:00"}}, {"type": "Feature", "geometry": {"type": "Point", "coordinates": [-109.54460169072256, 38.57472385812609]}, "properties": {"id": "moab-16470", "species_group": "crabapple", "scientific_name": "Malus species", "common_name": "Crabapple", "subtype_name": null, "zip_code": "84532", "ownership": "public", "ownership_raw": "City of Moab", "city": "Moab", "source_dataset": "Utah Urban Tree Inventory", "source_department": "City of Moab", "source_last_edit_at": "2026-03-28T17:19:55.001000+00:00"}}, {"type": "Feature", "geometry": {"type": "Point", "coordinates": [-109.54471840970653, 38.57472536009104]}, "properties": {"id": "moab-16471", "species_group": "crabapple", "scientific_name": "Malus species", "common_name": "Crabapple", "subtype_name": null, "zip_code": "84532", "ownership": "public", "ownership_raw": "City of Moab", "city": "Moab", "source_dataset": "Utah Urban Tree Inventory", "source_department": "City of Moab", "source_last_edit_at": "2026-03-28T17:19:55.001000+00:00"}}, {"type": "Feature", "geometry": {"type": "Point", "coordinates": [-109.54844026647866, 38.574740342030985]}, "properties": {"id": "moab-16494", "species_group": "plum", "scientific_name": "Prunus species", "common_name": "Plum-Flowering", "subtype_name": "Plum-Flowering", "zip_code": "84532", "ownership": "public", "ownership_raw": "City of Moab", "city": "Moab", "source_dataset": "Utah Urban Tree Inventory", "source_department": "City of Moab", "source_last_edit_at": "2026-03-28T17:19:55.001000+00:00"}}, {"type": "Feature", "geometry": {"type": "Point", "coordinates": [-109.54848139360584, 38.57473090449921]}, "properties": {"id": "moab-16495", "species_group": "plum", "scientific_name": "Prunus species", "common_name": "Plum-Flowering", "subtype_name": "Plum-Flowering", "zip_code": "84532", "ownership": "public", "ownership_raw": "City of Moab", "city": "Moab", "source_dataset": "Utah Urban Tree Inventory", "source_department": "City of Moab", "source_last_edit_at": "2026-03-28T17:19:55.001000+00:00"}}, {"type": "Feature", "geometry": {"type": "Point", "coordinates": [-109.54853808994578, 38.574739606189766]}, "properties": {"id": "moab-16496", "species_group": "plum", "scientific_name": "Prunus species", "common_name": "Plum-Flowering", "subtype_name": "Plum-Flowering", "zip_code": "84532", "ownership": "public", "ownership_raw": "City of Moab", "city": "Moab", "source_dataset": "Utah Urban Tree Inventory", "source_department": "City of Moab", "source_last_edit_at": "2026-03-28T17:19:55.001000+00:00"}}, {"type": "Feature", "geometry": {"type": "Point", "coordinates": [-109.54943138022682, 38.5749224314414]}, "properties": {"id": "moab-16505", "species_group": "plum", "scientific_name": "Prunus species", "common_name": "Plum-Flowering", "subtype_name": "Plum-Flowering", "zip_code": "84532", "ownership": "public", "ownership_raw": "City of Moab", "city": "Moab", "source_dataset": "Utah Urban Tree Inventory", "source_department": "City of Moab", "source_last_edit_at": "2026-03-28T17:19:55.001000+00:00"}}, {"type": "Feature", "geometry": {"type": "Point", "coordinates": [-109.54960421676036, 38.57492931722221]}, "properties": {"id": "moab-16508", "species_group": "plum", "scientific_name": "Prunus species", "common_name": "Plum-Flowering", "subtype_name": "Plum-Flowering", "zip_code": "84532", "ownership": "public", "ownership_raw": "City of Moab", "city": "Moab", "source_dataset": "Utah Urban Tree Inventory", "source_department": "City of Moab", "source_last_edit_at": "2026-03-28T17:19:55.001000+00:00"}}, {"type": "Feature", "geometry": {"type": "Point", "coordinates": [-109.55036585041442, 38.57649065918836]}, "properties": {"id": "moab-16533", "species_group": "plum", "scientific_name": "Prunus species", "common_name": "Plum-Flowering", "subtype_name": "Plum-Flowering", "zip_code": "84532", "ownership": "public", "ownership_raw": "City of Moab", "city": "Moab", "source_dataset": "Utah Urban Tree Inventory", "source_department": "City of Moab", "source_last_edit_at": "2026-03-28T17:19:55.001000+00:00"}}, {"type": "Feature", "geometry": {"type": "Point", "coordinates": [-109.54703961503351, 38.57025553531011]}, "properties": {"id": "moab-16619", "species_group": "plum", "scientific_name": "Prunus species", "common_name": "Plum-Flowering", "subtype_name": "Plum-Flowering", "zip_code": "84532", "ownership": "public", "ownership_raw": "City of Moab", "city": "Moab", "source_dataset": "Utah Urban Tree Inventory", "source_department": "City of Moab", "source_last_edit_at": "2026-03-28T17:19:55.001000+00:00"}}, {"type": "Feature", "geometry": {"type": "Point", "coordinates": [-109.54867382283793, 38.57443943402682]}, "properties": {"id": "moab-16654", "species_group": "plum", "scientific_name": "Prunus species", "common_name": "Plum-Flowering", "subtype_name": "Plum-Flowering", "zip_code": "84532", "ownership": "public", "ownership_raw": "City of Moab", "city": "Moab", "source_dataset": "Utah Urban Tree Inventory", "source_department": "City of Moab", "source_last_edit_at": "2026-03-28T17:19:55.001000+00:00"}}, {"type": "Feature", "geometry": {"type": "Point", "coordinates": [-109.54868637815822, 38.57449827445342]}, "properties": {"id": "moab-16655", "species_group": "plum", "scientific_name": "Prunus species", "common_name": "Plum-Flowering", "subtype_name": "Plum-Flowering", "zip_code": "84532", "ownership": "public", "ownership_raw": "City of Moab", "city": "Moab", "source_dataset": "Utah Urban Tree Inventory", "source_department": "City of Moab", "source_last_edit_at": "2026-03-28T17:19:55.001000+00:00"}}, {"type": "Feature", "geometry": {"type": "Point", "coordinates": [-109.54790513720191, 38.5733929877057]}, "properties": {"id": "moab-16692", "species_group": "crabapple", "scientific_name": "Malus species", "common_name": "Crabapple", "subtype_name": null, "zip_code": "84532", "ownership": "public", "ownership_raw": "City of Moab", "city": "Moab", "source_dataset": "Utah Urban Tree Inventory", "source_department": "City of Moab", "source_last_edit_at": "2026-03-28T17:19:55.001000+00:00"}}, {"type": "Feature", "geometry": {"type": "Point", "coordinates": [-109.54798418527277, 38.57339445872525]}, "properties": {"id": "moab-16693", "species_group": "crabapple", "scientific_name": "Malus species", "common_name": "Crabapple", "subtype_name": null, "zip_code": "84532", "ownership": "public", "ownership_raw": "City of Moab", "city": "Moab", "source_dataset": "Utah Urban Tree Inventory", "source_department": "City of Moab", "source_last_edit_at": "2026-03-28T17:19:55.001000+00:00"}}, {"type": "Feature", "geometry": {"type": "Point", "coordinates": [-109.54809150257886, 38.57339456645211]}, "properties": {"id": "moab-16694", "species_group": "crabapple", "scientific_name": "Malus species", "common_name": "Crabapple", "subtype_name": null, "zip_code": "84532", "ownership": "public", "ownership_raw": "City of Moab", "city": "Moab", "source_dataset": "Utah Urban Tree Inventory", "source_department": "City of Moab", "source_last_edit_at": "2026-03-28T17:19:55.001000+00:00"}}, {"type": "Feature", "geometry": {"type": "Point", "coordinates": [-109.54820553283139, 38.57338771587499]}, "properties": {"id": "moab-16695", "species_group": "crabapple", "scientific_name": "Malus species", "common_name": "Crabapple", "subtype_name": null, "zip_code": "84532", "ownership": "public", "ownership_raw": "City of Moab", "city": "Moab", "source_dataset": "Utah Urban Tree Inventory", "source_department": "City of Moab", "source_last_edit_at": "2026-03-28T17:19:55.001000+00:00"}}, {"type": "Feature", "geometry": {"type": "Point", "coordinates": [-109.54876322458476, 38.57298681535969]}, "properties": {"id": "moab-16696", "species_group": "crabapple", "scientific_name": "Malus species", "common_name": "Crabapple", "subtype_name": null, "zip_code": "84532", "ownership": "public", "ownership_raw": "City of Moab", "city": "Moab", "source_dataset": "Utah Urban Tree Inventory", "source_department": "City of Moab", "source_last_edit_at": "2026-03-28T17:19:55.001000+00:00"}}, {"type": "Feature", "geometry": {"type": "Point", "coordinates": [-109.54828031232424, 38.57339304197098]}, "properties": {"id": "moab-16697", "species_group": "crabapple", "scientific_name": "Malus species", "common_name": "Crabapple", "subtype_name": null, "zip_code": "84532", "ownership": "public", "ownership_raw": "City of Moab", "city": "Moab", "source_dataset": "Utah Urban Tree Inventory", "source_department": "City of Moab", "source_last_edit_at": "2026-03-28T17:19:55.001000+00:00"}}, {"type": "Feature", "geometry": {"type": "Point", "coordinates": [-109.54839455863141, 38.57339849711]}, "properties": {"id": "moab-16698", "species_group": "crabapple", "scientific_name": "Malus species", "common_name": "Crabapple", "subtype_name": null, "zip_code": "84532", "ownership": "public", "ownership_raw": "City of Moab", "city": "Moab", "source_dataset": "Utah Urban Tree Inventory", "source_department": "City of Moab", "source_last_edit_at": "2026-03-28T17:19:55.001000+00:00"}}, {"type": "Feature", "geometry": {"type": "Point", "coordinates": [-109.54850895334587, 38.57340199761025]}, "properties": {"id": "moab-16699", "species_group": "crabapple", "scientific_name": "Malus species", "common_name": "Crabapple", "subtype_name": null, "zip_code": "84532", "ownership": "public", "ownership_raw": "City of Moab", "city": "Moab", "source_dataset": "Utah Urban Tree Inventory", "source_department": "City of Moab", "source_last_edit_at": "2026-03-28T17:19:55.001000+00:00"}}, {"type": "Feature", "geometry": {"type": "Point", "coordinates": [-109.54861840605035, 38.57339153847561]}, "properties": {"id": "moab-16700", "species_group": "crabapple", "scientific_name": "Malus species", "common_name": "Crabapple", "subtype_name": null, "zip_code": "84532", "ownership": "public", "ownership_raw": "City of Moab", "city": "Moab", "source_dataset": "Utah Urban Tree Inventory", "source_department": "City of Moab", "source_last_edit_at": "2026-03-28T17:19:55.001000+00:00"}}, {"type": "Feature", "geometry": {"type": "Point", "coordinates": [-109.54908163220969, 38.57340270998785]}, "properties": {"id": "moab-16701", "species_group": "crabapple", "scientific_name": "Malus species", "common_name": "Crabapple", "subtype_name": null, "zip_code": "84532", "ownership": "public", "ownership_raw": "City of Moab", "city": "Moab", "source_dataset": "Utah Urban Tree Inventory", "source_department": "City of Moab", "source_last_edit_at": "2026-03-28T17:19:55.001000+00:00"}}, {"type": "Feature", "geometry": {"type": "Point", "coordinates": [-109.54925042586925, 38.57340690040565]}, "properties": {"id": "moab-16702", "species_group": "crabapple", "scientific_name": "Malus species", "common_name": "Crabapple", "subtype_name": null, "zip_code": "84532", "ownership": "public", "ownership_raw": "City of Moab", "city": "Moab", "source_dataset": "Utah Urban Tree Inventory", "source_department": "City of Moab", "source_last_edit_at": "2026-03-28T17:19:55.001000+00:00"}}, {"type": "Feature", "geometry": {"type": "Point", "coordinates": [-109.54932141359797, 38.57340231408683]}, "properties": {"id": "moab-16703", "species_group": "crabapple", "scientific_name": "Malus species", "common_name": "Crabapple", "subtype_name": null, "zip_code": "84532", "ownership": "public", "ownership_raw": "City of Moab", "city": "Moab", "source_dataset": "Utah Urban Tree Inventory", "source_department": "City of Moab", "source_last_edit_at": "2026-03-28T17:19:55.001000+00:00"}}, {"type": "Feature", "geometry": {"type": "Point", "coordinates": [-109.54945333846715, 38.57339814151092]}, "properties": {"id": "moab-16704", "species_group": "crabapple", "scientific_name": "Malus species", "common_name": "Crabapple", "subtype_name": null, "zip_code": "84532", "ownership": "public", "ownership_raw": "City of Moab", "city": "Moab", "source_dataset": "Utah Urban Tree Inventory", "source_department": "City of Moab", "source_last_edit_at": "2026-03-28T17:19:55.001000+00:00"}}, {"type": "Feature", "geometry": {"type": "Point", "coordinates": [-109.54955798936602, 38.573398185105276]}, "properties": {"id": "moab-16705", "species_group": "crabapple", "scientific_name": "Malus species", "common_name": "Crabapple", "subtype_name": null, "zip_code": "84532", "ownership": "public", "ownership_raw": "City of Moab", "city": "Moab", "source_dataset": "Utah Urban Tree Inventory", "source_department": "City of Moab", "source_last_edit_at": "2026-03-28T17:19:55.001000+00:00"}}, {"type": "Feature", "geometry": {"type": "Point", "coordinates": [-109.5496883556692, 38.57339942049502]}, "properties": {"id": "moab-16706", "species_group": "crabapple", "scientific_name": "Malus species", "common_name": "Crabapple", "subtype_name": null, "zip_code": "84532", "ownership": "public", "ownership_raw": "City of Moab", "city": "Moab", "source_dataset": "Utah Urban Tree Inventory", "source_department": "City of Moab", "source_last_edit_at": "2026-03-28T17:19:55.001000+00:00"}}, {"type": "Feature", "geometry": {"type": "Point", "coordinates": [-109.5499353961811, 38.57340263133399]}, "properties": {"id": "moab-16707", "species_group": "crabapple", "scientific_name": "Malus species", "common_name": "Crabapple", "subtype_name": null, "zip_code": "84532", "ownership": "public", "ownership_raw": "City of Moab", "city": "Moab", "source_dataset": "Utah Urban Tree Inventory", "source_department": "City of Moab", "source_last_edit_at": "2026-03-28T17:19:55.001000+00:00"}}, {"type": "Feature", "geometry": {"type": "Point", "coordinates": [-109.55005897218491, 38.57340771653824]}, "properties": {"id": "moab-16708", "species_group": "crabapple", "scientific_name": "Malus species", "common_name": "Crabapple", "subtype_name": null, "zip_code": "84532", "ownership": "public", "ownership_raw": "City of Moab", "city": "Moab", "source_dataset": "Utah Urban Tree Inventory", "source_department": "City of Moab", "source_last_edit_at": "2026-03-28T17:19:55.001000+00:00"}}, {"type": "Feature", "geometry": {"type": "Point", "coordinates": [-109.54962919236415, 38.57340852229207]}, "properties": {"id": "moab-16712", "species_group": "crabapple", "scientific_name": "Malus species", "common_name": "Crabapple", "subtype_name": null, "zip_code": "84532", "ownership": "public", "ownership_raw": "City of Moab", "city": "Moab", "source_dataset": "Utah Urban Tree Inventory", "source_department": "City of Moab", "source_last_edit_at": "2026-03-28T17:19:55.001000+00:00"}}, {"type": "Feature", "geometry": {"type": "Point", "coordinates": [-109.54973879125902, 38.57340083311342]}, "properties": {"id": "moab-16713", "species_group": "crabapple", "scientific_name": "Malus species", "common_name": "Crabapple", "subtype_name": null, "zip_code": "84532", "ownership": "public", "ownership_raw": "City of Moab", "city": "Moab", "source_dataset": "Utah Urban Tree Inventory", "source_department": "City of Moab", "source_last_edit_at": "2026-03-28T17:19:55.001000+00:00"}}, {"type": "Feature", "geometry": {"type": "Point", "coordinates": [-109.55019512537224, 38.57341059374192]}, "properties": {"id": "moab-16714", "species_group": "crabapple", "scientific_name": "Malus species", "common_name": "Crabapple", "subtype_name": null, "zip_code": "84532", "ownership": "public", "ownership_raw": "City of Moab", "city": "Moab", "source_dataset": "Utah Urban Tree Inventory", "source_department": "City of Moab", "source_last_edit_at": "2026-03-28T17:19:55.001000+00:00"}}, {"type": "Feature", "geometry": {"type": "Point", "coordinates": [-109.54278843054837, 38.57098523536347]}, "properties": {"id": "moab-16779", "species_group": "plum", "scientific_name": "Prunus species", "common_name": "Plum-Flowering", "subtype_name": "Plum-Flowering", "zip_code": "84532", "ownership": "public", "ownership_raw": "City of Moab", "city": "Moab", "source_dataset": "Utah Urban Tree Inventory", "source_department": "City of Moab", "source_last_edit_at": "2026-03-28T17:19:55.001000+00:00"}}, {"type": "Feature", "geometry": {"type": "Point", "coordinates": [-109.5427924382643, 38.570957198639036]}, "properties": {"id": "moab-16780", "species_group": "plum", "scientific_name": "Prunus species", "common_name": "Plum-Flowering", "subtype_name": "Plum-Flowering", "zip_code": "84532", "ownership": "public", "ownership_raw": "City of Moab", "city": "Moab", "source_dataset": "Utah Urban Tree Inventory", "source_department": "City of Moab", "source_last_edit_at": "2026-03-28T17:19:55.001000+00:00"}}, {"type": "Feature", "geometry": {"type": "Point", "coordinates": [-109.5427830010567, 38.570926152320176]}, "properties": {"id": "moab-16781", "species_group": "plum", "scientific_name": "Prunus species", "common_name": "Plum-Flowering", "subtype_name": "Plum-Flowering", "zip_code": "84532", "ownership": "public", "ownership_raw": "City of Moab", "city": "Moab", "source_dataset": "Utah Urban Tree Inventory", "source_department": "City of Moab", "source_last_edit_at": "2026-03-28T17:19:55.001000+00:00"}}, {"type": "Feature", "geometry": {"type": "Point", "coordinates": [-109.54281639427039, 38.568377110567276]}, "properties": {"id": "moab-16787", "species_group": "cherry", "scientific_name": "Prunus species", "common_name": "Chokecherry", "subtype_name": "Chokecherry", "zip_code": "84532", "ownership": "public", "ownership_raw": "City of Moab", "city": "Moab", "source_dataset": "Utah Urban Tree Inventory", "source_department": "City of Moab", "source_last_edit_at": "2026-03-28T17:19:55.001000+00:00"}}, {"type": "Feature", "geometry": {"type": "Point", "coordinates": [-109.54279196803292, 38.56825776443206]}, "properties": {"id": "moab-16788", "species_group": "cherry", "scientific_name": "Prunus species", "common_name": "Chokecherry", "subtype_name": "Chokecherry", "zip_code": "84532", "ownership": "public", "ownership_raw": "City of Moab", "city": "Moab", "source_dataset": "Utah Urban Tree Inventory", "source_department": "City of Moab", "source_last_edit_at": "2026-03-28T17:19:55.001000+00:00"}}, {"type": "Feature", "geometry": {"type": "Point", "coordinates": [-109.54278940768397, 38.56816075218578]}, "properties": {"id": "moab-16789", "species_group": "cherry", "scientific_name": "Prunus species", "common_name": "Chokecherry", "subtype_name": "Chokecherry", "zip_code": "84532", "ownership": "public", "ownership_raw": "City of Moab", "city": "Moab", "source_dataset": "Utah Urban Tree Inventory", "source_department": "City of Moab", "source_last_edit_at": "2026-03-28T17:19:55.001000+00:00"}}, {"type": "Feature", "geometry": {"type": "Point", "coordinates": [-109.54269398589335, 38.56811213718801]}, "properties": {"id": "moab-16790", "species_group": "cherry", "scientific_name": "Prunus species", "common_name": "Chokecherry", "subtype_name": "Chokecherry", "zip_code": "84532", "ownership": "public", "ownership_raw": "City of Moab", "city": "Moab", "source_dataset": "Utah Urban Tree Inventory", "source_department": "City of Moab", "source_last_edit_at": "2026-03-28T17:19:55.001000+00:00"}}, {"type": "Feature", "geometry": {"type": "Point", "coordinates": [-109.54248393162321, 38.56811262221114]}, "properties": {"id": "moab-16791", "species_group": "cherry", "scientific_name": "Prunus species", "common_name": "Chokecherry", "subtype_name": "Chokecherry", "zip_code": "84532", "ownership": "public", "ownership_raw": "City of Moab", "city": "Moab", "source_dataset": "Utah Urban Tree Inventory", "source_department": "City of Moab", "source_last_edit_at": "2026-03-28T17:19:55.001000+00:00"}}, {"type": "Feature", "geometry": {"type": "Point", "coordinates": [-109.54235524509805, 38.568112469431064]}, "properties": {"id": "moab-16792", "species_group": "cherry", "scientific_name": "Prunus species", "common_name": "Chokecherry", "subtype_name": "Chokecherry", "zip_code": "84532", "ownership": "public", "ownership_raw": "City of Moab", "city": "Moab", "source_dataset": "Utah Urban Tree Inventory", "source_department": "City of Moab", "source_last_edit_at": "2026-03-28T17:19:55.001000+00:00"}}, {"type": "Feature", "geometry": {"type": "Point", "coordinates": [-109.54215385139555, 38.568118164866476]}, "properties": {"id": "moab-16793", "species_group": "cherry", "scientific_name": "Prunus species", "common_name": "Chokecherry", "subtype_name": "Chokecherry", "zip_code": "84532", "ownership": "public", "ownership_raw": "City of Moab", "city": "Moab", "source_dataset": "Utah Urban Tree Inventory", "source_department": "City of Moab", "source_last_edit_at": "2026-03-28T17:19:55.001000+00:00"}}, {"type": "Feature", "geometry": {"type": "Point", "coordinates": [-109.54204434432889, 38.56810060368898]}, "properties": {"id": "moab-16794", "species_group": "cherry", "scientific_name": "Prunus species", "common_name": "Chokecherry", "subtype_name": "Chokecherry", "zip_code": "84532", "ownership": "public", "ownership_raw": "City of Moab", "city": "Moab", "source_dataset": "Utah Urban Tree Inventory", "source_department": "City of Moab", "source_last_edit_at": "2026-03-28T17:19:55.001000+00:00"}}, {"type": "Feature", "geometry": {"type": "Point", "coordinates": [-109.54192825967246, 38.56810232589553]}, "properties": {"id": "moab-16795", "species_group": "cherry", "scientific_name": "Prunus species", "common_name": "Chokecherry", "subtype_name": "Chokecherry", "zip_code": "84532", "ownership": "public", "ownership_raw": "City of Moab", "city": "Moab", "source_dataset": "Utah Urban Tree Inventory", "source_department": "City of Moab", "source_last_edit_at": "2026-03-28T17:19:55.001000+00:00"}}, {"type": "Feature", "geometry": {"type": "Point", "coordinates": [-109.54643848929781, 38.56856449416451]}, "properties": {"id": "moab-16797", "species_group": "plum", "scientific_name": "Prunus species", "common_name": "Plum-Flowering", "subtype_name": "Plum-Flowering", "zip_code": "84532", "ownership": "public", "ownership_raw": "City of Moab", "city": "Moab", "source_dataset": "Utah Urban Tree Inventory", "source_department": "City of Moab", "source_last_edit_at": "2026-03-28T17:19:55.001000+00:00"}}, {"type": "Feature", "geometry": {"type": "Point", "coordinates": [-109.54659622227447, 38.56856989185108]}, "properties": {"id": "moab-16798", "species_group": "plum", "scientific_name": "Prunus species", "common_name": "Plum-Flowering", "subtype_name": "Plum-Flowering", "zip_code": "84532", "ownership": "public", "ownership_raw": "City of Moab", "city": "Moab", "source_dataset": "Utah Urban Tree Inventory", "source_department": "City of Moab", "source_last_edit_at": "2026-03-28T17:19:55.001000+00:00"}}, {"type": "Feature", "geometry": {"type": "Point", "coordinates": [-109.54654636170312, 38.568572868174265]}, "properties": {"id": "moab-16799", "species_group": "plum", "scientific_name": "Prunus species", "common_name": "Plum-Flowering", "subtype_name": "Plum-Flowering", "zip_code": "84532", "ownership": "public", "ownership_raw": "City of Moab", "city": "Moab", "source_dataset": "Utah Urban Tree Inventory", "source_department": "City of Moab", "source_last_edit_at": "2026-03-28T17:19:55.001000+00:00"}}, {"type": "Feature", "geometry": {"type": "Point", "coordinates": [-109.54894902020096, 38.568803828958934]}, "properties": {"id": "moab-16908", "species_group": "plum", "scientific_name": "Prunus species", "common_name": "Plum-Flowering", "subtype_name": "Plum-Flowering", "zip_code": "84532", "ownership": "public", "ownership_raw": "City of Moab", "city": "Moab", "source_dataset": "Utah Urban Tree Inventory", "source_department": "City of Moab", "source_last_edit_at": "2026-03-28T17:19:55.001000+00:00"}}, {"type": "Feature", "geometry": {"type": "Point", "coordinates": [-109.54891666242003, 38.56888145545515]}, "properties": {"id": "moab-16909", "species_group": "plum", "scientific_name": "Prunus species", "common_name": "Plum-Flowering", "subtype_name": "Plum-Flowering", "zip_code": "84532", "ownership": "public", "ownership_raw": "City of Moab", "city": "Moab", "source_dataset": "Utah Urban Tree Inventory", "source_department": "City of Moab", "source_last_edit_at": "2026-03-28T17:19:55.001000+00:00"}}, {"type": "Feature", "geometry": {"type": "Point", "coordinates": [-109.54900842284368, 38.56884512745573]}, "properties": {"id": "moab-16910", "species_group": "crabapple", "scientific_name": "Malus species", "common_name": "Crabapple", "subtype_name": null, "zip_code": "84532", "ownership": "public", "ownership_raw": "City of Moab", "city": "Moab", "source_dataset": "Utah Urban Tree Inventory", "source_department": "City of Moab", "source_last_edit_at": "2026-03-28T17:19:55.001000+00:00"}}, {"type": "Feature", "geometry": {"type": "Point", "coordinates": [-109.54894029623777, 38.56895717189076]}, "properties": {"id": "moab-16911", "species_group": "crabapple", "scientific_name": "Malus species", "common_name": "Crabapple", "subtype_name": null, "zip_code": "84532", "ownership": "public", "ownership_raw": "City of Moab", "city": "Moab", "source_dataset": "Utah Urban Tree Inventory", "source_department": "City of Moab", "source_last_edit_at": "2026-03-28T17:19:55.001000+00:00"}}, {"type": "Feature", "geometry": {"type": "Point", "coordinates": [-109.5490386031615, 38.568963852522884]}, "properties": {"id": "moab-16923", "species_group": "plum", "scientific_name": "Prunus species", "common_name": "Plum-Flowering", "subtype_name": "Plum-Flowering", "zip_code": "84532", "ownership": "public", "ownership_raw": "City of Moab", "city": "Moab", "source_dataset": "Utah Urban Tree Inventory", "source_department": "City of Moab", "source_last_edit_at": "2026-03-28T17:19:55.001000+00:00"}}, {"type": "Feature", "geometry": {"type": "Point", "coordinates": [-109.5490090050318, 38.56947251197187]}, "properties": {"id": "moab-16928", "species_group": "plum", "scientific_name": "Prunus species", "common_name": "Plum-Flowering", "subtype_name": "Plum-Flowering", "zip_code": "84532", "ownership": "public", "ownership_raw": "City of Moab", "city": "Moab", "source_dataset": "Utah Urban Tree Inventory", "source_department": "City of Moab", "source_last_edit_at": "2026-03-28T17:19:55.001000+00:00"}}, {"type": "Feature", "geometry": {"type": "Point", "coordinates": [-109.54894982792358, 38.56943327176656]}, "properties": {"id": "moab-16929", "species_group": "plum", "scientific_name": "Prunus species", "common_name": "Plum-Flowering", "subtype_name": "Plum-Flowering", "zip_code": "84532", "ownership": "public", "ownership_raw": "City of Moab", "city": "Moab", "source_dataset": "Utah Urban Tree Inventory", "source_department": "City of Moab", "source_last_edit_at": "2026-03-28T17:19:55.001000+00:00"}}, {"type": "Feature", "geometry": {"type": "Point", "coordinates": [-109.5487799598352, 38.56945293878535]}, "properties": {"id": "moab-16934", "species_group": "crabapple", "scientific_name": "Malus species", "common_name": "Crabapple", "subtype_name": null, "zip_code": "84532", "ownership": "public", "ownership_raw": "City of Moab", "city": "Moab", "source_dataset": "Utah Urban Tree Inventory", "source_department": "City of Moab", "source_last_edit_at": "2026-03-28T17:19:55.001000+00:00"}}, {"type": "Feature", "geometry": {"type": "Point", "coordinates": [-109.54875006127403, 38.56941829327505]}, "properties": {"id": "moab-16935", "species_group": "plum", "scientific_name": "Prunus species", "common_name": "Plum-Flowering", "subtype_name": "Plum-Flowering", "zip_code": "84532", "ownership": "public", "ownership_raw": "City of Moab", "city": "Moab", "source_dataset": "Utah Urban Tree Inventory", "source_department": "City of Moab", "source_last_edit_at": "2026-03-28T17:19:55.001000+00:00"}}, {"type": "Feature", "geometry": {"type": "Point", "coordinates": [-109.54876668499962, 38.56954188765015]}, "properties": {"id": "moab-16940", "species_group": "plum", "scientific_name": "Prunus species", "common_name": "Plum-Flowering", "subtype_name": "Plum-Flowering", "zip_code": "84532", "ownership": "public", "ownership_raw": "City of Moab", "city": "Moab", "source_dataset": "Utah Urban Tree Inventory", "source_department": "City of Moab", "source_last_edit_at": "2026-03-28T17:19:55.001000+00:00"}}, {"type": "Feature", "geometry": {"type": "Point", "coordinates": [-109.54720147652891, 38.570277148059475]}, "properties": {"id": "moab-16947", "species_group": "plum", "scientific_name": "Prunus species", "common_name": "Plum-Flowering", "subtype_name": "Plum-Flowering", "zip_code": "84532", "ownership": "public", "ownership_raw": "City of Moab", "city": "Moab", "source_dataset": "Utah Urban Tree Inventory", "source_department": "City of Moab", "source_last_edit_at": "2026-03-28T17:19:55.001000+00:00"}}, {"type": "Feature", "geometry": {"type": "Point", "coordinates": [-109.54778922556888, 38.57023699695205]}, "properties": {"id": "moab-16953", "species_group": "plum", "scientific_name": "Prunus species", "common_name": "Plum-Flowering", "subtype_name": "Plum-Flowering", "zip_code": "84532", "ownership": "public", "ownership_raw": "City of Moab", "city": "Moab", "source_dataset": "Utah Urban Tree Inventory", "source_department": "City of Moab", "source_last_edit_at": "2026-03-28T17:19:55.001000+00:00"}}, {"type": "Feature", "geometry": {"type": "Point", "coordinates": [-109.5479890837868, 38.57018913923295]}, "properties": {"id": "moab-16954", "species_group": "plum", "scientific_name": "Prunus species", "common_name": "Plum-Flowering", "subtype_name": "Plum-Flowering", "zip_code": "84532", "ownership": "public", "ownership_raw": "City of Moab", "city": "Moab", "source_dataset": "Utah Urban Tree Inventory", "source_department": "City of Moab", "source_last_edit_at": "2026-03-28T17:19:55.001000+00:00"}}, {"type": "Feature", "geometry": {"type": "Point", "coordinates": [-109.5480520163448, 38.57018620192575]}, "properties": {"id": "moab-16955", "species_group": "plum", "scientific_name": "Prunus species", "common_name": "Plum-Flowering", "subtype_name": "Plum-Flowering", "zip_code": "84532", "ownership": "public", "ownership_raw": "City of Moab", "city": "Moab", "source_dataset": "Utah Urban Tree Inventory", "source_department": "City of Moab", "source_last_edit_at": "2026-03-28T17:19:55.001000+00:00"}}, {"type": "Feature", "geometry": {"type": "Point", "coordinates": [-109.54815322356065, 38.57021185308849]}, "properties": {"id": "moab-16956", "species_group": "plum", "scientific_name": "Prunus species", "common_name": "Plum-Flowering", "subtype_name": "Plum-Flowering", "zip_code": "84532", "ownership": "public", "ownership_raw": "City of Moab", "city": "Moab", "source_dataset": "Utah Urban Tree Inventory", "source_department": "City of Moab", "source_last_edit_at": "2026-03-28T17:19:55.001000+00:00"}}, {"type": "Feature", "geometry": {"type": "Point", "coordinates": [-109.56186537928059, 38.574721840573744]}, "properties": {"id": "moab-17029", "species_group": "plum", "scientific_name": "Prunus species", "common_name": "Plum-Flowering", "subtype_name": "Plum-Flowering", "zip_code": "84532", "ownership": "public", "ownership_raw": "City of Moab", "city": "Moab", "source_dataset": "Utah Urban Tree Inventory", "source_department": "City of Moab", "source_last_edit_at": "2026-03-28T17:19:55.001000+00:00"}}, {"type": "Feature", "geometry": {"type": "Point", "coordinates": [-109.56188910947516, 38.574766495199796]}, "properties": {"id": "moab-17030", "species_group": "plum", "scientific_name": "Prunus species", "common_name": "Plum-Flowering", "subtype_name": "Plum-Flowering", "zip_code": "84532", "ownership": "public", "ownership_raw": "City of Moab", "city": "Moab", "source_dataset": "Utah Urban Tree Inventory", "source_department": "City of Moab", "source_last_edit_at": "2026-03-28T17:19:55.001000+00:00"}}, {"type": "Feature", "geometry": {"type": "Point", "coordinates": [-109.56187337336821, 38.57474245141054]}, "properties": {"id": "moab-17031", "species_group": "plum", "scientific_name": "Prunus species", "common_name": "Plum-Flowering", "subtype_name": "Plum-Flowering", "zip_code": "84532", "ownership": "public", "ownership_raw": "City of Moab", "city": "Moab", "source_dataset": "Utah Urban Tree Inventory", "source_department": "City of Moab", "source_last_edit_at": "2026-03-28T17:19:55.001000+00:00"}}, {"type": "Feature", "geometry": {"type": "Point", "coordinates": [-109.55797986244585, 38.574474392495766]}, "properties": {"id": "moab-17066", "species_group": "cherry", "scientific_name": "Prunus species", "common_name": "Cherry-Flowering", "subtype_name": "Flowering Cherry", "zip_code": "84532", "ownership": "public", "ownership_raw": "City of Moab", "city": "Moab", "source_dataset": "Utah Urban Tree Inventory", "source_department": "City of Moab", "source_last_edit_at": "2026-03-28T17:19:55.001000+00:00"}}, {"type": "Feature", "geometry": {"type": "Point", "coordinates": [-109.55825960085836, 38.57445694261285]}, "properties": {"id": "moab-17068", "species_group": "cherry", "scientific_name": "Prunus species", "common_name": "Cherry-Flowering", "subtype_name": "Flowering Cherry", "zip_code": "84532", "ownership": "public", "ownership_raw": "City of Moab", "city": "Moab", "source_dataset": "Utah Urban Tree Inventory", "source_department": "City of Moab", "source_last_edit_at": "2026-03-28T17:19:55.001000+00:00"}}, {"type": "Feature", "geometry": {"type": "Point", "coordinates": [-109.55014082326097, 38.56392307125727]}, "properties": {"id": "moab-17149", "species_group": "plum", "scientific_name": "Prunus species", "common_name": "Plum-Flowering", "subtype_name": "Plum-Flowering", "zip_code": "84532", "ownership": "public", "ownership_raw": "City of Moab", "city": "Moab", "source_dataset": "Utah Urban Tree Inventory", "source_department": "City of Moab", "source_last_edit_at": "2026-03-28T17:19:55.001000+00:00"}}, {"type": "Feature", "geometry": {"type": "Point", "coordinates": [-109.55028486745906, 38.563933100096655]}, "properties": {"id": "moab-17150", "species_group": "plum", "scientific_name": "Prunus species", "common_name": "Plum-Flowering", "subtype_name": "Plum-Flowering", "zip_code": "84532", "ownership": "public", "ownership_raw": "City of Moab", "city": "Moab", "source_dataset": "Utah Urban Tree Inventory", "source_department": "City of Moab", "source_last_edit_at": "2026-03-28T17:19:55.001000+00:00"}}, {"type": "Feature", "geometry": {"type": "Point", "coordinates": [-109.55047607636402, 38.56398419384386]}, "properties": {"id": "moab-17151", "species_group": "plum", "scientific_name": "Prunus species", "common_name": "Plum-Flowering", "subtype_name": "Plum-Flowering", "zip_code": "84532", "ownership": "public", "ownership_raw": "City of Moab", "city": "Moab", "source_dataset": "Utah Urban Tree Inventory", "source_department": "City of Moab", "source_last_edit_at": "2026-03-28T17:19:55.001000+00:00"}}, {"type": "Feature", "geometry": {"type": "Point", "coordinates": [-109.55066159644825, 38.56412885681983]}, "properties": {"id": "moab-17152", "species_group": "plum", "scientific_name": "Prunus species", "common_name": "Plum-Flowering", "subtype_name": "Plum-Flowering", "zip_code": "84532", "ownership": "public", "ownership_raw": "City of Moab", "city": "Moab", "source_dataset": "Utah Urban Tree Inventory", "source_department": "City of Moab", "source_last_edit_at": "2026-03-28T17:19:55.001000+00:00"}}, {"type": "Feature", "geometry": {"type": "Point", "coordinates": [-109.55696572211917, 38.5678646687629]}, "properties": {"id": "moab-17206", "species_group": "plum", "scientific_name": "Prunus species", "common_name": "Plum-Flowering", "subtype_name": "Plum-Flowering", "zip_code": "84532", "ownership": "public", "ownership_raw": "City of Moab", "city": "Moab", "source_dataset": "Utah Urban Tree Inventory", "source_department": "City of Moab", "source_last_edit_at": "2026-03-28T17:19:55.001000+00:00"}}, {"type": "Feature", "geometry": {"type": "Point", "coordinates": [-109.55837918580038, 38.56775131592058]}, "properties": {"id": "moab-17233", "species_group": "plum", "scientific_name": "Prunus species", "common_name": "Plum-Flowering", "subtype_name": "Plum-Flowering", "zip_code": "84532", "ownership": "public", "ownership_raw": "City of Moab", "city": "Moab", "source_dataset": "Utah Urban Tree Inventory", "source_department": "City of Moab", "source_last_edit_at": "2026-03-28T17:19:55.001000+00:00"}}, {"type": "Feature", "geometry": {"type": "Point", "coordinates": [-109.5491984319319, 38.56134125269679]}, "properties": {"id": "moab-17265", "species_group": "plum", "scientific_name": "Prunus species", "common_name": "Plum-Flowering", "subtype_name": "Plum-Flowering", "zip_code": "84532", "ownership": "public", "ownership_raw": "City of Moab", "city": "Moab", "source_dataset": "Utah Urban Tree Inventory", "source_department": "City of Moab", "source_last_edit_at": "2026-03-28T17:19:55.001000+00:00"}}, {"type": "Feature", "geometry": {"type": "Point", "coordinates": [-109.54869100904706, 38.56167541003554]}, "properties": {"id": "moab-17266", "species_group": "plum", "scientific_name": "Prunus species", "common_name": "Plum-Flowering", "subtype_name": "Plum-Flowering", "zip_code": "84532", "ownership": "public", "ownership_raw": "City of Moab", "city": "Moab", "source_dataset": "Utah Urban Tree Inventory", "source_department": "City of Moab", "source_last_edit_at": "2026-03-28T17:19:55.001000+00:00"}}, {"type": "Feature", "geometry": {"type": "Point", "coordinates": [-109.54864126211938, 38.56169106501426]}, "properties": {"id": "moab-17267", "species_group": "plum", "scientific_name": "Prunus species", "common_name": "Plum-Flowering", "subtype_name": "Plum-Flowering", "zip_code": "84532", "ownership": "public", "ownership_raw": "City of Moab", "city": "Moab", "source_dataset": "Utah Urban Tree Inventory", "source_department": "City of Moab", "source_last_edit_at": "2026-03-28T17:19:55.001000+00:00"}}, {"type": "Feature", "geometry": {"type": "Point", "coordinates": [-109.54857581324838, 38.56171334056138]}, "properties": {"id": "moab-17268", "species_group": "plum", "scientific_name": "Prunus species", "common_name": "Plum-Flowering", "subtype_name": "Plum-Flowering", "zip_code": "84532", "ownership": "public", "ownership_raw": "City of Moab", "city": "Moab", "source_dataset": "Utah Urban Tree Inventory", "source_department": "City of Moab", "source_last_edit_at": "2026-03-28T17:19:55.001000+00:00"}}, {"type": "Feature", "geometry": {"type": "Point", "coordinates": [-109.55141845211098, 38.570342944620656]}, "properties": {"id": "moab-17365", "species_group": "crabapple", "scientific_name": "Malus species", "common_name": "Crabapple", "subtype_name": null, "zip_code": "84532", "ownership": "public", "ownership_raw": "City of Moab", "city": "Moab", "source_dataset": "Utah Urban Tree Inventory", "source_department": "City of Moab", "source_last_edit_at": "2026-03-28T17:19:55.001000+00:00"}}, {"type": "Feature", "geometry": {"type": "Point", "coordinates": [-109.55150349938432, 38.57034531383807]}, "properties": {"id": "moab-17366", "species_group": "plum", "scientific_name": "Prunus species", "common_name": "Plum-Flowering", "subtype_name": "Plum-Flowering", "zip_code": "84532", "ownership": "public", "ownership_raw": "City of Moab", "city": "Moab", "source_dataset": "Utah Urban Tree Inventory", "source_department": "City of Moab", "source_last_edit_at": "2026-03-28T17:19:55.001000+00:00"}}, {"type": "Feature", "geometry": {"type": "Point", "coordinates": [-109.55128639910295, 38.57034817940965]}, "properties": {"id": "moab-17367", "species_group": "plum", "scientific_name": "Prunus species", "common_name": "Plum-Flowering", "subtype_name": "Plum-Flowering", "zip_code": "84532", "ownership": "public", "ownership_raw": "City of Moab", "city": "Moab", "source_dataset": "Utah Urban Tree Inventory", "source_department": "City of Moab", "source_last_edit_at": "2026-03-28T17:19:55.001000+00:00"}}, {"type": "Feature", "geometry": {"type": "Point", "coordinates": [-109.55279500361813, 38.57094168004034]}, "properties": {"id": "moab-17394", "species_group": "plum", "scientific_name": "Prunus species", "common_name": "Plum-Flowering", "subtype_name": "Plum-Flowering", "zip_code": "84532", "ownership": "public", "ownership_raw": "City of Moab", "city": "Moab", "source_dataset": "Utah Urban Tree Inventory", "source_department": "City of Moab", "source_last_edit_at": "2026-03-28T17:19:55.001000+00:00"}}, {"type": "Feature", "geometry": {"type": "Point", "coordinates": [-109.5527134613106, 38.570940561724804]}, "properties": {"id": "moab-17395", "species_group": "plum", "scientific_name": "Prunus species", "common_name": "Plum-Flowering", "subtype_name": "Plum-Flowering", "zip_code": "84532", "ownership": "public", "ownership_raw": "City of Moab", "city": "Moab", "source_dataset": "Utah Urban Tree Inventory", "source_department": "City of Moab", "source_last_edit_at": "2026-03-28T17:19:55.001000+00:00"}}, {"type": "Feature", "geometry": {"type": "Point", "coordinates": [-109.55288314915764, 38.57009028663375]}, "properties": {"id": "moab-17406", "species_group": "peach", "scientific_name": "Prunus species", "common_name": "Peach", "subtype_name": null, "zip_code": "84532", "ownership": "public", "ownership_raw": "City of Moab", "city": "Moab", "source_dataset": "Utah Urban Tree Inventory", "source_department": "City of Moab", "source_last_edit_at": "2026-03-28T17:19:55.001000+00:00"}}, {"type": "Feature", "geometry": {"type": "Point", "coordinates": [-109.55526606499787, 38.57422193902085]}, "properties": {"id": "moab-17425", "species_group": "crabapple", "scientific_name": "Malus species", "common_name": "Crabapple", "subtype_name": null, "zip_code": "84532", "ownership": "public", "ownership_raw": "City of Moab", "city": "Moab", "source_dataset": "Utah Urban Tree Inventory", "source_department": "City of Moab", "source_last_edit_at": "2026-03-28T17:19:55.001000+00:00"}}, {"type": "Feature", "geometry": {"type": "Point", "coordinates": [-109.5496396722136, 38.57009741567838]}, "properties": {"id": "moab-17556", "species_group": "plum", "scientific_name": "Prunus species", "common_name": "Plum-Flowering", "subtype_name": "Plum-Flowering", "zip_code": "84532", "ownership": "public", "ownership_raw": "City of Moab", "city": "Moab", "source_dataset": "Utah Urban Tree Inventory", "source_department": "City of Moab", "source_last_edit_at": "2026-03-28T17:19:55.001000+00:00"}}, {"type": "Feature", "geometry": {"type": "Point", "coordinates": [-109.54940721403833, 38.570104125434376]}, "properties": {"id": "moab-17557", "species_group": "plum", "scientific_name": "Prunus species", "common_name": "Plum-Flowering", "subtype_name": "Plum-Flowering", "zip_code": "84532", "ownership": "public", "ownership_raw": "City of Moab", "city": "Moab", "source_dataset": "Utah Urban Tree Inventory", "source_department": "City of Moab", "source_last_edit_at": "2026-03-28T17:19:55.001000+00:00"}}]}