{"type": "FeatureCollection", "features": [{"type": "Feature", "geometry": {"type": "Point", "coordinates": [-73.13557171999997, 44.50938393500007]}, "properties": {"id": "essex-10718", "species_group": "crabapple", "scientific_name": "Malus species", "common_name": "Crabapple", "subtype_name": null, "zip_code": "05452", "ownership": "public", "ownership_raw": "Town of Essex", "city": "Essex", "source_dataset": "Municipal Tree Inventory", "source_department": "Town of Essex", "source_last_edit_at": ""}}, {"type": "Feature", "geometry": {"type": "Point", "coordinates": [-73.05660484399993, 44.50688689500004]}, "properties": {"id": "essex-10826", "species_group": "crabapple", "scientific_name": "Malus species", "common_name": "Crabapple", "subtype_name": null, "zip_code": "05452", "ownership": "public", "ownership_raw": "Town of Essex", "city": "Essex", "source_dataset": "Municipal Tree Inventory", "source_department": "Town of Essex", "source_last_edit_at": ""}}, {"type": "Feature", "geometry": {"type": "Point", "coordinates": [-73.12831219299994, 44.504181678000066]}, "properties": {"id": "essex-11056", "species_group": "crabapple", "scientific_name": "Malus species", "common_name": "Crabapple", "subtype_name": null, "zip_code": "05452", "ownership": "public", "ownership_raw": "Town of Essex", "city": "Essex", "source_dataset": "Municipal Tree Inventory", "source_department": "Town of Essex", "source_last_edit_at": ""}}, {"type": "Feature", "geometry": {"type": "Point", "coordinates": [-73.13760315899998, 44.514558392000026]}, "properties": {"id": "essex-11542", "species_group": "crabapple", "scientific_name": "Malus species", "common_name": "Crabapple", "subtype_name": null, "zip_code": "05452", "ownership": "public", "ownership_raw": "Town of Essex", "city": "Essex", "source_dataset": "Municipal Tree Inventory", "source_department": "Town of Essex", "source_last_edit_at": ""}}, {"type": "Feature", "geometry": {"type": "Point", "coordinates": [-73.05904659499998, 44.51129785000006]}, "properties": {"id": "essex-1259", "species_group": "crabapple", "scientific_name": "Malus species", "common_name": "Crabapple", "subtype_name": null, "zip_code": "05452", "ownership": "public", "ownership_raw": "Town of Essex", "city": "Essex", "source_dataset": "Municipal Tree Inventory", "source_department": "Town of Essex", "source_last_edit_at": ""}}, {"type": "Feature", "geometry": {"type": "Point", "coordinates": [-73.08092946199997, 44.51815472900006]}, "properties": {"id": "essex-12804", "species_group": "crabapple", "scientific_name": "Malus species", "common_name": "Crabapple", "subtype_name": null, "zip_code": "05452", "ownership": "public", "ownership_raw": "Town of Essex", "city": "Essex", "source_dataset": "Municipal Tree Inventory", "source_department": "Town of Essex", "source_last_edit_at": ""}}, {"type": "Feature", "geometry": {"type": "Point", "coordinates": [-73.13529289299998, 44.51065678100008]}, "properties": {"id": "essex-13127", "species_group": "crabapple", "scientific_name": "Malus species", "common_name": "Crabapple", "subtype_name": null, "zip_code": "05452", "ownership": "public", "ownership_raw": "Town of Essex", "city": "Essex", "source_dataset": "Municipal Tree Inventory", "source_department": "Town of Essex", "source_last_edit_at": ""}}, {"type": "Feature", "geometry": {"type": "Point", "coordinates": [-73.13709389799999, 44.51526848100008]}, "properties": {"id": "essex-1382", "species_group": "crabapple", "scientific_name": "Malus species", "common_name": "Crabapple", "subtype_name": null, "zip_code": "05452", "ownership": "public", "ownership_raw": "Town of Essex", "city": "Essex", "source_dataset": "Municipal Tree Inventory", "source_department": "Town of Essex", "source_last_edit_at": ""}}, {"type": "Feature", "geometry": {"type": "Point", "coordinates": [-73.07849232199999, 44.496115185000065]}, "properties": {"id": "essex-14030", "species_group": "cherry", "scientific_name": "Prunus species", "common_name": "Cherry Plum", "subtype_name": "Cherry Plum", "zip_code": "05452", "ownership": "public", "ownership_raw": "Town of Essex", "city": "Essex", "source_dataset": "Municipal Tree Inventory", "source_department": "Town of Essex", "source_last_edit_at": ""}}, {"type": "Feature", "geometry": {"type": "Point", "coordinates": [-73.05558803499997, 44.50436901300003]}, "properties": {"id": "essex-14139", "species_group": "crabapple", "scientific_name": "Malus species", "common_name": "Crabapple", "subtype_name": null, "zip_code": "05452", "ownership": "public", "ownership_raw": "Town of Essex", "city": "Essex", "source_dataset": "Municipal Tree Inventory", "source_department": "Town of Essex", "source_last_edit_at": ""}}, {"type": "Feature", "geometry": {"type": "Point", "coordinates": [-73.05901767399996, 44.51128178300007]}, "properties": {"id": "essex-1418", "species_group": "crabapple", "scientific_name": "Malus species", "common_name": "Crabapple", "subtype_name": null, "zip_code": "05452", "ownership": "public", "ownership_raw": "Town of Essex", "city": "Essex", "source_dataset": "Municipal Tree Inventory", "source_department": "Town of Essex", "source_last_edit_at": ""}}, {"type": "Feature", "geometry": {"type": "Point", "coordinates": [-73.13557495199996, 44.51075107200006]}, "properties": {"id": "essex-14667", "species_group": "crabapple", "scientific_name": "Malus species", "common_name": "Crabapple", "subtype_name": null, "zip_code": "05452", "ownership": "public", "ownership_raw": "Town of Essex", "city": "Essex", "source_dataset": "Municipal Tree Inventory", "source_department": "Town of Essex", "source_last_edit_at": ""}}, {"type": "Feature", "geometry": {"type": "Point", "coordinates": [-73.07996206799999, 44.48655465600007]}, "properties": {"id": "essex-14899", "species_group": "crabapple", "scientific_name": "Malus species", "common_name": "Crabapple", "subtype_name": null, "zip_code": "05452", "ownership": "public", "ownership_raw": "Town of Essex", "city": "Essex", "source_dataset": "Municipal Tree Inventory", "source_department": "Town of Essex", "source_last_edit_at": ""}}, {"type": "Feature", "geometry": {"type": "Point", "coordinates": [-73.06858652299996, 44.50955414200007]}, "properties": {"id": "essex-15582", "species_group": "crabapple", "scientific_name": "Malus species", "common_name": "Crabapple", "subtype_name": null, "zip_code": "05452", "ownership": "public", "ownership_raw": "Town of Essex", "city": "Essex", "source_dataset": "Municipal Tree Inventory", "source_department": "Town of Essex", "source_last_edit_at": ""}}, {"type": "Feature", "geometry": {"type": "Point", "coordinates": [-73.05509626899999, 44.50729915900007]}, "properties": {"id": "essex-15589", "species_group": "crabapple", "scientific_name": "Malus species", "common_name": "Crabapple", "subtype_name": null, "zip_code": "05452", "ownership": "public", "ownership_raw": "Town of Essex", "city": "Essex", "source_dataset": "Municipal Tree Inventory", "source_department": "Town of Essex", "source_last_edit_at": ""}}, {"type": "Feature", "geometry": {"type": "Point", "coordinates": [-73.12844764499994, 44.503996563000044]}, "properties": {"id": "essex-16384", "species_group": "crabapple", "scientific_name": "Malus species", "common_name": "Crabapple", "subtype_name": null, "zip_code": "05452", "ownership": "public", "ownership_raw": "Town of Essex", "city": "Essex", "source_dataset": "Municipal Tree Inventory", "source_department": "Town of Essex", "source_last_edit_at": ""}}, {"type": "Feature", "geometry": {"type": "Point", "coordinates": [-73.14657082799994, 44.50354456900004]}, "properties": {"id": "essex-1690", "species_group": "crabapple", "scientific_name": "Malus species", "common_name": "Crabapple", "subtype_name": null, "zip_code": "05446", "ownership": "public", "ownership_raw": "Town of Essex", "city": "Essex", "source_dataset": "Municipal Tree Inventory", "source_department": "Town of Essex", "source_last_edit_at": ""}}, {"type": "Feature", "geometry": {"type": "Point", "coordinates": [-73.08072557799994, 44.51796880300003]}, "properties": {"id": "essex-18434", "species_group": "crabapple", "scientific_name": "Malus species", "common_name": "Crabapple", "subtype_name": null, "zip_code": "05452", "ownership": "public", "ownership_raw": "Town of Essex", "city": "Essex", "source_dataset": "Municipal Tree Inventory", "source_department": "Town of Essex", "source_last_edit_at": ""}}, {"type": "Feature", "geometry": {"type": "Point", "coordinates": [-73.08080566099994, 44.51800293300005]}, "properties": {"id": "essex-18825", "species_group": "crabapple", "scientific_name": "Malus species", "common_name": "Crabapple", "subtype_name": null, "zip_code": "05452", "ownership": "public", "ownership_raw": "Town of Essex", "city": "Essex", "source_dataset": "Municipal Tree Inventory", "source_department": "Town of Essex", "source_last_edit_at": ""}}, {"type": "Feature", "geometry": {"type": "Point", "coordinates": [-73.05900663899996, 44.510992894000026]}, "properties": {"id": "essex-19056", "species_group": "crabapple", "scientific_name": "Malus species", "common_name": "Crabapple", "subtype_name": null, "zip_code": "05452", "ownership": "public", "ownership_raw": "Town of Essex", "city": "Essex", "source_dataset": "Municipal Tree Inventory", "source_department": "Town of Essex", "source_last_edit_at": ""}}, {"type": "Feature", "geometry": {"type": "Point", "coordinates": [-73.08176404799997, 44.50259816800008]}, "properties": {"id": "essex-19179", "species_group": "crabapple", "scientific_name": "Malus species", "common_name": "Crabapple", "subtype_name": null, "zip_code": "05452", "ownership": "public", "ownership_raw": "Town of Essex", "city": "Essex", "source_dataset": "Municipal Tree Inventory", "source_department": "Town of Essex", "source_last_edit_at": ""}}, {"type": "Feature", "geometry": {"type": "Point", "coordinates": [-73.05899151999995, 44.51124625400007]}, "properties": {"id": "essex-19278", "species_group": "crabapple", "scientific_name": "Malus species", "common_name": "Crabapple", "subtype_name": null, "zip_code": "05452", "ownership": "public", "ownership_raw": "Town of Essex", "city": "Essex", "source_dataset": "Municipal Tree Inventory", "source_department": "Town of Essex", "source_last_edit_at": ""}}, {"type": "Feature", "geometry": {"type": "Point", "coordinates": [-73.06745806999999, 44.485144889000026]}, "properties": {"id": "essex-19497", "species_group": "crabapple", "scientific_name": "Malus species", "common_name": "Crabapple", "subtype_name": null, "zip_code": "05452", "ownership": "public", "ownership_raw": "Town of Essex", "city": "Essex", "source_dataset": "Municipal Tree Inventory", "source_department": "Town of Essex", "source_last_edit_at": ""}}, {"type": "Feature", "geometry": {"type": "Point", "coordinates": [-73.05471816099998, 44.506285786000035]}, "properties": {"id": "essex-19738", "species_group": "cherry", "scientific_name": "Prunus species", "common_name": "Cherry Plum", "subtype_name": "Cherry Plum", "zip_code": "05452", "ownership": "public", "ownership_raw": "Town of Essex", "city": "Essex", "source_dataset": "Municipal Tree Inventory", "source_department": "Town of Essex", "source_last_edit_at": ""}}, {"type": "Feature", "geometry": {"type": "Point", "coordinates": [-73.05663594099997, 44.506822396000075]}, "properties": {"id": "essex-19999", "species_group": "crabapple", "scientific_name": "Malus species", "common_name": "Crabapple", "subtype_name": null, "zip_code": "05452", "ownership": "public", "ownership_raw": "Town of Essex", "city": "Essex", "source_dataset": "Municipal Tree Inventory", "source_department": "Town of Essex", "source_last_edit_at": ""}}, {"type": "Feature", "geometry": {"type": "Point", "coordinates": [-73.06759829599997, 44.485086780000074]}, "properties": {"id": "essex-21200", "species_group": "crabapple", "scientific_name": "Malus species", "common_name": "Crabapple", "subtype_name": null, "zip_code": "05452", "ownership": "public", "ownership_raw": "Town of Essex", "city": "Essex", "source_dataset": "Municipal Tree Inventory", "source_department": "Town of Essex", "source_last_edit_at": ""}}, {"type": "Feature", "geometry": {"type": "Point", "coordinates": [-73.08049319899999, 44.51806352500006]}, "properties": {"id": "essex-21517", "species_group": "crabapple", "scientific_name": "Malus species", "common_name": "Crabapple", "subtype_name": null, "zip_code": "05452", "ownership": "public", "ownership_raw": "Town of Essex", "city": "Essex", "source_dataset": "Municipal Tree Inventory", "source_department": "Town of Essex", "source_last_edit_at": ""}}, {"type": "Feature", "geometry": {"type": "Point", "coordinates": [-73.12836298699995, 44.504118352000035]}, "properties": {"id": "essex-22085", "species_group": "crabapple", "scientific_name": "Malus species", "common_name": "Crabapple", "subtype_name": null, "zip_code": "05452", "ownership": "public", "ownership_raw": "Town of Essex", "city": "Essex", "source_dataset": "Municipal Tree Inventory", "source_department": "Town of Essex", "source_last_edit_at": ""}}, {"type": "Feature", "geometry": {"type": "Point", "coordinates": [-73.08056385599997, 44.48654049100003]}, "properties": {"id": "essex-22273", "species_group": "crabapple", "scientific_name": "Malus species", "common_name": "Crabapple", "subtype_name": null, "zip_code": "05452", "ownership": "public", "ownership_raw": "Town of Essex", "city": "Essex", "source_dataset": "Municipal Tree Inventory", "source_department": "Town of Essex", "source_last_edit_at": ""}}, {"type": "Feature", "geometry": {"type": "Point", "coordinates": [-73.13536304999997, 44.509692234000056]}, "properties": {"id": "essex-22613", "species_group": "crabapple", "scientific_name": "Malus species", "common_name": "Crabapple", "subtype_name": null, "zip_code": "05452", "ownership": "public", "ownership_raw": "Town of Essex", "city": "Essex", "source_dataset": "Municipal Tree Inventory", "source_department": "Town of Essex", "source_last_edit_at": ""}}, {"type": "Feature", "geometry": {"type": "Point", "coordinates": [-73.05906387399995, 44.51136022700007]}, "properties": {"id": "essex-22740", "species_group": "crabapple", "scientific_name": "Malus species", "common_name": "Crabapple", "subtype_name": null, "zip_code": "05452", "ownership": "public", "ownership_raw": "Town of Essex", "city": "Essex", "source_dataset": "Municipal Tree Inventory", "source_department": "Town of Essex", "source_last_edit_at": ""}}, {"type": "Feature", "geometry": {"type": "Point", "coordinates": [-73.13543303899996, 44.509587544000055]}, "properties": {"id": "essex-22878", "species_group": "crabapple", "scientific_name": "Malus species", "common_name": "Crabapple", "subtype_name": null, "zip_code": "05452", "ownership": "public", "ownership_raw": "Town of Essex", "city": "Essex", "source_dataset": "Municipal Tree Inventory", "source_department": "Town of Essex", "source_last_edit_at": ""}}, {"type": "Feature", "geometry": {"type": "Point", "coordinates": [-73.05893519199998, 44.51123413700003]}, "properties": {"id": "essex-23470", "species_group": "crabapple", "scientific_name": "Malus species", "common_name": "Crabapple", "subtype_name": null, "zip_code": "05452", "ownership": "public", "ownership_raw": "Town of Essex", "city": "Essex", "source_dataset": "Municipal Tree Inventory", "source_department": "Town of Essex", "source_last_edit_at": ""}}, {"type": "Feature", "geometry": {"type": "Point", "coordinates": [-73.05893428599995, 44.511186957000064]}, "properties": {"id": "essex-24545", "species_group": "crabapple", "scientific_name": "Malus species", "common_name": "Crabapple", "subtype_name": null, "zip_code": "05452", "ownership": "public", "ownership_raw": "Town of Essex", "city": "Essex", "source_dataset": "Municipal Tree Inventory", "source_department": "Town of Essex", "source_last_edit_at": ""}}, {"type": "Feature", "geometry": {"type": "Point", "coordinates": [-73.07953934599993, 44.48655585600005]}, "properties": {"id": "essex-24618", "species_group": "crabapple", "scientific_name": "Malus species", "common_name": "Crabapple", "subtype_name": null, "zip_code": "05452", "ownership": "public", "ownership_raw": "Town of Essex", "city": "Essex", "source_dataset": "Municipal Tree Inventory", "source_department": "Town of Essex", "source_last_edit_at": ""}}, {"type": "Feature", "geometry": {"type": "Point", "coordinates": [-73.13558424799999, 44.50940562100004]}, "properties": {"id": "essex-2607", "species_group": "crabapple", "scientific_name": "Malus species", "common_name": "Crabapple", "subtype_name": null, "zip_code": "05452", "ownership": "public", "ownership_raw": "Town of Essex", "city": "Essex", "source_dataset": "Municipal Tree Inventory", "source_department": "Town of Essex", "source_last_edit_at": ""}}, {"type": "Feature", "geometry": {"type": "Point", "coordinates": [-73.05604688199998, 44.506977676000076]}, "properties": {"id": "essex-26320", "species_group": "crabapple", "scientific_name": "Malus species", "common_name": "Crabapple", "subtype_name": null, "zip_code": "05452", "ownership": "public", "ownership_raw": "Town of Essex", "city": "Essex", "source_dataset": "Municipal Tree Inventory", "source_department": "Town of Essex", "source_last_edit_at": ""}}, {"type": "Feature", "geometry": {"type": "Point", "coordinates": [-73.13574652199998, 44.51081693400005]}, "properties": {"id": "essex-26518", "species_group": "crabapple", "scientific_name": "Malus species", "common_name": "Crabapple", "subtype_name": null, "zip_code": "05452", "ownership": "public", "ownership_raw": "Town of Essex", "city": "Essex", "source_dataset": "Municipal Tree Inventory", "source_department": "Town of Essex", "source_last_edit_at": ""}}, {"type": "Feature", "geometry": {"type": "Point", "coordinates": [-73.05720062899996, 44.49181899900003]}, "properties": {"id": "essex-27428", "species_group": "crabapple", "scientific_name": "Malus species", "common_name": "Crabapple", "subtype_name": null, "zip_code": "05452", "ownership": "public", "ownership_raw": "Town of Essex", "city": "Essex", "source_dataset": "Municipal Tree Inventory", "source_department": "Town of Essex", "source_last_edit_at": ""}}, {"type": "Feature", "geometry": {"type": "Point", "coordinates": [-73.05668679599995, 44.51433530200006]}, "properties": {"id": "essex-27831", "species_group": "cherry", "scientific_name": "Prunus species", "common_name": "Common Chokecherry", "subtype_name": "Common Chokecherry", "zip_code": "05452", "ownership": "public", "ownership_raw": "Town of Essex", "city": "Essex", "source_dataset": "Municipal Tree Inventory", "source_department": "Town of Essex", "source_last_edit_at": ""}}, {"type": "Feature", "geometry": {"type": "Point", "coordinates": [-73.08046610999997, 44.51793449500008]}, "properties": {"id": "essex-28380", "species_group": "crabapple", "scientific_name": "Malus species", "common_name": "Crabapple", "subtype_name": null, "zip_code": "05452", "ownership": "public", "ownership_raw": "Town of Essex", "city": "Essex", "source_dataset": "Municipal Tree Inventory", "source_department": "Town of Essex", "source_last_edit_at": ""}}, {"type": "Feature", "geometry": {"type": "Point", "coordinates": [-73.05436436099995, 44.50730502600004]}, "properties": {"id": "essex-29166", "species_group": "crabapple", "scientific_name": "Malus species", "common_name": "Crabapple", "subtype_name": null, "zip_code": "05452", "ownership": "public", "ownership_raw": "Town of Essex", "city": "Essex", "source_dataset": "Municipal Tree Inventory", "source_department": "Town of Essex", "source_last_edit_at": ""}}, {"type": "Feature", "geometry": {"type": "Point", "coordinates": [-73.08001933399999, 44.486560516000054]}, "properties": {"id": "essex-29221", "species_group": "crabapple", "scientific_name": "Malus species", "common_name": "Crabapple", "subtype_name": null, "zip_code": "05452", "ownership": "public", "ownership_raw": "Town of Essex", "city": "Essex", "source_dataset": "Municipal Tree Inventory", "source_department": "Town of Essex", "source_last_edit_at": ""}}, {"type": "Feature", "geometry": {"type": "Point", "coordinates": [-73.05527094699994, 44.50732275400003]}, "properties": {"id": "essex-300", "species_group": "crabapple", "scientific_name": "Malus species", "common_name": "Crabapple", "subtype_name": null, "zip_code": "05452", "ownership": "public", "ownership_raw": "Town of Essex", "city": "Essex", "source_dataset": "Municipal Tree Inventory", "source_department": "Town of Essex", "source_last_edit_at": ""}}, {"type": "Feature", "geometry": {"type": "Point", "coordinates": [-73.07853156699997, 44.50940159100003]}, "properties": {"id": "essex-30109", "species_group": "crabapple", "scientific_name": "Malus species", "common_name": "Crabapple", "subtype_name": null, "zip_code": "05452", "ownership": "public", "ownership_raw": "Town of Essex", "city": "Essex", "source_dataset": "Municipal Tree Inventory", "source_department": "Town of Essex", "source_last_edit_at": ""}}, {"type": "Feature", "geometry": {"type": "Point", "coordinates": [-73.13551507499994, 44.50950038700006]}, "properties": {"id": "essex-30332", "species_group": "crabapple", "scientific_name": "Malus species", "common_name": "Crabapple", "subtype_name": null, "zip_code": "05452", "ownership": "public", "ownership_raw": "Town of Essex", "city": "Essex", "source_dataset": "Municipal Tree Inventory", "source_department": "Town of Essex", "source_last_edit_at": ""}}, {"type": "Feature", "geometry": {"type": "Point", "coordinates": [-73.08042673999995, 44.51805410700007]}, "properties": {"id": "essex-4210", "species_group": "crabapple", "scientific_name": "Malus species", "common_name": "Crabapple", "subtype_name": null, "zip_code": "05452", "ownership": "public", "ownership_raw": "Town of Essex", "city": "Essex", "source_dataset": "Municipal Tree Inventory", "source_department": "Town of Essex", "source_last_edit_at": ""}}, {"type": "Feature", "geometry": {"type": "Point", "coordinates": [-73.05999980899998, 44.50225115500007]}, "properties": {"id": "essex-4672", "species_group": "crabapple", "scientific_name": "Malus species", "common_name": "Crabapple", "subtype_name": null, "zip_code": "05452", "ownership": "public", "ownership_raw": "Town of Essex", "city": "Essex", "source_dataset": "Municipal Tree Inventory", "source_department": "Town of Essex", "source_last_edit_at": ""}}, {"type": "Feature", "geometry": {"type": "Point", "coordinates": [-73.14671851699995, 44.50335991600008]}, "properties": {"id": "essex-5837", "species_group": "crabapple", "scientific_name": "Malus species", "common_name": "Crabapple", "subtype_name": null, "zip_code": "05446", "ownership": "public", "ownership_raw": "Town of Essex", "city": "Essex", "source_dataset": "Municipal Tree Inventory", "source_department": "Town of Essex", "source_last_edit_at": ""}}, {"type": "Feature", "geometry": {"type": "Point", "coordinates": [-73.14625072299998, 44.50356741000007]}, "properties": {"id": "essex-5870", "species_group": "crabapple", "scientific_name": "Malus species", "common_name": "Crabapple", "subtype_name": null, "zip_code": "05446", "ownership": "public", "ownership_raw": "Town of Essex", "city": "Essex", "source_dataset": "Municipal Tree Inventory", "source_department": "Town of Essex", "source_last_edit_at": ""}}, {"type": "Feature", "geometry": {"type": "Point", "coordinates": [-73.08167184699994, 44.50242252600003]}, "properties": {"id": "essex-8193", "species_group": "crabapple", "scientific_name": "Malus species", "common_name": "Crabapple", "subtype_name": null, "zip_code": "05452", "ownership": "public", "ownership_raw": "Town of Essex", "city": "Essex", "source_dataset": "Municipal Tree Inventory", "source_department": "Town of Essex", "source_last_edit_at": ""}}, {"type": "Feature", "geometry": {"type": "Point", "coordinates": [-73.08064985299995, 44.51796584900006]}, "properties": {"id": "essex-8784", "species_group": "crabapple", "scientific_name": "Malus species", "common_name": "Crabapple", "subtype_name": null, "zip_code": "05452", "ownership": "public", "ownership_raw": "Town of Essex", "city": "Essex", "source_dataset": "Municipal Tree Inventory", "source_department": "Town of Essex", "source_last_edit_at": ""}}, {"type": "Feature", "geometry": {"type": "Point", "coordinates": [-73.06918027399996, 44.510082029000046]}, "properties": {"id": "essex-9098", "species_group": "crabapple", "scientific_name": "Malus species", "common_name": "Crabapple", "subtype_name": null, "zip_code": "05452", "ownership": "public", "ownership_raw": "Town of Essex", "city": "Essex", "source_dataset": "Municipal Tree Inventory", "source_department": "Town of Essex", "source_last_edit_at": ""}}, {"type": "Feature", "geometry": {"type": "Point", "coordinates": [-73.14670636399995, 44.503433132000055]}, "properties": {"id": "essex-9148", "species_group": "crabapple", "scientific_name": "Malus species", "common_name": "Crabapple", "subtype_name": null, "zip_code": "05446", "ownership": "public", "ownership_raw": "Town of Essex", "city": "Essex", "source_dataset": "Municipal Tree Inventory", "source_department": "Town of Essex", "source_last_edit_at": ""}}, {"type": "Feature", "geometry": {"type": "Point", "coordinates": [-73.08086416699996, 44.51799870000008]}, "properties": {"id": "essex-9178", "species_group": "crabapple", "scientific_name": "Malus species", "common_name": "Crabapple", "subtype_name": null, "zip_code": "05452", "ownership": "public", "ownership_raw": "Town of Essex", "city": "Essex", "source_dataset": "Municipal Tree Inventory", "source_department": "Town of Essex", "source_last_edit_at": ""}}, {"type": "Feature", "geometry": {"type": "Point", "coordinates": [-73.05680391399994, 44.51435051900006]}, "properties": {"id": "essex-9322", "species_group": "cherry", "scientific_name": "Prunus species", "common_name": "Common Chokecherry", "subtype_name": "Common Chokecherry", "zip_code": "05452", "ownership": "public", "ownership_raw": "Town of Essex", "city": "Essex", "source_dataset": "Municipal Tree Inventory", "source_department": "Town of Essex", "source_last_edit_at": ""}}, {"type": "Feature", "geometry": {"type": "Point", "coordinates": [-73.05455882099994, 44.50626303000007]}, "properties": {"id": "essex-9539", "species_group": "cherry", "scientific_name": "Prunus species", "common_name": "Cherry Plum", "subtype_name": "Cherry Plum", "zip_code": "05452", "ownership": "public", "ownership_raw": "Town of Essex", "city": "Essex", "source_dataset": "Municipal Tree Inventory", "source_department": "Town of Essex", "source_last_edit_at": ""}}]}