{"type": "FeatureCollection", "features": [{"type": "Feature", "geometry": {"type": "Point", "coordinates": [-105.10157949967345, 40.161835155657805]}, "properties": {"id": "longmont-272726", "species_group": "plum", "scientific_name": "Prunus species", "common_name": "Plumprin", "subtype_name": "Plumprin", "zip_code": "80501", "ownership": "public", "ownership_raw": "City of Longmont", "city": "Longmont", "source_dataset": "City of Longmont Trees", "source_department": "City of Longmont", "source_last_edit_at": ""}}, {"type": "Feature", "geometry": {"type": "Point", "coordinates": [-105.10091682074666, 40.16190630135118]}, "properties": {"id": "longmont-272728", "species_group": "plum", "scientific_name": "Prunus species", "common_name": "Plumprin", "subtype_name": "Plumprin", "zip_code": "80501", "ownership": "public", "ownership_raw": "City of Longmont", "city": "Longmont", "source_dataset": "City of Longmont Trees", "source_department": "City of Longmont", "source_last_edit_at": ""}}, {"type": "Feature", "geometry": {"type": "Point", "coordinates": [-105.08762873160144, 40.17739174748133]}, "properties": {"id": "longmont-306606", "species_group": "plum", "scientific_name": "Prunus species", "common_name": "Plumprin", "subtype_name": "Plumprin", "zip_code": "80504", "ownership": "public", "ownership_raw": "City of Longmont", "city": "Longmont", "source_dataset": "City of Longmont Trees", "source_department": "City of Longmont", "source_last_edit_at": ""}}, {"type": "Feature", "geometry": {"type": "Point", "coordinates": [-105.12201353125604, 40.199880260324015]}, "properties": {"id": "longmont-307021", "species_group": "plum", "scientific_name": "Prunus species", "common_name": "Plumprin", "subtype_name": "Plumprin", "zip_code": "80501", "ownership": "public", "ownership_raw": "City of Longmont", "city": "Longmont", "source_dataset": "City of Longmont Trees", "source_department": "City of Longmont", "source_last_edit_at": ""}}, {"type": "Feature", "geometry": {"type": "Point", "coordinates": [-105.12227336812545, 40.19903412381586]}, "properties": {"id": "longmont-307022", "species_group": "plum", "scientific_name": "Prunus species", "common_name": "Plumprin", "subtype_name": "Plumprin", "zip_code": "80501", "ownership": "public", "ownership_raw": "City of Longmont", "city": "Longmont", "source_dataset": "City of Longmont Trees", "source_department": "City of Longmont", "source_last_edit_at": ""}}, {"type": "Feature", "geometry": {"type": "Point", "coordinates": [-105.12222292358804, 40.19902460683412]}, "properties": {"id": "longmont-307023", "species_group": "plum", "scientific_name": "Prunus species", "common_name": "Plumprin", "subtype_name": "Plumprin", "zip_code": "80501", "ownership": "public", "ownership_raw": "City of Longmont", "city": "Longmont", "source_dataset": "City of Longmont Trees", "source_department": "City of Longmont", "source_last_edit_at": ""}}, {"type": "Feature", "geometry": {"type": "Point", "coordinates": [-105.13797131420868, 40.182091931696135]}, "properties": {"id": "longmont-311446", "species_group": "plum", "scientific_name": "Prunus species", "common_name": "Plumprin", "subtype_name": "Plumprin", "zip_code": "80503", "ownership": "public", "ownership_raw": "City of Longmont", "city": "Longmont", "source_dataset": "City of Longmont Trees", "source_department": "City of Longmont", "source_last_edit_at": ""}}, {"type": "Feature", "geometry": {"type": "Point", "coordinates": [-105.13796560491132, 40.18199865643422]}, "properties": {"id": "longmont-311447", "species_group": "plum", "scientific_name": "Prunus species", "common_name": "Plumprin", "subtype_name": "Plumprin", "zip_code": "80503", "ownership": "public", "ownership_raw": "City of Longmont", "city": "Longmont", "source_dataset": "City of Longmont Trees", "source_department": "City of Longmont", "source_last_edit_at": ""}}, {"type": "Feature", "geometry": {"type": "Point", "coordinates": [-105.08769107434131, 40.1774802613991]}, "properties": {"id": "longmont-321025", "species_group": "crabapple", "scientific_name": "Malus species", "common_name": "Mcrabapple", "subtype_name": "Mcrabapple", "zip_code": "80504", "ownership": "public", "ownership_raw": "City of Longmont", "city": "Longmont", "source_dataset": "City of Longmont Trees", "source_department": "City of Longmont", "source_last_edit_at": ""}}, {"type": "Feature", "geometry": {"type": "Point", "coordinates": [-105.08765050428968, 40.177437193989775]}, "properties": {"id": "longmont-321026", "species_group": "crabapple", "scientific_name": "Malus species", "common_name": "Mcrabapple", "subtype_name": "Mcrabapple", "zip_code": "80504", "ownership": "public", "ownership_raw": "City of Longmont", "city": "Longmont", "source_dataset": "City of Longmont Trees", "source_department": "City of Longmont", "source_last_edit_at": ""}}, {"type": "Feature", "geometry": {"type": "Point", "coordinates": [-105.10598614373882, 40.16179506661886]}, "properties": {"id": "longmont-322605", "species_group": "crabapple", "scientific_name": "Malus species", "common_name": "Mcrabapple", "subtype_name": "Mcrabapple", "zip_code": "80501", "ownership": "public", "ownership_raw": "City of Longmont", "city": "Longmont", "source_dataset": "City of Longmont Trees", "source_department": "City of Longmont", "source_last_edit_at": ""}}, {"type": "Feature", "geometry": {"type": "Point", "coordinates": [-105.10811896673498, 40.16583533787556]}, "properties": {"id": "longmont-325848", "species_group": "crabapple", "scientific_name": "Malus species", "common_name": "Scrabapple", "subtype_name": "Scrabapple", "zip_code": "80501", "ownership": "public", "ownership_raw": "City of Longmont", "city": "Longmont", "source_dataset": "City of Longmont Trees", "source_department": "City of Longmont", "source_last_edit_at": ""}}, {"type": "Feature", "geometry": {"type": "Point", "coordinates": [-105.08687662437917, 40.19962701915344]}, "properties": {"id": "longmont-326659", "species_group": "crabapple", "scientific_name": "Malus species", "common_name": "Scrabapple", "subtype_name": "Scrabapple", "zip_code": "80504", "ownership": "public", "ownership_raw": "City of Longmont", "city": "Longmont", "source_dataset": "City of Longmont Trees", "source_department": "City of Longmont", "source_last_edit_at": ""}}, {"type": "Feature", "geometry": {"type": "Point", "coordinates": [-105.08830858507376, 40.19811840172587]}, "properties": {"id": "longmont-326660", "species_group": "crabapple", "scientific_name": "Malus species", "common_name": "Scrabapple", "subtype_name": "Scrabapple", "zip_code": "80504", "ownership": "public", "ownership_raw": "City of Longmont", "city": "Longmont", "source_dataset": "City of Longmont Trees", "source_department": "City of Longmont", "source_last_edit_at": ""}}, {"type": "Feature", "geometry": {"type": "Point", "coordinates": [-105.08711814039115, 40.19973766395609]}, "properties": {"id": "longmont-326661", "species_group": "crabapple", "scientific_name": "Malus species", "common_name": "Scrabapple", "subtype_name": "Scrabapple", "zip_code": "80504", "ownership": "public", "ownership_raw": "City of Longmont", "city": "Longmont", "source_dataset": "City of Longmont Trees", "source_department": "City of Longmont", "source_last_edit_at": ""}}, {"type": "Feature", "geometry": {"type": "Point", "coordinates": [-105.10936540946058, 40.17242990282295]}, "properties": {"id": "longmont-332760", "species_group": "crabapple", "scientific_name": "Malus species", "common_name": "Scrabapple", "subtype_name": "Scrabapple", "zip_code": "80501", "ownership": "public", "ownership_raw": "City of Longmont", "city": "Longmont", "source_dataset": "City of Longmont Trees", "source_department": "City of Longmont", "source_last_edit_at": ""}}]}