{"type": "FeatureCollection", "features": [{"type": "Feature", "geometry": {"type": "Point", "coordinates": [-123.03209927630704, 44.99692059241264]}, "properties": {"id": "keizer-1", "species_group": "plum", "scientific_name": "Prunus species", "common_name": "Plum_(ornamental)", "subtype_name": "Plum_(ornamental)", "zip_code": "97303", "ownership": "public", "ownership_raw": "City of Keizer", "city": "Keizer", "source_dataset": "Keizer Tree Inventory", "source_department": "City of Keizer", "source_last_edit_at": "2026-03-12T15:55:41.855000+00:00"}}, {"type": "Feature", "geometry": {"type": "Point", "coordinates": [-123.0256655, 44.98617072]}, "properties": {"id": "keizer-122", "species_group": "cherry", "scientific_name": "Prunus avium", "common_name": "Cherry_(Edible)", "subtype_name": "Cherry_(Edible)", "zip_code": "97303", "ownership": "public", "ownership_raw": "City of Keizer", "city": "Keizer", "source_dataset": "Keizer Tree Inventory", "source_department": "City of Keizer", "source_last_edit_at": "2026-03-12T15:55:41.855000+00:00"}}, {"type": "Feature", "geometry": {"type": "Point", "coordinates": [-122.99650109800487, 45.01107193219133]}, "properties": {"id": "keizer-196", "species_group": "cherry", "scientific_name": "Prunus serrulata", "common_name": "Japanese_cherry_spp", "subtype_name": "Japanese_cherry_spp", "zip_code": "97303", "ownership": "public", "ownership_raw": "City of Keizer", "city": "Keizer", "source_dataset": "Keizer Tree Inventory", "source_department": "City of Keizer", "source_last_edit_at": "2026-03-12T15:55:41.855000+00:00"}}, {"type": "Feature", "geometry": {"type": "Point", "coordinates": [-122.99641499530611, 45.011070803347586]}, "properties": {"id": "keizer-197", "species_group": "cherry", "scientific_name": "Prunus serrulata", "common_name": "Japanese_cherry_spp", "subtype_name": "Japanese_cherry_spp", "zip_code": "97303", "ownership": "public", "ownership_raw": "City of Keizer", "city": "Keizer", "source_dataset": "Keizer Tree Inventory", "source_department": "City of Keizer", "source_last_edit_at": "2026-03-12T15:55:41.855000+00:00"}}, {"type": "Feature", "geometry": {"type": "Point", "coordinates": [-123.0242732717486, 44.982415435979654]}, "properties": {"id": "keizer-274", "species_group": "cherry", "scientific_name": "Prunus serrulata", "common_name": "Japanese_cherry_spp", "subtype_name": "Japanese_cherry_spp", "zip_code": "97303", "ownership": "public", "ownership_raw": "City of Keizer", "city": "Keizer", "source_dataset": "Keizer Tree Inventory", "source_department": "City of Keizer", "source_last_edit_at": "2026-03-12T15:55:41.855000+00:00"}}, {"type": "Feature", "geometry": {"type": "Point", "coordinates": [-123.02426951686061, 44.98230976788597]}, "properties": {"id": "keizer-275", "species_group": "cherry", "scientific_name": "Prunus serrulata", "common_name": "Japanese_cherry_spp", "subtype_name": "Japanese_cherry_spp", "zip_code": "97303", "ownership": "public", "ownership_raw": "City of Keizer", "city": "Keizer", "source_dataset": "Keizer Tree Inventory", "source_department": "City of Keizer", "source_last_edit_at": "2026-03-12T15:55:41.855000+00:00"}}, {"type": "Feature", "geometry": {"type": "Point", "coordinates": [-123.02425847, 44.98216783]}, "properties": {"id": "keizer-277", "species_group": "cherry", "scientific_name": "Prunus serrulata", "common_name": "Japanese_cherry_spp", "subtype_name": "Japanese_cherry_spp", "zip_code": "97303", "ownership": "public", "ownership_raw": "City of Keizer", "city": "Keizer", "source_dataset": "Keizer Tree Inventory", "source_department": "City of Keizer", "source_last_edit_at": "2026-03-12T15:55:41.855000+00:00"}}, {"type": "Feature", "geometry": {"type": "Point", "coordinates": [-123.02418137499996, 44.98207388000003]}, "properties": {"id": "keizer-278", "species_group": "cherry", "scientific_name": "Prunus serrulata", "common_name": "Japanese_cherry_spp", "subtype_name": "Japanese_cherry_spp", "zip_code": "97303", "ownership": "public", "ownership_raw": "City of Keizer", "city": "Keizer", "source_dataset": "Keizer Tree Inventory", "source_department": "City of Keizer", "source_last_edit_at": "2026-03-12T15:55:41.855000+00:00"}}, {"type": "Feature", "geometry": {"type": "Point", "coordinates": [-123.02415302699995, 44.981988098000045]}, "properties": {"id": "keizer-279", "species_group": "cherry", "scientific_name": "Prunus serrulata", "common_name": "Japanese_cherry_spp", "subtype_name": "Japanese_cherry_spp", "zip_code": "97303", "ownership": "public", "ownership_raw": "City of Keizer", "city": "Keizer", "source_dataset": "Keizer Tree Inventory", "source_department": "City of Keizer", "source_last_edit_at": "2026-03-12T15:55:41.855000+00:00"}}, {"type": "Feature", "geometry": {"type": "Point", "coordinates": [-123.02394296259082, 44.98239851709182]}, "properties": {"id": "keizer-319", "species_group": "cherry", "scientific_name": "Prunus serrulata", "common_name": "Japanese_cherry_spp", "subtype_name": "Japanese_cherry_spp", "zip_code": "97303", "ownership": "public", "ownership_raw": "City of Keizer", "city": "Keizer", "source_dataset": "Keizer Tree Inventory", "source_department": "City of Keizer", "source_last_edit_at": "2026-03-12T15:55:41.855000+00:00"}}, {"type": "Feature", "geometry": {"type": "Point", "coordinates": [-123.02409158, 44.98236285]}, "properties": {"id": "keizer-320", "species_group": "cherry", "scientific_name": "Prunus serrulata", "common_name": "Japanese_cherry_spp", "subtype_name": "Japanese_cherry_spp", "zip_code": "97303", "ownership": "public", "ownership_raw": "City of Keizer", "city": "Keizer", "source_dataset": "Keizer Tree Inventory", "source_department": "City of Keizer", "source_last_edit_at": "2026-03-12T15:55:41.855000+00:00"}}, {"type": "Feature", "geometry": {"type": "Point", "coordinates": [-123.02396144, 44.98205739]}, "properties": {"id": "keizer-321", "species_group": "cherry", "scientific_name": "Prunus serrulata", "common_name": "Japanese_cherry_spp", "subtype_name": "Japanese_cherry_spp", "zip_code": "97303", "ownership": "public", "ownership_raw": "City of Keizer", "city": "Keizer", "source_dataset": "Keizer Tree Inventory", "source_department": "City of Keizer", "source_last_edit_at": "2026-03-12T15:55:41.855000+00:00"}}, {"type": "Feature", "geometry": {"type": "Point", "coordinates": [-123.02393176, 44.98194957]}, "properties": {"id": "keizer-322", "species_group": "cherry", "scientific_name": "Prunus serrulata", "common_name": "Japanese_cherry_spp", "subtype_name": "Japanese_cherry_spp", "zip_code": "97303", "ownership": "public", "ownership_raw": "City of Keizer", "city": "Keizer", "source_dataset": "Keizer Tree Inventory", "source_department": "City of Keizer", "source_last_edit_at": "2026-03-12T15:55:41.855000+00:00"}}, {"type": "Feature", "geometry": {"type": "Point", "coordinates": [-123.02372844, 44.98147994]}, "properties": {"id": "keizer-323", "species_group": "cherry", "scientific_name": "Prunus avium", "common_name": "Cherry_(Edible)", "subtype_name": "Cherry_(Edible)", "zip_code": "97303", "ownership": "public", "ownership_raw": "City of Keizer", "city": "Keizer", "source_dataset": "Keizer Tree Inventory", "source_department": "City of Keizer", "source_last_edit_at": "2026-03-12T15:55:41.855000+00:00"}}, {"type": "Feature", "geometry": {"type": "Point", "coordinates": [-123.02364686, 44.98118095]}, "properties": {"id": "keizer-324", "species_group": "cherry", "scientific_name": "Prunus serrulata", "common_name": "Japanese_cherry_spp", "subtype_name": "Japanese_cherry_spp", "zip_code": "97303", "ownership": "public", "ownership_raw": "City of Keizer", "city": "Keizer", "source_dataset": "Keizer Tree Inventory", "source_department": "City of Keizer", "source_last_edit_at": "2026-03-12T15:55:41.855000+00:00"}}, {"type": "Feature", "geometry": {"type": "Point", "coordinates": [-123.02351666, 44.98099395]}, "properties": {"id": "keizer-325", "species_group": "cherry", "scientific_name": "Prunus serrulata", "common_name": "Japanese_cherry_spp", "subtype_name": "Japanese_cherry_spp", "zip_code": "97303", "ownership": "public", "ownership_raw": "City of Keizer", "city": "Keizer", "source_dataset": "Keizer Tree Inventory", "source_department": "City of Keizer", "source_last_edit_at": "2026-03-12T15:55:41.855000+00:00"}}, {"type": "Feature", "geometry": {"type": "Point", "coordinates": [-123.02352484, 44.98087294]}, "properties": {"id": "keizer-326", "species_group": "cherry", "scientific_name": "Prunus serrulata", "common_name": "Japanese_cherry_spp", "subtype_name": "Japanese_cherry_spp", "zip_code": "97303", "ownership": "public", "ownership_raw": "City of Keizer", "city": "Keizer", "source_dataset": "Keizer Tree Inventory", "source_department": "City of Keizer", "source_last_edit_at": "2026-03-12T15:55:41.855000+00:00"}}, {"type": "Feature", "geometry": {"type": "Point", "coordinates": [-123.02353929, 44.98084011]}, "properties": {"id": "keizer-327", "species_group": "cherry", "scientific_name": "Prunus serrulata", "common_name": "Japanese_cherry_spp", "subtype_name": "Japanese_cherry_spp", "zip_code": "97303", "ownership": "public", "ownership_raw": "City of Keizer", "city": "Keizer", "source_dataset": "Keizer Tree Inventory", "source_department": "City of Keizer", "source_last_edit_at": "2026-03-12T15:55:41.855000+00:00"}}, {"type": "Feature", "geometry": {"type": "Point", "coordinates": [-123.02335061059533, 44.98037637713286]}, "properties": {"id": "keizer-328", "species_group": "cherry", "scientific_name": "Prunus serrulata", "common_name": "Japanese_cherry_spp", "subtype_name": "Japanese_cherry_spp", "zip_code": "97303", "ownership": "public", "ownership_raw": "City of Keizer", "city": "Keizer", "source_dataset": "Keizer Tree Inventory", "source_department": "City of Keizer", "source_last_edit_at": "2026-03-12T15:55:41.855000+00:00"}}, {"type": "Feature", "geometry": {"type": "Point", "coordinates": [-123.02288323211495, 44.979077942772555]}, "properties": {"id": "keizer-329", "species_group": "cherry", "scientific_name": "Prunus serrulata", "common_name": "Japanese_cherry_spp", "subtype_name": "Japanese_cherry_spp", "zip_code": "97303", "ownership": "public", "ownership_raw": "City of Keizer", "city": "Keizer", "source_dataset": "Keizer Tree Inventory", "source_department": "City of Keizer", "source_last_edit_at": "2026-03-12T15:55:41.855000+00:00"}}, {"type": "Feature", "geometry": {"type": "Point", "coordinates": [-123.02285111113729, 44.978985153570775]}, "properties": {"id": "keizer-330", "species_group": "cherry", "scientific_name": "Prunus serrulata", "common_name": "Japanese_cherry_spp", "subtype_name": "Japanese_cherry_spp", "zip_code": "97303", "ownership": "public", "ownership_raw": "City of Keizer", "city": "Keizer", "source_dataset": "Keizer Tree Inventory", "source_department": "City of Keizer", "source_last_edit_at": "2026-03-12T15:55:41.855000+00:00"}}, {"type": "Feature", "geometry": {"type": "Point", "coordinates": [-123.02282162, 44.97890297]}, "properties": {"id": "keizer-331", "species_group": "cherry", "scientific_name": "Prunus serrulata", "common_name": "Japanese_cherry_spp", "subtype_name": "Japanese_cherry_spp", "zip_code": "97303", "ownership": "public", "ownership_raw": "City of Keizer", "city": "Keizer", "source_dataset": "Keizer Tree Inventory", "source_department": "City of Keizer", "source_last_edit_at": "2026-03-12T15:55:41.855000+00:00"}}, {"type": "Feature", "geometry": {"type": "Point", "coordinates": [-123.02305043133843, 44.978933607685704]}, "properties": {"id": "keizer-332", "species_group": "cherry", "scientific_name": "Prunus serrulata", "common_name": "Japanese_cherry_spp", "subtype_name": "Japanese_cherry_spp", "zip_code": "97303", "ownership": "public", "ownership_raw": "City of Keizer", "city": "Keizer", "source_dataset": "Keizer Tree Inventory", "source_department": "City of Keizer", "source_last_edit_at": "2026-03-12T15:55:41.855000+00:00"}}, {"type": "Feature", "geometry": {"type": "Point", "coordinates": [-123.02307500201061, 44.97900002597774]}, "properties": {"id": "keizer-333", "species_group": "cherry", "scientific_name": "Prunus serrulata", "common_name": "Japanese_cherry_spp", "subtype_name": "Japanese_cherry_spp", "zip_code": "97303", "ownership": "public", "ownership_raw": "City of Keizer", "city": "Keizer", "source_dataset": "Keizer Tree Inventory", "source_department": "City of Keizer", "source_last_edit_at": "2026-03-12T15:55:41.855000+00:00"}}, {"type": "Feature", "geometry": {"type": "Point", "coordinates": [-122.99634953366204, 45.00927793095657]}, "properties": {"id": "keizer-455", "species_group": "crabapple", "scientific_name": "Malus species", "common_name": "Crabapple_Spp", "subtype_name": "Crabapple_Spp", "zip_code": "97303", "ownership": "public", "ownership_raw": "City of Keizer", "city": "Keizer", "source_dataset": "Keizer Tree Inventory", "source_department": "City of Keizer", "source_last_edit_at": "2026-03-12T15:55:41.855000+00:00"}}, {"type": "Feature", "geometry": {"type": "Point", "coordinates": [-123.01730667399994, 45.00181638600003]}, "properties": {"id": "keizer-51", "species_group": "cherry", "scientific_name": "Prunus serrulata", "common_name": "Japanese_cherry_spp", "subtype_name": "Japanese_cherry_spp", "zip_code": "97303", "ownership": "public", "ownership_raw": "City of Keizer", "city": "Keizer", "source_dataset": "Keizer Tree Inventory", "source_department": "City of Keizer", "source_last_edit_at": "2026-03-12T15:55:41.855000+00:00"}}, {"type": "Feature", "geometry": {"type": "Point", "coordinates": [-123.01726428899997, 45.00178711700005]}, "properties": {"id": "keizer-52", "species_group": "cherry", "scientific_name": "Prunus serrulata", "common_name": "Japanese_cherry_spp", "subtype_name": "Japanese_cherry_spp", "zip_code": "97303", "ownership": "public", "ownership_raw": "City of Keizer", "city": "Keizer", "source_dataset": "Keizer Tree Inventory", "source_department": "City of Keizer", "source_last_edit_at": "2026-03-12T15:55:41.855000+00:00"}}, {"type": "Feature", "geometry": {"type": "Point", "coordinates": [-123.01720296099995, 45.00174823200007]}, "properties": {"id": "keizer-53", "species_group": "cherry", "scientific_name": "Prunus serrulata", "common_name": "Japanese_cherry_spp", "subtype_name": "Japanese_cherry_spp", "zip_code": "97303", "ownership": "public", "ownership_raw": "City of Keizer", "city": "Keizer", "source_dataset": "Keizer Tree Inventory", "source_department": "City of Keizer", "source_last_edit_at": "2026-03-12T15:55:41.855000+00:00"}}, {"type": "Feature", "geometry": {"type": "Point", "coordinates": [-123.02549387485382, 44.98617357220469]}, "properties": {"id": "keizer-79", "species_group": "cherry", "scientific_name": "Prunus serrulata", "common_name": "Japanese_cherry_spp", "subtype_name": "Japanese_cherry_spp", "zip_code": "97303", "ownership": "public", "ownership_raw": "City of Keizer", "city": "Keizer", "source_dataset": "Keizer Tree Inventory", "source_department": "City of Keizer", "source_last_edit_at": "2026-03-12T15:55:41.855000+00:00"}}, {"type": "Feature", "geometry": {"type": "Point", "coordinates": [-123.02545382, 44.98609163]}, "properties": {"id": "keizer-81", "species_group": "cherry", "scientific_name": "Prunus serrulata", "common_name": "Japanese_cherry_spp", "subtype_name": "Japanese_cherry_spp", "zip_code": "97303", "ownership": "public", "ownership_raw": "City of Keizer", "city": "Keizer", "source_dataset": "Keizer Tree Inventory", "source_department": "City of Keizer", "source_last_edit_at": "2026-03-12T15:55:41.855000+00:00"}}, {"type": "Feature", "geometry": {"type": "Point", "coordinates": [-123.02541110910038, 44.98590868682444]}, "properties": {"id": "keizer-82", "species_group": "cherry", "scientific_name": "Prunus serrulata", "common_name": "Japanese_cherry_spp", "subtype_name": "Japanese_cherry_spp", "zip_code": "97303", "ownership": "public", "ownership_raw": "City of Keizer", "city": "Keizer", "source_dataset": "Keizer Tree Inventory", "source_department": "City of Keizer", "source_last_edit_at": "2026-03-12T15:55:41.855000+00:00"}}]}