{"type": "FeatureCollection", "features": [{"type": "Feature", "geometry": {"type": "Point", "coordinates": [-122.90301001923334, 47.03601477718436]}, "properties": {"id": "olympia-128", "species_group": "cherry", "scientific_name": "Prunus species", "common_name": "Kwanzan Cherry", "subtype_name": "Kwanzan", "zip_code": "98501", "ownership": "public", "ownership_raw": "Washington State Department of Natural Resources", "city": "Olympia", "source_dataset": "Capitol Campus Urban Forest Inventory", "source_department": "Washington State Department of Natural Resources", "source_last_edit_at": ""}}, {"type": "Feature", "geometry": {"type": "Point", "coordinates": [-122.90297043343784, 47.036036392443265]}, "properties": {"id": "olympia-129", "species_group": "cherry", "scientific_name": "Prunus species", "common_name": "Kwanzan Cherry", "subtype_name": "Kwanzan", "zip_code": "98501", "ownership": "public", "ownership_raw": "Washington State Department of Natural Resources", "city": "Olympia", "source_dataset": "Capitol Campus Urban Forest Inventory", "source_department": "Washington State Department of Natural Resources", "source_last_edit_at": ""}}, {"type": "Feature", "geometry": {"type": "Point", "coordinates": [-122.9036929103275, 47.03558645437911]}, "properties": {"id": "olympia-130", "species_group": "cherry", "scientific_name": "Prunus species", "common_name": "Kwanzan Cherry", "subtype_name": "Kwanzan", "zip_code": "98501", "ownership": "public", "ownership_raw": "Washington State Department of Natural Resources", "city": "Olympia", "source_dataset": "Capitol Campus Urban Forest Inventory", "source_department": "Washington State Department of Natural Resources", "source_last_edit_at": ""}}, {"type": "Feature", "geometry": {"type": "Point", "coordinates": [-122.90370229352573, 47.035683284696475]}, "properties": {"id": "olympia-131", "species_group": "cherry", "scientific_name": "Prunus species", "common_name": "Kwanzan Cherry", "subtype_name": "Kwanzan", "zip_code": "98501", "ownership": "public", "ownership_raw": "Washington State Department of Natural Resources", "city": "Olympia", "source_dataset": "Capitol Campus Urban Forest Inventory", "source_department": "Washington State Department of Natural Resources", "source_last_edit_at": ""}}, {"type": "Feature", "geometry": {"type": "Point", "coordinates": [-122.90370171386195, 47.03577073263742]}, "properties": {"id": "olympia-132", "species_group": "cherry", "scientific_name": "Prunus species", "common_name": "Kwanzan Cherry", "subtype_name": "Kwanzan", "zip_code": "98501", "ownership": "public", "ownership_raw": "Washington State Department of Natural Resources", "city": "Olympia", "source_dataset": "Capitol Campus Urban Forest Inventory", "source_department": "Washington State Department of Natural Resources", "source_last_edit_at": ""}}, {"type": "Feature", "geometry": {"type": "Point", "coordinates": [-122.9037027275386, 47.035860404148465]}, "properties": {"id": "olympia-133", "species_group": "cherry", "scientific_name": "Prunus species", "common_name": "Kwanzan Cherry", "subtype_name": "Kwanzan", "zip_code": "98501", "ownership": "public", "ownership_raw": "Washington State Department of Natural Resources", "city": "Olympia", "source_dataset": "Capitol Campus Urban Forest Inventory", "source_department": "Washington State Department of Natural Resources", "source_last_edit_at": ""}}, {"type": "Feature", "geometry": {"type": "Point", "coordinates": [-122.90370420788719, 47.03595353188519]}, "properties": {"id": "olympia-134", "species_group": "cherry", "scientific_name": "Prunus species", "common_name": "Kwanzan Cherry", "subtype_name": "Kwanzan", "zip_code": "98501", "ownership": "public", "ownership_raw": "Washington State Department of Natural Resources", "city": "Olympia", "source_dataset": "Capitol Campus Urban Forest Inventory", "source_department": "Washington State Department of Natural Resources", "source_last_edit_at": ""}}, {"type": "Feature", "geometry": {"type": "Point", "coordinates": [-122.90370837566935, 47.03604700493204]}, "properties": {"id": "olympia-135", "species_group": "cherry", "scientific_name": "Prunus species", "common_name": "Kwanzan Cherry", "subtype_name": "Kwanzan", "zip_code": "98501", "ownership": "public", "ownership_raw": "Washington State Department of Natural Resources", "city": "Olympia", "source_dataset": "Capitol Campus Urban Forest Inventory", "source_department": "Washington State Department of Natural Resources", "source_last_edit_at": ""}}, {"type": "Feature", "geometry": {"type": "Point", "coordinates": [-122.90369551563597, 47.03611831978507]}, "properties": {"id": "olympia-136", "species_group": "cherry", "scientific_name": "Prunus species", "common_name": "Kwanzan Cherry", "subtype_name": "Kwanzan", "zip_code": "98501", "ownership": "public", "ownership_raw": "Washington State Department of Natural Resources", "city": "Olympia", "source_dataset": "Capitol Campus Urban Forest Inventory", "source_department": "Washington State Department of Natural Resources", "source_last_edit_at": ""}}, {"type": "Feature", "geometry": {"type": "Point", "coordinates": [-122.90369245648749, 47.03620153776229]}, "properties": {"id": "olympia-137", "species_group": "cherry", "scientific_name": "Prunus species", "common_name": "Kwanzan Cherry", "subtype_name": "Kwanzan", "zip_code": "98501", "ownership": "public", "ownership_raw": "Washington State Department of Natural Resources", "city": "Olympia", "source_dataset": "Capitol Campus Urban Forest Inventory", "source_department": "Washington State Department of Natural Resources", "source_last_edit_at": ""}}, {"type": "Feature", "geometry": {"type": "Point", "coordinates": [-122.90368713016824, 47.036366245075335]}, "properties": {"id": "olympia-138", "species_group": "cherry", "scientific_name": "Prunus species", "common_name": "Kwanzan Cherry", "subtype_name": "Kwanzan", "zip_code": "98501", "ownership": "public", "ownership_raw": "Washington State Department of Natural Resources", "city": "Olympia", "source_dataset": "Capitol Campus Urban Forest Inventory", "source_department": "Washington State Department of Natural Resources", "source_last_edit_at": ""}}, {"type": "Feature", "geometry": {"type": "Point", "coordinates": [-122.90294546782688, 47.03583477716728]}, "properties": {"id": "olympia-139", "species_group": "cherry", "scientific_name": "Prunus species", "common_name": "Kwanzan Cherry", "subtype_name": "Kwanzan", "zip_code": "98501", "ownership": "public", "ownership_raw": "Washington State Department of Natural Resources", "city": "Olympia", "source_dataset": "Capitol Campus Urban Forest Inventory", "source_department": "Washington State Department of Natural Resources", "source_last_edit_at": ""}}, {"type": "Feature", "geometry": {"type": "Point", "coordinates": [-122.90388155126968, 47.035597040706165]}, "properties": {"id": "olympia-141", "species_group": "cherry", "scientific_name": "Prunus species", "common_name": "Kwanzan Cherry", "subtype_name": "Kwanzan", "zip_code": "98501", "ownership": "public", "ownership_raw": "Washington State Department of Natural Resources", "city": "Olympia", "source_dataset": "Capitol Campus Urban Forest Inventory", "source_department": "Washington State Department of Natural Resources", "source_last_edit_at": ""}}, {"type": "Feature", "geometry": {"type": "Point", "coordinates": [-122.90388161866571, 47.03569899308909]}, "properties": {"id": "olympia-142", "species_group": "cherry", "scientific_name": "Prunus species", "common_name": "Kwanzan Cherry", "subtype_name": "Kwanzan", "zip_code": "98501", "ownership": "public", "ownership_raw": "Washington State Department of Natural Resources", "city": "Olympia", "source_dataset": "Capitol Campus Urban Forest Inventory", "source_department": "Washington State Department of Natural Resources", "source_last_edit_at": ""}}, {"type": "Feature", "geometry": {"type": "Point", "coordinates": [-122.90388055776249, 47.035779659881015]}, "properties": {"id": "olympia-143", "species_group": "cherry", "scientific_name": "Prunus species", "common_name": "Kwanzan Cherry", "subtype_name": "Kwanzan", "zip_code": "98501", "ownership": "public", "ownership_raw": "Washington State Department of Natural Resources", "city": "Olympia", "source_dataset": "Capitol Campus Urban Forest Inventory", "source_department": "Washington State Department of Natural Resources", "source_last_edit_at": ""}}, {"type": "Feature", "geometry": {"type": "Point", "coordinates": [-122.90388944425051, 47.03586636848487]}, "properties": {"id": "olympia-144", "species_group": "cherry", "scientific_name": "Prunus species", "common_name": "Kwanzan Cherry", "subtype_name": "Kwanzan", "zip_code": "98501", "ownership": "public", "ownership_raw": "Washington State Department of Natural Resources", "city": "Olympia", "source_dataset": "Capitol Campus Urban Forest Inventory", "source_department": "Washington State Department of Natural Resources", "source_last_edit_at": ""}}, {"type": "Feature", "geometry": {"type": "Point", "coordinates": [-122.90388485118888, 47.035953561299365]}, "properties": {"id": "olympia-145", "species_group": "cherry", "scientific_name": "Prunus species", "common_name": "Kwanzan Cherry", "subtype_name": "Kwanzan", "zip_code": "98501", "ownership": "public", "ownership_raw": "Washington State Department of Natural Resources", "city": "Olympia", "source_dataset": "Capitol Campus Urban Forest Inventory", "source_department": "Washington State Department of Natural Resources", "source_last_edit_at": ""}}, {"type": "Feature", "geometry": {"type": "Point", "coordinates": [-122.90388815262901, 47.03604230170032]}, "properties": {"id": "olympia-146", "species_group": "cherry", "scientific_name": "Prunus species", "common_name": "Kwanzan Cherry", "subtype_name": "Kwanzan", "zip_code": "98501", "ownership": "public", "ownership_raw": "Washington State Department of Natural Resources", "city": "Olympia", "source_dataset": "Capitol Campus Urban Forest Inventory", "source_department": "Washington State Department of Natural Resources", "source_last_edit_at": ""}}, {"type": "Feature", "geometry": {"type": "Point", "coordinates": [-122.90388115060851, 47.03617591292722]}, "properties": {"id": "olympia-147", "species_group": "cherry", "scientific_name": "Prunus species", "common_name": "Kwanzan Cherry", "subtype_name": "Kwanzan", "zip_code": "98501", "ownership": "public", "ownership_raw": "Washington State Department of Natural Resources", "city": "Olympia", "source_dataset": "Capitol Campus Urban Forest Inventory", "source_department": "Washington State Department of Natural Resources", "source_last_edit_at": ""}}, {"type": "Feature", "geometry": {"type": "Point", "coordinates": [-122.90387666799441, 47.03623865672873]}, "properties": {"id": "olympia-148", "species_group": "cherry", "scientific_name": "Prunus species", "common_name": "Kwanzan Cherry", "subtype_name": "Kwanzan", "zip_code": "98501", "ownership": "public", "ownership_raw": "Washington State Department of Natural Resources", "city": "Olympia", "source_dataset": "Capitol Campus Urban Forest Inventory", "source_department": "Washington State Department of Natural Resources", "source_last_edit_at": ""}}, {"type": "Feature", "geometry": {"type": "Point", "coordinates": [-122.9038852966722, 47.03631300010685]}, "properties": {"id": "olympia-149", "species_group": "cherry", "scientific_name": "Prunus species", "common_name": "Kwanzan Cherry", "subtype_name": "Kwanzan", "zip_code": "98501", "ownership": "public", "ownership_raw": "Washington State Department of Natural Resources", "city": "Olympia", "source_dataset": "Capitol Campus Urban Forest Inventory", "source_department": "Washington State Department of Natural Resources", "source_last_edit_at": ""}}, {"type": "Feature", "geometry": {"type": "Point", "coordinates": [-122.90355760338296, 47.03618424817967]}, "properties": {"id": "olympia-154", "species_group": "plum", "scientific_name": "Prunus species", "common_name": "Plum Spp", "subtype_name": "Plum Spp", "zip_code": "98501", "ownership": "public", "ownership_raw": "Washington State Department of Natural Resources", "city": "Olympia", "source_dataset": "Capitol Campus Urban Forest Inventory", "source_department": "Washington State Department of Natural Resources", "source_last_edit_at": ""}}, {"type": "Feature", "geometry": {"type": "Point", "coordinates": [-122.90388130597678, 47.036621850234035]}, "properties": {"id": "olympia-167", "species_group": "cherry", "scientific_name": "Prunus species", "common_name": "Kwanzan Cherry", "subtype_name": "Kwanzan", "zip_code": "98501", "ownership": "public", "ownership_raw": "Washington State Department of Natural Resources", "city": "Olympia", "source_dataset": "Capitol Campus Urban Forest Inventory", "source_department": "Washington State Department of Natural Resources", "source_last_edit_at": ""}}, {"type": "Feature", "geometry": {"type": "Point", "coordinates": [-122.903885891838, 47.036724690864574]}, "properties": {"id": "olympia-168", "species_group": "cherry", "scientific_name": "Prunus species", "common_name": "Kwanzan Cherry", "subtype_name": "Kwanzan", "zip_code": "98501", "ownership": "public", "ownership_raw": "Washington State Department of Natural Resources", "city": "Olympia", "source_dataset": "Capitol Campus Urban Forest Inventory", "source_department": "Washington State Department of Natural Resources", "source_last_edit_at": ""}}, {"type": "Feature", "geometry": {"type": "Point", "coordinates": [-122.90389284020571, 47.03688051133639]}, "properties": {"id": "olympia-169", "species_group": "cherry", "scientific_name": "Prunus species", "common_name": "Kwanzan Cherry", "subtype_name": "Kwanzan", "zip_code": "98501", "ownership": "public", "ownership_raw": "Washington State Department of Natural Resources", "city": "Olympia", "source_dataset": "Capitol Campus Urban Forest Inventory", "source_department": "Washington State Department of Natural Resources", "source_last_edit_at": ""}}, {"type": "Feature", "geometry": {"type": "Point", "coordinates": [-122.90388333370487, 47.036974287599044]}, "properties": {"id": "olympia-170", "species_group": "cherry", "scientific_name": "Prunus species", "common_name": "Kwanzan Cherry", "subtype_name": "Kwanzan", "zip_code": "98501", "ownership": "public", "ownership_raw": "Washington State Department of Natural Resources", "city": "Olympia", "source_dataset": "Capitol Campus Urban Forest Inventory", "source_department": "Washington State Department of Natural Resources", "source_last_edit_at": ""}}, {"type": "Feature", "geometry": {"type": "Point", "coordinates": [-122.90388136807508, 47.036798138271685]}, "properties": {"id": "olympia-171", "species_group": "cherry", "scientific_name": "Prunus species", "common_name": "Kwanzan Cherry", "subtype_name": "Kwanzan", "zip_code": "98501", "ownership": "public", "ownership_raw": "Washington State Department of Natural Resources", "city": "Olympia", "source_dataset": "Capitol Campus Urban Forest Inventory", "source_department": "Washington State Department of Natural Resources", "source_last_edit_at": ""}}, {"type": "Feature", "geometry": {"type": "Point", "coordinates": [-122.90388031946765, 47.037060131455476]}, "properties": {"id": "olympia-172", "species_group": "cherry", "scientific_name": "Prunus species", "common_name": "Kwanzan Cherry", "subtype_name": "Kwanzan", "zip_code": "98501", "ownership": "public", "ownership_raw": "Washington State Department of Natural Resources", "city": "Olympia", "source_dataset": "Capitol Campus Urban Forest Inventory", "source_department": "Washington State Department of Natural Resources", "source_last_edit_at": ""}}, {"type": "Feature", "geometry": {"type": "Point", "coordinates": [-122.90386948211422, 47.03712073005608]}, "properties": {"id": "olympia-173", "species_group": "cherry", "scientific_name": "Prunus species", "common_name": "Kwanzan Cherry", "subtype_name": "Kwanzan", "zip_code": "98501", "ownership": "public", "ownership_raw": "Washington State Department of Natural Resources", "city": "Olympia", "source_dataset": "Capitol Campus Urban Forest Inventory", "source_department": "Washington State Department of Natural Resources", "source_last_edit_at": ""}}, {"type": "Feature", "geometry": {"type": "Point", "coordinates": [-122.90369446144945, 47.03711703140933]}, "properties": {"id": "olympia-174", "species_group": "cherry", "scientific_name": "Prunus species", "common_name": "Kwanzan Cherry", "subtype_name": "Kwanzan", "zip_code": "98501", "ownership": "public", "ownership_raw": "Washington State Department of Natural Resources", "city": "Olympia", "source_dataset": "Capitol Campus Urban Forest Inventory", "source_department": "Washington State Department of Natural Resources", "source_last_edit_at": ""}}, {"type": "Feature", "geometry": {"type": "Point", "coordinates": [-122.90369272974608, 47.03704844424138]}, "properties": {"id": "olympia-175", "species_group": "cherry", "scientific_name": "Prunus species", "common_name": "Kwanzan Cherry", "subtype_name": "Kwanzan", "zip_code": "98501", "ownership": "public", "ownership_raw": "Washington State Department of Natural Resources", "city": "Olympia", "source_dataset": "Capitol Campus Urban Forest Inventory", "source_department": "Washington State Department of Natural Resources", "source_last_edit_at": ""}}, {"type": "Feature", "geometry": {"type": "Point", "coordinates": [-122.90369475995946, 47.03688931730328]}, "properties": {"id": "olympia-176", "species_group": "cherry", "scientific_name": "Prunus species", "common_name": "Kwanzan Cherry", "subtype_name": "Kwanzan", "zip_code": "98501", "ownership": "public", "ownership_raw": "Washington State Department of Natural Resources", "city": "Olympia", "source_dataset": "Capitol Campus Urban Forest Inventory", "source_department": "Washington State Department of Natural Resources", "source_last_edit_at": ""}}, {"type": "Feature", "geometry": {"type": "Point", "coordinates": [-122.90369970828992, 47.03679563605452]}, "properties": {"id": "olympia-177", "species_group": "cherry", "scientific_name": "Prunus species", "common_name": "Kwanzan Cherry", "subtype_name": "Kwanzan", "zip_code": "98501", "ownership": "public", "ownership_raw": "Washington State Department of Natural Resources", "city": "Olympia", "source_dataset": "Capitol Campus Urban Forest Inventory", "source_department": "Washington State Department of Natural Resources", "source_last_edit_at": ""}}, {"type": "Feature", "geometry": {"type": "Point", "coordinates": [-122.90369595652703, 47.03671149418986]}, "properties": {"id": "olympia-178", "species_group": "cherry", "scientific_name": "Prunus species", "common_name": "Kwanzan Cherry", "subtype_name": "Kwanzan", "zip_code": "98501", "ownership": "public", "ownership_raw": "Washington State Department of Natural Resources", "city": "Olympia", "source_dataset": "Capitol Campus Urban Forest Inventory", "source_department": "Washington State Department of Natural Resources", "source_last_edit_at": ""}}, {"type": "Feature", "geometry": {"type": "Point", "coordinates": [-122.90370574110851, 47.03662394825517]}, "properties": {"id": "olympia-179", "species_group": "cherry", "scientific_name": "Prunus species", "common_name": "Kwanzan Cherry", "subtype_name": "Kwanzan", "zip_code": "98501", "ownership": "public", "ownership_raw": "Washington State Department of Natural Resources", "city": "Olympia", "source_dataset": "Capitol Campus Urban Forest Inventory", "source_department": "Washington State Department of Natural Resources", "source_last_edit_at": ""}}, {"type": "Feature", "geometry": {"type": "Point", "coordinates": [-122.90573266365884, 47.03635587467207]}, "properties": {"id": "olympia-184", "species_group": "magnolia", "scientific_name": "Magnolia species", "common_name": "Magnolia Spp", "subtype_name": "Magnolia Spp", "zip_code": "98501", "ownership": "public", "ownership_raw": "Washington State Department of Natural Resources", "city": "Olympia", "source_dataset": "Capitol Campus Urban Forest Inventory", "source_department": "Washington State Department of Natural Resources", "source_last_edit_at": ""}}, {"type": "Feature", "geometry": {"type": "Point", "coordinates": [-122.90424580384153, 47.03687509054325]}, "properties": {"id": "olympia-204", "species_group": "magnolia", "scientific_name": "Magnolia species", "common_name": "Magnolia Spp", "subtype_name": "Magnolia Spp", "zip_code": "98501", "ownership": "public", "ownership_raw": "Washington State Department of Natural Resources", "city": "Olympia", "source_dataset": "Capitol Campus Urban Forest Inventory", "source_department": "Washington State Department of Natural Resources", "source_last_edit_at": ""}}, {"type": "Feature", "geometry": {"type": "Point", "coordinates": [-122.90426523803279, 47.037078113453504]}, "properties": {"id": "olympia-205", "species_group": "magnolia", "scientific_name": "Magnolia species", "common_name": "Magnolia Spp", "subtype_name": "Magnolia Spp", "zip_code": "98501", "ownership": "public", "ownership_raw": "Washington State Department of Natural Resources", "city": "Olympia", "source_dataset": "Capitol Campus Urban Forest Inventory", "source_department": "Washington State Department of Natural Resources", "source_last_edit_at": ""}}, {"type": "Feature", "geometry": {"type": "Point", "coordinates": [-122.90578964804968, 47.03666973626199]}, "properties": {"id": "olympia-226", "species_group": "crabapple", "scientific_name": "Malus species", "common_name": "Crabapple Spp", "subtype_name": "Crabapple Spp", "zip_code": "98501", "ownership": "public", "ownership_raw": "Washington State Department of Natural Resources", "city": "Olympia", "source_dataset": "Capitol Campus Urban Forest Inventory", "source_department": "Washington State Department of Natural Resources", "source_last_edit_at": ""}}, {"type": "Feature", "geometry": {"type": "Point", "coordinates": [-122.90597815009477, 47.03634282920172]}, "properties": {"id": "olympia-229", "species_group": "magnolia", "scientific_name": "Magnolia species", "common_name": "Magnolia Spp", "subtype_name": "Magnolia Spp", "zip_code": "98501", "ownership": "public", "ownership_raw": "Washington State Department of Natural Resources", "city": "Olympia", "source_dataset": "Capitol Campus Urban Forest Inventory", "source_department": "Washington State Department of Natural Resources", "source_last_edit_at": ""}}, {"type": "Feature", "geometry": {"type": "Point", "coordinates": [-122.90606741267347, 47.03635842719821]}, "properties": {"id": "olympia-230", "species_group": "magnolia", "scientific_name": "Magnolia species", "common_name": "Magnolia Spp", "subtype_name": "Magnolia Spp", "zip_code": "98501", "ownership": "public", "ownership_raw": "Washington State Department of Natural Resources", "city": "Olympia", "source_dataset": "Capitol Campus Urban Forest Inventory", "source_department": "Washington State Department of Natural Resources", "source_last_edit_at": ""}}, {"type": "Feature", "geometry": {"type": "Point", "coordinates": [-122.90604197748247, 47.03640755155645]}, "properties": {"id": "olympia-231", "species_group": "magnolia", "scientific_name": "Magnolia species", "common_name": "Magnolia Spp", "subtype_name": "Magnolia Spp", "zip_code": "98501", "ownership": "public", "ownership_raw": "Washington State Department of Natural Resources", "city": "Olympia", "source_dataset": "Capitol Campus Urban Forest Inventory", "source_department": "Washington State Department of Natural Resources", "source_last_edit_at": ""}}, {"type": "Feature", "geometry": {"type": "Point", "coordinates": [-122.90580585748742, 47.0370490949104]}, "properties": {"id": "olympia-232", "species_group": "crabapple", "scientific_name": "Malus species", "common_name": "Crabapple Spp", "subtype_name": "Crabapple Spp", "zip_code": "98501", "ownership": "public", "ownership_raw": "Washington State Department of Natural Resources", "city": "Olympia", "source_dataset": "Capitol Campus Urban Forest Inventory", "source_department": "Washington State Department of Natural Resources", "source_last_edit_at": ""}}, {"type": "Feature", "geometry": {"type": "Point", "coordinates": [-122.9058111888241, 47.03716855656452]}, "properties": {"id": "olympia-233", "species_group": "crabapple", "scientific_name": "Malus species", "common_name": "Crabapple Spp", "subtype_name": "Crabapple Spp", "zip_code": "98501", "ownership": "public", "ownership_raw": "Washington State Department of Natural Resources", "city": "Olympia", "source_dataset": "Capitol Campus Urban Forest Inventory", "source_department": "Washington State Department of Natural Resources", "source_last_edit_at": ""}}, {"type": "Feature", "geometry": {"type": "Point", "coordinates": [-122.90308084116471, 47.03517301115285]}, "properties": {"id": "olympia-253", "species_group": "cherry", "scientific_name": "Prunus species", "common_name": "Kwanzan Cherry", "subtype_name": "Kwanzan", "zip_code": "98501", "ownership": "public", "ownership_raw": "Washington State Department of Natural Resources", "city": "Olympia", "source_dataset": "Capitol Campus Urban Forest Inventory", "source_department": "Washington State Department of Natural Resources", "source_last_edit_at": ""}}, {"type": "Feature", "geometry": {"type": "Point", "coordinates": [-122.90296772269517, 47.03518183604331]}, "properties": {"id": "olympia-254", "species_group": "cherry", "scientific_name": "Prunus species", "common_name": "Kwanzan Cherry", "subtype_name": "Kwanzan", "zip_code": "98501", "ownership": "public", "ownership_raw": "Washington State Department of Natural Resources", "city": "Olympia", "source_dataset": "Capitol Campus Urban Forest Inventory", "source_department": "Washington State Department of Natural Resources", "source_last_edit_at": ""}}, {"type": "Feature", "geometry": {"type": "Point", "coordinates": [-122.90274120132737, 47.03519302076607]}, "properties": {"id": "olympia-255", "species_group": "cherry", "scientific_name": "Prunus species", "common_name": "Kwanzan Cherry", "subtype_name": "Kwanzan", "zip_code": "98501", "ownership": "public", "ownership_raw": "Washington State Department of Natural Resources", "city": "Olympia", "source_dataset": "Capitol Campus Urban Forest Inventory", "source_department": "Washington State Department of Natural Resources", "source_last_edit_at": ""}}, {"type": "Feature", "geometry": {"type": "Point", "coordinates": [-122.90419632393692, 47.034549548944085]}, "properties": {"id": "olympia-262", "species_group": "cherry", "scientific_name": "Prunus species", "common_name": "Kwanzan Cherry", "subtype_name": "Kwanzan", "zip_code": "98501", "ownership": "public", "ownership_raw": "Washington State Department of Natural Resources", "city": "Olympia", "source_dataset": "Capitol Campus Urban Forest Inventory", "source_department": "Washington State Department of Natural Resources", "source_last_edit_at": ""}}, {"type": "Feature", "geometry": {"type": "Point", "coordinates": [-122.9019244372243, 47.035009831558504]}, "properties": {"id": "olympia-273", "species_group": "cherry", "scientific_name": "Prunus species", "common_name": "Cherry Plum", "subtype_name": "Cherry Plum", "zip_code": "98501", "ownership": "public", "ownership_raw": "Washington State Department of Natural Resources", "city": "Olympia", "source_dataset": "Capitol Campus Urban Forest Inventory", "source_department": "Washington State Department of Natural Resources", "source_last_edit_at": ""}}, {"type": "Feature", "geometry": {"type": "Point", "coordinates": [-122.90296507220516, 47.035264839616644]}, "properties": {"id": "olympia-286", "species_group": "cherry", "scientific_name": "Prunus species", "common_name": "Kwanzan Cherry", "subtype_name": "Kwanzan", "zip_code": "98501", "ownership": "public", "ownership_raw": "Washington State Department of Natural Resources", "city": "Olympia", "source_dataset": "Capitol Campus Urban Forest Inventory", "source_department": "Washington State Department of Natural Resources", "source_last_edit_at": ""}}, {"type": "Feature", "geometry": {"type": "Point", "coordinates": [-122.90276417847909, 47.03525699839685]}, "properties": {"id": "olympia-287", "species_group": "cherry", "scientific_name": "Prunus species", "common_name": "Kwanzan Cherry", "subtype_name": "Kwanzan", "zip_code": "98501", "ownership": "public", "ownership_raw": "Washington State Department of Natural Resources", "city": "Olympia", "source_dataset": "Capitol Campus Urban Forest Inventory", "source_department": "Washington State Department of Natural Resources", "source_last_edit_at": ""}}, {"type": "Feature", "geometry": {"type": "Point", "coordinates": [-122.90397076944697, 47.036032581986284]}, "properties": {"id": "olympia-311", "species_group": "magnolia", "scientific_name": "Magnolia species", "common_name": "Magnolia Spp", "subtype_name": "Magnolia Spp", "zip_code": "98501", "ownership": "public", "ownership_raw": "Washington State Department of Natural Resources", "city": "Olympia", "source_dataset": "Capitol Campus Urban Forest Inventory", "source_department": "Washington State Department of Natural Resources", "source_last_edit_at": ""}}, {"type": "Feature", "geometry": {"type": "Point", "coordinates": [-122.90400123440104, 47.0352634901268]}, "properties": {"id": "olympia-312", "species_group": "cherry", "scientific_name": "Prunus species", "common_name": "Kwanzan Cherry", "subtype_name": "Kwanzan", "zip_code": "98501", "ownership": "public", "ownership_raw": "Washington State Department of Natural Resources", "city": "Olympia", "source_dataset": "Capitol Campus Urban Forest Inventory", "source_department": "Washington State Department of Natural Resources", "source_last_edit_at": ""}}, {"type": "Feature", "geometry": {"type": "Point", "coordinates": [-122.90410822433951, 47.03527707311075]}, "properties": {"id": "olympia-313", "species_group": "cherry", "scientific_name": "Prunus species", "common_name": "Kwanzan Cherry", "subtype_name": "Kwanzan", "zip_code": "98501", "ownership": "public", "ownership_raw": "Washington State Department of Natural Resources", "city": "Olympia", "source_dataset": "Capitol Campus Urban Forest Inventory", "source_department": "Washington State Department of Natural Resources", "source_last_edit_at": ""}}, {"type": "Feature", "geometry": {"type": "Point", "coordinates": [-122.90405065665401, 47.03523083639256]}, "properties": {"id": "olympia-314", "species_group": "cherry", "scientific_name": "Prunus species", "common_name": "Kwanzan Cherry", "subtype_name": "Kwanzan", "zip_code": "98501", "ownership": "public", "ownership_raw": "Washington State Department of Natural Resources", "city": "Olympia", "source_dataset": "Capitol Campus Urban Forest Inventory", "source_department": "Washington State Department of Natural Resources", "source_last_edit_at": ""}}, {"type": "Feature", "geometry": {"type": "Point", "coordinates": [-122.90401549249194, 47.03516832218568]}, "properties": {"id": "olympia-315", "species_group": "cherry", "scientific_name": "Prunus species", "common_name": "Kwanzan Cherry", "subtype_name": "Kwanzan", "zip_code": "98501", "ownership": "public", "ownership_raw": "Washington State Department of Natural Resources", "city": "Olympia", "source_dataset": "Capitol Campus Urban Forest Inventory", "source_department": "Washington State Department of Natural Resources", "source_last_edit_at": ""}}, {"type": "Feature", "geometry": {"type": "Point", "coordinates": [-122.90411281714354, 47.03517261824456]}, "properties": {"id": "olympia-316", "species_group": "cherry", "scientific_name": "Prunus species", "common_name": "Kwanzan Cherry", "subtype_name": "Kwanzan", "zip_code": "98501", "ownership": "public", "ownership_raw": "Washington State Department of Natural Resources", "city": "Olympia", "source_dataset": "Capitol Campus Urban Forest Inventory", "source_department": "Washington State Department of Natural Resources", "source_last_edit_at": ""}}, {"type": "Feature", "geometry": {"type": "Point", "coordinates": [-122.90412806133502, 47.03509956754031]}, "properties": {"id": "olympia-317", "species_group": "cherry", "scientific_name": "Prunus species", "common_name": "Kwanzan Cherry", "subtype_name": "Kwanzan", "zip_code": "98501", "ownership": "public", "ownership_raw": "Washington State Department of Natural Resources", "city": "Olympia", "source_dataset": "Capitol Campus Urban Forest Inventory", "source_department": "Washington State Department of Natural Resources", "source_last_edit_at": ""}}, {"type": "Feature", "geometry": {"type": "Point", "coordinates": [-122.90422750313168, 47.03515125344555]}, "properties": {"id": "olympia-318", "species_group": "cherry", "scientific_name": "Prunus species", "common_name": "Kwanzan Cherry", "subtype_name": "Kwanzan", "zip_code": "98501", "ownership": "public", "ownership_raw": "Washington State Department of Natural Resources", "city": "Olympia", "source_dataset": "Capitol Campus Urban Forest Inventory", "source_department": "Washington State Department of Natural Resources", "source_last_edit_at": ""}}, {"type": "Feature", "geometry": {"type": "Point", "coordinates": [-122.90423699687689, 47.03505302372504]}, "properties": {"id": "olympia-319", "species_group": "cherry", "scientific_name": "Prunus species", "common_name": "Kwanzan Cherry", "subtype_name": "Kwanzan", "zip_code": "98501", "ownership": "public", "ownership_raw": "Washington State Department of Natural Resources", "city": "Olympia", "source_dataset": "Capitol Campus Urban Forest Inventory", "source_department": "Washington State Department of Natural Resources", "source_last_edit_at": ""}}, {"type": "Feature", "geometry": {"type": "Point", "coordinates": [-122.90433350649712, 47.03514271896899]}, "properties": {"id": "olympia-320", "species_group": "cherry", "scientific_name": "Prunus species", "common_name": "Kwanzan Cherry", "subtype_name": "Kwanzan", "zip_code": "98501", "ownership": "public", "ownership_raw": "Washington State Department of Natural Resources", "city": "Olympia", "source_dataset": "Capitol Campus Urban Forest Inventory", "source_department": "Washington State Department of Natural Resources", "source_last_edit_at": ""}}, {"type": "Feature", "geometry": {"type": "Point", "coordinates": [-122.90436946262835, 47.03501547504553]}, "properties": {"id": "olympia-321", "species_group": "cherry", "scientific_name": "Prunus species", "common_name": "Kwanzan Cherry", "subtype_name": "Kwanzan", "zip_code": "98501", "ownership": "public", "ownership_raw": "Washington State Department of Natural Resources", "city": "Olympia", "source_dataset": "Capitol Campus Urban Forest Inventory", "source_department": "Washington State Department of Natural Resources", "source_last_edit_at": ""}}, {"type": "Feature", "geometry": {"type": "Point", "coordinates": [-122.90410719721501, 47.03561704737569]}, "properties": {"id": "olympia-322", "species_group": "magnolia", "scientific_name": "Magnolia species", "common_name": "Saucer Magnolia", "subtype_name": "Saucer Magnolia", "zip_code": "98501", "ownership": "public", "ownership_raw": "Washington State Department of Natural Resources", "city": "Olympia", "source_dataset": "Capitol Campus Urban Forest Inventory", "source_department": "Washington State Department of Natural Resources", "source_last_edit_at": ""}}, {"type": "Feature", "geometry": {"type": "Point", "coordinates": [-122.90459404195522, 47.035383951400426]}, "properties": {"id": "olympia-323", "species_group": "crabapple", "scientific_name": "Malus species", "common_name": "Crabapple Spp", "subtype_name": "Crabapple Spp", "zip_code": "98501", "ownership": "public", "ownership_raw": "Washington State Department of Natural Resources", "city": "Olympia", "source_dataset": "Capitol Campus Urban Forest Inventory", "source_department": "Washington State Department of Natural Resources", "source_last_edit_at": ""}}, {"type": "Feature", "geometry": {"type": "Point", "coordinates": [-122.90507834311799, 47.035395277088575]}, "properties": {"id": "olympia-324", "species_group": "crabapple", "scientific_name": "Malus species", "common_name": "Crabapple Spp", "subtype_name": "Crabapple Spp", "zip_code": "98501", "ownership": "public", "ownership_raw": "Washington State Department of Natural Resources", "city": "Olympia", "source_dataset": "Capitol Campus Urban Forest Inventory", "source_department": "Washington State Department of Natural Resources", "source_last_edit_at": ""}}, {"type": "Feature", "geometry": {"type": "Point", "coordinates": [-122.9055823406216, 47.03508979755784]}, "properties": {"id": "olympia-328", "species_group": "cherry", "scientific_name": "Prunus species", "common_name": "Kwanzan Cherry", "subtype_name": "Kwanzan", "zip_code": "98501", "ownership": "public", "ownership_raw": "Washington State Department of Natural Resources", "city": "Olympia", "source_dataset": "Capitol Campus Urban Forest Inventory", "source_department": "Washington State Department of Natural Resources", "source_last_edit_at": ""}}, {"type": "Feature", "geometry": {"type": "Point", "coordinates": [-122.9054560164795, 47.03505764762725]}, "properties": {"id": "olympia-329", "species_group": "cherry", "scientific_name": "Prunus species", "common_name": "Kwanzan Cherry", "subtype_name": "Kwanzan", "zip_code": "98501", "ownership": "public", "ownership_raw": "Washington State Department of Natural Resources", "city": "Olympia", "source_dataset": "Capitol Campus Urban Forest Inventory", "source_department": "Washington State Department of Natural Resources", "source_last_edit_at": ""}}, {"type": "Feature", "geometry": {"type": "Point", "coordinates": [-122.90534846277217, 47.03503142821138]}, "properties": {"id": "olympia-330", "species_group": "cherry", "scientific_name": "Prunus species", "common_name": "Kwanzan Cherry", "subtype_name": "Kwanzan", "zip_code": "98501", "ownership": "public", "ownership_raw": "Washington State Department of Natural Resources", "city": "Olympia", "source_dataset": "Capitol Campus Urban Forest Inventory", "source_department": "Washington State Department of Natural Resources", "source_last_edit_at": ""}}, {"type": "Feature", "geometry": {"type": "Point", "coordinates": [-122.90519861206546, 47.03499028027575]}, "properties": {"id": "olympia-331", "species_group": "cherry", "scientific_name": "Prunus species", "common_name": "Kwanzan Cherry", "subtype_name": "Kwanzan", "zip_code": "98501", "ownership": "public", "ownership_raw": "Washington State Department of Natural Resources", "city": "Olympia", "source_dataset": "Capitol Campus Urban Forest Inventory", "source_department": "Washington State Department of Natural Resources", "source_last_edit_at": ""}}, {"type": "Feature", "geometry": {"type": "Point", "coordinates": [-122.90507691144907, 47.03495803351887]}, "properties": {"id": "olympia-332", "species_group": "cherry", "scientific_name": "Prunus species", "common_name": "Kwanzan Cherry", "subtype_name": "Kwanzan", "zip_code": "98501", "ownership": "public", "ownership_raw": "Washington State Department of Natural Resources", "city": "Olympia", "source_dataset": "Capitol Campus Urban Forest Inventory", "source_department": "Washington State Department of Natural Resources", "source_last_edit_at": ""}}, {"type": "Feature", "geometry": {"type": "Point", "coordinates": [-122.90494751516397, 47.034960731760584]}, "properties": {"id": "olympia-333", "species_group": "cherry", "scientific_name": "Prunus species", "common_name": "Kwanzan Cherry", "subtype_name": "Kwanzan", "zip_code": "98501", "ownership": "public", "ownership_raw": "Washington State Department of Natural Resources", "city": "Olympia", "source_dataset": "Capitol Campus Urban Forest Inventory", "source_department": "Washington State Department of Natural Resources", "source_last_edit_at": ""}}, {"type": "Feature", "geometry": {"type": "Point", "coordinates": [-122.90493027099234, 47.034885194701104]}, "properties": {"id": "olympia-334", "species_group": "cherry", "scientific_name": "Prunus species", "common_name": "Kwanzan Cherry", "subtype_name": "Kwanzan", "zip_code": "98501", "ownership": "public", "ownership_raw": "Washington State Department of Natural Resources", "city": "Olympia", "source_dataset": "Capitol Campus Urban Forest Inventory", "source_department": "Washington State Department of Natural Resources", "source_last_edit_at": ""}}, {"type": "Feature", "geometry": {"type": "Point", "coordinates": [-122.90136407850831, 47.035316820004915]}, "properties": {"id": "olympia-337", "species_group": "cherry", "scientific_name": "Prunus species", "common_name": "Cherry Plum", "subtype_name": "Cherry Plum", "zip_code": "98501", "ownership": "public", "ownership_raw": "Washington State Department of Natural Resources", "city": "Olympia", "source_dataset": "Capitol Campus Urban Forest Inventory", "source_department": "Washington State Department of Natural Resources", "source_last_edit_at": ""}}, {"type": "Feature", "geometry": {"type": "Point", "coordinates": [-122.90473879797808, 47.03497795468478]}, "properties": {"id": "olympia-347", "species_group": "cherry", "scientific_name": "Prunus species", "common_name": "Kwanzan Cherry", "subtype_name": "Kwanzan", "zip_code": "98501", "ownership": "public", "ownership_raw": "Washington State Department of Natural Resources", "city": "Olympia", "source_dataset": "Capitol Campus Urban Forest Inventory", "source_department": "Washington State Department of Natural Resources", "source_last_edit_at": ""}}, {"type": "Feature", "geometry": {"type": "Point", "coordinates": [-122.90472055216745, 47.03488636478597]}, "properties": {"id": "olympia-348", "species_group": "cherry", "scientific_name": "Prunus species", "common_name": "Kwanzan Cherry", "subtype_name": "Kwanzan", "zip_code": "98501", "ownership": "public", "ownership_raw": "Washington State Department of Natural Resources", "city": "Olympia", "source_dataset": "Capitol Campus Urban Forest Inventory", "source_department": "Washington State Department of Natural Resources", "source_last_edit_at": ""}}, {"type": "Feature", "geometry": {"type": "Point", "coordinates": [-122.90461876440261, 47.03498529665078]}, "properties": {"id": "olympia-349", "species_group": "cherry", "scientific_name": "Prunus species", "common_name": "Kwanzan Cherry", "subtype_name": "Kwanzan", "zip_code": "98501", "ownership": "public", "ownership_raw": "Washington State Department of Natural Resources", "city": "Olympia", "source_dataset": "Capitol Campus Urban Forest Inventory", "source_department": "Washington State Department of Natural Resources", "source_last_edit_at": ""}}, {"type": "Feature", "geometry": {"type": "Point", "coordinates": [-122.90463657864834, 47.035067214334454]}, "properties": {"id": "olympia-350", "species_group": "cherry", "scientific_name": "Prunus species", "common_name": "Kwanzan Cherry", "subtype_name": "Kwanzan", "zip_code": "98501", "ownership": "public", "ownership_raw": "Washington State Department of Natural Resources", "city": "Olympia", "source_dataset": "Capitol Campus Urban Forest Inventory", "source_department": "Washington State Department of Natural Resources", "source_last_edit_at": ""}}, {"type": "Feature", "geometry": {"type": "Point", "coordinates": [-122.90449554157932, 47.035079833380976]}, "properties": {"id": "olympia-351", "species_group": "cherry", "scientific_name": "Prunus species", "common_name": "Kwanzan Cherry", "subtype_name": "Kwanzan", "zip_code": "98501", "ownership": "public", "ownership_raw": "Washington State Department of Natural Resources", "city": "Olympia", "source_dataset": "Capitol Campus Urban Forest Inventory", "source_department": "Washington State Department of Natural Resources", "source_last_edit_at": ""}}, {"type": "Feature", "geometry": {"type": "Point", "coordinates": [-122.9044852345605, 47.035007442999074]}, "properties": {"id": "olympia-352", "species_group": "cherry", "scientific_name": "Prunus species", "common_name": "Kwanzan Cherry", "subtype_name": "Kwanzan", "zip_code": "98501", "ownership": "public", "ownership_raw": "Washington State Department of Natural Resources", "city": "Olympia", "source_dataset": "Capitol Campus Urban Forest Inventory", "source_department": "Washington State Department of Natural Resources", "source_last_edit_at": ""}}, {"type": "Feature", "geometry": {"type": "Point", "coordinates": [-122.90567001057263, 47.035299785857376]}, "properties": {"id": "olympia-353", "species_group": "cherry", "scientific_name": "Prunus species", "common_name": "Kwanzan Cherry", "subtype_name": "Kwanzan", "zip_code": "98501", "ownership": "public", "ownership_raw": "Washington State Department of Natural Resources", "city": "Olympia", "source_dataset": "Capitol Campus Urban Forest Inventory", "source_department": "Washington State Department of Natural Resources", "source_last_edit_at": ""}}, {"type": "Feature", "geometry": {"type": "Point", "coordinates": [-122.90557482222991, 47.0352291659798]}, "properties": {"id": "olympia-354", "species_group": "cherry", "scientific_name": "Prunus species", "common_name": "Kwanzan Cherry", "subtype_name": "Kwanzan", "zip_code": "98501", "ownership": "public", "ownership_raw": "Washington State Department of Natural Resources", "city": "Olympia", "source_dataset": "Capitol Campus Urban Forest Inventory", "source_department": "Washington State Department of Natural Resources", "source_last_edit_at": ""}}, {"type": "Feature", "geometry": {"type": "Point", "coordinates": [-122.90549442475869, 47.03517275547061]}, "properties": {"id": "olympia-355", "species_group": "cherry", "scientific_name": "Prunus species", "common_name": "Kwanzan Cherry", "subtype_name": "Kwanzan", "zip_code": "98501", "ownership": "public", "ownership_raw": "Washington State Department of Natural Resources", "city": "Olympia", "source_dataset": "Capitol Campus Urban Forest Inventory", "source_department": "Washington State Department of Natural Resources", "source_last_edit_at": ""}}, {"type": "Feature", "geometry": {"type": "Point", "coordinates": [-122.9054215308462, 47.035125872245786]}, "properties": {"id": "olympia-356", "species_group": "cherry", "scientific_name": "Prunus species", "common_name": "Kwanzan Cherry", "subtype_name": "Kwanzan", "zip_code": "98501", "ownership": "public", "ownership_raw": "Washington State Department of Natural Resources", "city": "Olympia", "source_dataset": "Capitol Campus Urban Forest Inventory", "source_department": "Washington State Department of Natural Resources", "source_last_edit_at": ""}}, {"type": "Feature", "geometry": {"type": "Point", "coordinates": [-122.90530641493903, 47.03508470883631]}, "properties": {"id": "olympia-357", "species_group": "cherry", "scientific_name": "Prunus species", "common_name": "Kwanzan Cherry", "subtype_name": "Kwanzan", "zip_code": "98501", "ownership": "public", "ownership_raw": "Washington State Department of Natural Resources", "city": "Olympia", "source_dataset": "Capitol Campus Urban Forest Inventory", "source_department": "Washington State Department of Natural Resources", "source_last_edit_at": ""}}, {"type": "Feature", "geometry": {"type": "Point", "coordinates": [-122.90510728279567, 47.03506465981472]}, "properties": {"id": "olympia-358", "species_group": "cherry", "scientific_name": "Prunus species", "common_name": "Kwanzan Cherry", "subtype_name": "Kwanzan", "zip_code": "98501", "ownership": "public", "ownership_raw": "Washington State Department of Natural Resources", "city": "Olympia", "source_dataset": "Capitol Campus Urban Forest Inventory", "source_department": "Washington State Department of Natural Resources", "source_last_edit_at": ""}}, {"type": "Feature", "geometry": {"type": "Point", "coordinates": [-122.90497888291364, 47.035043132943315]}, "properties": {"id": "olympia-359", "species_group": "cherry", "scientific_name": "Prunus species", "common_name": "Kwanzan Cherry", "subtype_name": "Kwanzan", "zip_code": "98501", "ownership": "public", "ownership_raw": "Washington State Department of Natural Resources", "city": "Olympia", "source_dataset": "Capitol Campus Urban Forest Inventory", "source_department": "Washington State Department of Natural Resources", "source_last_edit_at": ""}}, {"type": "Feature", "geometry": {"type": "Point", "coordinates": [-122.90108961498586, 47.037104540752296]}, "properties": {"id": "olympia-47", "species_group": "cherry", "scientific_name": "Prunus species", "common_name": "Kwanzan Cherry", "subtype_name": "Kwanzan", "zip_code": "98501", "ownership": "public", "ownership_raw": "Washington State Department of Natural Resources", "city": "Olympia", "source_dataset": "Capitol Campus Urban Forest Inventory", "source_department": "Washington State Department of Natural Resources", "source_last_edit_at": ""}}, {"type": "Feature", "geometry": {"type": "Point", "coordinates": [-122.90104132332901, 47.03716051653552]}, "properties": {"id": "olympia-48", "species_group": "cherry", "scientific_name": "Prunus species", "common_name": "Kwanzan Cherry", "subtype_name": "Kwanzan", "zip_code": "98501", "ownership": "public", "ownership_raw": "Washington State Department of Natural Resources", "city": "Olympia", "source_dataset": "Capitol Campus Urban Forest Inventory", "source_department": "Washington State Department of Natural Resources", "source_last_edit_at": ""}}, {"type": "Feature", "geometry": {"type": "Point", "coordinates": [-122.90109912063971, 47.0372229617175]}, "properties": {"id": "olympia-49", "species_group": "cherry", "scientific_name": "Prunus species", "common_name": "Kwanzan Cherry", "subtype_name": "Kwanzan", "zip_code": "98501", "ownership": "public", "ownership_raw": "Washington State Department of Natural Resources", "city": "Olympia", "source_dataset": "Capitol Campus Urban Forest Inventory", "source_department": "Washington State Department of Natural Resources", "source_last_edit_at": ""}}, {"type": "Feature", "geometry": {"type": "Point", "coordinates": [-122.90116634183336, 47.03740421000378]}, "properties": {"id": "olympia-51", "species_group": "cherry", "scientific_name": "Prunus species", "common_name": "Kwanzan Cherry", "subtype_name": "Kwanzan", "zip_code": "98501", "ownership": "public", "ownership_raw": "Washington State Department of Natural Resources", "city": "Olympia", "source_dataset": "Capitol Campus Urban Forest Inventory", "source_department": "Washington State Department of Natural Resources", "source_last_edit_at": ""}}, {"type": "Feature", "geometry": {"type": "Point", "coordinates": [-122.90120136354038, 47.037270677728095]}, "properties": {"id": "olympia-53", "species_group": "cherry", "scientific_name": "Prunus species", "common_name": "Kwanzan Cherry", "subtype_name": "Kwanzan", "zip_code": "98501", "ownership": "public", "ownership_raw": "Washington State Department of Natural Resources", "city": "Olympia", "source_dataset": "Capitol Campus Urban Forest Inventory", "source_department": "Washington State Department of Natural Resources", "source_last_edit_at": ""}}, {"type": "Feature", "geometry": {"type": "Point", "coordinates": [-122.9012906249175, 47.037201616466106]}, "properties": {"id": "olympia-54", "species_group": "cherry", "scientific_name": "Prunus species", "common_name": "Kwanzan Cherry", "subtype_name": "Kwanzan", "zip_code": "98501", "ownership": "public", "ownership_raw": "Washington State Department of Natural Resources", "city": "Olympia", "source_dataset": "Capitol Campus Urban Forest Inventory", "source_department": "Washington State Department of Natural Resources", "source_last_edit_at": ""}}, {"type": "Feature", "geometry": {"type": "Point", "coordinates": [-122.90141420941292, 47.037206269822136]}, "properties": {"id": "olympia-56", "species_group": "cherry", "scientific_name": "Prunus species", "common_name": "Kwanzan Cherry", "subtype_name": "Kwanzan", "zip_code": "98501", "ownership": "public", "ownership_raw": "Washington State Department of Natural Resources", "city": "Olympia", "source_dataset": "Capitol Campus Urban Forest Inventory", "source_department": "Washington State Department of Natural Resources", "source_last_edit_at": ""}}, {"type": "Feature", "geometry": {"type": "Point", "coordinates": [-122.90153774583243, 47.037211554693734]}, "properties": {"id": "olympia-57", "species_group": "cherry", "scientific_name": "Prunus species", "common_name": "Kwanzan Cherry", "subtype_name": "Kwanzan", "zip_code": "98501", "ownership": "public", "ownership_raw": "Washington State Department of Natural Resources", "city": "Olympia", "source_dataset": "Capitol Campus Urban Forest Inventory", "source_department": "Washington State Department of Natural Resources", "source_last_edit_at": ""}}, {"type": "Feature", "geometry": {"type": "Point", "coordinates": [-122.90133705773825, 47.03728550036414]}, "properties": {"id": "olympia-59", "species_group": "cherry", "scientific_name": "Prunus species", "common_name": "Kwanzan Cherry", "subtype_name": "Kwanzan", "zip_code": "98501", "ownership": "public", "ownership_raw": "Washington State Department of Natural Resources", "city": "Olympia", "source_dataset": "Capitol Campus Urban Forest Inventory", "source_department": "Washington State Department of Natural Resources", "source_last_edit_at": ""}}, {"type": "Feature", "geometry": {"type": "Point", "coordinates": [-122.90551484280599, 47.036813717919564]}, "properties": {"id": "olympia-595", "species_group": "magnolia", "scientific_name": "Magnolia species", "common_name": "Star Magnolia", "subtype_name": "Star Magnolia", "zip_code": "98501", "ownership": "public", "ownership_raw": "Washington State Department of Natural Resources", "city": "Olympia", "source_dataset": "Capitol Campus Urban Forest Inventory", "source_department": "Washington State Department of Natural Resources", "source_last_edit_at": ""}}, {"type": "Feature", "geometry": {"type": "Point", "coordinates": [-122.90221156123124, 47.03795900253829]}, "properties": {"id": "olympia-80", "species_group": "plum", "scientific_name": "Prunus species", "common_name": "Cher Thndrcl Plum", "subtype_name": "Cher Thndrcl Plum", "zip_code": "98501", "ownership": "public", "ownership_raw": "Washington State Department of Natural Resources", "city": "Olympia", "source_dataset": "Capitol Campus Urban Forest Inventory", "source_department": "Washington State Department of Natural Resources", "source_last_edit_at": ""}}]}