{"type": "FeatureCollection", "features": [{"type": "Feature", "geometry": {"type": "Point", "coordinates": [-121.70635099975368, 37.0115084601215]}, "properties": {"id": "watsonville-4704", "species_group": "plum", "scientific_name": "Prunus domestica", "common_name": "Common plum", "subtype_name": "European Plum", "zip_code": null, "ownership": "public", "ownership_raw": "Public / Santa Clara County tree inventory", "city": "Watsonville", "source_dataset": "Tree Inventories in Santa Clara County", "source_department": "County of Santa Clara / Santa Clara Valley Urban Forestry Alliance", "source_last_edit_at": "2021-08-11T14:36:02.375000+00:00"}}, {"type": "Feature", "geometry": {"type": "Point", "coordinates": [-121.70705540020899, 37.01125595017872]}, "properties": {"id": "watsonville-4997", "species_group": "plum", "scientific_name": "Prunus domestica", "common_name": "Common plum", "subtype_name": "European Plum", "zip_code": null, "ownership": "public", "ownership_raw": "Public / Santa Clara County tree inventory", "city": "Watsonville", "source_dataset": "Tree Inventories in Santa Clara County", "source_department": "County of Santa Clara / Santa Clara Valley Urban Forestry Alliance", "source_last_edit_at": "2021-08-11T14:36:02.375000+00:00"}}, {"type": "Feature", "geometry": {"type": "Point", "coordinates": [-121.70948740019453, 37.01276778013406]}, "properties": {"id": "watsonville-5395", "species_group": "crabapple", "scientific_name": "Malus species", "common_name": "Crabapple", "subtype_name": null, "zip_code": null, "ownership": "public", "ownership_raw": "Public / Santa Clara County tree inventory", "city": "Watsonville", "source_dataset": "Tree Inventories in Santa Clara County", "source_department": "County of Santa Clara / Santa Clara Valley Urban Forestry Alliance", "source_last_edit_at": "2021-08-11T14:36:02.375000+00:00"}}]}