{"type": "FeatureCollection", "features": [{"type": "Feature", "geometry": {"type": "Point", "coordinates": [-79.42474775431639, 43.91485846216016]}, "properties": {"id": "richmond-hill-12155", "species_group": "crabapple", "scientific_name": "Malus sp.", "common_name": "Apple Species", "subtype_name": "Apple", "zip_code": null, "ownership": "public", "ownership_raw": "York Region", "city": "Richmond Hill", "source_dataset": "Street Trees", "source_department": "York Region", "source_last_edit_at": ""}}, {"type": "Feature", "geometry": {"type": "Point", "coordinates": [-79.42473842088376, 43.91487629547311]}, "properties": {"id": "richmond-hill-12156", "species_group": "crabapple", "scientific_name": "Malus sp.", "common_name": "Apple Species", "subtype_name": "Apple", "zip_code": null, "ownership": "public", "ownership_raw": "York Region", "city": "Richmond Hill", "source_dataset": "Street Trees", "source_department": "York Region", "source_last_edit_at": ""}}, {"type": "Feature", "geometry": {"type": "Point", "coordinates": [-79.40594425003314, 43.935647800254095]}, "properties": {"id": "richmond-hill-12510", "species_group": "crabapple", "scientific_name": "Malus sp.", "common_name": "Apple Species", "subtype_name": "Apple", "zip_code": null, "ownership": "public", "ownership_raw": "York Region", "city": "Richmond Hill", "source_dataset": "Street Trees", "source_department": "York Region", "source_last_edit_at": ""}}, {"type": "Feature", "geometry": {"type": "Point", "coordinates": [-79.43803709208721, 43.928665797215395]}, "properties": {"id": "richmond-hill-12543", "species_group": "crabapple", "scientific_name": "Malus sp.", "common_name": "Apple Species", "subtype_name": "Apple", "zip_code": null, "ownership": "public", "ownership_raw": "York Region", "city": "Richmond Hill", "source_dataset": "Street Trees", "source_department": "York Region", "source_last_edit_at": ""}}, {"type": "Feature", "geometry": {"type": "Point", "coordinates": [-79.40605791613083, 43.93562063361242]}, "properties": {"id": "richmond-hill-12562", "species_group": "crabapple", "scientific_name": "Malus sp.", "common_name": "Apple Species", "subtype_name": "Apple", "zip_code": null, "ownership": "public", "ownership_raw": "York Region", "city": "Richmond Hill", "source_dataset": "Street Trees", "source_department": "York Region", "source_last_edit_at": ""}}, {"type": "Feature", "geometry": {"type": "Point", "coordinates": [-79.4064169276779, 43.93553165659355]}, "properties": {"id": "richmond-hill-12643", "species_group": "crabapple", "scientific_name": "Malus sp.", "common_name": "Apple Species", "subtype_name": "Apple", "zip_code": null, "ownership": "public", "ownership_raw": "York Region", "city": "Richmond Hill", "source_dataset": "Street Trees", "source_department": "York Region", "source_last_edit_at": ""}}, {"type": "Feature", "geometry": {"type": "Point", "coordinates": [-79.40654567400902, 43.93550220135627]}, "properties": {"id": "richmond-hill-12644", "species_group": "crabapple", "scientific_name": "Malus sp.", "common_name": "Apple Species", "subtype_name": "Apple", "zip_code": null, "ownership": "public", "ownership_raw": "York Region", "city": "Richmond Hill", "source_dataset": "Street Trees", "source_department": "York Region", "source_last_edit_at": ""}}, {"type": "Feature", "geometry": {"type": "Point", "coordinates": [-79.40669319615358, 43.93547419359542]}, "properties": {"id": "richmond-hill-12645", "species_group": "crabapple", "scientific_name": "Malus sp.", "common_name": "Apple Species", "subtype_name": "Apple", "zip_code": null, "ownership": "public", "ownership_raw": "York Region", "city": "Richmond Hill", "source_dataset": "Street Trees", "source_department": "York Region", "source_last_edit_at": ""}}, {"type": "Feature", "geometry": {"type": "Point", "coordinates": [-79.43950975972875, 43.92834629697751]}, "properties": {"id": "richmond-hill-12690", "species_group": "crabapple", "scientific_name": "Malus sp.", "common_name": "Apple Species", "subtype_name": "Apple", "zip_code": null, "ownership": "public", "ownership_raw": "York Region", "city": "Richmond Hill", "source_dataset": "Street Trees", "source_department": "York Region", "source_last_edit_at": ""}}, {"type": "Feature", "geometry": {"type": "Point", "coordinates": [-79.40962891996854, 43.97005597288239]}, "properties": {"id": "richmond-hill-12743", "species_group": "crabapple", "scientific_name": "Malus sp.", "common_name": "Apple Species", "subtype_name": "Apple", "zip_code": null, "ownership": "public", "ownership_raw": "York Region", "city": "Richmond Hill", "source_dataset": "Street Trees", "source_department": "York Region", "source_last_edit_at": ""}}, {"type": "Feature", "geometry": {"type": "Point", "coordinates": [-79.40731864147124, 43.96007995775633]}, "properties": {"id": "richmond-hill-12794", "species_group": "crabapple", "scientific_name": "Malus sp.", "common_name": "Apple Species", "subtype_name": "Apple", "zip_code": null, "ownership": "public", "ownership_raw": "York Region", "city": "Richmond Hill", "source_dataset": "Street Trees", "source_department": "York Region", "source_last_edit_at": ""}}, {"type": "Feature", "geometry": {"type": "Point", "coordinates": [-79.40872841729262, 43.93502563335175]}, "properties": {"id": "richmond-hill-13033", "species_group": "crabapple", "scientific_name": "Malus sp.", "common_name": "Apple Species", "subtype_name": "Apple", "zip_code": null, "ownership": "public", "ownership_raw": "York Region", "city": "Richmond Hill", "source_dataset": "Street Trees", "source_department": "York Region", "source_last_edit_at": ""}}, {"type": "Feature", "geometry": {"type": "Point", "coordinates": [-79.40929454604004, 43.96860034537688]}, "properties": {"id": "richmond-hill-13154", "species_group": "crabapple", "scientific_name": "Malus sp.", "common_name": "Apple Species", "subtype_name": "Apple", "zip_code": null, "ownership": "public", "ownership_raw": "York Region", "city": "Richmond Hill", "source_dataset": "Street Trees", "source_department": "York Region", "source_last_edit_at": ""}}, {"type": "Feature", "geometry": {"type": "Point", "coordinates": [-79.41003075465471, 43.970747972415374]}, "properties": {"id": "richmond-hill-13328", "species_group": "crabapple", "scientific_name": "Malus sp.", "common_name": "Apple Species", "subtype_name": "Apple", "zip_code": null, "ownership": "public", "ownership_raw": "York Region", "city": "Richmond Hill", "source_dataset": "Street Trees", "source_department": "York Region", "source_last_edit_at": ""}}, {"type": "Feature", "geometry": {"type": "Point", "coordinates": [-79.4098860874221, 43.971135806325286]}, "properties": {"id": "richmond-hill-13548", "species_group": "crabapple", "scientific_name": "Malus sp.", "common_name": "Apple Species", "subtype_name": "Apple", "zip_code": null, "ownership": "public", "ownership_raw": "York Region", "city": "Richmond Hill", "source_dataset": "Street Trees", "source_department": "York Region", "source_last_edit_at": ""}}, {"type": "Feature", "geometry": {"type": "Point", "coordinates": [-79.40686558541705, 43.958047970909604]}, "properties": {"id": "richmond-hill-13777", "species_group": "crabapple", "scientific_name": "Malus sp.", "common_name": "Apple Species", "subtype_name": "Apple", "zip_code": null, "ownership": "public", "ownership_raw": "York Region", "city": "Richmond Hill", "source_dataset": "Street Trees", "source_department": "York Region", "source_last_edit_at": ""}}, {"type": "Feature", "geometry": {"type": "Point", "coordinates": [-79.40683875151987, 43.95808930425153]}, "properties": {"id": "richmond-hill-13778", "species_group": "crabapple", "scientific_name": "Malus sp.", "common_name": "Apple Species", "subtype_name": "Apple", "zip_code": null, "ownership": "public", "ownership_raw": "York Region", "city": "Richmond Hill", "source_dataset": "Street Trees", "source_department": "York Region", "source_last_edit_at": ""}}, {"type": "Feature", "geometry": {"type": "Point", "coordinates": [-79.3931111926452, 43.94012998982952]}, "properties": {"id": "richmond-hill-13840", "species_group": "crabapple", "scientific_name": "Malus sp.", "common_name": "Apple Species", "subtype_name": "Apple", "zip_code": null, "ownership": "public", "ownership_raw": "York Region", "city": "Richmond Hill", "source_dataset": "Street Trees", "source_department": "York Region", "source_last_edit_at": ""}}, {"type": "Feature", "geometry": {"type": "Point", "coordinates": [-79.4088484193693, 43.96672713845805]}, "properties": {"id": "richmond-hill-13997", "species_group": "crabapple", "scientific_name": "Malus sp.", "common_name": "Apple Species", "subtype_name": "Apple", "zip_code": null, "ownership": "public", "ownership_raw": "York Region", "city": "Richmond Hill", "source_dataset": "Street Trees", "source_department": "York Region", "source_last_edit_at": ""}}, {"type": "Feature", "geometry": {"type": "Point", "coordinates": [-79.40882308703037, 43.96667497175807]}, "properties": {"id": "richmond-hill-13998", "species_group": "crabapple", "scientific_name": "Malus sp.", "common_name": "Apple Species", "subtype_name": "Apple", "zip_code": null, "ownership": "public", "ownership_raw": "York Region", "city": "Richmond Hill", "source_dataset": "Street Trees", "source_department": "York Region", "source_last_edit_at": ""}}, {"type": "Feature", "geometry": {"type": "Point", "coordinates": [-79.40882386499977, 43.96658546955961]}, "properties": {"id": "richmond-hill-13999", "species_group": "crabapple", "scientific_name": "Malus sp.", "common_name": "Apple Species", "subtype_name": "Apple", "zip_code": null, "ownership": "public", "ownership_raw": "York Region", "city": "Richmond Hill", "source_dataset": "Street Trees", "source_department": "York Region", "source_last_edit_at": ""}}, {"type": "Feature", "geometry": {"type": "Point", "coordinates": [-79.40989058707082, 43.970225138944265]}, "properties": {"id": "richmond-hill-14000", "species_group": "crabapple", "scientific_name": "Malus sp.", "common_name": "Apple Species", "subtype_name": "Apple", "zip_code": null, "ownership": "public", "ownership_raw": "York Region", "city": "Richmond Hill", "source_dataset": "Street Trees", "source_department": "York Region", "source_last_edit_at": ""}}, {"type": "Feature", "geometry": {"type": "Point", "coordinates": [-79.44217726545543, 43.92769712364528]}, "properties": {"id": "richmond-hill-14034", "species_group": "crabapple", "scientific_name": "Malus sp.", "common_name": "Apple Species", "subtype_name": "Apple", "zip_code": null, "ownership": "public", "ownership_raw": "York Region", "city": "Richmond Hill", "source_dataset": "Street Trees", "source_department": "York Region", "source_last_edit_at": ""}}, {"type": "Feature", "geometry": {"type": "Point", "coordinates": [-79.40996692068433, 43.970559806351204]}, "properties": {"id": "richmond-hill-14051", "species_group": "crabapple", "scientific_name": "Malus sp.", "common_name": "Apple Species", "subtype_name": "Apple", "zip_code": null, "ownership": "public", "ownership_raw": "York Region", "city": "Richmond Hill", "source_dataset": "Street Trees", "source_department": "York Region", "source_last_edit_at": ""}}, {"type": "Feature", "geometry": {"type": "Point", "coordinates": [-79.40999442079301, 43.9706346393573]}, "properties": {"id": "richmond-hill-14198", "species_group": "crabapple", "scientific_name": "Malus sp.", "common_name": "Apple Species", "subtype_name": "Apple", "zip_code": null, "ownership": "public", "ownership_raw": "York Region", "city": "Richmond Hill", "source_dataset": "Street Trees", "source_department": "York Region", "source_last_edit_at": ""}}, {"type": "Feature", "geometry": {"type": "Point", "coordinates": [-79.4084064201416, 43.965059304711104]}, "properties": {"id": "richmond-hill-14312", "species_group": "crabapple", "scientific_name": "Malus sp.", "common_name": "Apple Species", "subtype_name": "Apple", "zip_code": null, "ownership": "public", "ownership_raw": "York Region", "city": "Richmond Hill", "source_dataset": "Street Trees", "source_department": "York Region", "source_last_edit_at": ""}}, {"type": "Feature", "geometry": {"type": "Point", "coordinates": [-79.40751109505158, 43.959924433128876]}, "properties": {"id": "richmond-hill-14430", "species_group": "crabapple", "scientific_name": "Malus sp.", "common_name": "Apple Species", "subtype_name": "Apple", "zip_code": null, "ownership": "public", "ownership_raw": "York Region", "city": "Richmond Hill", "source_dataset": "Street Trees", "source_department": "York Region", "source_last_edit_at": ""}}, {"type": "Feature", "geometry": {"type": "Point", "coordinates": [-79.40986692025263, 43.971086139525255]}, "properties": {"id": "richmond-hill-14550", "species_group": "crabapple", "scientific_name": "Malus sp.", "common_name": "Apple Species", "subtype_name": "Apple", "zip_code": null, "ownership": "public", "ownership_raw": "York Region", "city": "Richmond Hill", "source_dataset": "Street Trees", "source_department": "York Region", "source_last_edit_at": ""}}, {"type": "Feature", "geometry": {"type": "Point", "coordinates": [-79.409846586941, 43.97094180616081]}, "properties": {"id": "richmond-hill-14553", "species_group": "crabapple", "scientific_name": "Malus sp.", "common_name": "Apple Species", "subtype_name": "Apple", "zip_code": null, "ownership": "public", "ownership_raw": "York Region", "city": "Richmond Hill", "source_dataset": "Street Trees", "source_department": "York Region", "source_last_edit_at": ""}}, {"type": "Feature", "geometry": {"type": "Point", "coordinates": [-79.40684808542987, 43.95641263700852]}, "properties": {"id": "richmond-hill-14582", "species_group": "crabapple", "scientific_name": "Malus sp.", "common_name": "Apple Species", "subtype_name": "Apple", "zip_code": null, "ownership": "public", "ownership_raw": "York Region", "city": "Richmond Hill", "source_dataset": "Street Trees", "source_department": "York Region", "source_last_edit_at": ""}}, {"type": "Feature", "geometry": {"type": "Point", "coordinates": [-79.40910209666659, 43.967912138807804]}, "properties": {"id": "richmond-hill-14603", "species_group": "crabapple", "scientific_name": "Malus sp.", "common_name": "Apple Species", "subtype_name": "Apple", "zip_code": null, "ownership": "public", "ownership_raw": "York Region", "city": "Richmond Hill", "source_dataset": "Street Trees", "source_department": "York Region", "source_last_edit_at": ""}}, {"type": "Feature", "geometry": {"type": "Point", "coordinates": [-79.39423410530509, 43.860886707715686]}, "properties": {"id": "richmond-hill-20899", "species_group": "crabapple", "scientific_name": "Malus sp.", "common_name": "Apple Species", "subtype_name": "Apple", "zip_code": null, "ownership": "public", "ownership_raw": "York Region", "city": "Richmond Hill", "source_dataset": "Street Trees", "source_department": "York Region", "source_last_edit_at": ""}}, {"type": "Feature", "geometry": {"type": "Point", "coordinates": [-79.40645746698317, 43.85832194015113]}, "properties": {"id": "richmond-hill-21041", "species_group": "crabapple", "scientific_name": "Malus sp.", "common_name": "Apple Species", "subtype_name": "Apple", "zip_code": null, "ownership": "public", "ownership_raw": "York Region", "city": "Richmond Hill", "source_dataset": "Street Trees", "source_department": "York Region", "source_last_edit_at": ""}}, {"type": "Feature", "geometry": {"type": "Point", "coordinates": [-79.4603046630302, 43.86649483961992]}, "properties": {"id": "richmond-hill-21703", "species_group": "crabapple", "scientific_name": "Malus sp.", "common_name": "Apple Species", "subtype_name": "Apple", "zip_code": null, "ownership": "public", "ownership_raw": "York Region", "city": "Richmond Hill", "source_dataset": "Street Trees", "source_department": "York Region", "source_last_edit_at": ""}}, {"type": "Feature", "geometry": {"type": "Point", "coordinates": [-79.46024163133924, 43.866502574200354]}, "properties": {"id": "richmond-hill-21704", "species_group": "crabapple", "scientific_name": "Malus sp.", "common_name": "Apple Species", "subtype_name": "Apple", "zip_code": null, "ownership": "public", "ownership_raw": "York Region", "city": "Richmond Hill", "source_dataset": "Street Trees", "source_department": "York Region", "source_last_edit_at": ""}}, {"type": "Feature", "geometry": {"type": "Point", "coordinates": [-79.46011087313569, 43.866533435540944]}, "properties": {"id": "richmond-hill-22036", "species_group": "crabapple", "scientific_name": "Malus sp.", "common_name": "Apple Species", "subtype_name": "Apple", "zip_code": null, "ownership": "public", "ownership_raw": "York Region", "city": "Richmond Hill", "source_dataset": "Street Trees", "source_department": "York Region", "source_last_edit_at": ""}}, {"type": "Feature", "geometry": {"type": "Point", "coordinates": [-79.46020046879447, 43.866513743931264]}, "properties": {"id": "richmond-hill-22037", "species_group": "crabapple", "scientific_name": "Malus sp.", "common_name": "Apple Species", "subtype_name": "Apple", "zip_code": null, "ownership": "public", "ownership_raw": "York Region", "city": "Richmond Hill", "source_dataset": "Street Trees", "source_department": "York Region", "source_last_edit_at": ""}}, {"type": "Feature", "geometry": {"type": "Point", "coordinates": [-79.46017136552663, 43.86652180967257]}, "properties": {"id": "richmond-hill-22038", "species_group": "crabapple", "scientific_name": "Malus sp.", "common_name": "Apple Species", "subtype_name": "Apple", "zip_code": null, "ownership": "public", "ownership_raw": "York Region", "city": "Richmond Hill", "source_dataset": "Street Trees", "source_department": "York Region", "source_last_edit_at": ""}}, {"type": "Feature", "geometry": {"type": "Point", "coordinates": [-79.46014109019214, 43.86652595115201]}, "properties": {"id": "richmond-hill-22039", "species_group": "crabapple", "scientific_name": "Malus sp.", "common_name": "Apple Species", "subtype_name": "Apple", "zip_code": null, "ownership": "public", "ownership_raw": "York Region", "city": "Richmond Hill", "source_dataset": "Street Trees", "source_department": "York Region", "source_last_edit_at": ""}}, {"type": "Feature", "geometry": {"type": "Point", "coordinates": [-79.45963457811197, 43.866639870601865]}, "properties": {"id": "richmond-hill-22067", "species_group": "crabapple", "scientific_name": "Malus sp.", "common_name": "Apple Species", "subtype_name": "Apple", "zip_code": null, "ownership": "public", "ownership_raw": "York Region", "city": "Richmond Hill", "source_dataset": "Street Trees", "source_department": "York Region", "source_last_edit_at": ""}}, {"type": "Feature", "geometry": {"type": "Point", "coordinates": [-79.46044990010536, 43.88566424289244]}, "properties": {"id": "richmond-hill-23530", "species_group": "cherry", "scientific_name": "Prunus sp.", "common_name": "Cherry Species", "subtype_name": null, "zip_code": null, "ownership": "public", "ownership_raw": "York Region", "city": "Richmond Hill", "source_dataset": "Street Trees", "source_department": "York Region", "source_last_edit_at": ""}}, {"type": "Feature", "geometry": {"type": "Point", "coordinates": [-79.45466689213416, 43.867658121951315]}, "properties": {"id": "richmond-hill-24223", "species_group": "crabapple", "scientific_name": "Malus sp.", "common_name": "Apple Species", "subtype_name": "Apple", "zip_code": null, "ownership": "public", "ownership_raw": "York Region", "city": "Richmond Hill", "source_dataset": "Street Trees", "source_department": "York Region", "source_last_edit_at": ""}}, {"type": "Feature", "geometry": {"type": "Point", "coordinates": [-79.45939064387622, 43.86664390513746]}, "properties": {"id": "richmond-hill-24252", "species_group": "crabapple", "scientific_name": "Malus sp.", "common_name": "Apple Species", "subtype_name": "Apple", "zip_code": null, "ownership": "public", "ownership_raw": "York Region", "city": "Richmond Hill", "source_dataset": "Street Trees", "source_department": "York Region", "source_last_edit_at": ""}}, {"type": "Feature", "geometry": {"type": "Point", "coordinates": [-79.45962724386888, 43.86658973878093]}, "properties": {"id": "richmond-hill-24255", "species_group": "crabapple", "scientific_name": "Malus sp.", "common_name": "Apple Species", "subtype_name": "Apple", "zip_code": null, "ownership": "public", "ownership_raw": "York Region", "city": "Richmond Hill", "source_dataset": "Street Trees", "source_department": "York Region", "source_last_edit_at": ""}}, {"type": "Feature", "geometry": {"type": "Point", "coordinates": [-79.45975088694112, 43.86658524272208]}, "properties": {"id": "richmond-hill-24261", "species_group": "crabapple", "scientific_name": "Malus sp.", "common_name": "Apple Species", "subtype_name": "Apple", "zip_code": null, "ownership": "public", "ownership_raw": "York Region", "city": "Richmond Hill", "source_dataset": "Street Trees", "source_department": "York Region", "source_last_edit_at": ""}}, {"type": "Feature", "geometry": {"type": "Point", "coordinates": [-79.46029433042371, 43.88546553750309]}, "properties": {"id": "richmond-hill-27839", "species_group": "crabapple", "scientific_name": "Malus sp.", "common_name": "Apple Species", "subtype_name": "Apple", "zip_code": null, "ownership": "public", "ownership_raw": "York Region", "city": "Richmond Hill", "source_dataset": "Street Trees", "source_department": "York Region", "source_last_edit_at": ""}}, {"type": "Feature", "geometry": {"type": "Point", "coordinates": [-79.46015376215195, 43.88549928903915]}, "properties": {"id": "richmond-hill-27840", "species_group": "crabapple", "scientific_name": "Malus sp.", "common_name": "Apple Species", "subtype_name": "Apple", "zip_code": null, "ownership": "public", "ownership_raw": "York Region", "city": "Richmond Hill", "source_dataset": "Street Trees", "source_department": "York Region", "source_last_edit_at": ""}}, {"type": "Feature", "geometry": {"type": "Point", "coordinates": [-79.46275376214705, 43.86722095180637]}, "properties": {"id": "richmond-hill-29230", "species_group": "crabapple", "scientific_name": "Malus sp.", "common_name": "Apple Species", "subtype_name": "Apple", "zip_code": null, "ownership": "public", "ownership_raw": "York Region", "city": "Richmond Hill", "source_dataset": "Street Trees", "source_department": "York Region", "source_last_edit_at": ""}}, {"type": "Feature", "geometry": {"type": "Point", "coordinates": [-79.46276642875638, 43.867171951836156]}, "properties": {"id": "richmond-hill-29231", "species_group": "crabapple", "scientific_name": "Malus sp.", "common_name": "Apple Species", "subtype_name": "Apple", "zip_code": null, "ownership": "public", "ownership_raw": "York Region", "city": "Richmond Hill", "source_dataset": "Street Trees", "source_department": "York Region", "source_last_edit_at": ""}}, {"type": "Feature", "geometry": {"type": "Point", "coordinates": [-79.40009526632775, 43.85959209521957]}, "properties": {"id": "richmond-hill-29807", "species_group": "crabapple", "scientific_name": "Malus sp.", "common_name": "Apple Species", "subtype_name": "Apple", "zip_code": null, "ownership": "public", "ownership_raw": "York Region", "city": "Richmond Hill", "source_dataset": "Street Trees", "source_department": "York Region", "source_last_edit_at": ""}}, {"type": "Feature", "geometry": {"type": "Point", "coordinates": [-79.3998585622556, 43.85964286219671]}, "properties": {"id": "richmond-hill-30131", "species_group": "crabapple", "scientific_name": "Malus sp.", "common_name": "Apple Species", "subtype_name": "Apple", "zip_code": null, "ownership": "public", "ownership_raw": "York Region", "city": "Richmond Hill", "source_dataset": "Street Trees", "source_department": "York Region", "source_last_edit_at": ""}}, {"type": "Feature", "geometry": {"type": "Point", "coordinates": [-79.39897597365925, 43.85981900775069]}, "properties": {"id": "richmond-hill-30575", "species_group": "crabapple", "scientific_name": "Malus sp.", "common_name": "Apple Species", "subtype_name": "Apple", "zip_code": null, "ownership": "public", "ownership_raw": "York Region", "city": "Richmond Hill", "source_dataset": "Street Trees", "source_department": "York Region", "source_last_edit_at": ""}}, {"type": "Feature", "geometry": {"type": "Point", "coordinates": [-79.46276209474755, 43.867163118626834]}, "properties": {"id": "richmond-hill-30784", "species_group": "crabapple", "scientific_name": "Malus sp.", "common_name": "Apple Species", "subtype_name": "Apple", "zip_code": null, "ownership": "public", "ownership_raw": "York Region", "city": "Richmond Hill", "source_dataset": "Street Trees", "source_department": "York Region", "source_last_edit_at": ""}}, {"type": "Feature", "geometry": {"type": "Point", "coordinates": [-79.40279860912264, 43.87761827374294]}, "properties": {"id": "richmond-hill-30896", "species_group": "crabapple", "scientific_name": "Malus sp.", "common_name": "Apple Species", "subtype_name": "Apple", "zip_code": null, "ownership": "public", "ownership_raw": "York Region", "city": "Richmond Hill", "source_dataset": "Street Trees", "source_department": "York Region", "source_last_edit_at": ""}}, {"type": "Feature", "geometry": {"type": "Point", "coordinates": [-79.39542612730648, 43.89793462927046]}, "properties": {"id": "richmond-hill-31111", "species_group": "crabapple", "scientific_name": "Malus sp.", "common_name": "Apple Species", "subtype_name": "Apple", "zip_code": null, "ownership": "public", "ownership_raw": "York Region", "city": "Richmond Hill", "source_dataset": "Street Trees", "source_department": "York Region", "source_last_edit_at": ""}}, {"type": "Feature", "geometry": {"type": "Point", "coordinates": [-79.40827533364629, 43.85832580866128]}, "properties": {"id": "richmond-hill-32171", "species_group": "crabapple", "scientific_name": "Malus sp.", "common_name": "Apple Species", "subtype_name": "Apple", "zip_code": null, "ownership": "public", "ownership_raw": "York Region", "city": "Richmond Hill", "source_dataset": "Street Trees", "source_department": "York Region", "source_last_edit_at": ""}}, {"type": "Feature", "geometry": {"type": "Point", "coordinates": [-79.40803326408182, 43.85831081955293]}, "properties": {"id": "richmond-hill-32172", "species_group": "crabapple", "scientific_name": "Malus sp.", "common_name": "Apple Species", "subtype_name": "Apple", "zip_code": null, "ownership": "public", "ownership_raw": "York Region", "city": "Richmond Hill", "source_dataset": "Street Trees", "source_department": "York Region", "source_last_edit_at": ""}}, {"type": "Feature", "geometry": {"type": "Point", "coordinates": [-79.40707906911389, 43.85831178716471]}, "properties": {"id": "richmond-hill-32173", "species_group": "crabapple", "scientific_name": "Malus sp.", "common_name": "Apple Species", "subtype_name": "Apple", "zip_code": null, "ownership": "public", "ownership_raw": "York Region", "city": "Richmond Hill", "source_dataset": "Street Trees", "source_department": "York Region", "source_last_edit_at": ""}}, {"type": "Feature", "geometry": {"type": "Point", "coordinates": [-79.39152207300013, 43.881465958258985]}, "properties": {"id": "richmond-hill-33005", "species_group": "crabapple", "scientific_name": "Malus sp.", "common_name": "Apple Species", "subtype_name": "Apple", "zip_code": null, "ownership": "public", "ownership_raw": "York Region", "city": "Richmond Hill", "source_dataset": "Street Trees", "source_department": "York Region", "source_last_edit_at": ""}}, {"type": "Feature", "geometry": {"type": "Point", "coordinates": [-79.40169424125673, 43.85923529055952]}, "properties": {"id": "richmond-hill-33170", "species_group": "crabapple", "scientific_name": "Malus sp.", "common_name": "Apple Species", "subtype_name": "Apple", "zip_code": null, "ownership": "public", "ownership_raw": "York Region", "city": "Richmond Hill", "source_dataset": "Street Trees", "source_department": "York Region", "source_last_edit_at": ""}}, {"type": "Feature", "geometry": {"type": "Point", "coordinates": [-79.40144978207437, 43.859288459852365]}, "properties": {"id": "richmond-hill-33171", "species_group": "crabapple", "scientific_name": "Malus sp.", "common_name": "Apple Species", "subtype_name": "Apple", "zip_code": null, "ownership": "public", "ownership_raw": "York Region", "city": "Richmond Hill", "source_dataset": "Street Trees", "source_department": "York Region", "source_last_edit_at": ""}}, {"type": "Feature", "geometry": {"type": "Point", "coordinates": [-79.40100252390589, 43.85939144445166]}, "properties": {"id": "richmond-hill-33172", "species_group": "crabapple", "scientific_name": "Malus sp.", "common_name": "Apple Species", "subtype_name": "Apple", "zip_code": null, "ownership": "public", "ownership_raw": "York Region", "city": "Richmond Hill", "source_dataset": "Street Trees", "source_department": "York Region", "source_last_edit_at": ""}}, {"type": "Feature", "geometry": {"type": "Point", "coordinates": [-79.4007691716184, 43.85944172811712]}, "properties": {"id": "richmond-hill-33173", "species_group": "crabapple", "scientific_name": "Malus sp.", "common_name": "Apple Species", "subtype_name": "Apple", "zip_code": null, "ownership": "public", "ownership_raw": "York Region", "city": "Richmond Hill", "source_dataset": "Street Trees", "source_department": "York Region", "source_last_edit_at": ""}}, {"type": "Feature", "geometry": {"type": "Point", "coordinates": [-79.40865537593808, 43.89572808791533]}, "properties": {"id": "richmond-hill-33914", "species_group": "crabapple", "scientific_name": "Malus sp.", "common_name": "Apple Species", "subtype_name": "Apple", "zip_code": null, "ownership": "public", "ownership_raw": "York Region", "city": "Richmond Hill", "source_dataset": "Street Trees", "source_department": "York Region", "source_last_edit_at": ""}}, {"type": "Feature", "geometry": {"type": "Point", "coordinates": [-79.40006203700545, 43.89762055918202]}, "properties": {"id": "richmond-hill-33967", "species_group": "crabapple", "scientific_name": "Malus sp.", "common_name": "Apple Species", "subtype_name": "Apple", "zip_code": null, "ownership": "public", "ownership_raw": "York Region", "city": "Richmond Hill", "source_dataset": "Street Trees", "source_department": "York Region", "source_last_edit_at": ""}}, {"type": "Feature", "geometry": {"type": "Point", "coordinates": [-79.40974429746075, 43.895484578613015]}, "properties": {"id": "richmond-hill-33971", "species_group": "crabapple", "scientific_name": "Malus sp.", "common_name": "Apple Species", "subtype_name": "Apple", "zip_code": null, "ownership": "public", "ownership_raw": "York Region", "city": "Richmond Hill", "source_dataset": "Street Trees", "source_department": "York Region", "source_last_edit_at": ""}}, {"type": "Feature", "geometry": {"type": "Point", "coordinates": [-79.40983666355606, 43.89546882866232]}, "properties": {"id": "richmond-hill-33972", "species_group": "crabapple", "scientific_name": "Malus sp.", "common_name": "Apple Species", "subtype_name": "Apple", "zip_code": null, "ownership": "public", "ownership_raw": "York Region", "city": "Richmond Hill", "source_dataset": "Street Trees", "source_department": "York Region", "source_last_edit_at": ""}}, {"type": "Feature", "geometry": {"type": "Point", "coordinates": [-79.41570126725725, 43.83909661133785]}, "properties": {"id": "richmond-hill-34281", "species_group": "crabapple", "scientific_name": "Malus sp.", "common_name": "Apple Species", "subtype_name": "Apple", "zip_code": null, "ownership": "public", "ownership_raw": "York Region", "city": "Richmond Hill", "source_dataset": "Street Trees", "source_department": "York Region", "source_last_edit_at": ""}}, {"type": "Feature", "geometry": {"type": "Point", "coordinates": [-79.40136626037912, 43.897299239113686]}, "properties": {"id": "richmond-hill-34289", "species_group": "crabapple", "scientific_name": "Malus sp.", "common_name": "Apple Species", "subtype_name": "Apple", "zip_code": null, "ownership": "public", "ownership_raw": "York Region", "city": "Richmond Hill", "source_dataset": "Street Trees", "source_department": "York Region", "source_last_edit_at": ""}}, {"type": "Feature", "geometry": {"type": "Point", "coordinates": [-79.41738770697165, 43.83883349903007]}, "properties": {"id": "richmond-hill-34388", "species_group": "crabapple", "scientific_name": "Malus sp.", "common_name": "Apple Species", "subtype_name": "Apple", "zip_code": null, "ownership": "public", "ownership_raw": "York Region", "city": "Richmond Hill", "source_dataset": "Street Trees", "source_department": "York Region", "source_last_edit_at": ""}}, {"type": "Feature", "geometry": {"type": "Point", "coordinates": [-79.40148360682792, 43.8972765292014]}, "properties": {"id": "richmond-hill-34390", "species_group": "crabapple", "scientific_name": "Malus sp.", "common_name": "Apple Species", "subtype_name": "Apple", "zip_code": null, "ownership": "public", "ownership_raw": "York Region", "city": "Richmond Hill", "source_dataset": "Street Trees", "source_department": "York Region", "source_last_edit_at": ""}}, {"type": "Feature", "geometry": {"type": "Point", "coordinates": [-79.40159760064859, 43.89724947037429]}, "properties": {"id": "richmond-hill-34391", "species_group": "crabapple", "scientific_name": "Malus sp.", "common_name": "Apple Species", "subtype_name": "Apple", "zip_code": null, "ownership": "public", "ownership_raw": "York Region", "city": "Richmond Hill", "source_dataset": "Street Trees", "source_department": "York Region", "source_last_edit_at": ""}}, {"type": "Feature", "geometry": {"type": "Point", "coordinates": [-79.40182558896578, 43.897200668073594]}, "properties": {"id": "richmond-hill-34431", "species_group": "crabapple", "scientific_name": "Malus sp.", "common_name": "Apple Species", "subtype_name": "Apple", "zip_code": null, "ownership": "public", "ownership_raw": "York Region", "city": "Richmond Hill", "source_dataset": "Street Trees", "source_department": "York Region", "source_last_edit_at": ""}}, {"type": "Feature", "geometry": {"type": "Point", "coordinates": [-79.40019480640733, 43.89759446696975]}, "properties": {"id": "richmond-hill-34535", "species_group": "crabapple", "scientific_name": "Malus sp.", "common_name": "Apple Species", "subtype_name": "Apple", "zip_code": null, "ownership": "public", "ownership_raw": "York Region", "city": "Richmond Hill", "source_dataset": "Street Trees", "source_department": "York Region", "source_last_edit_at": ""}}, {"type": "Feature", "geometry": {"type": "Point", "coordinates": [-79.41709333451486, 43.83888186545563]}, "properties": {"id": "richmond-hill-34558", "species_group": "crabapple", "scientific_name": "Malus sp.", "common_name": "Apple Species", "subtype_name": "Apple", "zip_code": null, "ownership": "public", "ownership_raw": "York Region", "city": "Richmond Hill", "source_dataset": "Street Trees", "source_department": "York Region", "source_last_edit_at": ""}}, {"type": "Feature", "geometry": {"type": "Point", "coordinates": [-79.41694849483619, 43.83890508059336]}, "properties": {"id": "richmond-hill-34559", "species_group": "crabapple", "scientific_name": "Malus sp.", "common_name": "Apple Species", "subtype_name": "Apple", "zip_code": null, "ownership": "public", "ownership_raw": "York Region", "city": "Richmond Hill", "source_dataset": "Street Trees", "source_department": "York Region", "source_last_edit_at": ""}}, {"type": "Feature", "geometry": {"type": "Point", "coordinates": [-79.4503215468479, 43.92499159959606]}, "properties": {"id": "richmond-hill-34565", "species_group": "crabapple", "scientific_name": "Malus sp.", "common_name": "Apple Species", "subtype_name": "Apple", "zip_code": null, "ownership": "public", "ownership_raw": "York Region", "city": "Richmond Hill", "source_dataset": "Street Trees", "source_department": "York Region", "source_last_edit_at": ""}}, {"type": "Feature", "geometry": {"type": "Point", "coordinates": [-79.45042780087007, 43.92525903936347]}, "properties": {"id": "richmond-hill-34566", "species_group": "crabapple", "scientific_name": "Malus sp.", "common_name": "Apple Species", "subtype_name": "Apple", "zip_code": null, "ownership": "public", "ownership_raw": "York Region", "city": "Richmond Hill", "source_dataset": "Street Trees", "source_department": "York Region", "source_last_edit_at": ""}}, {"type": "Feature", "geometry": {"type": "Point", "coordinates": [-79.45047138683593, 43.92539764880055]}, "properties": {"id": "richmond-hill-34567", "species_group": "crabapple", "scientific_name": "Malus sp.", "common_name": "Apple Species", "subtype_name": "Apple", "zip_code": null, "ownership": "public", "ownership_raw": "York Region", "city": "Richmond Hill", "source_dataset": "Street Trees", "source_department": "York Region", "source_last_edit_at": ""}}, {"type": "Feature", "geometry": {"type": "Point", "coordinates": [-79.45050826714933, 43.925529980064745]}, "properties": {"id": "richmond-hill-34568", "species_group": "crabapple", "scientific_name": "Malus sp.", "common_name": "Apple Species", "subtype_name": "Apple", "zip_code": null, "ownership": "public", "ownership_raw": "York Region", "city": "Richmond Hill", "source_dataset": "Street Trees", "source_department": "York Region", "source_last_edit_at": ""}}, {"type": "Feature", "geometry": {"type": "Point", "coordinates": [-79.45058470985077, 43.92578256741617]}, "properties": {"id": "richmond-hill-34569", "species_group": "crabapple", "scientific_name": "Malus sp.", "common_name": "Apple Species", "subtype_name": "Apple", "zip_code": null, "ownership": "public", "ownership_raw": "York Region", "city": "Richmond Hill", "source_dataset": "Street Trees", "source_department": "York Region", "source_last_edit_at": ""}}, {"type": "Feature", "geometry": {"type": "Point", "coordinates": [-79.41409690791221, 43.8945451978486]}, "properties": {"id": "richmond-hill-34576", "species_group": "crabapple", "scientific_name": "Malus sp.", "common_name": "Apple Species", "subtype_name": "Apple", "zip_code": null, "ownership": "public", "ownership_raw": "York Region", "city": "Richmond Hill", "source_dataset": "Street Trees", "source_department": "York Region", "source_last_edit_at": ""}}, {"type": "Feature", "geometry": {"type": "Point", "coordinates": [-79.41419279579947, 43.89452200411141]}, "properties": {"id": "richmond-hill-34577", "species_group": "crabapple", "scientific_name": "Malus sp.", "common_name": "Apple Species", "subtype_name": "Apple", "zip_code": null, "ownership": "public", "ownership_raw": "York Region", "city": "Richmond Hill", "source_dataset": "Street Trees", "source_department": "York Region", "source_last_edit_at": ""}}, {"type": "Feature", "geometry": {"type": "Point", "coordinates": [-79.44595144694266, 43.869499474376646]}, "properties": {"id": "richmond-hill-37756", "species_group": "crabapple", "scientific_name": "Malus sp.", "common_name": "Apple Species", "subtype_name": "Apple", "zip_code": null, "ownership": "public", "ownership_raw": "York Region", "city": "Richmond Hill", "source_dataset": "Street Trees", "source_department": "York Region", "source_last_edit_at": ""}}, {"type": "Feature", "geometry": {"type": "Point", "coordinates": [-79.45301800816043, 43.86799024047239]}, "properties": {"id": "richmond-hill-37818", "species_group": "crabapple", "scientific_name": "Malus sp.", "common_name": "Apple Species", "subtype_name": "Apple", "zip_code": null, "ownership": "public", "ownership_raw": "York Region", "city": "Richmond Hill", "source_dataset": "Street Trees", "source_department": "York Region", "source_last_edit_at": ""}}, {"type": "Feature", "geometry": {"type": "Point", "coordinates": [-79.39536510728216, 43.897665494910825]}, "properties": {"id": "richmond-hill-47538", "species_group": "crabapple", "scientific_name": "Malus sp.", "common_name": "Apple Species", "subtype_name": "Apple", "zip_code": null, "ownership": "public", "ownership_raw": "York Region", "city": "Richmond Hill", "source_dataset": "Street Trees", "source_department": "York Region", "source_last_edit_at": ""}}, {"type": "Feature", "geometry": {"type": "Point", "coordinates": [-79.45352728946632, 43.86787469343146]}, "properties": {"id": "richmond-hill-47581", "species_group": "crabapple", "scientific_name": "Malus sp.", "common_name": "Apple Species", "subtype_name": "Apple", "zip_code": null, "ownership": "public", "ownership_raw": "York Region", "city": "Richmond Hill", "source_dataset": "Street Trees", "source_department": "York Region", "source_last_edit_at": ""}}, {"type": "Feature", "geometry": {"type": "Point", "coordinates": [-79.45290870795364, 43.86800812721046]}, "properties": {"id": "richmond-hill-47584", "species_group": "crabapple", "scientific_name": "Malus sp.", "common_name": "Apple Species", "subtype_name": "Apple", "zip_code": null, "ownership": "public", "ownership_raw": "York Region", "city": "Richmond Hill", "source_dataset": "Street Trees", "source_department": "York Region", "source_last_edit_at": ""}}, {"type": "Feature", "geometry": {"type": "Point", "coordinates": [-79.45515375345337, 43.867558106209195]}, "properties": {"id": "richmond-hill-47607", "species_group": "crabapple", "scientific_name": "Malus sp.", "common_name": "Apple Species", "subtype_name": "Apple", "zip_code": null, "ownership": "public", "ownership_raw": "York Region", "city": "Richmond Hill", "source_dataset": "Street Trees", "source_department": "York Region", "source_last_edit_at": ""}}, {"type": "Feature", "geometry": {"type": "Point", "coordinates": [-79.45471251093045, 43.86764361563696]}, "properties": {"id": "richmond-hill-47608", "species_group": "crabapple", "scientific_name": "Malus sp.", "common_name": "Apple Species", "subtype_name": "Apple", "zip_code": null, "ownership": "public", "ownership_raw": "York Region", "city": "Richmond Hill", "source_dataset": "Street Trees", "source_department": "York Region", "source_last_edit_at": ""}}, {"type": "Feature", "geometry": {"type": "Point", "coordinates": [-79.4039683664543, 43.84028484694081]}, "properties": {"id": "richmond-hill-47697", "species_group": "crabapple", "scientific_name": "Malus sp.", "common_name": "Apple Species", "subtype_name": "Apple", "zip_code": null, "ownership": "public", "ownership_raw": "York Region", "city": "Richmond Hill", "source_dataset": "Street Trees", "source_department": "York Region", "source_last_edit_at": ""}}, {"type": "Feature", "geometry": {"type": "Point", "coordinates": [-79.45527542590366, 43.86753878735884]}, "properties": {"id": "richmond-hill-47719", "species_group": "crabapple", "scientific_name": "Malus sp.", "common_name": "Apple Species", "subtype_name": "Apple", "zip_code": null, "ownership": "public", "ownership_raw": "York Region", "city": "Richmond Hill", "source_dataset": "Street Trees", "source_department": "York Region", "source_last_edit_at": ""}}, {"type": "Feature", "geometry": {"type": "Point", "coordinates": [-79.39483210240954, 43.86075198797551]}, "properties": {"id": "richmond-hill-47779", "species_group": "crabapple", "scientific_name": "Malus sp.", "common_name": "Apple Species", "subtype_name": "Apple", "zip_code": null, "ownership": "public", "ownership_raw": "York Region", "city": "Richmond Hill", "source_dataset": "Street Trees", "source_department": "York Region", "source_last_edit_at": ""}}, {"type": "Feature", "geometry": {"type": "Point", "coordinates": [-79.40842336424994, 43.895780273673864]}, "properties": {"id": "richmond-hill-48064", "species_group": "crabapple", "scientific_name": "Malus sp.", "common_name": "Apple Species", "subtype_name": "Apple", "zip_code": null, "ownership": "public", "ownership_raw": "York Region", "city": "Richmond Hill", "source_dataset": "Street Trees", "source_department": "York Region", "source_last_edit_at": ""}}, {"type": "Feature", "geometry": {"type": "Point", "coordinates": [-79.40852998234614, 43.89575611414321]}, "properties": {"id": "richmond-hill-48065", "species_group": "crabapple", "scientific_name": "Malus sp.", "common_name": "Apple Species", "subtype_name": "Apple", "zip_code": null, "ownership": "public", "ownership_raw": "York Region", "city": "Richmond Hill", "source_dataset": "Street Trees", "source_department": "York Region", "source_last_edit_at": ""}}, {"type": "Feature", "geometry": {"type": "Point", "coordinates": [-79.40368405204296, 43.84027807577435]}, "properties": {"id": "richmond-hill-48163", "species_group": "crabapple", "scientific_name": "Malus sp.", "common_name": "Apple Species", "subtype_name": "Apple", "zip_code": null, "ownership": "public", "ownership_raw": "York Region", "city": "Richmond Hill", "source_dataset": "Street Trees", "source_department": "York Region", "source_last_edit_at": ""}}, {"type": "Feature", "geometry": {"type": "Point", "coordinates": [-79.40135274701446, 43.8779107740824]}, "properties": {"id": "richmond-hill-48167", "species_group": "crabapple", "scientific_name": "Malus sp.", "common_name": "Apple Species", "subtype_name": "Apple", "zip_code": null, "ownership": "public", "ownership_raw": "York Region", "city": "Richmond Hill", "source_dataset": "Street Trees", "source_department": "York Region", "source_last_edit_at": ""}}, {"type": "Feature", "geometry": {"type": "Point", "coordinates": [-79.40161912150649, 43.877865424423064]}, "properties": {"id": "richmond-hill-48169", "species_group": "crabapple", "scientific_name": "Malus sp.", "common_name": "Apple Species", "subtype_name": "Apple", "zip_code": null, "ownership": "public", "ownership_raw": "York Region", "city": "Richmond Hill", "source_dataset": "Street Trees", "source_department": "York Region", "source_last_edit_at": ""}}, {"type": "Feature", "geometry": {"type": "Point", "coordinates": [-79.40185499074855, 43.87782135540845]}, "properties": {"id": "richmond-hill-48170", "species_group": "crabapple", "scientific_name": "Malus sp.", "common_name": "Apple Species", "subtype_name": "Apple", "zip_code": null, "ownership": "public", "ownership_raw": "York Region", "city": "Richmond Hill", "source_dataset": "Street Trees", "source_department": "York Region", "source_last_edit_at": ""}}, {"type": "Feature", "geometry": {"type": "Point", "coordinates": [-79.40214764300114, 43.877764824120966]}, "properties": {"id": "richmond-hill-48172", "species_group": "crabapple", "scientific_name": "Malus sp.", "common_name": "Apple Species", "subtype_name": "Apple", "zip_code": null, "ownership": "public", "ownership_raw": "York Region", "city": "Richmond Hill", "source_dataset": "Street Trees", "source_department": "York Region", "source_last_edit_at": ""}}, {"type": "Feature", "geometry": {"type": "Point", "coordinates": [-79.40233333603035, 43.87771739540942]}, "properties": {"id": "richmond-hill-48173", "species_group": "crabapple", "scientific_name": "Malus sp.", "common_name": "Apple Species", "subtype_name": "Apple", "zip_code": null, "ownership": "public", "ownership_raw": "York Region", "city": "Richmond Hill", "source_dataset": "Street Trees", "source_department": "York Region", "source_last_edit_at": ""}}, {"type": "Feature", "geometry": {"type": "Point", "coordinates": [-79.40256516059709, 43.87766902228483]}, "properties": {"id": "richmond-hill-48175", "species_group": "crabapple", "scientific_name": "Malus sp.", "common_name": "Apple Species", "subtype_name": "Apple", "zip_code": null, "ownership": "public", "ownership_raw": "York Region", "city": "Richmond Hill", "source_dataset": "Street Trees", "source_department": "York Region", "source_last_edit_at": ""}}, {"type": "Feature", "geometry": {"type": "Point", "coordinates": [-79.39841721402315, 43.89797249827767]}, "properties": {"id": "richmond-hill-48217", "species_group": "crabapple", "scientific_name": "Malus sp.", "common_name": "Apple Species", "subtype_name": "Apple", "zip_code": null, "ownership": "public", "ownership_raw": "York Region", "city": "Richmond Hill", "source_dataset": "Street Trees", "source_department": "York Region", "source_last_edit_at": ""}}, {"type": "Feature", "geometry": {"type": "Point", "coordinates": [-79.39852685770988, 43.89794608471526]}, "properties": {"id": "richmond-hill-48218", "species_group": "crabapple", "scientific_name": "Malus sp.", "common_name": "Apple Species", "subtype_name": "Apple", "zip_code": null, "ownership": "public", "ownership_raw": "York Region", "city": "Richmond Hill", "source_dataset": "Street Trees", "source_department": "York Region", "source_last_edit_at": ""}}, {"type": "Feature", "geometry": {"type": "Point", "coordinates": [-79.39863344525658, 43.89791899256092]}, "properties": {"id": "richmond-hill-48219", "species_group": "crabapple", "scientific_name": "Malus sp.", "common_name": "Apple Species", "subtype_name": "Apple", "zip_code": null, "ownership": "public", "ownership_raw": "York Region", "city": "Richmond Hill", "source_dataset": "Street Trees", "source_department": "York Region", "source_last_edit_at": ""}}, {"type": "Feature", "geometry": {"type": "Point", "coordinates": [-79.39992290739104, 43.897614668948876]}, "properties": {"id": "richmond-hill-48223", "species_group": "crabapple", "scientific_name": "Malus sp.", "common_name": "Apple Species", "subtype_name": "Apple", "zip_code": null, "ownership": "public", "ownership_raw": "York Region", "city": "Richmond Hill", "source_dataset": "Street Trees", "source_department": "York Region", "source_last_edit_at": ""}}, {"type": "Feature", "geometry": {"type": "Point", "coordinates": [-79.41355117054786, 43.894656835987846]}, "properties": {"id": "richmond-hill-48381", "species_group": "crabapple", "scientific_name": "Malus sp.", "common_name": "Apple Species", "subtype_name": "Apple", "zip_code": null, "ownership": "public", "ownership_raw": "York Region", "city": "Richmond Hill", "source_dataset": "Street Trees", "source_department": "York Region", "source_last_edit_at": ""}}, {"type": "Feature", "geometry": {"type": "Point", "coordinates": [-79.41366842418718, 43.89463410954242]}, "properties": {"id": "richmond-hill-48382", "species_group": "crabapple", "scientific_name": "Malus sp.", "common_name": "Apple Species", "subtype_name": "Apple", "zip_code": null, "ownership": "public", "ownership_raw": "York Region", "city": "Richmond Hill", "source_dataset": "Street Trees", "source_department": "York Region", "source_last_edit_at": ""}}, {"type": "Feature", "geometry": {"type": "Point", "coordinates": [-79.40670087740615, 43.85831082017586]}, "properties": {"id": "richmond-hill-49641", "species_group": "crabapple", "scientific_name": "Malus sp.", "common_name": "Apple Species", "subtype_name": "Apple", "zip_code": null, "ownership": "public", "ownership_raw": "York Region", "city": "Richmond Hill", "source_dataset": "Street Trees", "source_department": "York Region", "source_last_edit_at": ""}}, {"type": "Feature", "geometry": {"type": "Point", "coordinates": [-79.40053447837985, 43.859494912395945]}, "properties": {"id": "richmond-hill-49786", "species_group": "crabapple", "scientific_name": "Malus sp.", "common_name": "Apple Species", "subtype_name": "Apple", "zip_code": null, "ownership": "public", "ownership_raw": "York Region", "city": "Richmond Hill", "source_dataset": "Street Trees", "source_department": "York Region", "source_last_edit_at": ""}}, {"type": "Feature", "geometry": {"type": "Point", "coordinates": [-79.4085393514726, 43.8583350534694]}, "properties": {"id": "richmond-hill-49972", "species_group": "crabapple", "scientific_name": "Malus sp.", "common_name": "Apple Species", "subtype_name": "Apple", "zip_code": null, "ownership": "public", "ownership_raw": "York Region", "city": "Richmond Hill", "source_dataset": "Street Trees", "source_department": "York Region", "source_last_edit_at": ""}}, {"type": "Feature", "geometry": {"type": "Point", "coordinates": [-79.45584133630805, 43.86744092234453]}, "properties": {"id": "richmond-hill-5022", "species_group": "crabapple", "scientific_name": "Malus sp.", "common_name": "Apple Species", "subtype_name": "Apple", "zip_code": null, "ownership": "public", "ownership_raw": "York Region", "city": "Richmond Hill", "source_dataset": "Street Trees", "source_department": "York Region", "source_last_edit_at": ""}}, {"type": "Feature", "geometry": {"type": "Point", "coordinates": [-79.4602389305177, 43.90466745890509]}, "properties": {"id": "richmond-hill-51411", "species_group": "cherry", "scientific_name": "Prunus maackii 'Goldrush'", "common_name": "Goldrush Amur Cherry", "subtype_name": "Goldrush Amur Cherry", "zip_code": null, "ownership": "public", "ownership_raw": "York Region", "city": "Richmond Hill", "source_dataset": "Street Trees", "source_department": "York Region", "source_last_edit_at": ""}}, {"type": "Feature", "geometry": {"type": "Point", "coordinates": [-79.45614839256429, 43.95000015693036]}, "properties": {"id": "richmond-hill-5787", "species_group": "crabapple", "scientific_name": "Malus sp.", "common_name": "Apple Species", "subtype_name": "Apple", "zip_code": null, "ownership": "public", "ownership_raw": "York Region", "city": "Richmond Hill", "source_dataset": "Street Trees", "source_department": "York Region", "source_last_edit_at": ""}}, {"type": "Feature", "geometry": {"type": "Point", "coordinates": [-79.45611452532215, 43.94987712786886]}, "properties": {"id": "richmond-hill-5788", "species_group": "crabapple", "scientific_name": "Malus sp.", "common_name": "Apple Species", "subtype_name": "Apple", "zip_code": null, "ownership": "public", "ownership_raw": "York Region", "city": "Richmond Hill", "source_dataset": "Street Trees", "source_department": "York Region", "source_last_edit_at": ""}}, {"type": "Feature", "geometry": {"type": "Point", "coordinates": [-79.45607932545342, 43.94973125789992]}, "properties": {"id": "richmond-hill-5789", "species_group": "crabapple", "scientific_name": "Malus sp.", "common_name": "Apple Species", "subtype_name": "Apple", "zip_code": null, "ownership": "public", "ownership_raw": "York Region", "city": "Richmond Hill", "source_dataset": "Street Trees", "source_department": "York Region", "source_last_edit_at": ""}}, {"type": "Feature", "geometry": {"type": "Point", "coordinates": [-79.38969372278082, 43.87408962910813]}, "properties": {"id": "richmond-hill-58423", "species_group": "cherry", "scientific_name": "Prunus sargentii", "common_name": "Sargent cherry", "subtype_name": "Sargent", "zip_code": null, "ownership": "public", "ownership_raw": "York Region", "city": "Richmond Hill", "source_dataset": "Street Trees", "source_department": "York Region", "source_last_edit_at": ""}}, {"type": "Feature", "geometry": {"type": "Point", "coordinates": [-79.43468269593956, 43.96446292657395]}, "properties": {"id": "richmond-hill-5871", "species_group": "cherry", "scientific_name": "Prunus sp.", "common_name": "Cherry Species", "subtype_name": null, "zip_code": null, "ownership": "public", "ownership_raw": "York Region", "city": "Richmond Hill", "source_dataset": "Street Trees", "source_department": "York Region", "source_last_edit_at": ""}}, {"type": "Feature", "geometry": {"type": "Point", "coordinates": [-79.43456382865195, 43.9640841742482]}, "properties": {"id": "richmond-hill-5876", "species_group": "cherry", "scientific_name": "Prunus sp.", "common_name": "Cherry Species", "subtype_name": null, "zip_code": null, "ownership": "public", "ownership_raw": "York Region", "city": "Richmond Hill", "source_dataset": "Street Trees", "source_department": "York Region", "source_last_edit_at": ""}}, {"type": "Feature", "geometry": {"type": "Point", "coordinates": [-79.45604411830787, 43.94959891102437]}, "properties": {"id": "richmond-hill-5904", "species_group": "crabapple", "scientific_name": "Malus sp.", "common_name": "Apple Species", "subtype_name": "Apple", "zip_code": null, "ownership": "public", "ownership_raw": "York Region", "city": "Richmond Hill", "source_dataset": "Street Trees", "source_department": "York Region", "source_last_edit_at": ""}}, {"type": "Feature", "geometry": {"type": "Point", "coordinates": [-79.45603271826535, 43.94954725532836]}, "properties": {"id": "richmond-hill-5905", "species_group": "crabapple", "scientific_name": "Malus sp.", "common_name": "Apple Species", "subtype_name": "Apple", "zip_code": null, "ownership": "public", "ownership_raw": "York Region", "city": "Richmond Hill", "source_dataset": "Street Trees", "source_department": "York Region", "source_last_edit_at": ""}}, {"type": "Feature", "geometry": {"type": "Point", "coordinates": [-79.45598913283634, 43.949332424287974]}, "properties": {"id": "richmond-hill-5906", "species_group": "crabapple", "scientific_name": "Malus sp.", "common_name": "Apple Species", "subtype_name": "Apple", "zip_code": null, "ownership": "public", "ownership_raw": "York Region", "city": "Richmond Hill", "source_dataset": "Street Trees", "source_department": "York Region", "source_last_edit_at": ""}}, {"type": "Feature", "geometry": {"type": "Point", "coordinates": [-79.45244636324651, 43.93076594228467]}, "properties": {"id": "richmond-hill-6024", "species_group": "crabapple", "scientific_name": "Malus sp.", "common_name": "Apple Species", "subtype_name": "Apple", "zip_code": null, "ownership": "public", "ownership_raw": "York Region", "city": "Richmond Hill", "source_dataset": "Street Trees", "source_department": "York Region", "source_last_edit_at": ""}}, {"type": "Feature", "geometry": {"type": "Point", "coordinates": [-79.45248525518035, 43.93085721351325]}, "properties": {"id": "richmond-hill-6025", "species_group": "crabapple", "scientific_name": "Malus sp.", "common_name": "Apple Species", "subtype_name": "Apple", "zip_code": null, "ownership": "public", "ownership_raw": "York Region", "city": "Richmond Hill", "source_dataset": "Street Trees", "source_department": "York Region", "source_last_edit_at": ""}}, {"type": "Feature", "geometry": {"type": "Point", "coordinates": [-79.45253286456321, 43.93097359650356]}, "properties": {"id": "richmond-hill-6026", "species_group": "crabapple", "scientific_name": "Malus sp.", "common_name": "Apple Species", "subtype_name": "Apple", "zip_code": null, "ownership": "public", "ownership_raw": "York Region", "city": "Richmond Hill", "source_dataset": "Street Trees", "source_department": "York Region", "source_last_edit_at": ""}}, {"type": "Feature", "geometry": {"type": "Point", "coordinates": [-79.45261802493346, 43.93119815185103]}, "properties": {"id": "richmond-hill-6027", "species_group": "crabapple", "scientific_name": "Malus sp.", "common_name": "Apple Species", "subtype_name": "Apple", "zip_code": null, "ownership": "public", "ownership_raw": "York Region", "city": "Richmond Hill", "source_dataset": "Street Trees", "source_department": "York Region", "source_last_edit_at": ""}}, {"type": "Feature", "geometry": {"type": "Point", "coordinates": [-79.4526416641168, 43.93134243336971]}, "properties": {"id": "richmond-hill-6028", "species_group": "crabapple", "scientific_name": "Malus sp.", "common_name": "Apple Species", "subtype_name": "Apple", "zip_code": null, "ownership": "public", "ownership_raw": "York Region", "city": "Richmond Hill", "source_dataset": "Street Trees", "source_department": "York Region", "source_last_edit_at": ""}}, {"type": "Feature", "geometry": {"type": "Point", "coordinates": [-79.45285070663506, 43.93183046719318]}, "properties": {"id": "richmond-hill-6029", "species_group": "crabapple", "scientific_name": "Malus sp.", "common_name": "Apple Species", "subtype_name": "Apple", "zip_code": null, "ownership": "public", "ownership_raw": "York Region", "city": "Richmond Hill", "source_dataset": "Street Trees", "source_department": "York Region", "source_last_edit_at": ""}}, {"type": "Feature", "geometry": {"type": "Point", "coordinates": [-79.45290703229725, 43.931945883129785]}, "properties": {"id": "richmond-hill-6030", "species_group": "crabapple", "scientific_name": "Malus sp.", "common_name": "Apple Species", "subtype_name": "Apple", "zip_code": null, "ownership": "public", "ownership_raw": "York Region", "city": "Richmond Hill", "source_dataset": "Street Trees", "source_department": "York Region", "source_last_edit_at": ""}}, {"type": "Feature", "geometry": {"type": "Point", "coordinates": [-79.4529579940168, 43.93206757566263]}, "properties": {"id": "richmond-hill-6031", "species_group": "crabapple", "scientific_name": "Malus sp.", "common_name": "Apple Species", "subtype_name": "Apple", "zip_code": null, "ownership": "public", "ownership_raw": "York Region", "city": "Richmond Hill", "source_dataset": "Street Trees", "source_department": "York Region", "source_last_edit_at": ""}}, {"type": "Feature", "geometry": {"type": "Point", "coordinates": [-79.45301700283432, 43.93219940882657]}, "properties": {"id": "richmond-hill-6032", "species_group": "crabapple", "scientific_name": "Malus sp.", "common_name": "Apple Species", "subtype_name": "Apple", "zip_code": null, "ownership": "public", "ownership_raw": "York Region", "city": "Richmond Hill", "source_dataset": "Street Trees", "source_department": "York Region", "source_last_edit_at": ""}}, {"type": "Feature", "geometry": {"type": "Point", "coordinates": [-79.45307936410323, 43.932324481612646]}, "properties": {"id": "richmond-hill-6042", "species_group": "crabapple", "scientific_name": "Malus sp.", "common_name": "Apple Species", "subtype_name": "Apple", "zip_code": null, "ownership": "public", "ownership_raw": "York Region", "city": "Richmond Hill", "source_dataset": "Street Trees", "source_department": "York Region", "source_last_edit_at": ""}}, {"type": "Feature", "geometry": {"type": "Point", "coordinates": [-79.453116915637, 43.93245003595407]}, "properties": {"id": "richmond-hill-6043", "species_group": "crabapple", "scientific_name": "Malus sp.", "common_name": "Apple Species", "subtype_name": "Apple", "zip_code": null, "ownership": "public", "ownership_raw": "York Region", "city": "Richmond Hill", "source_dataset": "Street Trees", "source_department": "York Region", "source_last_edit_at": ""}}, {"type": "Feature", "geometry": {"type": "Point", "coordinates": [-79.45314743066707, 43.93260750061512]}, "properties": {"id": "richmond-hill-6044", "species_group": "crabapple", "scientific_name": "Malus sp.", "common_name": "Apple Species", "subtype_name": "Apple", "zip_code": null, "ownership": "public", "ownership_raw": "York Region", "city": "Richmond Hill", "source_dataset": "Street Trees", "source_department": "York Region", "source_last_edit_at": ""}}, {"type": "Feature", "geometry": {"type": "Point", "coordinates": [-79.45581196297074, 43.8674454782261]}, "properties": {"id": "richmond-hill-6045", "species_group": "crabapple", "scientific_name": "Malus sp.", "common_name": "Apple Species", "subtype_name": "Apple", "zip_code": null, "ownership": "public", "ownership_raw": "York Region", "city": "Richmond Hill", "source_dataset": "Street Trees", "source_department": "York Region", "source_last_edit_at": ""}}, {"type": "Feature", "geometry": {"type": "Point", "coordinates": [-79.45592581910839, 43.867425452501095]}, "properties": {"id": "richmond-hill-6046", "species_group": "crabapple", "scientific_name": "Malus sp.", "common_name": "Apple Species", "subtype_name": "Apple", "zip_code": null, "ownership": "public", "ownership_raw": "York Region", "city": "Richmond Hill", "source_dataset": "Street Trees", "source_department": "York Region", "source_last_edit_at": ""}}, {"type": "Feature", "geometry": {"type": "Point", "coordinates": [-79.45589974022197, 43.8674309145713]}, "properties": {"id": "richmond-hill-6047", "species_group": "crabapple", "scientific_name": "Malus sp.", "common_name": "Apple Species", "subtype_name": "Apple", "zip_code": null, "ownership": "public", "ownership_raw": "York Region", "city": "Richmond Hill", "source_dataset": "Street Trees", "source_department": "York Region", "source_last_edit_at": ""}}, {"type": "Feature", "geometry": {"type": "Point", "coordinates": [-79.45587271675569, 43.867436087459474]}, "properties": {"id": "richmond-hill-6048", "species_group": "crabapple", "scientific_name": "Malus sp.", "common_name": "Apple Species", "subtype_name": "Apple", "zip_code": null, "ownership": "public", "ownership_raw": "York Region", "city": "Richmond Hill", "source_dataset": "Street Trees", "source_department": "York Region", "source_last_edit_at": ""}}, {"type": "Feature", "geometry": {"type": "Point", "coordinates": [-79.4532478828457, 43.93773101807146]}, "properties": {"id": "richmond-hill-6053", "species_group": "crabapple", "scientific_name": "Malus sp.", "common_name": "Apple Species", "subtype_name": "Apple", "zip_code": null, "ownership": "public", "ownership_raw": "York Region", "city": "Richmond Hill", "source_dataset": "Street Trees", "source_department": "York Region", "source_last_edit_at": ""}}, {"type": "Feature", "geometry": {"type": "Point", "coordinates": [-79.45322101377428, 43.93789203541141]}, "properties": {"id": "richmond-hill-6056", "species_group": "crabapple", "scientific_name": "Malus sp.", "common_name": "Apple Species", "subtype_name": "Apple", "zip_code": null, "ownership": "public", "ownership_raw": "York Region", "city": "Richmond Hill", "source_dataset": "Street Trees", "source_department": "York Region", "source_last_edit_at": ""}}, {"type": "Feature", "geometry": {"type": "Point", "coordinates": [-79.45320378158537, 43.938038418408794]}, "properties": {"id": "richmond-hill-6058", "species_group": "crabapple", "scientific_name": "Malus sp.", "common_name": "Apple Species", "subtype_name": "Apple", "zip_code": null, "ownership": "public", "ownership_raw": "York Region", "city": "Richmond Hill", "source_dataset": "Street Trees", "source_department": "York Region", "source_last_edit_at": ""}}, {"type": "Feature", "geometry": {"type": "Point", "coordinates": [-79.45320786493723, 43.93812653405534]}, "properties": {"id": "richmond-hill-6060", "species_group": "crabapple", "scientific_name": "Malus sp.", "common_name": "Apple Species", "subtype_name": "Apple", "zip_code": null, "ownership": "public", "ownership_raw": "York Region", "city": "Richmond Hill", "source_dataset": "Street Trees", "source_department": "York Region", "source_last_edit_at": ""}}, {"type": "Feature", "geometry": {"type": "Point", "coordinates": [-79.45322513180378, 43.938220518397735]}, "properties": {"id": "richmond-hill-6062", "species_group": "crabapple", "scientific_name": "Malus sp.", "common_name": "Apple Species", "subtype_name": "Apple", "zip_code": null, "ownership": "public", "ownership_raw": "York Region", "city": "Richmond Hill", "source_dataset": "Street Trees", "source_department": "York Region", "source_last_edit_at": ""}}, {"type": "Feature", "geometry": {"type": "Point", "coordinates": [-79.45320244888076, 43.93833555129191]}, "properties": {"id": "richmond-hill-6064", "species_group": "crabapple", "scientific_name": "Malus sp.", "common_name": "Apple Species", "subtype_name": "Apple", "zip_code": null, "ownership": "public", "ownership_raw": "York Region", "city": "Richmond Hill", "source_dataset": "Street Trees", "source_department": "York Region", "source_last_edit_at": ""}}, {"type": "Feature", "geometry": {"type": "Point", "coordinates": [-79.45323694749689, 43.938441268184654]}, "properties": {"id": "richmond-hill-6065", "species_group": "crabapple", "scientific_name": "Malus sp.", "common_name": "Apple Species", "subtype_name": "Apple", "zip_code": null, "ownership": "public", "ownership_raw": "York Region", "city": "Richmond Hill", "source_dataset": "Street Trees", "source_department": "York Region", "source_last_edit_at": ""}}, {"type": "Feature", "geometry": {"type": "Point", "coordinates": [-79.45322786496256, 43.938521201472994]}, "properties": {"id": "richmond-hill-6066", "species_group": "crabapple", "scientific_name": "Malus sp.", "common_name": "Apple Species", "subtype_name": "Apple", "zip_code": null, "ownership": "public", "ownership_raw": "York Region", "city": "Richmond Hill", "source_dataset": "Street Trees", "source_department": "York Region", "source_last_edit_at": ""}}, {"type": "Feature", "geometry": {"type": "Point", "coordinates": [-79.45319886491279, 43.9386106176584]}, "properties": {"id": "richmond-hill-6067", "species_group": "crabapple", "scientific_name": "Malus sp.", "common_name": "Apple Species", "subtype_name": "Apple", "zip_code": null, "ownership": "public", "ownership_raw": "York Region", "city": "Richmond Hill", "source_dataset": "Street Trees", "source_department": "York Region", "source_last_edit_at": ""}}, {"type": "Feature", "geometry": {"type": "Point", "coordinates": [-79.45580494369361, 43.94857287826074]}, "properties": {"id": "richmond-hill-6071", "species_group": "crabapple", "scientific_name": "Malus sp.", "common_name": "Apple Species", "subtype_name": "Apple", "zip_code": null, "ownership": "public", "ownership_raw": "York Region", "city": "Richmond Hill", "source_dataset": "Street Trees", "source_department": "York Region", "source_last_edit_at": ""}}, {"type": "Feature", "geometry": {"type": "Point", "coordinates": [-79.43268642654765, 43.95497865453689]}, "properties": {"id": "richmond-hill-6178", "species_group": "cherry", "scientific_name": "Prunus sp.", "common_name": "Cherry Species", "subtype_name": null, "zip_code": null, "ownership": "public", "ownership_raw": "York Region", "city": "Richmond Hill", "source_dataset": "Street Trees", "source_department": "York Region", "source_last_edit_at": ""}}, {"type": "Feature", "geometry": {"type": "Point", "coordinates": [-79.43269579262186, 43.95503630520262]}, "properties": {"id": "richmond-hill-6179", "species_group": "cherry", "scientific_name": "Prunus sp.", "common_name": "Cherry Species", "subtype_name": null, "zip_code": null, "ownership": "public", "ownership_raw": "York Region", "city": "Richmond Hill", "source_dataset": "Street Trees", "source_department": "York Region", "source_last_edit_at": ""}}, {"type": "Feature", "geometry": {"type": "Point", "coordinates": [-79.43271669447155, 43.95538633382986]}, "properties": {"id": "richmond-hill-6180", "species_group": "cherry", "scientific_name": "Prunus sp.", "common_name": "Cherry Species", "subtype_name": null, "zip_code": null, "ownership": "public", "ownership_raw": "York Region", "city": "Richmond Hill", "source_dataset": "Street Trees", "source_department": "York Region", "source_last_edit_at": ""}}, {"type": "Feature", "geometry": {"type": "Point", "coordinates": [-79.43275960996566, 43.95544377669647]}, "properties": {"id": "richmond-hill-6181", "species_group": "cherry", "scientific_name": "Prunus sp.", "common_name": "Cherry Species", "subtype_name": null, "zip_code": null, "ownership": "public", "ownership_raw": "York Region", "city": "Richmond Hill", "source_dataset": "Street Trees", "source_department": "York Region", "source_last_edit_at": ""}}, {"type": "Feature", "geometry": {"type": "Point", "coordinates": [-79.43275826924292, 43.9554881867453]}, "properties": {"id": "richmond-hill-6189", "species_group": "cherry", "scientific_name": "Prunus sp.", "common_name": "Cherry Species", "subtype_name": null, "zip_code": null, "ownership": "public", "ownership_raw": "York Region", "city": "Richmond Hill", "source_dataset": "Street Trees", "source_department": "York Region", "source_last_edit_at": ""}}, {"type": "Feature", "geometry": {"type": "Point", "coordinates": [-79.43279984351352, 43.95566582620562]}, "properties": {"id": "richmond-hill-6190", "species_group": "cherry", "scientific_name": "Prunus sp.", "common_name": "Cherry Species", "subtype_name": null, "zip_code": null, "ownership": "public", "ownership_raw": "York Region", "city": "Richmond Hill", "source_dataset": "Street Trees", "source_department": "York Region", "source_last_edit_at": ""}}, {"type": "Feature", "geometry": {"type": "Point", "coordinates": [-79.43281057184053, 43.95574064712202]}, "properties": {"id": "richmond-hill-6191", "species_group": "cherry", "scientific_name": "Prunus sp.", "common_name": "Cherry Species", "subtype_name": null, "zip_code": null, "ownership": "public", "ownership_raw": "York Region", "city": "Richmond Hill", "source_dataset": "Street Trees", "source_department": "York Region", "source_last_edit_at": ""}}, {"type": "Feature", "geometry": {"type": "Point", "coordinates": [-79.43281057210723, 43.95580919311533]}, "properties": {"id": "richmond-hill-6192", "species_group": "cherry", "scientific_name": "Prunus sp.", "common_name": "Cherry Species", "subtype_name": null, "zip_code": null, "ownership": "public", "ownership_raw": "York Region", "city": "Richmond Hill", "source_dataset": "Street Trees", "source_department": "York Region", "source_last_edit_at": ""}}, {"type": "Feature", "geometry": {"type": "Point", "coordinates": [-79.43286957996933, 43.95604427423759]}, "properties": {"id": "richmond-hill-6194", "species_group": "cherry", "scientific_name": "Prunus sp.", "common_name": "Cherry Species", "subtype_name": null, "zip_code": null, "ownership": "public", "ownership_raw": "York Region", "city": "Richmond Hill", "source_dataset": "Street Trees", "source_department": "York Region", "source_last_edit_at": ""}}, {"type": "Feature", "geometry": {"type": "Point", "coordinates": [-79.43289774421234, 43.956120542586966]}, "properties": {"id": "richmond-hill-6195", "species_group": "cherry", "scientific_name": "Prunus sp.", "common_name": "Cherry Species", "subtype_name": null, "zip_code": null, "ownership": "public", "ownership_raw": "York Region", "city": "Richmond Hill", "source_dataset": "Street Trees", "source_department": "York Region", "source_last_edit_at": ""}}, {"type": "Feature", "geometry": {"type": "Point", "coordinates": [-79.43290512023519, 43.956168330554874]}, "properties": {"id": "richmond-hill-6196", "species_group": "cherry", "scientific_name": "Prunus sp.", "common_name": "Cherry Species", "subtype_name": null, "zip_code": null, "ownership": "public", "ownership_raw": "York Region", "city": "Richmond Hill", "source_dataset": "Street Trees", "source_department": "York Region", "source_last_edit_at": ""}}, {"type": "Feature", "geometry": {"type": "Point", "coordinates": [-79.43291757080866, 43.956231029422995]}, "properties": {"id": "richmond-hill-6197", "species_group": "cherry", "scientific_name": "Prunus sp.", "common_name": "Cherry Species", "subtype_name": null, "zip_code": null, "ownership": "public", "ownership_raw": "York Region", "city": "Richmond Hill", "source_dataset": "Street Trees", "source_department": "York Region", "source_last_edit_at": ""}}, {"type": "Feature", "geometry": {"type": "Point", "coordinates": [-79.43293742560994, 43.956433472499725]}, "properties": {"id": "richmond-hill-6198", "species_group": "cherry", "scientific_name": "Prunus sp.", "common_name": "Cherry Species", "subtype_name": null, "zip_code": null, "ownership": "public", "ownership_raw": "York Region", "city": "Richmond Hill", "source_dataset": "Street Trees", "source_department": "York Region", "source_last_edit_at": ""}}, {"type": "Feature", "geometry": {"type": "Point", "coordinates": [-79.43296522673894, 43.956483072123646]}, "properties": {"id": "richmond-hill-6199", "species_group": "cherry", "scientific_name": "Prunus sp.", "common_name": "Cherry Species", "subtype_name": null, "zip_code": null, "ownership": "public", "ownership_raw": "York Region", "city": "Richmond Hill", "source_dataset": "Street Trees", "source_department": "York Region", "source_last_edit_at": ""}}, {"type": "Feature", "geometry": {"type": "Point", "coordinates": [-79.43298477698262, 43.95651128880932]}, "properties": {"id": "richmond-hill-6200", "species_group": "cherry", "scientific_name": "Prunus sp.", "common_name": "Cherry Species", "subtype_name": null, "zip_code": null, "ownership": "public", "ownership_raw": "York Region", "city": "Richmond Hill", "source_dataset": "Street Trees", "source_department": "York Region", "source_last_edit_at": ""}}, {"type": "Feature", "geometry": {"type": "Point", "coordinates": [-79.43302244373317, 43.95665802153276]}, "properties": {"id": "richmond-hill-6201", "species_group": "cherry", "scientific_name": "Prunus sp.", "common_name": "Cherry Species", "subtype_name": null, "zip_code": null, "ownership": "public", "ownership_raw": "York Region", "city": "Richmond Hill", "source_dataset": "Street Trees", "source_department": "York Region", "source_last_edit_at": ""}}, {"type": "Feature", "geometry": {"type": "Point", "coordinates": [-79.46081709502822, 43.86641109414038]}, "properties": {"id": "richmond-hill-6226", "species_group": "crabapple", "scientific_name": "Malus sp.", "common_name": "Apple Species", "subtype_name": "Apple", "zip_code": null, "ownership": "public", "ownership_raw": "York Region", "city": "Richmond Hill", "source_dataset": "Street Trees", "source_department": "York Region", "source_last_edit_at": ""}}, {"type": "Feature", "geometry": {"type": "Point", "coordinates": [-79.46087060967542, 43.866401535660835]}, "properties": {"id": "richmond-hill-6228", "species_group": "crabapple", "scientific_name": "Malus sp.", "common_name": "Apple Species", "subtype_name": "Apple", "zip_code": null, "ownership": "public", "ownership_raw": "York Region", "city": "Richmond Hill", "source_dataset": "Street Trees", "source_department": "York Region", "source_last_edit_at": ""}}, {"type": "Feature", "geometry": {"type": "Point", "coordinates": [-79.46084512775666, 43.8664044363796]}, "properties": {"id": "richmond-hill-6229", "species_group": "crabapple", "scientific_name": "Malus sp.", "common_name": "Apple Species", "subtype_name": "Apple", "zip_code": null, "ownership": "public", "ownership_raw": "York Region", "city": "Richmond Hill", "source_dataset": "Street Trees", "source_department": "York Region", "source_last_edit_at": ""}}, {"type": "Feature", "geometry": {"type": "Point", "coordinates": [-79.46078611939768, 43.86641469424479]}, "properties": {"id": "richmond-hill-6230", "species_group": "crabapple", "scientific_name": "Malus sp.", "common_name": "Apple Species", "subtype_name": "Apple", "zip_code": null, "ownership": "public", "ownership_raw": "York Region", "city": "Richmond Hill", "source_dataset": "Street Trees", "source_department": "York Region", "source_last_edit_at": ""}}, {"type": "Feature", "geometry": {"type": "Point", "coordinates": [-79.46075293719161, 43.86641713826439]}, "properties": {"id": "richmond-hill-6232", "species_group": "crabapple", "scientific_name": "Malus sp.", "common_name": "Apple Species", "subtype_name": "Apple", "zip_code": null, "ownership": "public", "ownership_raw": "York Region", "city": "Richmond Hill", "source_dataset": "Street Trees", "source_department": "York Region", "source_last_edit_at": ""}}, {"type": "Feature", "geometry": {"type": "Point", "coordinates": [-79.4330319772834, 43.95671083869901]}, "properties": {"id": "richmond-hill-6234", "species_group": "cherry", "scientific_name": "Prunus sp.", "common_name": "Cherry Species", "subtype_name": null, "zip_code": null, "ownership": "public", "ownership_raw": "York Region", "city": "Richmond Hill", "source_dataset": "Street Trees", "source_department": "York Region", "source_last_edit_at": ""}}, {"type": "Feature", "geometry": {"type": "Point", "coordinates": [-79.4564990205518, 43.8673161437609]}, "properties": {"id": "richmond-hill-6248", "species_group": "crabapple", "scientific_name": "Malus sp.", "common_name": "Apple Species", "subtype_name": "Apple", "zip_code": null, "ownership": "public", "ownership_raw": "York Region", "city": "Richmond Hill", "source_dataset": "Street Trees", "source_department": "York Region", "source_last_edit_at": ""}}, {"type": "Feature", "geometry": {"type": "Point", "coordinates": [-79.45644027051523, 43.867326117453125]}, "properties": {"id": "richmond-hill-6249", "species_group": "crabapple", "scientific_name": "Malus sp.", "common_name": "Apple Species", "subtype_name": "Apple", "zip_code": null, "ownership": "public", "ownership_raw": "York Region", "city": "Richmond Hill", "source_dataset": "Street Trees", "source_department": "York Region", "source_last_edit_at": ""}}, {"type": "Feature", "geometry": {"type": "Point", "coordinates": [-79.45638209473279, 43.86733823902606]}, "properties": {"id": "richmond-hill-6250", "species_group": "crabapple", "scientific_name": "Malus sp.", "common_name": "Apple Species", "subtype_name": "Apple", "zip_code": null, "ownership": "public", "ownership_raw": "York Region", "city": "Richmond Hill", "source_dataset": "Street Trees", "source_department": "York Region", "source_last_edit_at": ""}}, {"type": "Feature", "geometry": {"type": "Point", "coordinates": [-79.45653519227889, 43.86730272277496]}, "properties": {"id": "richmond-hill-6282", "species_group": "crabapple", "scientific_name": "Malus sp.", "common_name": "Apple Species", "subtype_name": "Apple", "zip_code": null, "ownership": "public", "ownership_raw": "York Region", "city": "Richmond Hill", "source_dataset": "Street Trees", "source_department": "York Region", "source_last_edit_at": ""}}, {"type": "Feature", "geometry": {"type": "Point", "coordinates": [-79.43254804796017, 43.954580710215794]}, "properties": {"id": "richmond-hill-6385", "species_group": "cherry", "scientific_name": "Prunus sp.", "common_name": "Cherry Species", "subtype_name": null, "zip_code": null, "ownership": "public", "ownership_raw": "York Region", "city": "Richmond Hill", "source_dataset": "Street Trees", "source_department": "York Region", "source_last_edit_at": ""}}, {"type": "Feature", "geometry": {"type": "Point", "coordinates": [-79.43256370800879, 43.95465119794576]}, "properties": {"id": "richmond-hill-6386", "species_group": "cherry", "scientific_name": "Prunus sp.", "common_name": "Cherry Species", "subtype_name": null, "zip_code": null, "ownership": "public", "ownership_raw": "York Region", "city": "Richmond Hill", "source_dataset": "Street Trees", "source_department": "York Region", "source_last_edit_at": ""}}, {"type": "Feature", "geometry": {"type": "Point", "coordinates": [-79.43258373124581, 43.95471169137958]}, "properties": {"id": "richmond-hill-6387", "species_group": "cherry", "scientific_name": "Prunus sp.", "common_name": "Cherry Species", "subtype_name": null, "zip_code": null, "ownership": "public", "ownership_raw": "York Region", "city": "Richmond Hill", "source_dataset": "Street Trees", "source_department": "York Region", "source_last_edit_at": ""}}, {"type": "Feature", "geometry": {"type": "Point", "coordinates": [-79.43259146531878, 43.954769785143164]}, "properties": {"id": "richmond-hill-6388", "species_group": "cherry", "scientific_name": "Prunus sp.", "common_name": "Cherry Species", "subtype_name": null, "zip_code": null, "ownership": "public", "ownership_raw": "York Region", "city": "Richmond Hill", "source_dataset": "Street Trees", "source_department": "York Region", "source_last_edit_at": ""}}, {"type": "Feature", "geometry": {"type": "Point", "coordinates": [-79.43457239453666, 43.96403952381651]}, "properties": {"id": "richmond-hill-6460", "species_group": "cherry", "scientific_name": "Prunus sp.", "common_name": "Cherry Species", "subtype_name": null, "zip_code": null, "ownership": "public", "ownership_raw": "York Region", "city": "Richmond Hill", "source_dataset": "Street Trees", "source_department": "York Region", "source_last_edit_at": ""}}, {"type": "Feature", "geometry": {"type": "Point", "coordinates": [-79.43452514430058, 43.96383484034297]}, "properties": {"id": "richmond-hill-6461", "species_group": "cherry", "scientific_name": "Prunus sp.", "common_name": "Cherry Species", "subtype_name": null, "zip_code": null, "ownership": "public", "ownership_raw": "York Region", "city": "Richmond Hill", "source_dataset": "Street Trees", "source_department": "York Region", "source_last_edit_at": ""}}, {"type": "Feature", "geometry": {"type": "Point", "coordinates": [-79.45163752348235, 43.849294585196795]}, "properties": {"id": "richmond-hill-6477", "species_group": "crabapple", "scientific_name": "Malus sp.", "common_name": "Apple Species", "subtype_name": "Apple", "zip_code": null, "ownership": "public", "ownership_raw": "York Region", "city": "Richmond Hill", "source_dataset": "Street Trees", "source_department": "York Region", "source_last_edit_at": ""}}, {"type": "Feature", "geometry": {"type": "Point", "coordinates": [-79.43303980972772, 43.95677455551866]}, "properties": {"id": "richmond-hill-6485", "species_group": "cherry", "scientific_name": "Prunus sp.", "common_name": "Cherry Species", "subtype_name": null, "zip_code": null, "ownership": "public", "ownership_raw": "York Region", "city": "Richmond Hill", "source_dataset": "Street Trees", "source_department": "York Region", "source_last_edit_at": ""}}, {"type": "Feature", "geometry": {"type": "Point", "coordinates": [-79.43311291878186, 43.9570481683933]}, "properties": {"id": "richmond-hill-6486", "species_group": "cherry", "scientific_name": "Prunus sp.", "common_name": "Cherry Species", "subtype_name": null, "zip_code": null, "ownership": "public", "ownership_raw": "York Region", "city": "Richmond Hill", "source_dataset": "Street Trees", "source_department": "York Region", "source_last_edit_at": ""}}, {"type": "Feature", "geometry": {"type": "Point", "coordinates": [-79.43312118222485, 43.95708619796668]}, "properties": {"id": "richmond-hill-6487", "species_group": "cherry", "scientific_name": "Prunus sp.", "common_name": "Cherry Species", "subtype_name": null, "zip_code": null, "ownership": "public", "ownership_raw": "York Region", "city": "Richmond Hill", "source_dataset": "Street Trees", "source_department": "York Region", "source_last_edit_at": ""}}, {"type": "Feature", "geometry": {"type": "Point", "coordinates": [-79.4331305895829, 43.95715847435009]}, "properties": {"id": "richmond-hill-6488", "species_group": "cherry", "scientific_name": "Prunus sp.", "common_name": "Cherry Species", "subtype_name": null, "zip_code": null, "ownership": "public", "ownership_raw": "York Region", "city": "Richmond Hill", "source_dataset": "Street Trees", "source_department": "York Region", "source_last_edit_at": ""}}, {"type": "Feature", "geometry": {"type": "Point", "coordinates": [-79.43314817137015, 43.957194400671966]}, "properties": {"id": "richmond-hill-6489", "species_group": "cherry", "scientific_name": "Prunus sp.", "common_name": "Cherry Species", "subtype_name": null, "zip_code": null, "ownership": "public", "ownership_raw": "York Region", "city": "Richmond Hill", "source_dataset": "Street Trees", "source_department": "York Region", "source_last_edit_at": ""}}, {"type": "Feature", "geometry": {"type": "Point", "coordinates": [-79.4331680176836, 43.957261582918086]}, "properties": {"id": "richmond-hill-6490", "species_group": "cherry", "scientific_name": "Prunus sp.", "common_name": "Cherry Species", "subtype_name": null, "zip_code": null, "ownership": "public", "ownership_raw": "York Region", "city": "Richmond Hill", "source_dataset": "Street Trees", "source_department": "York Region", "source_last_edit_at": ""}}, {"type": "Feature", "geometry": {"type": "Point", "coordinates": [-79.45641621909229, 43.867330901151256]}, "properties": {"id": "richmond-hill-6504", "species_group": "crabapple", "scientific_name": "Malus sp.", "common_name": "Apple Species", "subtype_name": "Apple", "zip_code": null, "ownership": "public", "ownership_raw": "York Region", "city": "Richmond Hill", "source_dataset": "Street Trees", "source_department": "York Region", "source_last_edit_at": ""}}, {"type": "Feature", "geometry": {"type": "Point", "coordinates": [-79.43292889325176, 43.95628192999608]}, "properties": {"id": "richmond-hill-6505", "species_group": "cherry", "scientific_name": "Prunus sp.", "common_name": "Cherry Species", "subtype_name": null, "zip_code": null, "ownership": "public", "ownership_raw": "York Region", "city": "Richmond Hill", "source_dataset": "Street Trees", "source_department": "York Region", "source_last_edit_at": ""}}, {"type": "Feature", "geometry": {"type": "Point", "coordinates": [-79.44562706192467, 43.86954366840759]}, "properties": {"id": "richmond-hill-67845", "species_group": "crabapple", "scientific_name": "Malus 'Hargozam'", "common_name": "Harvest Gold Crabapple", "subtype_name": "Harvest Gold Crabapple", "zip_code": null, "ownership": "public", "ownership_raw": "York Region", "city": "Richmond Hill", "source_dataset": "Street Trees", "source_department": "York Region", "source_last_edit_at": ""}}, {"type": "Feature", "geometry": {"type": "Point", "coordinates": [-79.38991485967354, 43.87483583422441]}, "properties": {"id": "richmond-hill-67868", "species_group": "cherry", "scientific_name": "Prunus sargentii", "common_name": "Sargent cherry", "subtype_name": "Sargent", "zip_code": null, "ownership": "public", "ownership_raw": "York Region", "city": "Richmond Hill", "source_dataset": "Street Trees", "source_department": "York Region", "source_last_edit_at": ""}}, {"type": "Feature", "geometry": {"type": "Point", "coordinates": [-79.39448892158256, 43.86082599057242]}, "properties": {"id": "richmond-hill-8086", "species_group": "crabapple", "scientific_name": "Malus sp.", "common_name": "Apple Species", "subtype_name": "Apple", "zip_code": null, "ownership": "public", "ownership_raw": "York Region", "city": "Richmond Hill", "source_dataset": "Street Trees", "source_department": "York Region", "source_last_edit_at": ""}}, {"type": "Feature", "geometry": {"type": "Point", "coordinates": [-79.45868073422785, 43.866825672860664]}, "properties": {"id": "richmond-hill-8745", "species_group": "crabapple", "scientific_name": "Malus sp.", "common_name": "Apple Species", "subtype_name": "Apple", "zip_code": null, "ownership": "public", "ownership_raw": "York Region", "city": "Richmond Hill", "source_dataset": "Street Trees", "source_department": "York Region", "source_last_edit_at": ""}}, {"type": "Feature", "geometry": {"type": "Point", "coordinates": [-79.45879927283406, 43.86679843793742]}, "properties": {"id": "richmond-hill-8746", "species_group": "crabapple", "scientific_name": "Malus sp.", "common_name": "Apple Species", "subtype_name": "Apple", "zip_code": null, "ownership": "public", "ownership_raw": "York Region", "city": "Richmond Hill", "source_dataset": "Street Trees", "source_department": "York Region", "source_last_edit_at": ""}}, {"type": "Feature", "geometry": {"type": "Point", "coordinates": [-79.4458371389395, 43.869522239991234]}, "properties": {"id": "richmond-hill-9731", "species_group": "crabapple", "scientific_name": "Malus sp.", "common_name": "Apple Species", "subtype_name": "Apple", "zip_code": null, "ownership": "public", "ownership_raw": "York Region", "city": "Richmond Hill", "source_dataset": "Street Trees", "source_department": "York Region", "source_last_edit_at": ""}}, {"type": "Feature", "geometry": {"type": "Point", "coordinates": [-79.44607226971785, 43.86947590679961]}, "properties": {"id": "richmond-hill-9733", "species_group": "crabapple", "scientific_name": "Malus sp.", "common_name": "Apple Species", "subtype_name": "Apple", "zip_code": null, "ownership": "public", "ownership_raw": "York Region", "city": "Richmond Hill", "source_dataset": "Street Trees", "source_department": "York Region", "source_last_edit_at": ""}}, {"type": "Feature", "geometry": {"type": "Point", "coordinates": [-79.4457088904634, 43.86954185546825]}, "properties": {"id": "richmond-hill-9734", "species_group": "crabapple", "scientific_name": "Malus sp.", "common_name": "Apple Species", "subtype_name": "Apple", "zip_code": null, "ownership": "public", "ownership_raw": "York Region", "city": "Richmond Hill", "source_dataset": "Street Trees", "source_department": "York Region", "source_last_edit_at": ""}}, {"type": "Feature", "geometry": {"type": "Point", "coordinates": [-79.43191075386282, 43.89153036054396]}, "properties": {"id": "richmond-hill-9737", "species_group": "crabapple", "scientific_name": "Malus sp.", "common_name": "Apple Species", "subtype_name": "Apple", "zip_code": null, "ownership": "public", "ownership_raw": "York Region", "city": "Richmond Hill", "source_dataset": "Street Trees", "source_department": "York Region", "source_last_edit_at": ""}}, {"type": "Feature", "geometry": {"type": "Point", "coordinates": [-79.4320029540366, 43.89151027766256]}, "properties": {"id": "richmond-hill-9750", "species_group": "crabapple", "scientific_name": "Malus sp.", "common_name": "Apple Species", "subtype_name": "Apple", "zip_code": null, "ownership": "public", "ownership_raw": "York Region", "city": "Richmond Hill", "source_dataset": "Street Trees", "source_department": "York Region", "source_last_edit_at": ""}}]}