{"type": "FeatureCollection", "features": [{"type": "Feature", "geometry": {"type": "Point", "coordinates": [-122.60216719178969, 45.32177239533894]}, "properties": {"id": "oregon-city-729406", "species_group": "crabapple", "scientific_name": "Malus fusca", "common_name": "Western crabapple", "subtype_name": "Western crabapple", "zip_code": "97045", "ownership": "public", "ownership_raw": "Oregon Department of Forestry", "city": "Oregon City", "source_dataset": "Tree Inventory", "source_department": "Oregon Department of Forestry", "source_last_edit_at": ""}}, {"type": "Feature", "geometry": {"type": "Point", "coordinates": [-122.62689355004885, 45.32348285007182]}, "properties": {"id": "oregon-city-730155", "species_group": "crabapple", "scientific_name": "Malus", "common_name": "crabapple spp", "subtype_name": "crabapple spp", "zip_code": "97045", "ownership": "public", "ownership_raw": "Oregon Department of Forestry", "city": "Oregon City", "source_dataset": "Tree Inventory", "source_department": "Oregon Department of Forestry", "source_last_edit_at": ""}}, {"type": "Feature", "geometry": {"type": "Point", "coordinates": [-122.60433381177837, 45.360285706789384]}, "properties": {"id": "oregon-city-730362", "species_group": "cherry", "scientific_name": "Prunus serrulata", "common_name": "Japanese cherry spp", "subtype_name": "Japanese cherry spp", "zip_code": "97045", "ownership": "public", "ownership_raw": "Oregon Department of Forestry", "city": "Oregon City", "source_dataset": "Tree Inventory", "source_department": "Oregon Department of Forestry", "source_last_edit_at": ""}}, {"type": "Feature", "geometry": {"type": "Point", "coordinates": [-122.59267100107257, 45.37642120138598]}, "properties": {"id": "oregon-city-730526", "species_group": "crabapple", "scientific_name": "Malus", "common_name": "crabapple spp", "subtype_name": "crabapple spp", "zip_code": "97045", "ownership": "public", "ownership_raw": "Oregon Department of Forestry", "city": "Oregon City", "source_dataset": "Tree Inventory", "source_department": "Oregon Department of Forestry", "source_last_edit_at": ""}}, {"type": "Feature", "geometry": {"type": "Point", "coordinates": [-122.60443461341806, 45.360336376729585]}, "properties": {"id": "oregon-city-731654", "species_group": "cherry", "scientific_name": "Prunus serrulata", "common_name": "Japanese cherry spp", "subtype_name": "Japanese cherry spp", "zip_code": "97045", "ownership": "public", "ownership_raw": "Oregon Department of Forestry", "city": "Oregon City", "source_dataset": "Tree Inventory", "source_department": "Oregon Department of Forestry", "source_last_edit_at": ""}}, {"type": "Feature", "geometry": {"type": "Point", "coordinates": [-122.60437720787577, 45.36030745362063]}, "properties": {"id": "oregon-city-731655", "species_group": "cherry", "scientific_name": "Prunus serrulata", "common_name": "Japanese cherry spp", "subtype_name": "Japanese cherry spp", "zip_code": "97045", "ownership": "public", "ownership_raw": "Oregon Department of Forestry", "city": "Oregon City", "source_dataset": "Tree Inventory", "source_department": "Oregon Department of Forestry", "source_last_edit_at": ""}}, {"type": "Feature", "geometry": {"type": "Point", "coordinates": [-122.60458314562263, 45.360425042822534]}, "properties": {"id": "oregon-city-731668", "species_group": "cherry", "scientific_name": "Prunus serrulata", "common_name": "Japanese cherry spp", "subtype_name": "Japanese cherry spp", "zip_code": "97045", "ownership": "public", "ownership_raw": "Oregon Department of Forestry", "city": "Oregon City", "source_dataset": "Tree Inventory", "source_department": "Oregon Department of Forestry", "source_last_edit_at": ""}}, {"type": "Feature", "geometry": {"type": "Point", "coordinates": [-122.60452974796685, 45.360393251136934]}, "properties": {"id": "oregon-city-731669", "species_group": "cherry", "scientific_name": "Prunus serrulata", "common_name": "Japanese cherry spp", "subtype_name": "Japanese cherry spp", "zip_code": "97045", "ownership": "public", "ownership_raw": "Oregon Department of Forestry", "city": "Oregon City", "source_dataset": "Tree Inventory", "source_department": "Oregon Department of Forestry", "source_last_edit_at": ""}}, {"type": "Feature", "geometry": {"type": "Point", "coordinates": [-122.60448626520397, 45.36036563863963]}, "properties": {"id": "oregon-city-731713", "species_group": "cherry", "scientific_name": "Prunus serrulata", "common_name": "Japanese cherry spp", "subtype_name": "Japanese cherry spp", "zip_code": "97045", "ownership": "public", "ownership_raw": "Oregon Department of Forestry", "city": "Oregon City", "source_dataset": "Tree Inventory", "source_department": "Oregon Department of Forestry", "source_last_edit_at": ""}}, {"type": "Feature", "geometry": {"type": "Point", "coordinates": [-122.60437444710576, 45.360318885187894]}, "properties": {"id": "oregon-city-731748", "species_group": "cherry", "scientific_name": "Prunus serrulata", "common_name": "Japanese cherry spp", "subtype_name": "Japanese cherry spp", "zip_code": "97045", "ownership": "public", "ownership_raw": "Oregon Department of Forestry", "city": "Oregon City", "source_dataset": "Tree Inventory", "source_department": "Oregon Department of Forestry", "source_last_edit_at": ""}}, {"type": "Feature", "geometry": {"type": "Point", "coordinates": [-122.60433004405918, 45.36029601183238]}, "properties": {"id": "oregon-city-731749", "species_group": "cherry", "scientific_name": "Prunus serrulata", "common_name": "Japanese cherry spp", "subtype_name": "Japanese cherry spp", "zip_code": "97045", "ownership": "public", "ownership_raw": "Oregon Department of Forestry", "city": "Oregon City", "source_dataset": "Tree Inventory", "source_department": "Oregon Department of Forestry", "source_last_edit_at": ""}}, {"type": "Feature", "geometry": {"type": "Point", "coordinates": [-122.59331654839795, 45.375835664547864]}, "properties": {"id": "oregon-city-731976", "species_group": "crabapple", "scientific_name": "Malus", "common_name": "crabapple spp", "subtype_name": "crabapple spp", "zip_code": "97045", "ownership": "public", "ownership_raw": "Oregon Department of Forestry", "city": "Oregon City", "source_dataset": "Tree Inventory", "source_department": "Oregon Department of Forestry", "source_last_edit_at": ""}}, {"type": "Feature", "geometry": {"type": "Point", "coordinates": [-122.60452320831669, 45.360404181411205]}, "properties": {"id": "oregon-city-732730", "species_group": "cherry", "scientific_name": "Prunus serrulata", "common_name": "Japanese cherry spp", "subtype_name": "Japanese cherry spp", "zip_code": "97045", "ownership": "public", "ownership_raw": "Oregon Department of Forestry", "city": "Oregon City", "source_dataset": "Tree Inventory", "source_department": "Oregon Department of Forestry", "source_last_edit_at": ""}}, {"type": "Feature", "geometry": {"type": "Point", "coordinates": [-122.59355096375288, 45.375708725318574]}, "properties": {"id": "oregon-city-732812", "species_group": "crabapple", "scientific_name": "Malus", "common_name": "crabapple spp", "subtype_name": "crabapple spp", "zip_code": "97045", "ownership": "public", "ownership_raw": "Oregon Department of Forestry", "city": "Oregon City", "source_dataset": "Tree Inventory", "source_department": "Oregon Department of Forestry", "source_last_edit_at": ""}}, {"type": "Feature", "geometry": {"type": "Point", "coordinates": [-122.59234435140698, 45.37645567898601]}, "properties": {"id": "oregon-city-733037", "species_group": "crabapple", "scientific_name": "Malus", "common_name": "crabapple spp", "subtype_name": "crabapple spp", "zip_code": "97045", "ownership": "public", "ownership_raw": "Oregon Department of Forestry", "city": "Oregon City", "source_dataset": "Tree Inventory", "source_department": "Oregon Department of Forestry", "source_last_edit_at": ""}}, {"type": "Feature", "geometry": {"type": "Point", "coordinates": [-122.59247673756387, 45.3765144191187]}, "properties": {"id": "oregon-city-733043", "species_group": "crabapple", "scientific_name": "Malus", "common_name": "crabapple spp", "subtype_name": "crabapple spp", "zip_code": "97045", "ownership": "public", "ownership_raw": "Oregon Department of Forestry", "city": "Oregon City", "source_dataset": "Tree Inventory", "source_department": "Oregon Department of Forestry", "source_last_edit_at": ""}}, {"type": "Feature", "geometry": {"type": "Point", "coordinates": [-122.6044224443103, 45.360360408864224]}, "properties": {"id": "oregon-city-733562", "species_group": "cherry", "scientific_name": "Prunus serrulata", "common_name": "Japanese cherry spp", "subtype_name": "Japanese cherry spp", "zip_code": "97045", "ownership": "public", "ownership_raw": "Oregon Department of Forestry", "city": "Oregon City", "source_dataset": "Tree Inventory", "source_department": "Oregon Department of Forestry", "source_last_edit_at": ""}}, {"type": "Feature", "geometry": {"type": "Point", "coordinates": [-122.6043365812308, 45.360277481472245]}, "properties": {"id": "oregon-city-733845", "species_group": "cherry", "scientific_name": "Prunus serrulata", "common_name": "Japanese cherry spp", "subtype_name": "Japanese cherry spp", "zip_code": "97045", "ownership": "public", "ownership_raw": "Oregon Department of Forestry", "city": "Oregon City", "source_dataset": "Tree Inventory", "source_department": "Oregon Department of Forestry", "source_last_edit_at": ""}}, {"type": "Feature", "geometry": {"type": "Point", "coordinates": [-122.62718453322012, 45.32325875979412]}, "properties": {"id": "oregon-city-734327", "species_group": "crabapple", "scientific_name": "Malus domestica", "common_name": "apple (edible)", "subtype_name": "Apple", "zip_code": "97045", "ownership": "public", "ownership_raw": "Oregon Department of Forestry", "city": "Oregon City", "source_dataset": "Tree Inventory", "source_department": "Oregon Department of Forestry", "source_last_edit_at": ""}}, {"type": "Feature", "geometry": {"type": "Point", "coordinates": [-122.60228556674238, 45.321677115551225]}, "properties": {"id": "oregon-city-734378", "species_group": "crabapple", "scientific_name": "Malus fusca", "common_name": "Western crabapple", "subtype_name": "Western crabapple", "zip_code": "97045", "ownership": "public", "ownership_raw": "Oregon Department of Forestry", "city": "Oregon City", "source_dataset": "Tree Inventory", "source_department": "Oregon Department of Forestry", "source_last_edit_at": ""}}, {"type": "Feature", "geometry": {"type": "Point", "coordinates": [-122.6020284049076, 45.32168592210573]}, "properties": {"id": "oregon-city-735012", "species_group": "crabapple", "scientific_name": "Malus fusca", "common_name": "Western crabapple", "subtype_name": "Western crabapple", "zip_code": "97045", "ownership": "public", "ownership_raw": "Oregon Department of Forestry", "city": "Oregon City", "source_dataset": "Tree Inventory", "source_department": "Oregon Department of Forestry", "source_last_edit_at": ""}}, {"type": "Feature", "geometry": {"type": "Point", "coordinates": [-122.59249813106236, 45.3764482940432]}, "properties": {"id": "oregon-city-735039", "species_group": "crabapple", "scientific_name": "Malus", "common_name": "crabapple spp", "subtype_name": "crabapple spp", "zip_code": "97045", "ownership": "public", "ownership_raw": "Oregon Department of Forestry", "city": "Oregon City", "source_dataset": "Tree Inventory", "source_department": "Oregon Department of Forestry", "source_last_edit_at": ""}}, {"type": "Feature", "geometry": {"type": "Point", "coordinates": [-122.59269688563184, 45.376449666316674]}, "properties": {"id": "oregon-city-735788", "species_group": "crabapple", "scientific_name": "Malus", "common_name": "crabapple spp", "subtype_name": "crabapple spp", "zip_code": "97045", "ownership": "public", "ownership_raw": "Oregon Department of Forestry", "city": "Oregon City", "source_dataset": "Tree Inventory", "source_department": "Oregon Department of Forestry", "source_last_edit_at": ""}}, {"type": "Feature", "geometry": {"type": "Point", "coordinates": [-122.6268073766566, 45.32376604843538]}, "properties": {"id": "oregon-city-736386", "species_group": "crabapple", "scientific_name": "Malus domestica", "common_name": "apple (edible)", "subtype_name": "Apple", "zip_code": "97045", "ownership": "public", "ownership_raw": "Oregon Department of Forestry", "city": "Oregon City", "source_dataset": "Tree Inventory", "source_department": "Oregon Department of Forestry", "source_last_edit_at": ""}}, {"type": "Feature", "geometry": {"type": "Point", "coordinates": [-122.59272305826663, 45.37641703544767]}, "properties": {"id": "oregon-city-736552", "species_group": "crabapple", "scientific_name": "Malus", "common_name": "crabapple spp", "subtype_name": "crabapple spp", "zip_code": "97045", "ownership": "public", "ownership_raw": "Oregon Department of Forestry", "city": "Oregon City", "source_dataset": "Tree Inventory", "source_department": "Oregon Department of Forestry", "source_last_edit_at": ""}}, {"type": "Feature", "geometry": {"type": "Point", "coordinates": [-122.60442659306145, 45.360349220053074]}, "properties": {"id": "oregon-city-739042", "species_group": "cherry", "scientific_name": "Prunus serrulata", "common_name": "Japanese cherry spp", "subtype_name": "Japanese cherry spp", "zip_code": "97045", "ownership": "public", "ownership_raw": "Oregon Department of Forestry", "city": "Oregon City", "source_dataset": "Tree Inventory", "source_department": "Oregon Department of Forestry", "source_last_edit_at": ""}}, {"type": "Feature", "geometry": {"type": "Point", "coordinates": [-122.60437234899754, 45.36032945212214]}, "properties": {"id": "oregon-city-741907", "species_group": "cherry", "scientific_name": "Prunus serrulata", "common_name": "Japanese cherry spp", "subtype_name": "Japanese cherry spp", "zip_code": "97045", "ownership": "public", "ownership_raw": "Oregon Department of Forestry", "city": "Oregon City", "source_dataset": "Tree Inventory", "source_department": "Oregon Department of Forestry", "source_last_edit_at": ""}}, {"type": "Feature", "geometry": {"type": "Point", "coordinates": [-122.60447866343947, 45.36037750839486]}, "properties": {"id": "oregon-city-743271", "species_group": "cherry", "scientific_name": "Prunus serrulata", "common_name": "Japanese cherry spp", "subtype_name": "Japanese cherry spp", "zip_code": "97045", "ownership": "public", "ownership_raw": "Oregon Department of Forestry", "city": "Oregon City", "source_dataset": "Tree Inventory", "source_department": "Oregon Department of Forestry", "source_last_edit_at": ""}}, {"type": "Feature", "geometry": {"type": "Point", "coordinates": [-122.60214221741366, 45.32158093588989]}, "properties": {"id": "oregon-city-744920", "species_group": "crabapple", "scientific_name": "Malus fusca", "common_name": "Western crabapple", "subtype_name": "Western crabapple", "zip_code": "97045", "ownership": "public", "ownership_raw": "Oregon Department of Forestry", "city": "Oregon City", "source_dataset": "Tree Inventory", "source_department": "Oregon Department of Forestry", "source_last_edit_at": ""}}, {"type": "Feature", "geometry": {"type": "Point", "coordinates": [-122.59246985265081, 45.37647881911417]}, "properties": {"id": "oregon-city-746599", "species_group": "crabapple", "scientific_name": "Malus", "common_name": "crabapple spp", "subtype_name": "crabapple spp", "zip_code": "97045", "ownership": "public", "ownership_raw": "Oregon Department of Forestry", "city": "Oregon City", "source_dataset": "Tree Inventory", "source_department": "Oregon Department of Forestry", "source_last_edit_at": ""}}, {"type": "Feature", "geometry": {"type": "Point", "coordinates": [-122.59336688448766, 45.37584903523907]}, "properties": {"id": "oregon-city-746625", "species_group": "crabapple", "scientific_name": "Malus", "common_name": "crabapple spp", "subtype_name": "crabapple spp", "zip_code": "97045", "ownership": "public", "ownership_raw": "Oregon Department of Forestry", "city": "Oregon City", "source_dataset": "Tree Inventory", "source_department": "Oregon Department of Forestry", "source_last_edit_at": ""}}, {"type": "Feature", "geometry": {"type": "Point", "coordinates": [-122.59252137697291, 45.37647394916774]}, "properties": {"id": "oregon-city-748593", "species_group": "crabapple", "scientific_name": "Malus", "common_name": "crabapple spp", "subtype_name": "crabapple spp", "zip_code": "97045", "ownership": "public", "ownership_raw": "Oregon Department of Forestry", "city": "Oregon City", "source_dataset": "Tree Inventory", "source_department": "Oregon Department of Forestry", "source_last_edit_at": ""}}, {"type": "Feature", "geometry": {"type": "Point", "coordinates": [-122.59261246408316, 45.376428343636285]}, "properties": {"id": "oregon-city-748594", "species_group": "crabapple", "scientific_name": "Malus", "common_name": "crabapple spp", "subtype_name": "crabapple spp", "zip_code": "97045", "ownership": "public", "ownership_raw": "Oregon Department of Forestry", "city": "Oregon City", "source_dataset": "Tree Inventory", "source_department": "Oregon Department of Forestry", "source_last_edit_at": ""}}]}