{"type": "FeatureCollection", "features": [{"type": "Feature", "geometry": {"type": "Point", "coordinates": [-111.83095525699997, 33.415734319000016]}, "properties": {"id": "mesa-14601", "species_group": "plum", "scientific_name": "Prunus cerasifera", "common_name": "Purple-Leaf Plum", "subtype_name": "Purpleleaf Plum", "zip_code": "85201", "ownership": "public", "ownership_raw": "City of Mesa", "city": "Mesa", "source_dataset": "Mesa AZ iTree Inventory", "source_department": "City of Mesa", "source_last_edit_at": "2024-11-06T17:08:43.368000+00:00"}}, {"type": "Feature", "geometry": {"type": "Point", "coordinates": [-111.74054977599997, 33.45033459100006]}, "properties": {"id": "mesa-16031", "species_group": "plum", "scientific_name": "Prunus cerasifera", "common_name": "Purple-Leaf Plum", "subtype_name": "Purpleleaf Plum", "zip_code": "85205", "ownership": "public", "ownership_raw": "City of Mesa", "city": "Mesa", "source_dataset": "Mesa AZ iTree Inventory", "source_department": "City of Mesa", "source_last_edit_at": "2024-11-06T17:08:43.368000+00:00"}}, {"type": "Feature", "geometry": {"type": "Point", "coordinates": [-111.74590305699996, 33.47409355300004]}, "properties": {"id": "mesa-24859", "species_group": "plum", "scientific_name": "Prunus cerasifera", "common_name": "Purple-Leaf Plum", "subtype_name": "Purpleleaf Plum", "zip_code": "85215", "ownership": "public", "ownership_raw": "City of Mesa", "city": "Mesa", "source_dataset": "Mesa AZ iTree Inventory", "source_department": "City of Mesa", "source_last_edit_at": "2024-11-06T17:08:43.368000+00:00"}}, {"type": "Feature", "geometry": {"type": "Point", "coordinates": [-111.59494472399996, 33.42261899700003]}, "properties": {"id": "mesa-4040", "species_group": "plum", "scientific_name": "Prunus cerasifera 'purple pony'", "common_name": "Dwarf Purple Leaf Plum", "subtype_name": "Purpleleaf Plum", "zip_code": "85207", "ownership": "public", "ownership_raw": "City of Mesa", "city": "Mesa", "source_dataset": "Mesa AZ iTree Inventory", "source_department": "City of Mesa", "source_last_edit_at": "2024-11-06T17:08:43.368000+00:00"}}, {"type": "Feature", "geometry": {"type": "Point", "coordinates": [-111.82819570699996, 33.438409398000026]}, "properties": {"id": "mesa-4395", "species_group": "plum", "scientific_name": "Prunus blireiana", "common_name": "Flowering Plum", "subtype_name": "Flowering Plum", "zip_code": "85201", "ownership": "public", "ownership_raw": "City of Mesa", "city": "Mesa", "source_dataset": "Mesa AZ iTree Inventory", "source_department": "City of Mesa", "source_last_edit_at": "2024-11-06T17:08:43.368000+00:00"}}, {"type": "Feature", "geometry": {"type": "Point", "coordinates": [-111.59539753499996, 33.42337047900003]}, "properties": {"id": "mesa-7430", "species_group": "plum", "scientific_name": "Prunus cerasifera 'Atropurpurea'", "common_name": "Purple-Leaf Flowering Plum", "subtype_name": "Flowering Plum", "zip_code": "85207", "ownership": "public", "ownership_raw": "City of Mesa", "city": "Mesa", "source_dataset": "Mesa AZ iTree Inventory", "source_department": "City of Mesa", "source_last_edit_at": "2024-11-06T17:08:43.368000+00:00"}}, {"type": "Feature", "geometry": {"type": "Point", "coordinates": [-111.74088743299995, 33.42596786700004]}, "properties": {"id": "mesa-7431", "species_group": "plum", "scientific_name": "Prunus cerasifera", "common_name": "Purple-Leaf Plum", "subtype_name": "Purpleleaf Plum", "zip_code": "85205", "ownership": "public", "ownership_raw": "City of Mesa", "city": "Mesa", "source_dataset": "Mesa AZ iTree Inventory", "source_department": "City of Mesa", "source_last_edit_at": "2024-11-06T17:08:43.368000+00:00"}}, {"type": "Feature", "geometry": {"type": "Point", "coordinates": [-111.78929093199996, 33.46280868000002]}, "properties": {"id": "mesa-7432", "species_group": "plum", "scientific_name": "Prunus cerasifera", "common_name": "Purple-Leaf Plum", "subtype_name": "Purpleleaf Plum", "zip_code": "85203", "ownership": "public", "ownership_raw": "City of Mesa", "city": "Mesa", "source_dataset": "Mesa AZ iTree Inventory", "source_department": "City of Mesa", "source_last_edit_at": "2024-11-06T17:08:43.368000+00:00"}}, {"type": "Feature", "geometry": {"type": "Point", "coordinates": [-111.75526602699995, 33.42630072600007]}, "properties": {"id": "mesa-7433", "species_group": "plum", "scientific_name": "Prunus cerasifera", "common_name": "Purple-Leaf Plum", "subtype_name": "Purpleleaf Plum", "zip_code": "85213", "ownership": "public", "ownership_raw": "City of Mesa", "city": "Mesa", "source_dataset": "Mesa AZ iTree Inventory", "source_department": "City of Mesa", "source_last_edit_at": "2024-11-06T17:08:43.368000+00:00"}}, {"type": "Feature", "geometry": {"type": "Point", "coordinates": [-111.73987139299999, 33.425947184000044]}, "properties": {"id": "mesa-7434", "species_group": "plum", "scientific_name": "Prunus cerasifera", "common_name": "Purple-Leaf Plum", "subtype_name": "Purpleleaf Plum", "zip_code": "85205", "ownership": "public", "ownership_raw": "City of Mesa", "city": "Mesa", "source_dataset": "Mesa AZ iTree Inventory", "source_department": "City of Mesa", "source_last_edit_at": "2024-11-06T17:08:43.368000+00:00"}}, {"type": "Feature", "geometry": {"type": "Point", "coordinates": [-111.72923102799996, 33.42641253100004]}, "properties": {"id": "mesa-7435", "species_group": "plum", "scientific_name": "Prunus cerasifera", "common_name": "Purple-Leaf Plum", "subtype_name": "Purpleleaf Plum", "zip_code": "85205", "ownership": "public", "ownership_raw": "City of Mesa", "city": "Mesa", "source_dataset": "Mesa AZ iTree Inventory", "source_department": "City of Mesa", "source_last_edit_at": "2024-11-06T17:08:43.368000+00:00"}}, {"type": "Feature", "geometry": {"type": "Point", "coordinates": [-111.78932691399997, 33.46286918100002]}, "properties": {"id": "mesa-7436", "species_group": "plum", "scientific_name": "Prunus cerasifera", "common_name": "Purple-Leaf Plum", "subtype_name": "Purpleleaf Plum", "zip_code": "85203", "ownership": "public", "ownership_raw": "City of Mesa", "city": "Mesa", "source_dataset": "Mesa AZ iTree Inventory", "source_department": "City of Mesa", "source_last_edit_at": "2024-11-06T17:08:43.368000+00:00"}}, {"type": "Feature", "geometry": {"type": "Point", "coordinates": [-111.73771141599997, 33.425938590000044]}, "properties": {"id": "mesa-7437", "species_group": "plum", "scientific_name": "Prunus cerasifera", "common_name": "Purple-Leaf Plum", "subtype_name": "Purpleleaf Plum", "zip_code": "85205", "ownership": "public", "ownership_raw": "City of Mesa", "city": "Mesa", "source_dataset": "Mesa AZ iTree Inventory", "source_department": "City of Mesa", "source_last_edit_at": "2024-11-06T17:08:43.368000+00:00"}}, {"type": "Feature", "geometry": {"type": "Point", "coordinates": [-111.75690160999994, 33.426294599000066]}, "properties": {"id": "mesa-7438", "species_group": "plum", "scientific_name": "Prunus cerasifera", "common_name": "Purple-Leaf Plum", "subtype_name": "Purpleleaf Plum", "zip_code": "85213", "ownership": "public", "ownership_raw": "City of Mesa", "city": "Mesa", "source_dataset": "Mesa AZ iTree Inventory", "source_department": "City of Mesa", "source_last_edit_at": "2024-11-06T17:08:43.368000+00:00"}}, {"type": "Feature", "geometry": {"type": "Point", "coordinates": [-111.78981559099999, 33.46280372100006]}, "properties": {"id": "mesa-7439", "species_group": "plum", "scientific_name": "Prunus cerasifera", "common_name": "Purple-Leaf Plum", "subtype_name": "Purpleleaf Plum", "zip_code": "85203", "ownership": "public", "ownership_raw": "City of Mesa", "city": "Mesa", "source_dataset": "Mesa AZ iTree Inventory", "source_department": "City of Mesa", "source_last_edit_at": "2024-11-06T17:08:43.368000+00:00"}}, {"type": "Feature", "geometry": {"type": "Point", "coordinates": [-111.73928475599996, 33.42591336600003]}, "properties": {"id": "mesa-7440", "species_group": "plum", "scientific_name": "Prunus cerasifera", "common_name": "Purple-Leaf Plum", "subtype_name": "Purpleleaf Plum", "zip_code": "85205", "ownership": "public", "ownership_raw": "City of Mesa", "city": "Mesa", "source_dataset": "Mesa AZ iTree Inventory", "source_department": "City of Mesa", "source_last_edit_at": "2024-11-06T17:08:43.368000+00:00"}}, {"type": "Feature", "geometry": {"type": "Point", "coordinates": [-111.74197227299997, 33.426005129000025]}, "properties": {"id": "mesa-7441", "species_group": "plum", "scientific_name": "Prunus cerasifera", "common_name": "Purple-Leaf Plum", "subtype_name": "Purpleleaf Plum", "zip_code": "85205", "ownership": "public", "ownership_raw": "City of Mesa", "city": "Mesa", "source_dataset": "Mesa AZ iTree Inventory", "source_department": "City of Mesa", "source_last_edit_at": "2024-11-06T17:08:43.368000+00:00"}}, {"type": "Feature", "geometry": {"type": "Point", "coordinates": [-111.73667238699994, 33.425939835000065]}, "properties": {"id": "mesa-7442", "species_group": "plum", "scientific_name": "Prunus cerasifera", "common_name": "Purple-Leaf Plum", "subtype_name": "Purpleleaf Plum", "zip_code": "85205", "ownership": "public", "ownership_raw": "City of Mesa", "city": "Mesa", "source_dataset": "Mesa AZ iTree Inventory", "source_department": "City of Mesa", "source_last_edit_at": "2024-11-06T17:08:43.368000+00:00"}}, {"type": "Feature", "geometry": {"type": "Point", "coordinates": [-111.68145615799995, 33.42851610800005]}, "properties": {"id": "mesa-7443", "species_group": "plum", "scientific_name": "Prunus cerasifera", "common_name": "Purple-Leaf Plum", "subtype_name": "Purpleleaf Plum", "zip_code": "85207", "ownership": "public", "ownership_raw": "City of Mesa", "city": "Mesa", "source_dataset": "Mesa AZ iTree Inventory", "source_department": "City of Mesa", "source_last_edit_at": "2024-11-06T17:08:43.368000+00:00"}}, {"type": "Feature", "geometry": {"type": "Point", "coordinates": [-111.68145951699995, 33.428485882000075]}, "properties": {"id": "mesa-7444", "species_group": "plum", "scientific_name": "Prunus cerasifera", "common_name": "Purple-Leaf Plum", "subtype_name": "Purpleleaf Plum", "zip_code": "85207", "ownership": "public", "ownership_raw": "City of Mesa", "city": "Mesa", "source_dataset": "Mesa AZ iTree Inventory", "source_department": "City of Mesa", "source_last_edit_at": "2024-11-06T17:08:43.368000+00:00"}}, {"type": "Feature", "geometry": {"type": "Point", "coordinates": [-111.68145279099998, 33.428549082000075]}, "properties": {"id": "mesa-7445", "species_group": "plum", "scientific_name": "Prunus cerasifera", "common_name": "Purple-Leaf Plum", "subtype_name": "Purpleleaf Plum", "zip_code": "85207", "ownership": "public", "ownership_raw": "City of Mesa", "city": "Mesa", "source_dataset": "Mesa AZ iTree Inventory", "source_department": "City of Mesa", "source_last_edit_at": "2024-11-06T17:08:43.368000+00:00"}}, {"type": "Feature", "geometry": {"type": "Point", "coordinates": [-111.74639110999999, 33.47439654600003]}, "properties": {"id": "mesa-7446", "species_group": "plum", "scientific_name": "Prunus cerasifera", "common_name": "Purple-Leaf Plum", "subtype_name": "Purpleleaf Plum", "zip_code": "85215", "ownership": "public", "ownership_raw": "City of Mesa", "city": "Mesa", "source_dataset": "Mesa AZ iTree Inventory", "source_department": "City of Mesa", "source_last_edit_at": "2024-11-06T17:08:43.368000+00:00"}}, {"type": "Feature", "geometry": {"type": "Point", "coordinates": [-111.83063407299996, 33.415742342000044]}, "properties": {"id": "mesa-7447", "species_group": "plum", "scientific_name": "Prunus cerasifera", "common_name": "Purple-Leaf Plum", "subtype_name": "Purpleleaf Plum", "zip_code": "85201", "ownership": "public", "ownership_raw": "City of Mesa", "city": "Mesa", "source_dataset": "Mesa AZ iTree Inventory", "source_department": "City of Mesa", "source_last_edit_at": "2024-11-06T17:08:43.368000+00:00"}}, {"type": "Feature", "geometry": {"type": "Point", "coordinates": [-111.83274593999992, 33.42122409800004]}, "properties": {"id": "mesa-7448", "species_group": "plum", "scientific_name": "Prunus cerasifera", "common_name": "Purple-Leaf Plum", "subtype_name": "Purpleleaf Plum", "zip_code": "85201", "ownership": "public", "ownership_raw": "City of Mesa", "city": "Mesa", "source_dataset": "Mesa AZ iTree Inventory", "source_department": "City of Mesa", "source_last_edit_at": "2024-11-06T17:08:43.368000+00:00"}}, {"type": "Feature", "geometry": {"type": "Point", "coordinates": [-111.74640207199997, 33.47382215100003]}, "properties": {"id": "mesa-7449", "species_group": "plum", "scientific_name": "Prunus cerasifera", "common_name": "Purple-Leaf Plum", "subtype_name": "Purpleleaf Plum", "zip_code": "85215", "ownership": "public", "ownership_raw": "City of Mesa", "city": "Mesa", "source_dataset": "Mesa AZ iTree Inventory", "source_department": "City of Mesa", "source_last_edit_at": "2024-11-06T17:08:43.368000+00:00"}}]}