{"type": "FeatureCollection", "features": [{"type": "Feature", "geometry": {"type": "Point", "coordinates": [-93.24932714727989, 36.63450744911745]}, "properties": {"id": "branson-1135", "species_group": "crabapple", "scientific_name": "Malus spp.", "common_name": null, "subtype_name": "Malus spp.", "zip_code": "65616", "ownership": "public", "ownership_raw": "City of Branson", "city": "Branson", "source_dataset": "Trees", "source_department": "City of Branson", "source_last_edit_at": ""}}, {"type": "Feature", "geometry": {"type": "Point", "coordinates": [-93.23723052608001, 36.64968008303933]}, "properties": {"id": "branson-127", "species_group": "crabapple", "scientific_name": "Malus spp.", "common_name": null, "subtype_name": "Malus spp.", "zip_code": "65616", "ownership": "public", "ownership_raw": "City of Branson", "city": "Branson", "source_dataset": "Trees", "source_department": "City of Branson", "source_last_edit_at": ""}}, {"type": "Feature", "geometry": {"type": "Point", "coordinates": [-93.24649532701793, 36.63981724794953]}, "properties": {"id": "branson-130", "species_group": "crabapple", "scientific_name": "Malus spp.", "common_name": null, "subtype_name": "Malus spp.", "zip_code": "65616", "ownership": "public", "ownership_raw": "City of Branson", "city": "Branson", "source_dataset": "Trees", "source_department": "City of Branson", "source_last_edit_at": ""}}, {"type": "Feature", "geometry": {"type": "Point", "coordinates": [-93.23723052634558, 36.64962719762861]}, "properties": {"id": "branson-165", "species_group": "crabapple", "scientific_name": "Malus spp.", "common_name": null, "subtype_name": "Malus spp.", "zip_code": "65616", "ownership": "public", "ownership_raw": "City of Branson", "city": "Branson", "source_dataset": "Trees", "source_department": "City of Branson", "source_last_edit_at": ""}}, {"type": "Feature", "geometry": {"type": "Point", "coordinates": [-93.21825644277229, 36.63544926841863]}, "properties": {"id": "branson-1843", "species_group": "magnolia", "scientific_name": "Magnolia x soulangiana", "common_name": null, "subtype_name": "Saucer Magnolia", "zip_code": "65616", "ownership": "public", "ownership_raw": "City of Branson", "city": "Branson", "source_dataset": "Trees", "source_department": "City of Branson", "source_last_edit_at": ""}}, {"type": "Feature", "geometry": {"type": "Point", "coordinates": [-93.2164715512676, 36.63634268443191]}, "properties": {"id": "branson-1885", "species_group": "magnolia", "scientific_name": "Magnolia x soulangiana", "common_name": null, "subtype_name": "Saucer Magnolia", "zip_code": "65616", "ownership": "public", "ownership_raw": "City of Branson", "city": "Branson", "source_dataset": "Trees", "source_department": "City of Branson", "source_last_edit_at": ""}}, {"type": "Feature", "geometry": {"type": "Point", "coordinates": [-93.21744671237482, 36.64163864791651]}, "properties": {"id": "branson-235", "species_group": "crabapple", "scientific_name": "Malus spp.", "common_name": null, "subtype_name": "Malus spp.", "zip_code": "65616", "ownership": "public", "ownership_raw": "City of Branson", "city": "Branson", "source_dataset": "Trees", "source_department": "City of Branson", "source_last_edit_at": ""}}, {"type": "Feature", "geometry": {"type": "Point", "coordinates": [-93.21763962847186, 36.6414769575133]}, "properties": {"id": "branson-240", "species_group": "magnolia", "scientific_name": "Magnolia grandiflora", "common_name": null, "subtype_name": "Southern Magnolia", "zip_code": "65616", "ownership": "public", "ownership_raw": "City of Branson", "city": "Branson", "source_dataset": "Trees", "source_department": "City of Branson", "source_last_edit_at": ""}}, {"type": "Feature", "geometry": {"type": "Point", "coordinates": [-93.21719696828194, 36.657990727763234]}, "properties": {"id": "branson-339", "species_group": "magnolia", "scientific_name": "Magnolia x soulangiana", "common_name": null, "subtype_name": "Saucer Magnolia", "zip_code": "65616", "ownership": "public", "ownership_raw": "City of Branson", "city": "Branson", "source_dataset": "Trees", "source_department": "City of Branson", "source_last_edit_at": ""}}, {"type": "Feature", "geometry": {"type": "Point", "coordinates": [-93.24662153487286, 36.639765755098935]}, "properties": {"id": "branson-497", "species_group": "crabapple", "scientific_name": "Malus spp.", "common_name": null, "subtype_name": "Malus spp.", "zip_code": "65616", "ownership": "public", "ownership_raw": "City of Branson", "city": "Branson", "source_dataset": "Trees", "source_department": "City of Branson", "source_last_edit_at": ""}}, {"type": "Feature", "geometry": {"type": "Point", "coordinates": [-93.2466757255891, 36.639750879493974]}, "properties": {"id": "branson-533", "species_group": "crabapple", "scientific_name": "Malus spp.", "common_name": null, "subtype_name": "Malus spp.", "zip_code": "65616", "ownership": "public", "ownership_raw": "City of Branson", "city": "Branson", "source_dataset": "Trees", "source_department": "City of Branson", "source_last_edit_at": ""}}, {"type": "Feature", "geometry": {"type": "Point", "coordinates": [-93.2467356199417, 36.63973085484409]}, "properties": {"id": "branson-569", "species_group": "crabapple", "scientific_name": "Malus spp.", "common_name": null, "subtype_name": "Malus spp.", "zip_code": "65616", "ownership": "public", "ownership_raw": "City of Branson", "city": "Branson", "source_dataset": "Trees", "source_department": "City of Branson", "source_last_edit_at": ""}}, {"type": "Feature", "geometry": {"type": "Point", "coordinates": [-93.24639978036181, 36.63993854283251]}, "properties": {"id": "branson-58", "species_group": "crabapple", "scientific_name": "Malus spp.", "common_name": null, "subtype_name": "Malus spp.", "zip_code": "65616", "ownership": "public", "ownership_raw": "City of Branson", "city": "Branson", "source_dataset": "Trees", "source_department": "City of Branson", "source_last_edit_at": ""}}, {"type": "Feature", "geometry": {"type": "Point", "coordinates": [-93.21484723420873, 36.64949624589769]}, "properties": {"id": "branson-664", "species_group": "crabapple", "scientific_name": "Malus spp.", "common_name": null, "subtype_name": "Malus spp.", "zip_code": "65616", "ownership": "public", "ownership_raw": "City of Branson", "city": "Branson", "source_dataset": "Trees", "source_department": "City of Branson", "source_last_edit_at": ""}}, {"type": "Feature", "geometry": {"type": "Point", "coordinates": [-93.21689680303491, 36.646750230845996]}, "properties": {"id": "branson-764", "species_group": "crabapple", "scientific_name": "Malus spp.", "common_name": null, "subtype_name": "Malus spp.", "zip_code": "65616", "ownership": "public", "ownership_raw": "City of Branson", "city": "Branson", "source_dataset": "Trees", "source_department": "City of Branson", "source_last_edit_at": ""}}, {"type": "Feature", "geometry": {"type": "Point", "coordinates": [-93.23711929193286, 36.649709830706854]}, "properties": {"id": "branson-89", "species_group": "crabapple", "scientific_name": "Malus spp.", "common_name": null, "subtype_name": "Malus spp.", "zip_code": "65616", "ownership": "public", "ownership_raw": "City of Branson", "city": "Branson", "source_dataset": "Trees", "source_department": "City of Branson", "source_last_edit_at": ""}}, {"type": "Feature", "geometry": {"type": "Point", "coordinates": [-93.24647179646635, 36.63992938803724]}, "properties": {"id": "branson-94", "species_group": "crabapple", "scientific_name": "Malus spp.", "common_name": null, "subtype_name": "Malus spp.", "zip_code": "65616", "ownership": "public", "ownership_raw": "City of Branson", "city": "Branson", "source_dataset": "Trees", "source_department": "City of Branson", "source_last_edit_at": ""}}]}