{"type": "FeatureCollection", "features": [{"type": "Feature", "geometry": {"type": "Point", "coordinates": [-112.08650544229822, 38.783107269204]}, "properties": {"id": "richfield-62856", "species_group": "plum", "scientific_name": "Prunus species", "common_name": "Plum-Flowering", "subtype_name": "Plum-Flowering", "zip_code": "84701", "ownership": "public", "ownership_raw": "City of Richfield", "city": "Richfield", "source_dataset": "Utah Urban Tree Inventory", "source_department": "City of Richfield", "source_last_edit_at": "2026-03-28T17:19:55.001000+00:00"}}, {"type": "Feature", "geometry": {"type": "Point", "coordinates": [-112.08649397214857, 38.783043863921485]}, "properties": {"id": "richfield-62857", "species_group": "plum", "scientific_name": "Prunus species", "common_name": "Plum-Flowering", "subtype_name": "Plum-Flowering", "zip_code": "84701", "ownership": "public", "ownership_raw": "City of Richfield", "city": "Richfield", "source_dataset": "Utah Urban Tree Inventory", "source_department": "City of Richfield", "source_last_edit_at": "2026-03-28T17:19:55.001000+00:00"}}, {"type": "Feature", "geometry": {"type": "Point", "coordinates": [-112.086538813388, 38.78298899324217]}, "properties": {"id": "richfield-62858", "species_group": "plum", "scientific_name": "Prunus species", "common_name": "Plum-Flowering", "subtype_name": "Plum-Flowering", "zip_code": "84701", "ownership": "public", "ownership_raw": "City of Richfield", "city": "Richfield", "source_dataset": "Utah Urban Tree Inventory", "source_department": "City of Richfield", "source_last_edit_at": "2026-03-28T17:19:55.001000+00:00"}}, {"type": "Feature", "geometry": {"type": "Point", "coordinates": [-112.0866453156596, 38.78282939787088]}, "properties": {"id": "richfield-62860", "species_group": "plum", "scientific_name": "Prunus species", "common_name": "Plum-Flowering", "subtype_name": "Plum-Flowering", "zip_code": "84701", "ownership": "public", "ownership_raw": "City of Richfield", "city": "Richfield", "source_dataset": "Utah Urban Tree Inventory", "source_department": "City of Richfield", "source_last_edit_at": "2026-03-28T17:19:55.001000+00:00"}}, {"type": "Feature", "geometry": {"type": "Point", "coordinates": [-112.0866232058376, 38.782771417243026]}, "properties": {"id": "richfield-62861", "species_group": "plum", "scientific_name": "Prunus species", "common_name": "Plum-Flowering", "subtype_name": "Plum-Flowering", "zip_code": "84701", "ownership": "public", "ownership_raw": "City of Richfield", "city": "Richfield", "source_dataset": "Utah Urban Tree Inventory", "source_department": "City of Richfield", "source_last_edit_at": "2026-03-28T17:19:55.001000+00:00"}}, {"type": "Feature", "geometry": {"type": "Point", "coordinates": [-112.08661701057024, 38.78271337963479]}, "properties": {"id": "richfield-62862", "species_group": "plum", "scientific_name": "Prunus species", "common_name": "Plum-Flowering", "subtype_name": "Plum-Flowering", "zip_code": "84701", "ownership": "public", "ownership_raw": "City of Richfield", "city": "Richfield", "source_dataset": "Utah Urban Tree Inventory", "source_department": "City of Richfield", "source_last_edit_at": "2026-03-28T17:19:55.001000+00:00"}}, {"type": "Feature", "geometry": {"type": "Point", "coordinates": [-112.0863549864626, 38.77889117682709]}, "properties": {"id": "richfield-62918", "species_group": "crabapple", "scientific_name": "Malus species", "common_name": "Crabapple", "subtype_name": null, "zip_code": "84701", "ownership": "public", "ownership_raw": "City of Richfield", "city": "Richfield", "source_dataset": "Utah Urban Tree Inventory", "source_department": "City of Richfield", "source_last_edit_at": "2026-03-28T17:19:55.001000+00:00"}}, {"type": "Feature", "geometry": {"type": "Point", "coordinates": [-112.08629593899576, 38.77888799054876]}, "properties": {"id": "richfield-62919", "species_group": "crabapple", "scientific_name": "Malus species", "common_name": "Crabapple", "subtype_name": null, "zip_code": "84701", "ownership": "public", "ownership_raw": "City of Richfield", "city": "Richfield", "source_dataset": "Utah Urban Tree Inventory", "source_department": "City of Richfield", "source_last_edit_at": "2026-03-28T17:19:55.001000+00:00"}}, {"type": "Feature", "geometry": {"type": "Point", "coordinates": [-112.08623022045371, 38.778888540178365]}, "properties": {"id": "richfield-62920", "species_group": "crabapple", "scientific_name": "Malus species", "common_name": "Crabapple", "subtype_name": null, "zip_code": "84701", "ownership": "public", "ownership_raw": "City of Richfield", "city": "Richfield", "source_dataset": "Utah Urban Tree Inventory", "source_department": "City of Richfield", "source_last_edit_at": "2026-03-28T17:19:55.001000+00:00"}}, {"type": "Feature", "geometry": {"type": "Point", "coordinates": [-112.08614213002484, 38.77888710795716]}, "properties": {"id": "richfield-62921", "species_group": "crabapple", "scientific_name": "Malus species", "common_name": "Crabapple", "subtype_name": null, "zip_code": "84701", "ownership": "public", "ownership_raw": "City of Richfield", "city": "Richfield", "source_dataset": "Utah Urban Tree Inventory", "source_department": "City of Richfield", "source_last_edit_at": "2026-03-28T17:19:55.001000+00:00"}}, {"type": "Feature", "geometry": {"type": "Point", "coordinates": [-112.08607613234524, 38.77888944344029]}, "properties": {"id": "richfield-62922", "species_group": "crabapple", "scientific_name": "Malus species", "common_name": "Crabapple", "subtype_name": null, "zip_code": "84701", "ownership": "public", "ownership_raw": "City of Richfield", "city": "Richfield", "source_dataset": "Utah Urban Tree Inventory", "source_department": "City of Richfield", "source_last_edit_at": "2026-03-28T17:19:55.001000+00:00"}}, {"type": "Feature", "geometry": {"type": "Point", "coordinates": [-112.0859249288783, 38.778886606115904]}, "properties": {"id": "richfield-62923", "species_group": "crabapple", "scientific_name": "Malus species", "common_name": "Crabapple", "subtype_name": null, "zip_code": "84701", "ownership": "public", "ownership_raw": "City of Richfield", "city": "Richfield", "source_dataset": "Utah Urban Tree Inventory", "source_department": "City of Richfield", "source_last_edit_at": "2026-03-28T17:19:55.001000+00:00"}}, {"type": "Feature", "geometry": {"type": "Point", "coordinates": [-112.08586464299273, 38.778886702247256]}, "properties": {"id": "richfield-62924", "species_group": "crabapple", "scientific_name": "Malus species", "common_name": "Crabapple", "subtype_name": null, "zip_code": "84701", "ownership": "public", "ownership_raw": "City of Richfield", "city": "Richfield", "source_dataset": "Utah Urban Tree Inventory", "source_department": "City of Richfield", "source_last_edit_at": "2026-03-28T17:19:55.001000+00:00"}}, {"type": "Feature", "geometry": {"type": "Point", "coordinates": [-112.08579593155643, 38.77888696765102]}, "properties": {"id": "richfield-62925", "species_group": "crabapple", "scientific_name": "Malus species", "common_name": "Crabapple", "subtype_name": null, "zip_code": "84701", "ownership": "public", "ownership_raw": "City of Richfield", "city": "Richfield", "source_dataset": "Utah Urban Tree Inventory", "source_department": "City of Richfield", "source_last_edit_at": "2026-03-28T17:19:55.001000+00:00"}}, {"type": "Feature", "geometry": {"type": "Point", "coordinates": [-112.08560058846845, 38.77889351083221]}, "properties": {"id": "richfield-62926", "species_group": "crabapple", "scientific_name": "Malus species", "common_name": "Crabapple", "subtype_name": null, "zip_code": "84701", "ownership": "public", "ownership_raw": "City of Richfield", "city": "Richfield", "source_dataset": "Utah Urban Tree Inventory", "source_department": "City of Richfield", "source_last_edit_at": "2026-03-28T17:19:55.001000+00:00"}}, {"type": "Feature", "geometry": {"type": "Point", "coordinates": [-112.08547895843188, 38.77895192767076]}, "properties": {"id": "richfield-62927", "species_group": "crabapple", "scientific_name": "Malus species", "common_name": "Crabapple", "subtype_name": null, "zip_code": "84701", "ownership": "public", "ownership_raw": "City of Richfield", "city": "Richfield", "source_dataset": "Utah Urban Tree Inventory", "source_department": "City of Richfield", "source_last_edit_at": "2026-03-28T17:19:55.001000+00:00"}}, {"type": "Feature", "geometry": {"type": "Point", "coordinates": [-112.08542873857733, 38.778992408147204]}, "properties": {"id": "richfield-62928", "species_group": "crabapple", "scientific_name": "Malus species", "common_name": "Crabapple", "subtype_name": null, "zip_code": "84701", "ownership": "public", "ownership_raw": "City of Richfield", "city": "Richfield", "source_dataset": "Utah Urban Tree Inventory", "source_department": "City of Richfield", "source_last_edit_at": "2026-03-28T17:19:55.001000+00:00"}}, {"type": "Feature", "geometry": {"type": "Point", "coordinates": [-112.08536506318353, 38.77903266484049]}, "properties": {"id": "richfield-62929", "species_group": "crabapple", "scientific_name": "Malus species", "common_name": "Crabapple", "subtype_name": null, "zip_code": "84701", "ownership": "public", "ownership_raw": "City of Richfield", "city": "Richfield", "source_dataset": "Utah Urban Tree Inventory", "source_department": "City of Richfield", "source_last_edit_at": "2026-03-28T17:19:55.001000+00:00"}}, {"type": "Feature", "geometry": {"type": "Point", "coordinates": [-112.08523602567837, 38.77911181415043]}, "properties": {"id": "richfield-62930", "species_group": "crabapple", "scientific_name": "Malus species", "common_name": "Crabapple", "subtype_name": null, "zip_code": "84701", "ownership": "public", "ownership_raw": "City of Richfield", "city": "Richfield", "source_dataset": "Utah Urban Tree Inventory", "source_department": "City of Richfield", "source_last_edit_at": "2026-03-28T17:19:55.001000+00:00"}}, {"type": "Feature", "geometry": {"type": "Point", "coordinates": [-112.08533013290317, 38.77889240953715]}, "properties": {"id": "richfield-62931", "species_group": "crabapple", "scientific_name": "Malus species", "common_name": "Crabapple", "subtype_name": null, "zip_code": "84701", "ownership": "public", "ownership_raw": "City of Richfield", "city": "Richfield", "source_dataset": "Utah Urban Tree Inventory", "source_department": "City of Richfield", "source_last_edit_at": "2026-03-28T17:19:55.001000+00:00"}}, {"type": "Feature", "geometry": {"type": "Point", "coordinates": [-112.08537356415015, 38.77884951043122]}, "properties": {"id": "richfield-62932", "species_group": "crabapple", "scientific_name": "Malus species", "common_name": "Crabapple", "subtype_name": null, "zip_code": "84701", "ownership": "public", "ownership_raw": "City of Richfield", "city": "Richfield", "source_dataset": "Utah Urban Tree Inventory", "source_department": "City of Richfield", "source_last_edit_at": "2026-03-28T17:19:55.001000+00:00"}}, {"type": "Feature", "geometry": {"type": "Point", "coordinates": [-112.08545029984532, 38.77881023000084]}, "properties": {"id": "richfield-62933", "species_group": "crabapple", "scientific_name": "Malus species", "common_name": "Crabapple", "subtype_name": null, "zip_code": "84701", "ownership": "public", "ownership_raw": "City of Richfield", "city": "Richfield", "source_dataset": "Utah Urban Tree Inventory", "source_department": "City of Richfield", "source_last_edit_at": "2026-03-28T17:19:55.001000+00:00"}}, {"type": "Feature", "geometry": {"type": "Point", "coordinates": [-112.08551019870964, 38.77878688840017]}, "properties": {"id": "richfield-62934", "species_group": "crabapple", "scientific_name": "Malus species", "common_name": "Crabapple", "subtype_name": null, "zip_code": "84701", "ownership": "public", "ownership_raw": "City of Richfield", "city": "Richfield", "source_dataset": "Utah Urban Tree Inventory", "source_department": "City of Richfield", "source_last_edit_at": "2026-03-28T17:19:55.001000+00:00"}}, {"type": "Feature", "geometry": {"type": "Point", "coordinates": [-112.08558439987017, 38.77876177023171]}, "properties": {"id": "richfield-62935", "species_group": "crabapple", "scientific_name": "Malus species", "common_name": "Crabapple", "subtype_name": null, "zip_code": "84701", "ownership": "public", "ownership_raw": "City of Richfield", "city": "Richfield", "source_dataset": "Utah Urban Tree Inventory", "source_department": "City of Richfield", "source_last_edit_at": "2026-03-28T17:19:55.001000+00:00"}}, {"type": "Feature", "geometry": {"type": "Point", "coordinates": [-112.08573842529916, 38.77875644723466]}, "properties": {"id": "richfield-62936", "species_group": "crabapple", "scientific_name": "Malus species", "common_name": "Crabapple", "subtype_name": null, "zip_code": "84701", "ownership": "public", "ownership_raw": "City of Richfield", "city": "Richfield", "source_dataset": "Utah Urban Tree Inventory", "source_department": "City of Richfield", "source_last_edit_at": "2026-03-28T17:19:55.001000+00:00"}}, {"type": "Feature", "geometry": {"type": "Point", "coordinates": [-112.08589590327539, 38.77876152709251]}, "properties": {"id": "richfield-62937", "species_group": "crabapple", "scientific_name": "Malus species", "common_name": "Crabapple", "subtype_name": null, "zip_code": "84701", "ownership": "public", "ownership_raw": "City of Richfield", "city": "Richfield", "source_dataset": "Utah Urban Tree Inventory", "source_department": "City of Richfield", "source_last_edit_at": "2026-03-28T17:19:55.001000+00:00"}}, {"type": "Feature", "geometry": {"type": "Point", "coordinates": [-112.08604301084695, 38.77876014195756]}, "properties": {"id": "richfield-62938", "species_group": "crabapple", "scientific_name": "Malus species", "common_name": "Crabapple", "subtype_name": null, "zip_code": "84701", "ownership": "public", "ownership_raw": "City of Richfield", "city": "Richfield", "source_dataset": "Utah Urban Tree Inventory", "source_department": "City of Richfield", "source_last_edit_at": "2026-03-28T17:19:55.001000+00:00"}}, {"type": "Feature", "geometry": {"type": "Point", "coordinates": [-112.0861069672895, 38.77875681979945]}, "properties": {"id": "richfield-62939", "species_group": "crabapple", "scientific_name": "Malus species", "common_name": "Crabapple", "subtype_name": null, "zip_code": "84701", "ownership": "public", "ownership_raw": "City of Richfield", "city": "Richfield", "source_dataset": "Utah Urban Tree Inventory", "source_department": "City of Richfield", "source_last_edit_at": "2026-03-28T17:19:55.001000+00:00"}}, {"type": "Feature", "geometry": {"type": "Point", "coordinates": [-112.08619325131981, 38.7787569639957]}, "properties": {"id": "richfield-62940", "species_group": "crabapple", "scientific_name": "Malus species", "common_name": "Crabapple", "subtype_name": null, "zip_code": "84701", "ownership": "public", "ownership_raw": "City of Richfield", "city": "Richfield", "source_dataset": "Utah Urban Tree Inventory", "source_department": "City of Richfield", "source_last_edit_at": "2026-03-28T17:19:55.001000+00:00"}}, {"type": "Feature", "geometry": {"type": "Point", "coordinates": [-112.08632743742491, 38.778754811892895]}, "properties": {"id": "richfield-62941", "species_group": "crabapple", "scientific_name": "Malus species", "common_name": "Crabapple", "subtype_name": null, "zip_code": "84701", "ownership": "public", "ownership_raw": "City of Richfield", "city": "Richfield", "source_dataset": "Utah Urban Tree Inventory", "source_department": "City of Richfield", "source_last_edit_at": "2026-03-28T17:19:55.001000+00:00"}}, {"type": "Feature", "geometry": {"type": "Point", "coordinates": [-112.08647888295573, 38.77876527365185]}, "properties": {"id": "richfield-62942", "species_group": "crabapple", "scientific_name": "Malus species", "common_name": "Crabapple", "subtype_name": null, "zip_code": "84701", "ownership": "public", "ownership_raw": "City of Richfield", "city": "Richfield", "source_dataset": "Utah Urban Tree Inventory", "source_department": "City of Richfield", "source_last_edit_at": "2026-03-28T17:19:55.001000+00:00"}}, {"type": "Feature", "geometry": {"type": "Point", "coordinates": [-112.0867454831309, 38.778881698423]}, "properties": {"id": "richfield-62946", "species_group": "crabapple", "scientific_name": "Malus species", "common_name": "Crabapple", "subtype_name": null, "zip_code": "84701", "ownership": "public", "ownership_raw": "City of Richfield", "city": "Richfield", "source_dataset": "Utah Urban Tree Inventory", "source_department": "City of Richfield", "source_last_edit_at": "2026-03-28T17:19:55.001000+00:00"}}, {"type": "Feature", "geometry": {"type": "Point", "coordinates": [-112.08667440973916, 38.778930683630755]}, "properties": {"id": "richfield-62947", "species_group": "crabapple", "scientific_name": "Malus species", "common_name": "Crabapple", "subtype_name": null, "zip_code": "84701", "ownership": "public", "ownership_raw": "City of Richfield", "city": "Richfield", "source_dataset": "Utah Urban Tree Inventory", "source_department": "City of Richfield", "source_last_edit_at": "2026-03-28T17:19:55.001000+00:00"}}, {"type": "Feature", "geometry": {"type": "Point", "coordinates": [-112.08744895674107, 38.77871391401429]}, "properties": {"id": "richfield-63020", "species_group": "crabapple", "scientific_name": "Malus species", "common_name": "Crabapple", "subtype_name": null, "zip_code": "84701", "ownership": "public", "ownership_raw": "City of Richfield", "city": "Richfield", "source_dataset": "Utah Urban Tree Inventory", "source_department": "City of Richfield", "source_last_edit_at": "2026-03-28T17:19:55.001000+00:00"}}, {"type": "Feature", "geometry": {"type": "Point", "coordinates": [-112.08744935515261, 38.77867177595058]}, "properties": {"id": "richfield-63021", "species_group": "crabapple", "scientific_name": "Malus species", "common_name": "Crabapple", "subtype_name": null, "zip_code": "84701", "ownership": "public", "ownership_raw": "City of Richfield", "city": "Richfield", "source_dataset": "Utah Urban Tree Inventory", "source_department": "City of Richfield", "source_last_edit_at": "2026-03-28T17:19:55.001000+00:00"}}, {"type": "Feature", "geometry": {"type": "Point", "coordinates": [-112.09623019437021, 38.774248568867215]}, "properties": {"id": "richfield-63286", "species_group": "crabapple", "scientific_name": "Malus species", "common_name": "Apple", "subtype_name": "Apple", "zip_code": "84701", "ownership": "public", "ownership_raw": "City of Richfield", "city": "Richfield", "source_dataset": "Utah Urban Tree Inventory", "source_department": "City of Richfield", "source_last_edit_at": "2026-03-28T17:19:55.001000+00:00"}}, {"type": "Feature", "geometry": {"type": "Point", "coordinates": [-112.10439348250821, 38.75766322020511]}, "properties": {"id": "richfield-63328", "species_group": "crabapple", "scientific_name": "Malus species", "common_name": "Crabapple", "subtype_name": null, "zip_code": "84701", "ownership": "public", "ownership_raw": "City of Richfield", "city": "Richfield", "source_dataset": "Utah Urban Tree Inventory", "source_department": "City of Richfield", "source_last_edit_at": "2026-03-28T17:19:55.001000+00:00"}}, {"type": "Feature", "geometry": {"type": "Point", "coordinates": [-112.1043832232304, 38.7575644110832]}, "properties": {"id": "richfield-63329", "species_group": "crabapple", "scientific_name": "Malus species", "common_name": "Crabapple", "subtype_name": null, "zip_code": "84701", "ownership": "public", "ownership_raw": "City of Richfield", "city": "Richfield", "source_dataset": "Utah Urban Tree Inventory", "source_department": "City of Richfield", "source_last_edit_at": "2026-03-28T17:19:55.001000+00:00"}}, {"type": "Feature", "geometry": {"type": "Point", "coordinates": [-112.1043986209794, 38.75745458011725]}, "properties": {"id": "richfield-63330", "species_group": "crabapple", "scientific_name": "Malus species", "common_name": "Crabapple", "subtype_name": null, "zip_code": "84701", "ownership": "public", "ownership_raw": "City of Richfield", "city": "Richfield", "source_dataset": "Utah Urban Tree Inventory", "source_department": "City of Richfield", "source_last_edit_at": "2026-03-28T17:19:55.001000+00:00"}}, {"type": "Feature", "geometry": {"type": "Point", "coordinates": [-112.10437916590196, 38.75738218369683]}, "properties": {"id": "richfield-63331", "species_group": "crabapple", "scientific_name": "Malus species", "common_name": "Crabapple", "subtype_name": null, "zip_code": "84701", "ownership": "public", "ownership_raw": "City of Richfield", "city": "Richfield", "source_dataset": "Utah Urban Tree Inventory", "source_department": "City of Richfield", "source_last_edit_at": "2026-03-28T17:19:55.001000+00:00"}}, {"type": "Feature", "geometry": {"type": "Point", "coordinates": [-112.1043743730215, 38.757318000461574]}, "properties": {"id": "richfield-63332", "species_group": "crabapple", "scientific_name": "Malus species", "common_name": "Crabapple", "subtype_name": null, "zip_code": "84701", "ownership": "public", "ownership_raw": "City of Richfield", "city": "Richfield", "source_dataset": "Utah Urban Tree Inventory", "source_department": "City of Richfield", "source_last_edit_at": "2026-03-28T17:19:55.001000+00:00"}}, {"type": "Feature", "geometry": {"type": "Point", "coordinates": [-112.10374671573133, 38.75706552509021]}, "properties": {"id": "richfield-63333", "species_group": "cherry", "scientific_name": "Prunus species", "common_name": "Chokecherry", "subtype_name": "Chokecherry", "zip_code": "84701", "ownership": "public", "ownership_raw": "City of Richfield", "city": "Richfield", "source_dataset": "Utah Urban Tree Inventory", "source_department": "City of Richfield", "source_last_edit_at": "2026-03-28T17:19:55.001000+00:00"}}, {"type": "Feature", "geometry": {"type": "Point", "coordinates": [-112.10363314604685, 38.75706654350682]}, "properties": {"id": "richfield-63335", "species_group": "crabapple", "scientific_name": "Malus species", "common_name": "Crabapple", "subtype_name": null, "zip_code": "84701", "ownership": "public", "ownership_raw": "City of Richfield", "city": "Richfield", "source_dataset": "Utah Urban Tree Inventory", "source_department": "City of Richfield", "source_last_edit_at": "2026-03-28T17:19:55.001000+00:00"}}, {"type": "Feature", "geometry": {"type": "Point", "coordinates": [-112.10348101850724, 38.757062394689825]}, "properties": {"id": "richfield-63336", "species_group": "cherry", "scientific_name": "Prunus species", "common_name": "Chokecherry", "subtype_name": "Chokecherry", "zip_code": "84701", "ownership": "public", "ownership_raw": "City of Richfield", "city": "Richfield", "source_dataset": "Utah Urban Tree Inventory", "source_department": "City of Richfield", "source_last_edit_at": "2026-03-28T17:19:55.001000+00:00"}}, {"type": "Feature", "geometry": {"type": "Point", "coordinates": [-112.10323780620571, 38.757064292452235]}, "properties": {"id": "richfield-63339", "species_group": "cherry", "scientific_name": "Prunus species", "common_name": "Chokecherry", "subtype_name": "Chokecherry", "zip_code": "84701", "ownership": "public", "ownership_raw": "City of Richfield", "city": "Richfield", "source_dataset": "Utah Urban Tree Inventory", "source_department": "City of Richfield", "source_last_edit_at": "2026-03-28T17:19:55.001000+00:00"}}, {"type": "Feature", "geometry": {"type": "Point", "coordinates": [-112.10284192707284, 38.75706057539426]}, "properties": {"id": "richfield-63342", "species_group": "crabapple", "scientific_name": "Malus species", "common_name": "Crabapple", "subtype_name": null, "zip_code": "84701", "ownership": "public", "ownership_raw": "City of Richfield", "city": "Richfield", "source_dataset": "Utah Urban Tree Inventory", "source_department": "City of Richfield", "source_last_edit_at": "2026-03-28T17:19:55.001000+00:00"}}, {"type": "Feature", "geometry": {"type": "Point", "coordinates": [-112.09656508920074, 38.77394607162727]}, "properties": {"id": "richfield-63371", "species_group": "crabapple", "scientific_name": "Malus species", "common_name": "Apple", "subtype_name": "Apple", "zip_code": "84701", "ownership": "public", "ownership_raw": "City of Richfield", "city": "Richfield", "source_dataset": "Utah Urban Tree Inventory", "source_department": "City of Richfield", "source_last_edit_at": "2026-03-28T17:19:55.001000+00:00"}}, {"type": "Feature", "geometry": {"type": "Point", "coordinates": [-112.1043993190649, 38.7577461309095]}, "properties": {"id": "richfield-63379", "species_group": "crabapple", "scientific_name": "Malus species", "common_name": "Crabapple", "subtype_name": null, "zip_code": "84701", "ownership": "public", "ownership_raw": "City of Richfield", "city": "Richfield", "source_dataset": "Utah Urban Tree Inventory", "source_department": "City of Richfield", "source_last_edit_at": "2026-03-28T17:19:55.001000+00:00"}}, {"type": "Feature", "geometry": {"type": "Point", "coordinates": [-112.1043339718621, 38.75706674516769]}, "properties": {"id": "richfield-63380", "species_group": "cherry", "scientific_name": "Prunus species", "common_name": "Chokecherry", "subtype_name": "Chokecherry", "zip_code": "84701", "ownership": "public", "ownership_raw": "City of Richfield", "city": "Richfield", "source_dataset": "Utah Urban Tree Inventory", "source_department": "City of Richfield", "source_last_edit_at": "2026-03-28T17:19:55.001000+00:00"}}, {"type": "Feature", "geometry": {"type": "Point", "coordinates": [-112.10420879592, 38.75706531728463]}, "properties": {"id": "richfield-63381", "species_group": "crabapple", "scientific_name": "Malus species", "common_name": "Crabapple", "subtype_name": null, "zip_code": "84701", "ownership": "public", "ownership_raw": "City of Richfield", "city": "Richfield", "source_dataset": "Utah Urban Tree Inventory", "source_department": "City of Richfield", "source_last_edit_at": "2026-03-28T17:19:55.001000+00:00"}}, {"type": "Feature", "geometry": {"type": "Point", "coordinates": [-112.10406363971907, 38.75706471331626]}, "properties": {"id": "richfield-63382", "species_group": "cherry", "scientific_name": "Prunus species", "common_name": "Chokecherry", "subtype_name": "Chokecherry", "zip_code": "84701", "ownership": "public", "ownership_raw": "City of Richfield", "city": "Richfield", "source_dataset": "Utah Urban Tree Inventory", "source_department": "City of Richfield", "source_last_edit_at": "2026-03-28T17:19:55.001000+00:00"}}, {"type": "Feature", "geometry": {"type": "Point", "coordinates": [-112.10394029126712, 38.75706410053239]}, "properties": {"id": "richfield-63384", "species_group": "crabapple", "scientific_name": "Malus species", "common_name": "Crabapple", "subtype_name": null, "zip_code": "84701", "ownership": "public", "ownership_raw": "City of Richfield", "city": "Richfield", "source_dataset": "Utah Urban Tree Inventory", "source_department": "City of Richfield", "source_last_edit_at": "2026-03-28T17:19:55.001000+00:00"}}, {"type": "Feature", "geometry": {"type": "Point", "coordinates": [-112.10335653551684, 38.757061198152236]}, "properties": {"id": "richfield-63385", "species_group": "crabapple", "scientific_name": "Malus species", "common_name": "Crabapple", "subtype_name": null, "zip_code": "84701", "ownership": "public", "ownership_raw": "City of Richfield", "city": "Richfield", "source_dataset": "Utah Urban Tree Inventory", "source_department": "City of Richfield", "source_last_edit_at": "2026-03-28T17:19:55.001000+00:00"}}, {"type": "Feature", "geometry": {"type": "Point", "coordinates": [-112.10267426747298, 38.75705882402955]}, "properties": {"id": "richfield-63389", "species_group": "cherry", "scientific_name": "Prunus species", "common_name": "Chokecherry", "subtype_name": "Chokecherry", "zip_code": "84701", "ownership": "public", "ownership_raw": "City of Richfield", "city": "Richfield", "source_dataset": "Utah Urban Tree Inventory", "source_department": "City of Richfield", "source_last_edit_at": "2026-03-28T17:19:55.001000+00:00"}}, {"type": "Feature", "geometry": {"type": "Point", "coordinates": [-112.10252840882274, 38.75705871590072]}, "properties": {"id": "richfield-63391", "species_group": "crabapple", "scientific_name": "Malus species", "common_name": "Crabapple", "subtype_name": null, "zip_code": "84701", "ownership": "public", "ownership_raw": "City of Richfield", "city": "Richfield", "source_dataset": "Utah Urban Tree Inventory", "source_department": "City of Richfield", "source_last_edit_at": "2026-03-28T17:19:55.001000+00:00"}}, {"type": "Feature", "geometry": {"type": "Point", "coordinates": [-112.10245744947754, 38.75709050693774]}, "properties": {"id": "richfield-63392", "species_group": "plum", "scientific_name": "Prunus species", "common_name": "Plum-Flowering", "subtype_name": "Plum-Flowering", "zip_code": "84701", "ownership": "public", "ownership_raw": "City of Richfield", "city": "Richfield", "source_dataset": "Utah Urban Tree Inventory", "source_department": "City of Richfield", "source_last_edit_at": "2026-03-28T17:19:55.001000+00:00"}}, {"type": "Feature", "geometry": {"type": "Point", "coordinates": [-112.10245675080334, 38.75723329687481]}, "properties": {"id": "richfield-63394", "species_group": "plum", "scientific_name": "Prunus species", "common_name": "Plum-Flowering", "subtype_name": "Plum-Flowering", "zip_code": "84701", "ownership": "public", "ownership_raw": "City of Richfield", "city": "Richfield", "source_dataset": "Utah Urban Tree Inventory", "source_department": "City of Richfield", "source_last_edit_at": "2026-03-28T17:19:55.001000+00:00"}}, {"type": "Feature", "geometry": {"type": "Point", "coordinates": [-112.08308205999299, 38.78876895112043]}, "properties": {"id": "richfield-63445", "species_group": "crabapple", "scientific_name": "Malus species", "common_name": "Crabapple", "subtype_name": null, "zip_code": "84701", "ownership": "public", "ownership_raw": "City of Richfield", "city": "Richfield", "source_dataset": "Utah Urban Tree Inventory", "source_department": "City of Richfield", "source_last_edit_at": "2026-03-28T17:19:55.001000+00:00"}}, {"type": "Feature", "geometry": {"type": "Point", "coordinates": [-112.0825977371252, 38.78906216621768]}, "properties": {"id": "richfield-63447", "species_group": "crabapple", "scientific_name": "Malus species", "common_name": "Crabapple", "subtype_name": null, "zip_code": "84701", "ownership": "public", "ownership_raw": "City of Richfield", "city": "Richfield", "source_dataset": "Utah Urban Tree Inventory", "source_department": "City of Richfield", "source_last_edit_at": "2026-03-28T17:19:55.001000+00:00"}}, {"type": "Feature", "geometry": {"type": "Point", "coordinates": [-112.08261736074229, 38.789117614073724]}, "properties": {"id": "richfield-63449", "species_group": "crabapple", "scientific_name": "Malus species", "common_name": "Crabapple", "subtype_name": null, "zip_code": "84701", "ownership": "public", "ownership_raw": "City of Richfield", "city": "Richfield", "source_dataset": "Utah Urban Tree Inventory", "source_department": "City of Richfield", "source_last_edit_at": "2026-03-28T17:19:55.001000+00:00"}}, {"type": "Feature", "geometry": {"type": "Point", "coordinates": [-112.0841691558881, 38.770769144717576]}, "properties": {"id": "richfield-63586", "species_group": "cherry", "scientific_name": "Prunus species", "common_name": "Chokecherry", "subtype_name": "Chokecherry", "zip_code": "84701", "ownership": "public", "ownership_raw": "City of Richfield", "city": "Richfield", "source_dataset": "Utah Urban Tree Inventory", "source_department": "City of Richfield", "source_last_edit_at": "2026-03-28T17:19:55.001000+00:00"}}, {"type": "Feature", "geometry": {"type": "Point", "coordinates": [-112.08922953451818, 38.76818632152105]}, "properties": {"id": "richfield-63637", "species_group": "plum", "scientific_name": "Prunus species", "common_name": "Plum-Flowering", "subtype_name": "Plum-Flowering", "zip_code": "84701", "ownership": "public", "ownership_raw": "City of Richfield", "city": "Richfield", "source_dataset": "Utah Urban Tree Inventory", "source_department": "City of Richfield", "source_last_edit_at": "2026-03-28T17:19:55.001000+00:00"}}, {"type": "Feature", "geometry": {"type": "Point", "coordinates": [-112.08930368123734, 38.76818522040056]}, "properties": {"id": "richfield-63638", "species_group": "plum", "scientific_name": "Prunus species", "common_name": "Plum-Flowering", "subtype_name": "Plum-Flowering", "zip_code": "84701", "ownership": "public", "ownership_raw": "City of Richfield", "city": "Richfield", "source_dataset": "Utah Urban Tree Inventory", "source_department": "City of Richfield", "source_last_edit_at": "2026-03-28T17:19:55.001000+00:00"}}, {"type": "Feature", "geometry": {"type": "Point", "coordinates": [-112.09890314520135, 38.77033833690886]}, "properties": {"id": "richfield-63648", "species_group": "crabapple", "scientific_name": "Malus species", "common_name": "Crabapple", "subtype_name": null, "zip_code": "84701", "ownership": "public", "ownership_raw": "City of Richfield", "city": "Richfield", "source_dataset": "Utah Urban Tree Inventory", "source_department": "City of Richfield", "source_last_edit_at": "2026-03-28T17:19:55.001000+00:00"}}, {"type": "Feature", "geometry": {"type": "Point", "coordinates": [-112.09566985505158, 38.77460879717492]}, "properties": {"id": "richfield-63683", "species_group": "crabapple", "scientific_name": "Malus species", "common_name": "Crabapple", "subtype_name": null, "zip_code": "84701", "ownership": "public", "ownership_raw": "City of Richfield", "city": "Richfield", "source_dataset": "Utah Urban Tree Inventory", "source_department": "City of Richfield", "source_last_edit_at": "2026-03-28T17:19:55.001000+00:00"}}, {"type": "Feature", "geometry": {"type": "Point", "coordinates": [-112.09330368888425, 38.77221324623978]}, "properties": {"id": "richfield-63709", "species_group": "cherry", "scientific_name": "Prunus species", "common_name": "Chokecherry", "subtype_name": "Chokecherry", "zip_code": "84701", "ownership": "public", "ownership_raw": "City of Richfield", "city": "Richfield", "source_dataset": "Utah Urban Tree Inventory", "source_department": "City of Richfield", "source_last_edit_at": "2026-03-28T17:19:55.001000+00:00"}}, {"type": "Feature", "geometry": {"type": "Point", "coordinates": [-112.09346527597376, 38.77220888679692]}, "properties": {"id": "richfield-63710", "species_group": "plum", "scientific_name": "Prunus species", "common_name": "Plum-Flowering", "subtype_name": "Plum-Flowering", "zip_code": "84701", "ownership": "public", "ownership_raw": "City of Richfield", "city": "Richfield", "source_dataset": "Utah Urban Tree Inventory", "source_department": "City of Richfield", "source_last_edit_at": "2026-03-28T17:19:55.001000+00:00"}}, {"type": "Feature", "geometry": {"type": "Point", "coordinates": [-112.10707443631614, 38.74223511171954]}, "properties": {"id": "richfield-64317", "species_group": "cherry", "scientific_name": "Prunus species", "common_name": "Cherry-Flowering", "subtype_name": "Flowering Cherry", "zip_code": "84701", "ownership": "public", "ownership_raw": "City of Richfield", "city": "Richfield", "source_dataset": "Utah Urban Tree Inventory", "source_department": "City of Richfield", "source_last_edit_at": "2026-03-28T17:19:55.001000+00:00"}}, {"type": "Feature", "geometry": {"type": "Point", "coordinates": [-112.10708568658985, 38.742126803618184]}, "properties": {"id": "richfield-64318", "species_group": "cherry", "scientific_name": "Prunus species", "common_name": "Cherry-Flowering", "subtype_name": "Flowering Cherry", "zip_code": "84701", "ownership": "public", "ownership_raw": "City of Richfield", "city": "Richfield", "source_dataset": "Utah Urban Tree Inventory", "source_department": "City of Richfield", "source_last_edit_at": "2026-03-28T17:19:55.001000+00:00"}}, {"type": "Feature", "geometry": {"type": "Point", "coordinates": [-112.10709422126125, 38.74201096428397]}, "properties": {"id": "richfield-64319", "species_group": "cherry", "scientific_name": "Prunus species", "common_name": "Cherry-Flowering", "subtype_name": "Flowering Cherry", "zip_code": "84701", "ownership": "public", "ownership_raw": "City of Richfield", "city": "Richfield", "source_dataset": "Utah Urban Tree Inventory", "source_department": "City of Richfield", "source_last_edit_at": "2026-03-28T17:19:55.001000+00:00"}}, {"type": "Feature", "geometry": {"type": "Point", "coordinates": [-112.10710685157088, 38.741899036748045]}, "properties": {"id": "richfield-64320", "species_group": "cherry", "scientific_name": "Prunus species", "common_name": "Cherry-Flowering", "subtype_name": "Flowering Cherry", "zip_code": "84701", "ownership": "public", "ownership_raw": "City of Richfield", "city": "Richfield", "source_dataset": "Utah Urban Tree Inventory", "source_department": "City of Richfield", "source_last_edit_at": "2026-03-28T17:19:55.001000+00:00"}}, {"type": "Feature", "geometry": {"type": "Point", "coordinates": [-112.10712012777742, 38.741660616527106]}, "properties": {"id": "richfield-64322", "species_group": "crabapple", "scientific_name": "Malus species", "common_name": "Crabapple", "subtype_name": null, "zip_code": "84701", "ownership": "public", "ownership_raw": "City of Richfield", "city": "Richfield", "source_dataset": "Utah Urban Tree Inventory", "source_department": "City of Richfield", "source_last_edit_at": "2026-03-28T17:19:55.001000+00:00"}}, {"type": "Feature", "geometry": {"type": "Point", "coordinates": [-112.11125936941656, 38.73957528855022]}, "properties": {"id": "richfield-64351", "species_group": "crabapple", "scientific_name": "Malus species", "common_name": "Crabapple", "subtype_name": null, "zip_code": "84701", "ownership": "public", "ownership_raw": "City of Richfield", "city": "Richfield", "source_dataset": "Utah Urban Tree Inventory", "source_department": "City of Richfield", "source_last_edit_at": "2026-03-28T17:19:55.001000+00:00"}}, {"type": "Feature", "geometry": {"type": "Point", "coordinates": [-112.11131287859426, 38.7394427674751]}, "properties": {"id": "richfield-64352", "species_group": "crabapple", "scientific_name": "Malus species", "common_name": "Crabapple", "subtype_name": null, "zip_code": "84701", "ownership": "public", "ownership_raw": "City of Richfield", "city": "Richfield", "source_dataset": "Utah Urban Tree Inventory", "source_department": "City of Richfield", "source_last_edit_at": "2026-03-28T17:19:55.001000+00:00"}}, {"type": "Feature", "geometry": {"type": "Point", "coordinates": [-112.11132301361948, 38.73930970805746]}, "properties": {"id": "richfield-64353", "species_group": "crabapple", "scientific_name": "Malus species", "common_name": "Crabapple", "subtype_name": null, "zip_code": "84701", "ownership": "public", "ownership_raw": "City of Richfield", "city": "Richfield", "source_dataset": "Utah Urban Tree Inventory", "source_department": "City of Richfield", "source_last_edit_at": "2026-03-28T17:19:55.001000+00:00"}}, {"type": "Feature", "geometry": {"type": "Point", "coordinates": [-112.11134095706123, 38.73916525428874]}, "properties": {"id": "richfield-64354", "species_group": "crabapple", "scientific_name": "Malus species", "common_name": "Crabapple", "subtype_name": null, "zip_code": "84701", "ownership": "public", "ownership_raw": "City of Richfield", "city": "Richfield", "source_dataset": "Utah Urban Tree Inventory", "source_department": "City of Richfield", "source_last_edit_at": "2026-03-28T17:19:55.001000+00:00"}}, {"type": "Feature", "geometry": {"type": "Point", "coordinates": [-112.11218609482259, 38.7388819829278]}, "properties": {"id": "richfield-64355", "species_group": "crabapple", "scientific_name": "Malus species", "common_name": "Crabapple", "subtype_name": null, "zip_code": "84701", "ownership": "public", "ownership_raw": "City of Richfield", "city": "Richfield", "source_dataset": "Utah Urban Tree Inventory", "source_department": "City of Richfield", "source_last_edit_at": "2026-03-28T17:19:55.001000+00:00"}}, {"type": "Feature", "geometry": {"type": "Point", "coordinates": [-112.1123975860721, 38.73646405413551]}, "properties": {"id": "richfield-64376", "species_group": "crabapple", "scientific_name": "Malus species", "common_name": "Crabapple", "subtype_name": null, "zip_code": "84701", "ownership": "public", "ownership_raw": "City of Richfield", "city": "Richfield", "source_dataset": "Utah Urban Tree Inventory", "source_department": "City of Richfield", "source_last_edit_at": "2026-03-28T17:19:55.001000+00:00"}}, {"type": "Feature", "geometry": {"type": "Point", "coordinates": [-112.11245375830515, 38.7356168450066]}, "properties": {"id": "richfield-64388", "species_group": "crabapple", "scientific_name": "Malus species", "common_name": "Crabapple", "subtype_name": null, "zip_code": "84701", "ownership": "public", "ownership_raw": "City of Richfield", "city": "Richfield", "source_dataset": "Utah Urban Tree Inventory", "source_department": "City of Richfield", "source_last_edit_at": "2026-03-28T17:19:55.001000+00:00"}}, {"type": "Feature", "geometry": {"type": "Point", "coordinates": [-112.11211068965834, 38.73513634799261]}, "properties": {"id": "richfield-64394", "species_group": "crabapple", "scientific_name": "Malus species", "common_name": "Crabapple", "subtype_name": null, "zip_code": "84701", "ownership": "public", "ownership_raw": "City of Richfield", "city": "Richfield", "source_dataset": "Utah Urban Tree Inventory", "source_department": "City of Richfield", "source_last_edit_at": "2026-03-28T17:19:55.001000+00:00"}}, {"type": "Feature", "geometry": {"type": "Point", "coordinates": [-112.10859936272249, 38.74191642706888]}, "properties": {"id": "richfield-64404", "species_group": "crabapple", "scientific_name": "Malus species", "common_name": "Crabapple", "subtype_name": null, "zip_code": "84701", "ownership": "public", "ownership_raw": "City of Richfield", "city": "Richfield", "source_dataset": "Utah Urban Tree Inventory", "source_department": "City of Richfield", "source_last_edit_at": "2026-03-28T17:19:55.001000+00:00"}}, {"type": "Feature", "geometry": {"type": "Point", "coordinates": [-112.10707889424584, 38.74134908772809]}, "properties": {"id": "richfield-64405", "species_group": "cherry", "scientific_name": "Prunus species", "common_name": "Cherry-Flowering", "subtype_name": "Flowering Cherry", "zip_code": "84701", "ownership": "public", "ownership_raw": "City of Richfield", "city": "Richfield", "source_dataset": "Utah Urban Tree Inventory", "source_department": "City of Richfield", "source_last_edit_at": "2026-03-28T17:19:55.001000+00:00"}}, {"type": "Feature", "geometry": {"type": "Point", "coordinates": [-112.10720609570357, 38.74120971396023]}, "properties": {"id": "richfield-64412", "species_group": "cherry", "scientific_name": "Prunus species", "common_name": "Cherry-Flowering", "subtype_name": "Flowering Cherry", "zip_code": "84701", "ownership": "public", "ownership_raw": "City of Richfield", "city": "Richfield", "source_dataset": "Utah Urban Tree Inventory", "source_department": "City of Richfield", "source_last_edit_at": "2026-03-28T17:19:55.001000+00:00"}}, {"type": "Feature", "geometry": {"type": "Point", "coordinates": [-112.102883714708, 38.73918988122559]}, "properties": {"id": "richfield-64512", "species_group": "crabapple", "scientific_name": "Malus species", "common_name": "Crabapple", "subtype_name": null, "zip_code": "84701", "ownership": "public", "ownership_raw": "City of Richfield", "city": "Richfield", "source_dataset": "Utah Urban Tree Inventory", "source_department": "City of Richfield", "source_last_edit_at": "2026-03-28T17:19:55.001000+00:00"}}, {"type": "Feature", "geometry": {"type": "Point", "coordinates": [-112.103506849931, 38.73859082410564]}, "properties": {"id": "richfield-64557", "species_group": "crabapple", "scientific_name": "Malus species", "common_name": "Apple", "subtype_name": "Apple", "zip_code": "84701", "ownership": "public", "ownership_raw": "City of Richfield", "city": "Richfield", "source_dataset": "Utah Urban Tree Inventory", "source_department": "City of Richfield", "source_last_edit_at": "2026-03-28T17:19:55.001000+00:00"}}, {"type": "Feature", "geometry": {"type": "Point", "coordinates": [-112.10787745124543, 38.73878184045248]}, "properties": {"id": "richfield-64574", "species_group": "cherry", "scientific_name": "Prunus species", "common_name": "Chokecherry", "subtype_name": "Chokecherry", "zip_code": "84701", "ownership": "public", "ownership_raw": "City of Richfield", "city": "Richfield", "source_dataset": "Utah Urban Tree Inventory", "source_department": "City of Richfield", "source_last_edit_at": "2026-03-28T17:19:55.001000+00:00"}}, {"type": "Feature", "geometry": {"type": "Point", "coordinates": [-112.10338577451522, 38.737994742132656]}, "properties": {"id": "richfield-64615", "species_group": "crabapple", "scientific_name": "Malus species", "common_name": "Crabapple", "subtype_name": null, "zip_code": "84701", "ownership": "public", "ownership_raw": "City of Richfield", "city": "Richfield", "source_dataset": "Utah Urban Tree Inventory", "source_department": "City of Richfield", "source_last_edit_at": "2026-03-28T17:19:55.001000+00:00"}}, {"type": "Feature", "geometry": {"type": "Point", "coordinates": [-112.10343266126952, 38.738059715975254]}, "properties": {"id": "richfield-64616", "species_group": "crabapple", "scientific_name": "Malus species", "common_name": "Crabapple", "subtype_name": null, "zip_code": "84701", "ownership": "public", "ownership_raw": "City of Richfield", "city": "Richfield", "source_dataset": "Utah Urban Tree Inventory", "source_department": "City of Richfield", "source_last_edit_at": "2026-03-28T17:19:55.001000+00:00"}}, {"type": "Feature", "geometry": {"type": "Point", "coordinates": [-112.10357060504232, 38.73801874555671]}, "properties": {"id": "richfield-64619", "species_group": "crabapple", "scientific_name": "Malus species", "common_name": "Crabapple", "subtype_name": null, "zip_code": "84701", "ownership": "public", "ownership_raw": "City of Richfield", "city": "Richfield", "source_dataset": "Utah Urban Tree Inventory", "source_department": "City of Richfield", "source_last_edit_at": "2026-03-28T17:19:55.001000+00:00"}}, {"type": "Feature", "geometry": {"type": "Point", "coordinates": [-112.10459499022774, 38.73807506028804]}, "properties": {"id": "richfield-64634", "species_group": "crabapple", "scientific_name": "Malus species", "common_name": "Crabapple", "subtype_name": null, "zip_code": "84701", "ownership": "public", "ownership_raw": "City of Richfield", "city": "Richfield", "source_dataset": "Utah Urban Tree Inventory", "source_department": "City of Richfield", "source_last_edit_at": "2026-03-28T17:19:55.001000+00:00"}}, {"type": "Feature", "geometry": {"type": "Point", "coordinates": [-112.10161174701884, 38.74171827607831]}, "properties": {"id": "richfield-64660", "species_group": "crabapple", "scientific_name": "Malus species", "common_name": "Apple", "subtype_name": "Apple", "zip_code": "84701", "ownership": "public", "ownership_raw": "City of Richfield", "city": "Richfield", "source_dataset": "Utah Urban Tree Inventory", "source_department": "City of Richfield", "source_last_edit_at": "2026-03-28T17:19:55.001000+00:00"}}, {"type": "Feature", "geometry": {"type": "Point", "coordinates": [-112.10188748445161, 38.7418289403545]}, "properties": {"id": "richfield-64665", "species_group": "crabapple", "scientific_name": "Malus species", "common_name": "Apple", "subtype_name": "Apple", "zip_code": "84701", "ownership": "public", "ownership_raw": "City of Richfield", "city": "Richfield", "source_dataset": "Utah Urban Tree Inventory", "source_department": "City of Richfield", "source_last_edit_at": "2026-03-28T17:19:55.001000+00:00"}}, {"type": "Feature", "geometry": {"type": "Point", "coordinates": [-112.10371587764648, 38.742112988566305]}, "properties": {"id": "richfield-64668", "species_group": "crabapple", "scientific_name": "Malus species", "common_name": "Crabapple", "subtype_name": null, "zip_code": "84701", "ownership": "public", "ownership_raw": "City of Richfield", "city": "Richfield", "source_dataset": "Utah Urban Tree Inventory", "source_department": "City of Richfield", "source_last_edit_at": "2026-03-28T17:19:55.001000+00:00"}}, {"type": "Feature", "geometry": {"type": "Point", "coordinates": [-112.10370239211392, 38.741964842473685]}, "properties": {"id": "richfield-64672", "species_group": "crabapple", "scientific_name": "Malus species", "common_name": "Crabapple", "subtype_name": null, "zip_code": "84701", "ownership": "public", "ownership_raw": "City of Richfield", "city": "Richfield", "source_dataset": "Utah Urban Tree Inventory", "source_department": "City of Richfield", "source_last_edit_at": "2026-03-28T17:19:55.001000+00:00"}}, {"type": "Feature", "geometry": {"type": "Point", "coordinates": [-112.1036561679028, 38.74178366335083]}, "properties": {"id": "richfield-64673", "species_group": "crabapple", "scientific_name": "Malus species", "common_name": "Crabapple", "subtype_name": null, "zip_code": "84701", "ownership": "public", "ownership_raw": "City of Richfield", "city": "Richfield", "source_dataset": "Utah Urban Tree Inventory", "source_department": "City of Richfield", "source_last_edit_at": "2026-03-28T17:19:55.001000+00:00"}}, {"type": "Feature", "geometry": {"type": "Point", "coordinates": [-112.10344321058496, 38.741586122038456]}, "properties": {"id": "richfield-64675", "species_group": "crabapple", "scientific_name": "Malus species", "common_name": "Crabapple", "subtype_name": null, "zip_code": "84701", "ownership": "public", "ownership_raw": "City of Richfield", "city": "Richfield", "source_dataset": "Utah Urban Tree Inventory", "source_department": "City of Richfield", "source_last_edit_at": "2026-03-28T17:19:55.001000+00:00"}}, {"type": "Feature", "geometry": {"type": "Point", "coordinates": [-112.10312016085265, 38.74123304010926]}, "properties": {"id": "richfield-64680", "species_group": "crabapple", "scientific_name": "Malus species", "common_name": "Crabapple", "subtype_name": null, "zip_code": "84701", "ownership": "public", "ownership_raw": "City of Richfield", "city": "Richfield", "source_dataset": "Utah Urban Tree Inventory", "source_department": "City of Richfield", "source_last_edit_at": "2026-03-28T17:19:55.001000+00:00"}}, {"type": "Feature", "geometry": {"type": "Point", "coordinates": [-112.1070846025801, 38.741451179568834]}, "properties": {"id": "richfield-64711", "species_group": "cherry", "scientific_name": "Prunus species", "common_name": "Cherry-Flowering", "subtype_name": "Flowering Cherry", "zip_code": "84701", "ownership": "public", "ownership_raw": "City of Richfield", "city": "Richfield", "source_dataset": "Utah Urban Tree Inventory", "source_department": "City of Richfield", "source_last_edit_at": "2026-03-28T17:19:55.001000+00:00"}}, {"type": "Feature", "geometry": {"type": "Point", "coordinates": [-112.10824073439998, 38.73925033506374]}, "properties": {"id": "richfield-64759", "species_group": "cherry", "scientific_name": "Prunus species", "common_name": "Cherry-Flowering", "subtype_name": "Flowering Cherry", "zip_code": "84701", "ownership": "public", "ownership_raw": "City of Richfield", "city": "Richfield", "source_dataset": "Utah Urban Tree Inventory", "source_department": "City of Richfield", "source_last_edit_at": "2026-03-28T17:19:55.001000+00:00"}}, {"type": "Feature", "geometry": {"type": "Point", "coordinates": [-112.1080929737978, 38.738761863072796]}, "properties": {"id": "richfield-64799", "species_group": "crabapple", "scientific_name": "Malus species", "common_name": "Crabapple", "subtype_name": null, "zip_code": "84701", "ownership": "public", "ownership_raw": "City of Richfield", "city": "Richfield", "source_dataset": "Utah Urban Tree Inventory", "source_department": "City of Richfield", "source_last_edit_at": "2026-03-28T17:19:55.001000+00:00"}}, {"type": "Feature", "geometry": {"type": "Point", "coordinates": [-112.1043613756255, 38.73805922864853]}, "properties": {"id": "richfield-64815", "species_group": "crabapple", "scientific_name": "Malus species", "common_name": "Crabapple", "subtype_name": null, "zip_code": "84701", "ownership": "public", "ownership_raw": "City of Richfield", "city": "Richfield", "source_dataset": "Utah Urban Tree Inventory", "source_department": "City of Richfield", "source_last_edit_at": "2026-03-28T17:19:55.001000+00:00"}}, {"type": "Feature", "geometry": {"type": "Point", "coordinates": [-112.10207069080586, 38.741261770766165]}, "properties": {"id": "richfield-64830", "species_group": "crabapple", "scientific_name": "Malus species", "common_name": "Apple", "subtype_name": "Apple", "zip_code": "84701", "ownership": "public", "ownership_raw": "City of Richfield", "city": "Richfield", "source_dataset": "Utah Urban Tree Inventory", "source_department": "City of Richfield", "source_last_edit_at": "2026-03-28T17:19:55.001000+00:00"}}, {"type": "Feature", "geometry": {"type": "Point", "coordinates": [-112.10187057823462, 38.74169372878193]}, "properties": {"id": "richfield-64832", "species_group": "crabapple", "scientific_name": "Malus species", "common_name": "Apple", "subtype_name": "Apple", "zip_code": "84701", "ownership": "public", "ownership_raw": "City of Richfield", "city": "Richfield", "source_dataset": "Utah Urban Tree Inventory", "source_department": "City of Richfield", "source_last_edit_at": "2026-03-28T17:19:55.001000+00:00"}}, {"type": "Feature", "geometry": {"type": "Point", "coordinates": [-112.1018032162328, 38.74177333240386]}, "properties": {"id": "richfield-64834", "species_group": "crabapple", "scientific_name": "Malus species", "common_name": "Apple", "subtype_name": "Apple", "zip_code": "84701", "ownership": "public", "ownership_raw": "City of Richfield", "city": "Richfield", "source_dataset": "Utah Urban Tree Inventory", "source_department": "City of Richfield", "source_last_edit_at": "2026-03-28T17:19:55.001000+00:00"}}, {"type": "Feature", "geometry": {"type": "Point", "coordinates": [-112.10207512167717, 38.74186477590997]}, "properties": {"id": "richfield-64835", "species_group": "crabapple", "scientific_name": "Malus species", "common_name": "Apple", "subtype_name": "Apple", "zip_code": "84701", "ownership": "public", "ownership_raw": "City of Richfield", "city": "Richfield", "source_dataset": "Utah Urban Tree Inventory", "source_department": "City of Richfield", "source_last_edit_at": "2026-03-28T17:19:55.001000+00:00"}}, {"type": "Feature", "geometry": {"type": "Point", "coordinates": [-112.10344300591335, 38.741944978314805]}, "properties": {"id": "richfield-64839", "species_group": "crabapple", "scientific_name": "Malus species", "common_name": "Crabapple", "subtype_name": null, "zip_code": "84701", "ownership": "public", "ownership_raw": "City of Richfield", "city": "Richfield", "source_dataset": "Utah Urban Tree Inventory", "source_department": "City of Richfield", "source_last_edit_at": "2026-03-28T17:19:55.001000+00:00"}}, {"type": "Feature", "geometry": {"type": "Point", "coordinates": [-112.10418468135879, 38.740677681672224]}, "properties": {"id": "richfield-64847", "species_group": "cherry", "scientific_name": "Prunus species", "common_name": "Chokecherry", "subtype_name": "Chokecherry", "zip_code": "84701", "ownership": "public", "ownership_raw": "City of Richfield", "city": "Richfield", "source_dataset": "Utah Urban Tree Inventory", "source_department": "City of Richfield", "source_last_edit_at": "2026-03-28T17:19:55.001000+00:00"}}, {"type": "Feature", "geometry": {"type": "Point", "coordinates": [-112.10439875071975, 38.739778000141456]}, "properties": {"id": "richfield-64856", "species_group": "crabapple", "scientific_name": "Malus species", "common_name": "Crabapple", "subtype_name": null, "zip_code": "84701", "ownership": "public", "ownership_raw": "City of Richfield", "city": "Richfield", "source_dataset": "Utah Urban Tree Inventory", "source_department": "City of Richfield", "source_last_edit_at": "2026-03-28T17:19:55.001000+00:00"}}, {"type": "Feature", "geometry": {"type": "Point", "coordinates": [-112.1047354440448, 38.739373363596556]}, "properties": {"id": "richfield-64859", "species_group": "crabapple", "scientific_name": "Malus species", "common_name": "Crabapple", "subtype_name": null, "zip_code": "84701", "ownership": "public", "ownership_raw": "City of Richfield", "city": "Richfield", "source_dataset": "Utah Urban Tree Inventory", "source_department": "City of Richfield", "source_last_edit_at": "2026-03-28T17:19:55.001000+00:00"}}, {"type": "Feature", "geometry": {"type": "Point", "coordinates": [-112.10451799295932, 38.74161260316177]}, "properties": {"id": "richfield-64877", "species_group": "crabapple", "scientific_name": "Malus species", "common_name": "Crabapple", "subtype_name": null, "zip_code": "84701", "ownership": "public", "ownership_raw": "City of Richfield", "city": "Richfield", "source_dataset": "Utah Urban Tree Inventory", "source_department": "City of Richfield", "source_last_edit_at": "2026-03-28T17:19:55.001000+00:00"}}, {"type": "Feature", "geometry": {"type": "Point", "coordinates": [-112.10453332514024, 38.74188603600206]}, "properties": {"id": "richfield-64880", "species_group": "crabapple", "scientific_name": "Malus species", "common_name": "Crabapple", "subtype_name": null, "zip_code": "84701", "ownership": "public", "ownership_raw": "City of Richfield", "city": "Richfield", "source_dataset": "Utah Urban Tree Inventory", "source_department": "City of Richfield", "source_last_edit_at": "2026-03-28T17:19:55.001000+00:00"}}, {"type": "Feature", "geometry": {"type": "Point", "coordinates": [-112.10602012190849, 38.74031228545596]}, "properties": {"id": "richfield-64900", "species_group": "crabapple", "scientific_name": "Malus species", "common_name": "Apple", "subtype_name": "Apple", "zip_code": "84701", "ownership": "public", "ownership_raw": "City of Richfield", "city": "Richfield", "source_dataset": "Utah Urban Tree Inventory", "source_department": "City of Richfield", "source_last_edit_at": "2026-03-28T17:19:55.001000+00:00"}}, {"type": "Feature", "geometry": {"type": "Point", "coordinates": [-112.10549062094131, 38.74129617492437]}, "properties": {"id": "richfield-64912", "species_group": "crabapple", "scientific_name": "Malus species", "common_name": "Crabapple", "subtype_name": null, "zip_code": "84701", "ownership": "public", "ownership_raw": "City of Richfield", "city": "Richfield", "source_dataset": "Utah Urban Tree Inventory", "source_department": "City of Richfield", "source_last_edit_at": "2026-03-28T17:19:55.001000+00:00"}}, {"type": "Feature", "geometry": {"type": "Point", "coordinates": [-112.106224683268, 38.74028463117551]}, "properties": {"id": "richfield-64922", "species_group": "crabapple", "scientific_name": "Malus species", "common_name": "Apple", "subtype_name": "Apple", "zip_code": "84701", "ownership": "public", "ownership_raw": "City of Richfield", "city": "Richfield", "source_dataset": "Utah Urban Tree Inventory", "source_department": "City of Richfield", "source_last_edit_at": "2026-03-28T17:19:55.001000+00:00"}}, {"type": "Feature", "geometry": {"type": "Point", "coordinates": [-112.10658552843967, 38.74084665970443]}, "properties": {"id": "richfield-64924", "species_group": "crabapple", "scientific_name": "Malus species", "common_name": "Crabapple", "subtype_name": null, "zip_code": "84701", "ownership": "public", "ownership_raw": "City of Richfield", "city": "Richfield", "source_dataset": "Utah Urban Tree Inventory", "source_department": "City of Richfield", "source_last_edit_at": "2026-03-28T17:19:55.001000+00:00"}}, {"type": "Feature", "geometry": {"type": "Point", "coordinates": [-112.10580633624534, 38.73992210619182]}, "properties": {"id": "richfield-64925", "species_group": "crabapple", "scientific_name": "Malus species", "common_name": "Apple", "subtype_name": "Apple", "zip_code": "84701", "ownership": "public", "ownership_raw": "City of Richfield", "city": "Richfield", "source_dataset": "Utah Urban Tree Inventory", "source_department": "City of Richfield", "source_last_edit_at": "2026-03-28T17:19:55.001000+00:00"}}, {"type": "Feature", "geometry": {"type": "Point", "coordinates": [-112.10319184398213, 38.74525460818246]}, "properties": {"id": "richfield-64962", "species_group": "crabapple", "scientific_name": "Malus species", "common_name": "Apple", "subtype_name": "Apple", "zip_code": "84701", "ownership": "public", "ownership_raw": "City of Richfield", "city": "Richfield", "source_dataset": "Utah Urban Tree Inventory", "source_department": "City of Richfield", "source_last_edit_at": "2026-03-28T17:19:55.001000+00:00"}}, {"type": "Feature", "geometry": {"type": "Point", "coordinates": [-112.10331496945966, 38.74629373121697]}, "properties": {"id": "richfield-64971", "species_group": "crabapple", "scientific_name": "Malus species", "common_name": "Apple", "subtype_name": "Apple", "zip_code": "84701", "ownership": "public", "ownership_raw": "City of Richfield", "city": "Richfield", "source_dataset": "Utah Urban Tree Inventory", "source_department": "City of Richfield", "source_last_edit_at": "2026-03-28T17:19:55.001000+00:00"}}, {"type": "Feature", "geometry": {"type": "Point", "coordinates": [-112.10538398314256, 38.74550092202705]}, "properties": {"id": "richfield-64982", "species_group": "cherry", "scientific_name": "Prunus species", "common_name": "Chokecherry", "subtype_name": "Chokecherry", "zip_code": "84701", "ownership": "public", "ownership_raw": "City of Richfield", "city": "Richfield", "source_dataset": "Utah Urban Tree Inventory", "source_department": "City of Richfield", "source_last_edit_at": "2026-03-28T17:19:55.001000+00:00"}}, {"type": "Feature", "geometry": {"type": "Point", "coordinates": [-112.10607731221461, 38.745167498558374]}, "properties": {"id": "richfield-64985", "species_group": "cherry", "scientific_name": "Prunus species", "common_name": "Chokecherry", "subtype_name": "Chokecherry", "zip_code": "84701", "ownership": "public", "ownership_raw": "City of Richfield", "city": "Richfield", "source_dataset": "Utah Urban Tree Inventory", "source_department": "City of Richfield", "source_last_edit_at": "2026-03-28T17:19:55.001000+00:00"}}, {"type": "Feature", "geometry": {"type": "Point", "coordinates": [-112.10657313283915, 38.74515677244315]}, "properties": {"id": "richfield-64986", "species_group": "cherry", "scientific_name": "Prunus species", "common_name": "Chokecherry", "subtype_name": "Chokecherry", "zip_code": "84701", "ownership": "public", "ownership_raw": "City of Richfield", "city": "Richfield", "source_dataset": "Utah Urban Tree Inventory", "source_department": "City of Richfield", "source_last_edit_at": "2026-03-28T17:19:55.001000+00:00"}}, {"type": "Feature", "geometry": {"type": "Point", "coordinates": [-112.10857042399945, 38.743699169148464]}, "properties": {"id": "richfield-64994", "species_group": "crabapple", "scientific_name": "Malus species", "common_name": "Crabapple", "subtype_name": null, "zip_code": "84701", "ownership": "public", "ownership_raw": "City of Richfield", "city": "Richfield", "source_dataset": "Utah Urban Tree Inventory", "source_department": "City of Richfield", "source_last_edit_at": "2026-03-28T17:19:55.001000+00:00"}}, {"type": "Feature", "geometry": {"type": "Point", "coordinates": [-112.10785115133939, 38.74352455612535]}, "properties": {"id": "richfield-65007", "species_group": "crabapple", "scientific_name": "Malus species", "common_name": "Crabapple", "subtype_name": null, "zip_code": "84701", "ownership": "public", "ownership_raw": "City of Richfield", "city": "Richfield", "source_dataset": "Utah Urban Tree Inventory", "source_department": "City of Richfield", "source_last_edit_at": "2026-03-28T17:19:55.001000+00:00"}}, {"type": "Feature", "geometry": {"type": "Point", "coordinates": [-112.1040108226014, 38.74556405560895]}, "properties": {"id": "richfield-65087", "species_group": "crabapple", "scientific_name": "Malus species", "common_name": "Crabapple", "subtype_name": null, "zip_code": "84701", "ownership": "public", "ownership_raw": "City of Richfield", "city": "Richfield", "source_dataset": "Utah Urban Tree Inventory", "source_department": "City of Richfield", "source_last_edit_at": "2026-03-28T17:19:55.001000+00:00"}}, {"type": "Feature", "geometry": {"type": "Point", "coordinates": [-112.10399913710033, 38.7461368818687]}, "properties": {"id": "richfield-65089", "species_group": "cherry", "scientific_name": "Prunus species", "common_name": "Chokecherry", "subtype_name": "Chokecherry", "zip_code": "84701", "ownership": "public", "ownership_raw": "City of Richfield", "city": "Richfield", "source_dataset": "Utah Urban Tree Inventory", "source_department": "City of Richfield", "source_last_edit_at": "2026-03-28T17:19:55.001000+00:00"}}, {"type": "Feature", "geometry": {"type": "Point", "coordinates": [-112.10437005645572, 38.745766433354646]}, "properties": {"id": "richfield-65090", "species_group": "cherry", "scientific_name": "Prunus species", "common_name": "Chokecherry", "subtype_name": "Chokecherry", "zip_code": "84701", "ownership": "public", "ownership_raw": "City of Richfield", "city": "Richfield", "source_dataset": "Utah Urban Tree Inventory", "source_department": "City of Richfield", "source_last_edit_at": "2026-03-28T17:19:55.001000+00:00"}}, {"type": "Feature", "geometry": {"type": "Point", "coordinates": [-112.10583367028637, 38.74518509440161]}, "properties": {"id": "richfield-65098", "species_group": "crabapple", "scientific_name": "Malus species", "common_name": "Crabapple", "subtype_name": null, "zip_code": "84701", "ownership": "public", "ownership_raw": "City of Richfield", "city": "Richfield", "source_dataset": "Utah Urban Tree Inventory", "source_department": "City of Richfield", "source_last_edit_at": "2026-03-28T17:19:55.001000+00:00"}}, {"type": "Feature", "geometry": {"type": "Point", "coordinates": [-112.10649533946308, 38.74529995095871]}, "properties": {"id": "richfield-65110", "species_group": "crabapple", "scientific_name": "Malus species", "common_name": "Crabapple", "subtype_name": null, "zip_code": "84701", "ownership": "public", "ownership_raw": "City of Richfield", "city": "Richfield", "source_dataset": "Utah Urban Tree Inventory", "source_department": "City of Richfield", "source_last_edit_at": "2026-03-28T17:19:55.001000+00:00"}}, {"type": "Feature", "geometry": {"type": "Point", "coordinates": [-112.10778317596034, 38.744795609252996]}, "properties": {"id": "richfield-65111", "species_group": "crabapple", "scientific_name": "Malus species", "common_name": "Apple", "subtype_name": "Apple", "zip_code": "84701", "ownership": "public", "ownership_raw": "City of Richfield", "city": "Richfield", "source_dataset": "Utah Urban Tree Inventory", "source_department": "City of Richfield", "source_last_edit_at": "2026-03-28T17:19:55.001000+00:00"}}]}