{"type": "FeatureCollection", "features": [{"type": "Feature", "geometry": {"type": "Point", "coordinates": [-120.83228591227038, 37.50054527696307]}, "properties": {"id": "turlock-23", "species_group": "magnolia", "scientific_name": "Magnolia grandiflora", "common_name": "Southern magnolia", "subtype_name": "Southern Magnolia", "zip_code": "95380", "ownership": "public", "ownership_raw": "California State University, Stanislaus", "city": "Turlock", "source_dataset": "Turlock Tree Inventory (public)", "source_department": "California State University, Stanislaus", "source_last_edit_at": "2025-10-20T00:12:20.368000+00:00"}}, {"type": "Feature", "geometry": {"type": "Point", "coordinates": [-120.83190695041131, 37.50056418373787]}, "properties": {"id": "turlock-36", "species_group": "magnolia", "scientific_name": "Magnolia grandiflora", "common_name": "Southern magnolia", "subtype_name": "Southern Magnolia", "zip_code": "95380", "ownership": "public", "ownership_raw": "California State University, Stanislaus", "city": "Turlock", "source_dataset": "Turlock Tree Inventory (public)", "source_department": "California State University, Stanislaus", "source_last_edit_at": "2025-10-20T00:12:20.368000+00:00"}}, {"type": "Feature", "geometry": {"type": "Point", "coordinates": [-120.83176405719567, 37.50056218325614]}, "properties": {"id": "turlock-37", "species_group": "magnolia", "scientific_name": "Magnolia grandiflora", "common_name": "Southern magnolia", "subtype_name": "Southern Magnolia", "zip_code": "95380", "ownership": "public", "ownership_raw": "California State University, Stanislaus", "city": "Turlock", "source_dataset": "Turlock Tree Inventory (public)", "source_department": "California State University, Stanislaus", "source_last_edit_at": "2025-10-20T00:12:20.368000+00:00"}}]}