{"type": "FeatureCollection", "features": [{"type": "Feature", "geometry": {"type": "Point", "coordinates": [-115.1216298455648, 35.99056944793656]}, "properties": {"id": "henderson-12546", "species_group": "plum", "scientific_name": "Prunus cerasifera", "common_name": "Purple-leaf plum", "subtype_name": "Purpleleaf Plum", "zip_code": "89052", "ownership": "public", "ownership_raw": "Nevada Division of Forestry", "city": "Henderson", "source_dataset": "Clark County Schools Tree Inventory", "source_department": "Nevada Division of Forestry", "source_last_edit_at": "2024-11-18T19:16:08.490000+00:00"}}, {"type": "Feature", "geometry": {"type": "Point", "coordinates": [-115.12174975179062, 35.99063355949158]}, "properties": {"id": "henderson-169", "species_group": "plum", "scientific_name": "Prunus cerasifera", "common_name": "Purple-leaf plum", "subtype_name": "Purpleleaf Plum", "zip_code": "89052", "ownership": "public", "ownership_raw": "Nevada Division of Forestry", "city": "Henderson", "source_dataset": "Clark County Schools Tree Inventory", "source_department": "Nevada Division of Forestry", "source_last_edit_at": "2024-11-18T19:16:08.490000+00:00"}}, {"type": "Feature", "geometry": {"type": "Point", "coordinates": [-115.12170791365457, 35.990612939076705]}, "properties": {"id": "henderson-1705", "species_group": "plum", "scientific_name": "Prunus cerasifera", "common_name": "Purple-leaf plum", "subtype_name": "Purpleleaf Plum", "zip_code": "89052", "ownership": "public", "ownership_raw": "Nevada Division of Forestry", "city": "Henderson", "source_dataset": "Clark County Schools Tree Inventory", "source_department": "Nevada Division of Forestry", "source_last_edit_at": "2024-11-18T19:16:08.490000+00:00"}}, {"type": "Feature", "geometry": {"type": "Point", "coordinates": [-115.12160720352807, 35.99061482522342]}, "properties": {"id": "henderson-25544", "species_group": "plum", "scientific_name": "Prunus cerasifera", "common_name": "Purple-leaf plum", "subtype_name": "Purpleleaf Plum", "zip_code": "89052", "ownership": "public", "ownership_raw": "Nevada Division of Forestry", "city": "Henderson", "source_dataset": "Clark County Schools Tree Inventory", "source_department": "Nevada Division of Forestry", "source_last_edit_at": "2024-11-18T19:16:08.490000+00:00"}}, {"type": "Feature", "geometry": {"type": "Point", "coordinates": [-114.99226873011791, 36.02900903477653]}, "properties": {"id": "henderson-25789", "species_group": "plum", "scientific_name": "Prunus cerasifera", "common_name": "Purple-leaf plum", "subtype_name": "Purpleleaf Plum", "zip_code": "89015", "ownership": "public", "ownership_raw": "Nevada Division of Forestry", "city": "Henderson", "source_dataset": "Clark County Schools Tree Inventory", "source_department": "Nevada Division of Forestry", "source_last_edit_at": "2024-11-18T19:16:08.490000+00:00"}}, {"type": "Feature", "geometry": {"type": "Point", "coordinates": [-114.99234484706685, 36.02900040122949]}, "properties": {"id": "henderson-2886", "species_group": "plum", "scientific_name": "Prunus cerasifera", "common_name": "Purple-leaf plum", "subtype_name": "Purpleleaf Plum", "zip_code": "89015", "ownership": "public", "ownership_raw": "Nevada Division of Forestry", "city": "Henderson", "source_dataset": "Clark County Schools Tree Inventory", "source_department": "Nevada Division of Forestry", "source_last_edit_at": "2024-11-18T19:16:08.490000+00:00"}}, {"type": "Feature", "geometry": {"type": "Point", "coordinates": [-115.12160750895526, 35.99056254296355]}, "properties": {"id": "henderson-4520", "species_group": "plum", "scientific_name": "Prunus cerasifera", "common_name": "Purple-leaf plum", "subtype_name": "Purpleleaf Plum", "zip_code": "89052", "ownership": "public", "ownership_raw": "Nevada Division of Forestry", "city": "Henderson", "source_dataset": "Clark County Schools Tree Inventory", "source_department": "Nevada Division of Forestry", "source_last_edit_at": "2024-11-18T19:16:08.490000+00:00"}}]}