{"type": "FeatureCollection", "features": [{"type": "Feature", "geometry": {"type": "Point", "coordinates": [-82.57191700027101, 35.68925399977534]}, "properties": {"id": "weaverville-109", "species_group": "crabapple", "scientific_name": "Malus spp.", "common_name": "Crabapple spp.", "subtype_name": "Crabapple spp.", "zip_code": "28787", "ownership": "public", "ownership_raw": "Town of Weaverville", "city": "Weaverville", "source_dataset": "Weaverville Tree Inventory", "source_department": "Town of Weaverville", "source_last_edit_at": "2026-03-06T16:01:19.243000+00:00"}}, {"type": "Feature", "geometry": {"type": "Point", "coordinates": [-82.57022999981633, 35.68974700002707]}, "properties": {"id": "weaverville-115", "species_group": "crabapple", "scientific_name": "Malus spp.", "common_name": "Crabapple", "subtype_name": "Malus spp.", "zip_code": "28787", "ownership": "public", "ownership_raw": "Town of Weaverville", "city": "Weaverville", "source_dataset": "Weaverville Tree Inventory", "source_department": "Town of Weaverville", "source_last_edit_at": "2026-03-06T16:01:19.243000+00:00"}}, {"type": "Feature", "geometry": {"type": "Point", "coordinates": [-82.56977000018703, 35.68963000002755]}, "properties": {"id": "weaverville-13", "species_group": "cherry", "scientific_name": "Prunus serrulata", "common_name": "Kwanzan Cherry", "subtype_name": "Kwanzan", "zip_code": "28787", "ownership": "public", "ownership_raw": "Town of Weaverville", "city": "Weaverville", "source_dataset": "Weaverville Tree Inventory", "source_department": "Town of Weaverville", "source_last_edit_at": "2026-03-06T16:01:19.243000+00:00"}}, {"type": "Feature", "geometry": {"type": "Point", "coordinates": [-82.56871099991442, 35.690814999815515]}, "properties": {"id": "weaverville-139", "species_group": "plum", "scientific_name": "Prunus cerasifera", "common_name": "Purple Leaf Plum", "subtype_name": "Purpleleaf Plum", "zip_code": "28787", "ownership": "public", "ownership_raw": "Town of Weaverville", "city": "Weaverville", "source_dataset": "Weaverville Tree Inventory", "source_department": "Town of Weaverville", "source_last_edit_at": "2026-03-06T16:01:19.243000+00:00"}}, {"type": "Feature", "geometry": {"type": "Point", "coordinates": [-82.56310100021268, 35.69413199989496]}, "properties": {"id": "weaverville-206", "species_group": "magnolia", "scientific_name": "Magnolia grandiflora", "common_name": "Southern magnolia", "subtype_name": "Southern Magnolia", "zip_code": "28787", "ownership": "public", "ownership_raw": "Town of Weaverville", "city": "Weaverville", "source_dataset": "Weaverville Tree Inventory", "source_department": "Town of Weaverville", "source_last_edit_at": "2026-03-06T16:01:19.243000+00:00"}}, {"type": "Feature", "geometry": {"type": "Point", "coordinates": [-82.56359999984183, 35.69563900014285]}, "properties": {"id": "weaverville-207", "species_group": "plum", "scientific_name": "Prunus cerasifera", "common_name": "Purple Leaf Plum", "subtype_name": "Purpleleaf Plum", "zip_code": "28787", "ownership": "public", "ownership_raw": "Town of Weaverville", "city": "Weaverville", "source_dataset": "Weaverville Tree Inventory", "source_department": "Town of Weaverville", "source_last_edit_at": "2026-03-06T16:01:19.243000+00:00"}}]}