{"type": "FeatureCollection", "features": [{"type": "Feature", "geometry": {"type": "Point", "coordinates": [139.449585, 35.693478]}, "properties": {"id": "kunitachi-5dc1a93a242e4b8e", "species_group": "cherry", "scientific_name": "Prunus species", "common_name": "桜", "subtype_name": "桜", "zip_code": null, "ownership": "unknown", "ownership_raw": "", "city": "Kunitachi", "source_dataset": "Protected Trees / 保護指定樹木", "source_department": "Kunitachi City", "source_last_edit_at": ""}}, {"type": "Feature", "geometry": {"type": "Point", "coordinates": [139.448334, 35.677238]}, "properties": {"id": "kunitachi-e06e954636d7c5b8", "species_group": "cherry", "scientific_name": "Prunus species", "common_name": "桜", "subtype_name": "桜", "zip_code": null, "ownership": "unknown", "ownership_raw": "", "city": "Kunitachi", "source_dataset": "Protected Trees / 保護指定樹木", "source_department": "Kunitachi City", "source_last_edit_at": ""}}, {"type": "Feature", "geometry": {"type": "Point", "coordinates": [139.443466, 35.684826]}, "properties": {"id": "kunitachi-e0b6c9ebb6568033", "species_group": "plum", "scientific_name": "Prunus species", "common_name": "銀杏", "subtype_name": "銀杏", "zip_code": null, "ownership": "unknown", "ownership_raw": "", "city": "Kunitachi", "source_dataset": "Protected Trees / 保護指定樹木", "source_department": "Kunitachi City", "source_last_edit_at": ""}}, {"type": "Feature", "geometry": {"type": "Point", "coordinates": [139.434845, 35.692997]}, "properties": {"id": "kunitachi-f2bbef93b1071a65", "species_group": "cherry", "scientific_name": "Prunus species", "common_name": "山桜", "subtype_name": "山桜", "zip_code": null, "ownership": "unknown", "ownership_raw": "", "city": "Kunitachi", "source_dataset": "Protected Trees / 保護指定樹木", "source_department": "Kunitachi City", "source_last_edit_at": ""}}]}