{"type": "FeatureCollection", "features": [{"type": "Feature", "geometry": {"type": "Point", "coordinates": [-119.4952582655828, 49.8881074443844]}, "properties": {"id": "kelowna-109279", "species_group": "magnolia", "scientific_name": "Magnolia", "common_name": "Magnolia", "subtype_name": null, "zip_code": null, "ownership": "public", "ownership_raw": "City of Kelowna", "city": "Kelowna", "source_dataset": "Tree Inventory", "source_department": "City of Kelowna", "source_last_edit_at": ""}}, {"type": "Feature", "geometry": {"type": "Point", "coordinates": [-119.49069732193692, 49.892580720607725]}, "properties": {"id": "kelowna-1122", "species_group": "plum", "scientific_name": "Prunus cerasifera", "common_name": "Cherry plum", "subtype_name": "Cherry Plum", "zip_code": null, "ownership": "public", "ownership_raw": "City of Kelowna", "city": "Kelowna", "source_dataset": "Tree Inventory", "source_department": "City of Kelowna", "source_last_edit_at": ""}}, {"type": "Feature", "geometry": {"type": "Point", "coordinates": [-119.48991071002894, 49.892727143859155]}, "properties": {"id": "kelowna-1129", "species_group": "plum", "scientific_name": "Prunus cerasifera", "common_name": "Cherry plum", "subtype_name": "Cherry Plum", "zip_code": null, "ownership": "public", "ownership_raw": "City of Kelowna", "city": "Kelowna", "source_dataset": "Tree Inventory", "source_department": "City of Kelowna", "source_last_edit_at": ""}}, {"type": "Feature", "geometry": {"type": "Point", "coordinates": [-119.49123956829371, 49.892725481549526]}, "properties": {"id": "kelowna-1131", "species_group": "plum", "scientific_name": "Prunus cerasifera", "common_name": "Cherry plum", "subtype_name": "Cherry Plum", "zip_code": null, "ownership": "public", "ownership_raw": "City of Kelowna", "city": "Kelowna", "source_dataset": "Tree Inventory", "source_department": "City of Kelowna", "source_last_edit_at": ""}}, {"type": "Feature", "geometry": {"type": "Point", "coordinates": [-119.48458805337431, 49.838094068040455]}, "properties": {"id": "kelowna-11817", "species_group": "crabapple", "scientific_name": "Malus spp.", "common_name": "Apple", "subtype_name": "Apple", "zip_code": null, "ownership": "public", "ownership_raw": "City of Kelowna", "city": "Kelowna", "source_dataset": "Tree Inventory", "source_department": "City of Kelowna", "source_last_edit_at": ""}}, {"type": "Feature", "geometry": {"type": "Point", "coordinates": [-119.48464958503735, 49.838098649545344]}, "properties": {"id": "kelowna-11818", "species_group": "crabapple", "scientific_name": "Malus spp.", "common_name": "Apple", "subtype_name": "Apple", "zip_code": null, "ownership": "public", "ownership_raw": "City of Kelowna", "city": "Kelowna", "source_dataset": "Tree Inventory", "source_department": "City of Kelowna", "source_last_edit_at": ""}}, {"type": "Feature", "geometry": {"type": "Point", "coordinates": [-119.4964636498304, 49.888005747226174]}, "properties": {"id": "kelowna-12660", "species_group": "magnolia", "scientific_name": "Magnolia spp.", "common_name": "Magnolia", "subtype_name": "Magnolia spp.", "zip_code": null, "ownership": "public", "ownership_raw": "City of Kelowna", "city": "Kelowna", "source_dataset": "Tree Inventory", "source_department": "City of Kelowna", "source_last_edit_at": ""}}, {"type": "Feature", "geometry": {"type": "Point", "coordinates": [-119.49646690839765, 49.88797500178133]}, "properties": {"id": "kelowna-12661", "species_group": "magnolia", "scientific_name": "Magnolia spp.", "common_name": "Magnolia", "subtype_name": "Magnolia spp.", "zip_code": null, "ownership": "public", "ownership_raw": "City of Kelowna", "city": "Kelowna", "source_dataset": "Tree Inventory", "source_department": "City of Kelowna", "source_last_edit_at": ""}}, {"type": "Feature", "geometry": {"type": "Point", "coordinates": [-119.49644435382478, 49.88790596011885]}, "properties": {"id": "kelowna-12662", "species_group": "magnolia", "scientific_name": "Magnolia spp.", "common_name": "Magnolia", "subtype_name": "Magnolia spp.", "zip_code": null, "ownership": "public", "ownership_raw": "City of Kelowna", "city": "Kelowna", "source_dataset": "Tree Inventory", "source_department": "City of Kelowna", "source_last_edit_at": ""}}, {"type": "Feature", "geometry": {"type": "Point", "coordinates": [-119.4964194308402, 49.88780856113798]}, "properties": {"id": "kelowna-12663", "species_group": "magnolia", "scientific_name": "Magnolia spp.", "common_name": "Magnolia", "subtype_name": "Magnolia spp.", "zip_code": null, "ownership": "public", "ownership_raw": "City of Kelowna", "city": "Kelowna", "source_dataset": "Tree Inventory", "source_department": "City of Kelowna", "source_last_edit_at": ""}}, {"type": "Feature", "geometry": {"type": "Point", "coordinates": [-119.47704504793423, 49.871111465977556]}, "properties": {"id": "kelowna-13451", "species_group": "magnolia", "scientific_name": "Magnolia spp.", "common_name": "Magnolia", "subtype_name": "Magnolia spp.", "zip_code": null, "ownership": "public", "ownership_raw": "City of Kelowna", "city": "Kelowna", "source_dataset": "Tree Inventory", "source_department": "City of Kelowna", "source_last_edit_at": ""}}, {"type": "Feature", "geometry": {"type": "Point", "coordinates": [-119.4770057245334, 49.87083295837986]}, "properties": {"id": "kelowna-13464", "species_group": "magnolia", "scientific_name": "Magnolia x soulangeana", "common_name": "Saucer magnolia", "subtype_name": "Saucer Magnolia", "zip_code": null, "ownership": "public", "ownership_raw": "City of Kelowna", "city": "Kelowna", "source_dataset": "Tree Inventory", "source_department": "City of Kelowna", "source_last_edit_at": ""}}, {"type": "Feature", "geometry": {"type": "Point", "coordinates": [-119.49512033626556, 49.888285576878886]}, "properties": {"id": "kelowna-14517", "species_group": "crabapple", "scientific_name": "Malus spp.", "common_name": "Apple", "subtype_name": "Apple", "zip_code": null, "ownership": "public", "ownership_raw": "City of Kelowna", "city": "Kelowna", "source_dataset": "Tree Inventory", "source_department": "City of Kelowna", "source_last_edit_at": ""}}, {"type": "Feature", "geometry": {"type": "Point", "coordinates": [-119.49495955407866, 49.888165015331374]}, "properties": {"id": "kelowna-14522", "species_group": "crabapple", "scientific_name": "Malus spp.", "common_name": "Apple", "subtype_name": "Apple", "zip_code": null, "ownership": "public", "ownership_raw": "City of Kelowna", "city": "Kelowna", "source_dataset": "Tree Inventory", "source_department": "City of Kelowna", "source_last_edit_at": ""}}, {"type": "Feature", "geometry": {"type": "Point", "coordinates": [-119.49493647472394, 49.887860891815414]}, "properties": {"id": "kelowna-14530", "species_group": "crabapple", "scientific_name": "Malus spp.", "common_name": "Apple", "subtype_name": "Apple", "zip_code": null, "ownership": "public", "ownership_raw": "City of Kelowna", "city": "Kelowna", "source_dataset": "Tree Inventory", "source_department": "City of Kelowna", "source_last_edit_at": ""}}, {"type": "Feature", "geometry": {"type": "Point", "coordinates": [-119.49497470246033, 49.887815702115745]}, "properties": {"id": "kelowna-14534", "species_group": "crabapple", "scientific_name": "Malus spp.", "common_name": "Apple", "subtype_name": "Apple", "zip_code": null, "ownership": "public", "ownership_raw": "City of Kelowna", "city": "Kelowna", "source_dataset": "Tree Inventory", "source_department": "City of Kelowna", "source_last_edit_at": ""}}, {"type": "Feature", "geometry": {"type": "Point", "coordinates": [-119.4951126271975, 49.88794636317508]}, "properties": {"id": "kelowna-14540", "species_group": "crabapple", "scientific_name": "Malus spp.", "common_name": "Apple", "subtype_name": "Apple", "zip_code": null, "ownership": "public", "ownership_raw": "City of Kelowna", "city": "Kelowna", "source_dataset": "Tree Inventory", "source_department": "City of Kelowna", "source_last_edit_at": ""}}, {"type": "Feature", "geometry": {"type": "Point", "coordinates": [-119.49522159034983, 49.88808373775777]}, "properties": {"id": "kelowna-14542", "species_group": "crabapple", "scientific_name": "Malus spp.", "common_name": "Apple", "subtype_name": "Apple", "zip_code": null, "ownership": "public", "ownership_raw": "City of Kelowna", "city": "Kelowna", "source_dataset": "Tree Inventory", "source_department": "City of Kelowna", "source_last_edit_at": ""}}, {"type": "Feature", "geometry": {"type": "Point", "coordinates": [-119.4947562512861, 49.87551920993747]}, "properties": {"id": "kelowna-14740", "species_group": "magnolia", "scientific_name": "Magnolia", "common_name": "Magnolia", "subtype_name": null, "zip_code": null, "ownership": "public", "ownership_raw": "City of Kelowna", "city": "Kelowna", "source_dataset": "Tree Inventory", "source_department": "City of Kelowna", "source_last_edit_at": ""}}, {"type": "Feature", "geometry": {"type": "Point", "coordinates": [-119.38379773340257, 49.90612519039735]}, "properties": {"id": "kelowna-1498", "species_group": "magnolia", "scientific_name": "Magnolia spp.", "common_name": "Magnolia", "subtype_name": "Magnolia spp.", "zip_code": null, "ownership": "public", "ownership_raw": "City of Kelowna", "city": "Kelowna", "source_dataset": "Tree Inventory", "source_department": "City of Kelowna", "source_last_edit_at": ""}}, {"type": "Feature", "geometry": {"type": "Point", "coordinates": [-119.48682626879184, 49.8224809230662]}, "properties": {"id": "kelowna-154240", "species_group": "cherry", "scientific_name": "Prunus", "common_name": "Cherry plum", "subtype_name": "Cherry plum", "zip_code": null, "ownership": "public", "ownership_raw": "City of Kelowna", "city": "Kelowna", "source_dataset": "Tree Inventory", "source_department": "City of Kelowna", "source_last_edit_at": ""}}, {"type": "Feature", "geometry": {"type": "Point", "coordinates": [-119.482677153672, 49.80332795326372]}, "properties": {"id": "kelowna-16587", "species_group": "crabapple", "scientific_name": "Malus spp.", "common_name": "Apple", "subtype_name": "Apple", "zip_code": null, "ownership": "public", "ownership_raw": "City of Kelowna", "city": "Kelowna", "source_dataset": "Tree Inventory", "source_department": "City of Kelowna", "source_last_edit_at": ""}}, {"type": "Feature", "geometry": {"type": "Point", "coordinates": [-119.48268309699314, 49.803426446433704]}, "properties": {"id": "kelowna-16588", "species_group": "crabapple", "scientific_name": "Malus spp.", "common_name": "Apple", "subtype_name": "Apple", "zip_code": null, "ownership": "public", "ownership_raw": "City of Kelowna", "city": "Kelowna", "source_dataset": "Tree Inventory", "source_department": "City of Kelowna", "source_last_edit_at": ""}}, {"type": "Feature", "geometry": {"type": "Point", "coordinates": [-119.4826742148276, 49.80347535900738]}, "properties": {"id": "kelowna-16589", "species_group": "crabapple", "scientific_name": "Malus spp.", "common_name": "Apple", "subtype_name": "Apple", "zip_code": null, "ownership": "public", "ownership_raw": "City of Kelowna", "city": "Kelowna", "source_dataset": "Tree Inventory", "source_department": "City of Kelowna", "source_last_edit_at": ""}}, {"type": "Feature", "geometry": {"type": "Point", "coordinates": [-119.48268912027412, 49.80355746657172]}, "properties": {"id": "kelowna-16590", "species_group": "crabapple", "scientific_name": "Malus spp.", "common_name": "Apple", "subtype_name": "Apple", "zip_code": null, "ownership": "public", "ownership_raw": "City of Kelowna", "city": "Kelowna", "source_dataset": "Tree Inventory", "source_department": "City of Kelowna", "source_last_edit_at": ""}}, {"type": "Feature", "geometry": {"type": "Point", "coordinates": [-119.48269352734455, 49.803608009262184]}, "properties": {"id": "kelowna-16591", "species_group": "crabapple", "scientific_name": "Malus spp.", "common_name": "Apple", "subtype_name": "Apple", "zip_code": null, "ownership": "public", "ownership_raw": "City of Kelowna", "city": "Kelowna", "source_dataset": "Tree Inventory", "source_department": "City of Kelowna", "source_last_edit_at": ""}}, {"type": "Feature", "geometry": {"type": "Point", "coordinates": [-119.48268479274277, 49.80365515437798]}, "properties": {"id": "kelowna-16592", "species_group": "crabapple", "scientific_name": "Malus spp.", "common_name": "Apple", "subtype_name": "Apple", "zip_code": null, "ownership": "public", "ownership_raw": "City of Kelowna", "city": "Kelowna", "source_dataset": "Tree Inventory", "source_department": "City of Kelowna", "source_last_edit_at": ""}}, {"type": "Feature", "geometry": {"type": "Point", "coordinates": [-119.48284823331916, 49.80357804755945]}, "properties": {"id": "kelowna-16594", "species_group": "crabapple", "scientific_name": "Malus spp.", "common_name": "Apple", "subtype_name": "Apple", "zip_code": null, "ownership": "public", "ownership_raw": "City of Kelowna", "city": "Kelowna", "source_dataset": "Tree Inventory", "source_department": "City of Kelowna", "source_last_edit_at": ""}}, {"type": "Feature", "geometry": {"type": "Point", "coordinates": [-119.48286498414363, 49.8033320231455]}, "properties": {"id": "kelowna-16596", "species_group": "crabapple", "scientific_name": "Malus spp.", "common_name": "Apple", "subtype_name": "Apple", "zip_code": null, "ownership": "public", "ownership_raw": "City of Kelowna", "city": "Kelowna", "source_dataset": "Tree Inventory", "source_department": "City of Kelowna", "source_last_edit_at": ""}}, {"type": "Feature", "geometry": {"type": "Point", "coordinates": [-119.4829490646562, 49.80324332162072]}, "properties": {"id": "kelowna-16600", "species_group": "crabapple", "scientific_name": "Malus spp.", "common_name": "Apple", "subtype_name": "Apple", "zip_code": null, "ownership": "public", "ownership_raw": "City of Kelowna", "city": "Kelowna", "source_dataset": "Tree Inventory", "source_department": "City of Kelowna", "source_last_edit_at": ""}}, {"type": "Feature", "geometry": {"type": "Point", "coordinates": [-119.48294233060085, 49.80330157862218]}, "properties": {"id": "kelowna-16601", "species_group": "crabapple", "scientific_name": "Malus spp.", "common_name": "Apple", "subtype_name": "Apple", "zip_code": null, "ownership": "public", "ownership_raw": "City of Kelowna", "city": "Kelowna", "source_dataset": "Tree Inventory", "source_department": "City of Kelowna", "source_last_edit_at": ""}}, {"type": "Feature", "geometry": {"type": "Point", "coordinates": [-119.48293634066731, 49.803361339955]}, "properties": {"id": "kelowna-16602", "species_group": "crabapple", "scientific_name": "Malus spp.", "common_name": "Apple", "subtype_name": "Apple", "zip_code": null, "ownership": "public", "ownership_raw": "City of Kelowna", "city": "Kelowna", "source_dataset": "Tree Inventory", "source_department": "City of Kelowna", "source_last_edit_at": ""}}, {"type": "Feature", "geometry": {"type": "Point", "coordinates": [-119.48293319517236, 49.80341638949966]}, "properties": {"id": "kelowna-16603", "species_group": "crabapple", "scientific_name": "Malus spp.", "common_name": "Apple", "subtype_name": "Apple", "zip_code": null, "ownership": "public", "ownership_raw": "City of Kelowna", "city": "Kelowna", "source_dataset": "Tree Inventory", "source_department": "City of Kelowna", "source_last_edit_at": ""}}, {"type": "Feature", "geometry": {"type": "Point", "coordinates": [-119.48290390434444, 49.80355506641331]}, "properties": {"id": "kelowna-16605", "species_group": "crabapple", "scientific_name": "Malus spp.", "common_name": "Apple", "subtype_name": "Apple", "zip_code": null, "ownership": "public", "ownership_raw": "City of Kelowna", "city": "Kelowna", "source_dataset": "Tree Inventory", "source_department": "City of Kelowna", "source_last_edit_at": ""}}, {"type": "Feature", "geometry": {"type": "Point", "coordinates": [-119.47501116271987, 49.8352133670466]}, "properties": {"id": "kelowna-16752", "species_group": "magnolia", "scientific_name": "Magnolia spp.", "common_name": "Sugar maple", "subtype_name": "Sugar maple", "zip_code": null, "ownership": "public", "ownership_raw": "City of Kelowna", "city": "Kelowna", "source_dataset": "Tree Inventory", "source_department": "City of Kelowna", "source_last_edit_at": ""}}, {"type": "Feature", "geometry": {"type": "Point", "coordinates": [-119.49304628039651, 49.823137218731446]}, "properties": {"id": "kelowna-170011", "species_group": "magnolia", "scientific_name": "Magnolia species", "common_name": "Magnolia", "subtype_name": null, "zip_code": null, "ownership": "public", "ownership_raw": "City of Kelowna", "city": "Kelowna", "source_dataset": "Tree Inventory", "source_department": "City of Kelowna", "source_last_edit_at": ""}}, {"type": "Feature", "geometry": {"type": "Point", "coordinates": [-119.49812462799282, 49.82574705644259]}, "properties": {"id": "kelowna-170013", "species_group": "magnolia", "scientific_name": "Magnolia species", "common_name": "Magnolia", "subtype_name": null, "zip_code": null, "ownership": "public", "ownership_raw": "City of Kelowna", "city": "Kelowna", "source_dataset": "Tree Inventory", "source_department": "City of Kelowna", "source_last_edit_at": ""}}, {"type": "Feature", "geometry": {"type": "Point", "coordinates": [-119.44529445519609, 49.88881907354685]}, "properties": {"id": "kelowna-171214", "species_group": "magnolia", "scientific_name": "Magnolia species", "common_name": "Magnolia", "subtype_name": null, "zip_code": null, "ownership": "public", "ownership_raw": "City of Kelowna", "city": "Kelowna", "source_dataset": "Tree Inventory", "source_department": "City of Kelowna", "source_last_edit_at": ""}}, {"type": "Feature", "geometry": {"type": "Point", "coordinates": [-119.44529753267123, 49.888908423879414]}, "properties": {"id": "kelowna-171215", "species_group": "magnolia", "scientific_name": "Magnolia species", "common_name": "Magnolia", "subtype_name": null, "zip_code": null, "ownership": "public", "ownership_raw": "City of Kelowna", "city": "Kelowna", "source_dataset": "Tree Inventory", "source_department": "City of Kelowna", "source_last_edit_at": ""}}, {"type": "Feature", "geometry": {"type": "Point", "coordinates": [-119.44529631833277, 49.88906019537413]}, "properties": {"id": "kelowna-171216", "species_group": "magnolia", "scientific_name": "Magnolia species", "common_name": "Magnolia", "subtype_name": null, "zip_code": null, "ownership": "public", "ownership_raw": "City of Kelowna", "city": "Kelowna", "source_dataset": "Tree Inventory", "source_department": "City of Kelowna", "source_last_edit_at": ""}}, {"type": "Feature", "geometry": {"type": "Point", "coordinates": [-119.44530203973889, 49.888990454225215]}, "properties": {"id": "kelowna-171217", "species_group": "magnolia", "scientific_name": "Magnolia species", "common_name": "Magnolia", "subtype_name": null, "zip_code": null, "ownership": "public", "ownership_raw": "City of Kelowna", "city": "Kelowna", "source_dataset": "Tree Inventory", "source_department": "City of Kelowna", "source_last_edit_at": ""}}, {"type": "Feature", "geometry": {"type": "Point", "coordinates": [-119.49634538466188, 49.88755639282922]}, "properties": {"id": "kelowna-171623", "species_group": "magnolia", "scientific_name": "Magnolia species", "common_name": "Magnolia", "subtype_name": null, "zip_code": null, "ownership": "public", "ownership_raw": "City of Kelowna", "city": "Kelowna", "source_dataset": "Tree Inventory", "source_department": "City of Kelowna", "source_last_edit_at": ""}}, {"type": "Feature", "geometry": {"type": "Point", "coordinates": [-119.49635324539132, 49.88845321351995]}, "properties": {"id": "kelowna-17555", "species_group": "magnolia", "scientific_name": "Magnolia stellata", "common_name": "Star magnolia", "subtype_name": "Star Magnolia", "zip_code": null, "ownership": "public", "ownership_raw": "City of Kelowna", "city": "Kelowna", "source_dataset": "Tree Inventory", "source_department": "City of Kelowna", "source_last_edit_at": ""}}, {"type": "Feature", "geometry": {"type": "Point", "coordinates": [-119.49635435790879, 49.888539521020675]}, "properties": {"id": "kelowna-17556", "species_group": "magnolia", "scientific_name": "Magnolia stellata", "common_name": "Star magnolia", "subtype_name": "Star Magnolia", "zip_code": null, "ownership": "public", "ownership_raw": "City of Kelowna", "city": "Kelowna", "source_dataset": "Tree Inventory", "source_department": "City of Kelowna", "source_last_edit_at": ""}}, {"type": "Feature", "geometry": {"type": "Point", "coordinates": [-119.50020273334391, 49.8851595114858]}, "properties": {"id": "kelowna-175597", "species_group": "magnolia", "scientific_name": "Magnolia species", "common_name": "Magnolia", "subtype_name": null, "zip_code": null, "ownership": "public", "ownership_raw": "City of Kelowna", "city": "Kelowna", "source_dataset": "Tree Inventory", "source_department": "City of Kelowna", "source_last_edit_at": ""}}, {"type": "Feature", "geometry": {"type": "Point", "coordinates": [-119.5003287003948, 49.885167921232636]}, "properties": {"id": "kelowna-175598", "species_group": "magnolia", "scientific_name": "Magnolia species", "common_name": "Magnolia", "subtype_name": null, "zip_code": null, "ownership": "public", "ownership_raw": "City of Kelowna", "city": "Kelowna", "source_dataset": "Tree Inventory", "source_department": "City of Kelowna", "source_last_edit_at": ""}}, {"type": "Feature", "geometry": {"type": "Point", "coordinates": [-119.49862679532369, 49.82631131533415]}, "properties": {"id": "kelowna-176782", "species_group": "magnolia", "scientific_name": "Magnolia species", "common_name": "Magnolia", "subtype_name": null, "zip_code": null, "ownership": "public", "ownership_raw": "City of Kelowna", "city": "Kelowna", "source_dataset": "Tree Inventory", "source_department": "City of Kelowna", "source_last_edit_at": ""}}, {"type": "Feature", "geometry": {"type": "Point", "coordinates": [-119.46691173821593, 49.90604684342828]}, "properties": {"id": "kelowna-17894", "species_group": "magnolia", "scientific_name": "Magnolia stellata", "common_name": "Star magnolia", "subtype_name": "Star Magnolia", "zip_code": null, "ownership": "public", "ownership_raw": "City of Kelowna", "city": "Kelowna", "source_dataset": "Tree Inventory", "source_department": "City of Kelowna", "source_last_edit_at": ""}}, {"type": "Feature", "geometry": {"type": "Point", "coordinates": [-119.45702104102475, 49.885214174651516]}, "properties": {"id": "kelowna-18233", "species_group": "magnolia", "scientific_name": "Magnolia spp.", "common_name": "Magnolia", "subtype_name": "Magnolia spp.", "zip_code": null, "ownership": "public", "ownership_raw": "City of Kelowna", "city": "Kelowna", "source_dataset": "Tree Inventory", "source_department": "City of Kelowna", "source_last_edit_at": ""}}, {"type": "Feature", "geometry": {"type": "Point", "coordinates": [-119.45671302259944, 49.88489700627961]}, "properties": {"id": "kelowna-18234", "species_group": "magnolia", "scientific_name": "Magnolia spp.", "common_name": "Magnolia", "subtype_name": "Magnolia spp.", "zip_code": null, "ownership": "public", "ownership_raw": "City of Kelowna", "city": "Kelowna", "source_dataset": "Tree Inventory", "source_department": "City of Kelowna", "source_last_edit_at": ""}}, {"type": "Feature", "geometry": {"type": "Point", "coordinates": [-119.48778603943589, 49.804825266888976]}, "properties": {"id": "kelowna-185190", "species_group": "cherry", "scientific_name": "Prunus", "common_name": "Cherry plum", "subtype_name": "Cherry plum", "zip_code": null, "ownership": "public", "ownership_raw": "City of Kelowna", "city": "Kelowna", "source_dataset": "Tree Inventory", "source_department": "City of Kelowna", "source_last_edit_at": ""}}, {"type": "Feature", "geometry": {"type": "Point", "coordinates": [-119.48778437319444, 49.80484315590501]}, "properties": {"id": "kelowna-185192", "species_group": "crabapple", "scientific_name": "Malus species", "common_name": "Apple", "subtype_name": "Apple", "zip_code": null, "ownership": "public", "ownership_raw": "City of Kelowna", "city": "Kelowna", "source_dataset": "Tree Inventory", "source_department": "City of Kelowna", "source_last_edit_at": ""}}, {"type": "Feature", "geometry": {"type": "Point", "coordinates": [-119.48599670960948, 49.806274228847315]}, "properties": {"id": "kelowna-185602", "species_group": "crabapple", "scientific_name": "Malus species", "common_name": "Apple", "subtype_name": "Apple", "zip_code": null, "ownership": "public", "ownership_raw": "City of Kelowna", "city": "Kelowna", "source_dataset": "Tree Inventory", "source_department": "City of Kelowna", "source_last_edit_at": ""}}, {"type": "Feature", "geometry": {"type": "Point", "coordinates": [-119.48606580657379, 49.80628394437631]}, "properties": {"id": "kelowna-185603", "species_group": "crabapple", "scientific_name": "Malus species", "common_name": "Apple", "subtype_name": "Apple", "zip_code": null, "ownership": "public", "ownership_raw": "City of Kelowna", "city": "Kelowna", "source_dataset": "Tree Inventory", "source_department": "City of Kelowna", "source_last_edit_at": ""}}, {"type": "Feature", "geometry": {"type": "Point", "coordinates": [-119.48588803453164, 49.80543061308768]}, "properties": {"id": "kelowna-186022", "species_group": "magnolia", "scientific_name": "Magnolia species", "common_name": "Magnolia", "subtype_name": null, "zip_code": null, "ownership": "public", "ownership_raw": "City of Kelowna", "city": "Kelowna", "source_dataset": "Tree Inventory", "source_department": "City of Kelowna", "source_last_edit_at": ""}}, {"type": "Feature", "geometry": {"type": "Point", "coordinates": [-119.48702616229004, 49.80851962696288]}, "properties": {"id": "kelowna-186395", "species_group": "cherry", "scientific_name": "Prunus", "common_name": "Cherry plum", "subtype_name": "Cherry plum", "zip_code": null, "ownership": "public", "ownership_raw": "City of Kelowna", "city": "Kelowna", "source_dataset": "Tree Inventory", "source_department": "City of Kelowna", "source_last_edit_at": ""}}, {"type": "Feature", "geometry": {"type": "Point", "coordinates": [-119.48862144657566, 49.81019011774971]}, "properties": {"id": "kelowna-186413", "species_group": "cherry", "scientific_name": "Prunus", "common_name": "Cherry plum", "subtype_name": "Cherry plum", "zip_code": null, "ownership": "public", "ownership_raw": "City of Kelowna", "city": "Kelowna", "source_dataset": "Tree Inventory", "source_department": "City of Kelowna", "source_last_edit_at": ""}}, {"type": "Feature", "geometry": {"type": "Point", "coordinates": [-119.48855263257367, 49.810163141513996]}, "properties": {"id": "kelowna-186414", "species_group": "cherry", "scientific_name": "Prunus", "common_name": "Cherry plum", "subtype_name": "Cherry plum", "zip_code": null, "ownership": "public", "ownership_raw": "City of Kelowna", "city": "Kelowna", "source_dataset": "Tree Inventory", "source_department": "City of Kelowna", "source_last_edit_at": ""}}, {"type": "Feature", "geometry": {"type": "Point", "coordinates": [-119.47786826470404, 49.80423153426629]}, "properties": {"id": "kelowna-186840", "species_group": "plum", "scientific_name": "Prunus", "common_name": "Plum", "subtype_name": null, "zip_code": null, "ownership": "public", "ownership_raw": "City of Kelowna", "city": "Kelowna", "source_dataset": "Tree Inventory", "source_department": "City of Kelowna", "source_last_edit_at": ""}}, {"type": "Feature", "geometry": {"type": "Point", "coordinates": [-119.4803619830979, 49.805256386812175]}, "properties": {"id": "kelowna-187246", "species_group": "magnolia", "scientific_name": "Magnolia species", "common_name": "Star magnolia", "subtype_name": "Star Magnolia", "zip_code": null, "ownership": "public", "ownership_raw": "City of Kelowna", "city": "Kelowna", "source_dataset": "Tree Inventory", "source_department": "City of Kelowna", "source_last_edit_at": ""}}, {"type": "Feature", "geometry": {"type": "Point", "coordinates": [-119.48062480814033, 49.805862232545024]}, "properties": {"id": "kelowna-187248", "species_group": "magnolia", "scientific_name": "Magnolia species", "common_name": "Star magnolia", "subtype_name": "Star Magnolia", "zip_code": null, "ownership": "public", "ownership_raw": "City of Kelowna", "city": "Kelowna", "source_dataset": "Tree Inventory", "source_department": "City of Kelowna", "source_last_edit_at": ""}}, {"type": "Feature", "geometry": {"type": "Point", "coordinates": [-119.48198199912532, 49.80609827283716]}, "properties": {"id": "kelowna-187643", "species_group": "crabapple", "scientific_name": "Malus species", "common_name": "Apple", "subtype_name": "Apple", "zip_code": null, "ownership": "public", "ownership_raw": "City of Kelowna", "city": "Kelowna", "source_dataset": "Tree Inventory", "source_department": "City of Kelowna", "source_last_edit_at": ""}}, {"type": "Feature", "geometry": {"type": "Point", "coordinates": [-119.52323897520145, 49.790942488051805]}, "properties": {"id": "kelowna-188039", "species_group": "cherry", "scientific_name": "Prunus species", "common_name": "Cherry plum", "subtype_name": "Cherry plum", "zip_code": null, "ownership": "public", "ownership_raw": "City of Kelowna", "city": "Kelowna", "source_dataset": "Tree Inventory", "source_department": "City of Kelowna", "source_last_edit_at": ""}}, {"type": "Feature", "geometry": {"type": "Point", "coordinates": [-119.49239384908734, 49.82678451194003]}, "properties": {"id": "kelowna-193638", "species_group": "magnolia", "scientific_name": "Magnolia species", "common_name": "Magnolia", "subtype_name": null, "zip_code": null, "ownership": "public", "ownership_raw": "City of Kelowna", "city": "Kelowna", "source_dataset": "Tree Inventory", "source_department": "City of Kelowna", "source_last_edit_at": ""}}, {"type": "Feature", "geometry": {"type": "Point", "coordinates": [-119.4815034214605, 49.8021322135978]}, "properties": {"id": "kelowna-196439", "species_group": "cherry", "scientific_name": "Prunus", "common_name": "Chokecherry", "subtype_name": "Chokecherry", "zip_code": null, "ownership": "public", "ownership_raw": "City of Kelowna", "city": "Kelowna", "source_dataset": "Tree Inventory", "source_department": "City of Kelowna", "source_last_edit_at": ""}}, {"type": "Feature", "geometry": {"type": "Point", "coordinates": [-119.45399861267549, 49.88832240153402]}, "properties": {"id": "kelowna-19722", "species_group": "crabapple", "scientific_name": "Malus spp.", "common_name": "Apple", "subtype_name": "Apple", "zip_code": null, "ownership": "public", "ownership_raw": "City of Kelowna", "city": "Kelowna", "source_dataset": "Tree Inventory", "source_department": "City of Kelowna", "source_last_edit_at": ""}}, {"type": "Feature", "geometry": {"type": "Point", "coordinates": [-119.4539685939422, 49.888366863891044]}, "properties": {"id": "kelowna-19723", "species_group": "magnolia", "scientific_name": "Magnolia spp.", "common_name": "Magnolia", "subtype_name": "Magnolia spp.", "zip_code": null, "ownership": "public", "ownership_raw": "City of Kelowna", "city": "Kelowna", "source_dataset": "Tree Inventory", "source_department": "City of Kelowna", "source_last_edit_at": ""}}, {"type": "Feature", "geometry": {"type": "Point", "coordinates": [-119.44541520926552, 49.91586038734951]}, "properties": {"id": "kelowna-197638", "species_group": "cherry", "scientific_name": "Prunus", "common_name": "Cherry plum", "subtype_name": "Cherry plum", "zip_code": null, "ownership": "public", "ownership_raw": "City of Kelowna", "city": "Kelowna", "source_dataset": "Tree Inventory", "source_department": "City of Kelowna", "source_last_edit_at": ""}}, {"type": "Feature", "geometry": {"type": "Point", "coordinates": [-119.47906491532777, 49.80521804275843]}, "properties": {"id": "kelowna-20015", "species_group": "magnolia", "scientific_name": "Magnolia spp.", "common_name": "Magnolia", "subtype_name": "Magnolia spp.", "zip_code": null, "ownership": "public", "ownership_raw": "City of Kelowna", "city": "Kelowna", "source_dataset": "Tree Inventory", "source_department": "City of Kelowna", "source_last_edit_at": ""}}, {"type": "Feature", "geometry": {"type": "Point", "coordinates": [-119.4613002305896, 49.91922490289616]}, "properties": {"id": "kelowna-20067", "species_group": "magnolia", "scientific_name": "Magnolia spp.", "common_name": "Magnolia", "subtype_name": "Magnolia spp.", "zip_code": null, "ownership": "public", "ownership_raw": "City of Kelowna", "city": "Kelowna", "source_dataset": "Tree Inventory", "source_department": "City of Kelowna", "source_last_edit_at": ""}}, {"type": "Feature", "geometry": {"type": "Point", "coordinates": [-119.47554836681057, 49.83860920411279]}, "properties": {"id": "kelowna-20314", "species_group": "crabapple", "scientific_name": "Malus spp.", "common_name": "Bur oak", "subtype_name": "Bur oak", "zip_code": null, "ownership": "public", "ownership_raw": "City of Kelowna", "city": "Kelowna", "source_dataset": "Tree Inventory", "source_department": "City of Kelowna", "source_last_edit_at": ""}}, {"type": "Feature", "geometry": {"type": "Point", "coordinates": [-119.51506758387825, 49.79024592628346]}, "properties": {"id": "kelowna-20866", "species_group": "crabapple", "scientific_name": "Malus spp.", "common_name": "Lilac", "subtype_name": "Lilac", "zip_code": null, "ownership": "public", "ownership_raw": "City of Kelowna", "city": "Kelowna", "source_dataset": "Tree Inventory", "source_department": "City of Kelowna", "source_last_edit_at": ""}}, {"type": "Feature", "geometry": {"type": "Point", "coordinates": [-119.5150179223458, 49.79025236626801]}, "properties": {"id": "kelowna-20867", "species_group": "crabapple", "scientific_name": "Malus spp.", "common_name": "Lilac", "subtype_name": "Lilac", "zip_code": null, "ownership": "public", "ownership_raw": "City of Kelowna", "city": "Kelowna", "source_dataset": "Tree Inventory", "source_department": "City of Kelowna", "source_last_edit_at": ""}}, {"type": "Feature", "geometry": {"type": "Point", "coordinates": [-119.51498741789229, 49.79027668770981]}, "properties": {"id": "kelowna-20868", "species_group": "crabapple", "scientific_name": "Malus spp.", "common_name": "Lilac", "subtype_name": "Lilac", "zip_code": null, "ownership": "public", "ownership_raw": "City of Kelowna", "city": "Kelowna", "source_dataset": "Tree Inventory", "source_department": "City of Kelowna", "source_last_edit_at": ""}}, {"type": "Feature", "geometry": {"type": "Point", "coordinates": [-119.48842808854663, 49.86676259461384]}, "properties": {"id": "kelowna-209642", "species_group": "magnolia", "scientific_name": "Magnolia species", "common_name": "Magnolia", "subtype_name": null, "zip_code": null, "ownership": "public", "ownership_raw": "City of Kelowna", "city": "Kelowna", "source_dataset": "Tree Inventory", "source_department": "City of Kelowna", "source_last_edit_at": ""}}, {"type": "Feature", "geometry": {"type": "Point", "coordinates": [-119.4884388213684, 49.86662429824877]}, "properties": {"id": "kelowna-209643", "species_group": "magnolia", "scientific_name": "Magnolia species", "common_name": "Magnolia", "subtype_name": null, "zip_code": null, "ownership": "public", "ownership_raw": "City of Kelowna", "city": "Kelowna", "source_dataset": "Tree Inventory", "source_department": "City of Kelowna", "source_last_edit_at": ""}}, {"type": "Feature", "geometry": {"type": "Point", "coordinates": [-119.4884100385642, 49.866908537032955]}, "properties": {"id": "kelowna-209644", "species_group": "magnolia", "scientific_name": "Magnolia species", "common_name": "Magnolia", "subtype_name": null, "zip_code": null, "ownership": "public", "ownership_raw": "City of Kelowna", "city": "Kelowna", "source_dataset": "Tree Inventory", "source_department": "City of Kelowna", "source_last_edit_at": ""}}, {"type": "Feature", "geometry": {"type": "Point", "coordinates": [-119.4884108793554, 49.86639961813292]}, "properties": {"id": "kelowna-209646", "species_group": "magnolia", "scientific_name": "Magnolia species", "common_name": "Magnolia", "subtype_name": null, "zip_code": null, "ownership": "public", "ownership_raw": "City of Kelowna", "city": "Kelowna", "source_dataset": "Tree Inventory", "source_department": "City of Kelowna", "source_last_edit_at": ""}}, {"type": "Feature", "geometry": {"type": "Point", "coordinates": [-119.48840218585158, 49.866325220438355]}, "properties": {"id": "kelowna-209647", "species_group": "magnolia", "scientific_name": "Magnolia species", "common_name": "Magnolia", "subtype_name": null, "zip_code": null, "ownership": "public", "ownership_raw": "City of Kelowna", "city": "Kelowna", "source_dataset": "Tree Inventory", "source_department": "City of Kelowna", "source_last_edit_at": ""}}, {"type": "Feature", "geometry": {"type": "Point", "coordinates": [-119.48840777862033, 49.866205040457615]}, "properties": {"id": "kelowna-209648", "species_group": "magnolia", "scientific_name": "Magnolia species", "common_name": "Magnolia", "subtype_name": null, "zip_code": null, "ownership": "public", "ownership_raw": "City of Kelowna", "city": "Kelowna", "source_dataset": "Tree Inventory", "source_department": "City of Kelowna", "source_last_edit_at": ""}}, {"type": "Feature", "geometry": {"type": "Point", "coordinates": [-119.48954818947759, 49.8812782620916]}, "properties": {"id": "kelowna-213683", "species_group": "magnolia", "scientific_name": "Magnolia species", "common_name": "Magnolia", "subtype_name": null, "zip_code": null, "ownership": "public", "ownership_raw": "City of Kelowna", "city": "Kelowna", "source_dataset": "Tree Inventory", "source_department": "City of Kelowna", "source_last_edit_at": ""}}, {"type": "Feature", "geometry": {"type": "Point", "coordinates": [-119.48890523761136, 49.88154750915136]}, "properties": {"id": "kelowna-213698", "species_group": "magnolia", "scientific_name": "Magnolia species", "common_name": "Magnolia", "subtype_name": null, "zip_code": null, "ownership": "public", "ownership_raw": "City of Kelowna", "city": "Kelowna", "source_dataset": "Tree Inventory", "source_department": "City of Kelowna", "source_last_edit_at": ""}}, {"type": "Feature", "geometry": {"type": "Point", "coordinates": [-119.48897261063874, 49.88153411579521]}, "properties": {"id": "kelowna-213699", "species_group": "magnolia", "scientific_name": "Magnolia species", "common_name": "Magnolia", "subtype_name": null, "zip_code": null, "ownership": "public", "ownership_raw": "City of Kelowna", "city": "Kelowna", "source_dataset": "Tree Inventory", "source_department": "City of Kelowna", "source_last_edit_at": ""}}, {"type": "Feature", "geometry": {"type": "Point", "coordinates": [-119.48907052647732, 49.88155175921989]}, "properties": {"id": "kelowna-213700", "species_group": "magnolia", "scientific_name": "Magnolia species", "common_name": "Magnolia", "subtype_name": null, "zip_code": null, "ownership": "public", "ownership_raw": "City of Kelowna", "city": "Kelowna", "source_dataset": "Tree Inventory", "source_department": "City of Kelowna", "source_last_edit_at": ""}}, {"type": "Feature", "geometry": {"type": "Point", "coordinates": [-119.48930850329293, 49.88154658198985]}, "properties": {"id": "kelowna-213701", "species_group": "magnolia", "scientific_name": "Magnolia species", "common_name": "Magnolia", "subtype_name": null, "zip_code": null, "ownership": "public", "ownership_raw": "City of Kelowna", "city": "Kelowna", "source_dataset": "Tree Inventory", "source_department": "City of Kelowna", "source_last_edit_at": ""}}, {"type": "Feature", "geometry": {"type": "Point", "coordinates": [-119.48962119687522, 49.882187417744404]}, "properties": {"id": "kelowna-213716", "species_group": "magnolia", "scientific_name": "Magnolia species", "common_name": "Magnolia", "subtype_name": null, "zip_code": null, "ownership": "public", "ownership_raw": "City of Kelowna", "city": "Kelowna", "source_dataset": "Tree Inventory", "source_department": "City of Kelowna", "source_last_edit_at": ""}}, {"type": "Feature", "geometry": {"type": "Point", "coordinates": [-119.48961843120262, 49.882097044793]}, "properties": {"id": "kelowna-213722", "species_group": "magnolia", "scientific_name": "Magnolia species", "common_name": "Magnolia", "subtype_name": null, "zip_code": null, "ownership": "public", "ownership_raw": "City of Kelowna", "city": "Kelowna", "source_dataset": "Tree Inventory", "source_department": "City of Kelowna", "source_last_edit_at": ""}}, {"type": "Feature", "geometry": {"type": "Point", "coordinates": [-119.48972573137476, 49.88207697746837]}, "properties": {"id": "kelowna-213723", "species_group": "magnolia", "scientific_name": "Magnolia species", "common_name": "Magnolia", "subtype_name": null, "zip_code": null, "ownership": "public", "ownership_raw": "City of Kelowna", "city": "Kelowna", "source_dataset": "Tree Inventory", "source_department": "City of Kelowna", "source_last_edit_at": ""}}, {"type": "Feature", "geometry": {"type": "Point", "coordinates": [-119.4900335425587, 49.882156488094864]}, "properties": {"id": "kelowna-213726", "species_group": "magnolia", "scientific_name": "Magnolia species", "common_name": "Magnolia", "subtype_name": null, "zip_code": null, "ownership": "public", "ownership_raw": "City of Kelowna", "city": "Kelowna", "source_dataset": "Tree Inventory", "source_department": "City of Kelowna", "source_last_edit_at": ""}}, {"type": "Feature", "geometry": {"type": "Point", "coordinates": [-119.49066685407433, 49.88217150852543]}, "properties": {"id": "kelowna-213733", "species_group": "magnolia", "scientific_name": "Magnolia species", "common_name": "Magnolia", "subtype_name": null, "zip_code": null, "ownership": "public", "ownership_raw": "City of Kelowna", "city": "Kelowna", "source_dataset": "Tree Inventory", "source_department": "City of Kelowna", "source_last_edit_at": ""}}, {"type": "Feature", "geometry": {"type": "Point", "coordinates": [-119.49081000219388, 49.88218189703687]}, "properties": {"id": "kelowna-213737", "species_group": "magnolia", "scientific_name": "Magnolia species", "common_name": "Magnolia", "subtype_name": null, "zip_code": null, "ownership": "public", "ownership_raw": "City of Kelowna", "city": "Kelowna", "source_dataset": "Tree Inventory", "source_department": "City of Kelowna", "source_last_edit_at": ""}}, {"type": "Feature", "geometry": {"type": "Point", "coordinates": [-119.49042554257886, 49.88105390441285]}, "properties": {"id": "kelowna-213787", "species_group": "magnolia", "scientific_name": "Magnolia species", "common_name": "Cucumber magnolia", "subtype_name": "Cucumber magnolia", "zip_code": null, "ownership": "public", "ownership_raw": "City of Kelowna", "city": "Kelowna", "source_dataset": "Tree Inventory", "source_department": "City of Kelowna", "source_last_edit_at": ""}}, {"type": "Feature", "geometry": {"type": "Point", "coordinates": [-119.44408995732226, 49.91713577848405]}, "properties": {"id": "kelowna-21631", "species_group": "plum", "scientific_name": "Prunus spp.", "common_name": "Cherry plum", "subtype_name": "Cherry Plum", "zip_code": null, "ownership": "public", "ownership_raw": "City of Kelowna", "city": "Kelowna", "source_dataset": "Tree Inventory", "source_department": "City of Kelowna", "source_last_edit_at": ""}}, {"type": "Feature", "geometry": {"type": "Point", "coordinates": [-119.48415913960852, 49.81752090955271]}, "properties": {"id": "kelowna-217270", "species_group": "magnolia", "scientific_name": "Magnolia species", "common_name": "Magnolia", "subtype_name": null, "zip_code": null, "ownership": "public", "ownership_raw": "City of Kelowna", "city": "Kelowna", "source_dataset": "Tree Inventory", "source_department": "City of Kelowna", "source_last_edit_at": ""}}, {"type": "Feature", "geometry": {"type": "Point", "coordinates": [-119.52330764121055, 49.79254680756601]}, "properties": {"id": "kelowna-21990", "species_group": "crabapple", "scientific_name": "Malus spp.", "common_name": "Apple", "subtype_name": "Apple", "zip_code": null, "ownership": "public", "ownership_raw": "City of Kelowna", "city": "Kelowna", "source_dataset": "Tree Inventory", "source_department": "City of Kelowna", "source_last_edit_at": ""}}, {"type": "Feature", "geometry": {"type": "Point", "coordinates": [-119.52524926268522, 49.79369837784368]}, "properties": {"id": "kelowna-21992", "species_group": "plum", "scientific_name": "Prunus spp.", "common_name": "Cherry plum", "subtype_name": "Cherry Plum", "zip_code": null, "ownership": "public", "ownership_raw": "City of Kelowna", "city": "Kelowna", "source_dataset": "Tree Inventory", "source_department": "City of Kelowna", "source_last_edit_at": ""}}, {"type": "Feature", "geometry": {"type": "Point", "coordinates": [-119.48790585454014, 49.89453465553172]}, "properties": {"id": "kelowna-22084", "species_group": "crabapple", "scientific_name": "Malus spp.", "common_name": "Apple", "subtype_name": "Apple", "zip_code": null, "ownership": "public", "ownership_raw": "City of Kelowna", "city": "Kelowna", "source_dataset": "Tree Inventory", "source_department": "City of Kelowna", "source_last_edit_at": ""}}, {"type": "Feature", "geometry": {"type": "Point", "coordinates": [-119.48784110290296, 49.89453574876662]}, "properties": {"id": "kelowna-22085", "species_group": "crabapple", "scientific_name": "Malus spp.", "common_name": "Apple", "subtype_name": "Apple", "zip_code": null, "ownership": "public", "ownership_raw": "City of Kelowna", "city": "Kelowna", "source_dataset": "Tree Inventory", "source_department": "City of Kelowna", "source_last_edit_at": ""}}, {"type": "Feature", "geometry": {"type": "Point", "coordinates": [-119.4877739969716, 49.89453574106162]}, "properties": {"id": "kelowna-22086", "species_group": "crabapple", "scientific_name": "Malus spp.", "common_name": "Apple", "subtype_name": "Apple", "zip_code": null, "ownership": "public", "ownership_raw": "City of Kelowna", "city": "Kelowna", "source_dataset": "Tree Inventory", "source_department": "City of Kelowna", "source_last_edit_at": ""}}, {"type": "Feature", "geometry": {"type": "Point", "coordinates": [-119.48770952100902, 49.894535155113154]}, "properties": {"id": "kelowna-22087", "species_group": "crabapple", "scientific_name": "Malus spp.", "common_name": "Apple", "subtype_name": "Apple", "zip_code": null, "ownership": "public", "ownership_raw": "City of Kelowna", "city": "Kelowna", "source_dataset": "Tree Inventory", "source_department": "City of Kelowna", "source_last_edit_at": ""}}, {"type": "Feature", "geometry": {"type": "Point", "coordinates": [-119.49876998736907, 49.886101658414084]}, "properties": {"id": "kelowna-223342", "species_group": "magnolia", "scientific_name": "Magnolia species", "common_name": "Magnolia", "subtype_name": null, "zip_code": null, "ownership": "public", "ownership_raw": "City of Kelowna", "city": "Kelowna", "source_dataset": "Tree Inventory", "source_department": "City of Kelowna", "source_last_edit_at": ""}}, {"type": "Feature", "geometry": {"type": "Point", "coordinates": [-119.49876996809886, 49.88614818560103]}, "properties": {"id": "kelowna-223343", "species_group": "magnolia", "scientific_name": "Magnolia species", "common_name": "Magnolia", "subtype_name": null, "zip_code": null, "ownership": "public", "ownership_raw": "City of Kelowna", "city": "Kelowna", "source_dataset": "Tree Inventory", "source_department": "City of Kelowna", "source_last_edit_at": ""}}, {"type": "Feature", "geometry": {"type": "Point", "coordinates": [-119.47789930042681, 49.88129828091946]}, "properties": {"id": "kelowna-22659", "species_group": "crabapple", "scientific_name": "Malus spp.", "common_name": "Hawthorn", "subtype_name": "Hawthorn", "zip_code": null, "ownership": "public", "ownership_raw": "City of Kelowna", "city": "Kelowna", "source_dataset": "Tree Inventory", "source_department": "City of Kelowna", "source_last_edit_at": ""}}, {"type": "Feature", "geometry": {"type": "Point", "coordinates": [-119.47805014459142, 49.88129975995852]}, "properties": {"id": "kelowna-22660", "species_group": "crabapple", "scientific_name": "Malus spp.", "common_name": "Hawthorn", "subtype_name": "Hawthorn", "zip_code": null, "ownership": "public", "ownership_raw": "City of Kelowna", "city": "Kelowna", "source_dataset": "Tree Inventory", "source_department": "City of Kelowna", "source_last_edit_at": ""}}, {"type": "Feature", "geometry": {"type": "Point", "coordinates": [-119.48520227903386, 49.83221197283727]}, "properties": {"id": "kelowna-22906", "species_group": "crabapple", "scientific_name": "Malus spp.", "common_name": "Apple", "subtype_name": "Apple", "zip_code": null, "ownership": "public", "ownership_raw": "City of Kelowna", "city": "Kelowna", "source_dataset": "Tree Inventory", "source_department": "City of Kelowna", "source_last_edit_at": ""}}, {"type": "Feature", "geometry": {"type": "Point", "coordinates": [-119.4850795320463, 49.832210045243315]}, "properties": {"id": "kelowna-22907", "species_group": "crabapple", "scientific_name": "Malus spp.", "common_name": "Apple", "subtype_name": "Apple", "zip_code": null, "ownership": "public", "ownership_raw": "City of Kelowna", "city": "Kelowna", "source_dataset": "Tree Inventory", "source_department": "City of Kelowna", "source_last_edit_at": ""}}, {"type": "Feature", "geometry": {"type": "Point", "coordinates": [-119.48494378216391, 49.83221192276999]}, "properties": {"id": "kelowna-22908", "species_group": "crabapple", "scientific_name": "Malus spp.", "common_name": "Apple", "subtype_name": "Apple", "zip_code": null, "ownership": "public", "ownership_raw": "City of Kelowna", "city": "Kelowna", "source_dataset": "Tree Inventory", "source_department": "City of Kelowna", "source_last_edit_at": ""}}, {"type": "Feature", "geometry": {"type": "Point", "coordinates": [-119.48480015899148, 49.83221132427224]}, "properties": {"id": "kelowna-22909", "species_group": "crabapple", "scientific_name": "Malus spp.", "common_name": "Apple", "subtype_name": "Apple", "zip_code": null, "ownership": "public", "ownership_raw": "City of Kelowna", "city": "Kelowna", "source_dataset": "Tree Inventory", "source_department": "City of Kelowna", "source_last_edit_at": ""}}, {"type": "Feature", "geometry": {"type": "Point", "coordinates": [-119.4846648084832, 49.83221231132362]}, "properties": {"id": "kelowna-22910", "species_group": "crabapple", "scientific_name": "Malus spp.", "common_name": "Apple", "subtype_name": "Apple", "zip_code": null, "ownership": "public", "ownership_raw": "City of Kelowna", "city": "Kelowna", "source_dataset": "Tree Inventory", "source_department": "City of Kelowna", "source_last_edit_at": ""}}, {"type": "Feature", "geometry": {"type": "Point", "coordinates": [-119.4842531901746, 49.832212755158395]}, "properties": {"id": "kelowna-22911", "species_group": "crabapple", "scientific_name": "Malus spp.", "common_name": "Apple", "subtype_name": "Apple", "zip_code": null, "ownership": "public", "ownership_raw": "City of Kelowna", "city": "Kelowna", "source_dataset": "Tree Inventory", "source_department": "City of Kelowna", "source_last_edit_at": ""}}, {"type": "Feature", "geometry": {"type": "Point", "coordinates": [-119.48408480889712, 49.83220856666186]}, "properties": {"id": "kelowna-22912", "species_group": "crabapple", "scientific_name": "Malus spp.", "common_name": "Apple", "subtype_name": "Apple", "zip_code": null, "ownership": "public", "ownership_raw": "City of Kelowna", "city": "Kelowna", "source_dataset": "Tree Inventory", "source_department": "City of Kelowna", "source_last_edit_at": ""}}, {"type": "Feature", "geometry": {"type": "Point", "coordinates": [-119.48397045522012, 49.83221057795398]}, "properties": {"id": "kelowna-22913", "species_group": "crabapple", "scientific_name": "Malus spp.", "common_name": "Apple", "subtype_name": "Apple", "zip_code": null, "ownership": "public", "ownership_raw": "City of Kelowna", "city": "Kelowna", "source_dataset": "Tree Inventory", "source_department": "City of Kelowna", "source_last_edit_at": ""}}, {"type": "Feature", "geometry": {"type": "Point", "coordinates": [-119.48386422359049, 49.832211236543465]}, "properties": {"id": "kelowna-22914", "species_group": "crabapple", "scientific_name": "Malus spp.", "common_name": "Apple", "subtype_name": "Apple", "zip_code": null, "ownership": "public", "ownership_raw": "City of Kelowna", "city": "Kelowna", "source_dataset": "Tree Inventory", "source_department": "City of Kelowna", "source_last_edit_at": ""}}, {"type": "Feature", "geometry": {"type": "Point", "coordinates": [-119.48374661310463, 49.832211842145774]}, "properties": {"id": "kelowna-22915", "species_group": "crabapple", "scientific_name": "Malus spp.", "common_name": "Apple", "subtype_name": "Apple", "zip_code": null, "ownership": "public", "ownership_raw": "City of Kelowna", "city": "Kelowna", "source_dataset": "Tree Inventory", "source_department": "City of Kelowna", "source_last_edit_at": ""}}, {"type": "Feature", "geometry": {"type": "Point", "coordinates": [-119.44196318862694, 49.9349026902152]}, "properties": {"id": "kelowna-23416", "species_group": "crabapple", "scientific_name": "Malus spp.", "common_name": "Apple", "subtype_name": "Apple", "zip_code": null, "ownership": "public", "ownership_raw": "City of Kelowna", "city": "Kelowna", "source_dataset": "Tree Inventory", "source_department": "City of Kelowna", "source_last_edit_at": ""}}, {"type": "Feature", "geometry": {"type": "Point", "coordinates": [-119.44165880255449, 49.93557486269725]}, "properties": {"id": "kelowna-23421", "species_group": "magnolia", "scientific_name": "Magnolia spp.", "common_name": "Magnolia", "subtype_name": "Magnolia spp.", "zip_code": null, "ownership": "public", "ownership_raw": "City of Kelowna", "city": "Kelowna", "source_dataset": "Tree Inventory", "source_department": "City of Kelowna", "source_last_edit_at": ""}}, {"type": "Feature", "geometry": {"type": "Point", "coordinates": [-119.51794724572532, 49.79232972016149]}, "properties": {"id": "kelowna-23484", "species_group": "magnolia", "scientific_name": "Magnolia spp.", "common_name": "Magnolia", "subtype_name": "Magnolia spp.", "zip_code": null, "ownership": "public", "ownership_raw": "City of Kelowna", "city": "Kelowna", "source_dataset": "Tree Inventory", "source_department": "City of Kelowna", "source_last_edit_at": ""}}, {"type": "Feature", "geometry": {"type": "Point", "coordinates": [-119.44882536784517, 49.87916588438633]}, "properties": {"id": "kelowna-23813", "species_group": "crabapple", "scientific_name": "Malus spp.", "common_name": "Apple", "subtype_name": "Apple", "zip_code": null, "ownership": "public", "ownership_raw": "City of Kelowna", "city": "Kelowna", "source_dataset": "Tree Inventory", "source_department": "City of Kelowna", "source_last_edit_at": ""}}, {"type": "Feature", "geometry": {"type": "Point", "coordinates": [-119.48873310088918, 49.89407827378072]}, "properties": {"id": "kelowna-24106", "species_group": "magnolia", "scientific_name": "Magnolia spp.", "common_name": "Magnolia", "subtype_name": "Magnolia spp.", "zip_code": null, "ownership": "public", "ownership_raw": "City of Kelowna", "city": "Kelowna", "source_dataset": "Tree Inventory", "source_department": "City of Kelowna", "source_last_edit_at": ""}}, {"type": "Feature", "geometry": {"type": "Point", "coordinates": [-119.48881977468481, 49.89407862531327]}, "properties": {"id": "kelowna-24107", "species_group": "magnolia", "scientific_name": "Magnolia spp.", "common_name": "Magnolia", "subtype_name": "Magnolia spp.", "zip_code": null, "ownership": "public", "ownership_raw": "City of Kelowna", "city": "Kelowna", "source_dataset": "Tree Inventory", "source_department": "City of Kelowna", "source_last_edit_at": ""}}, {"type": "Feature", "geometry": {"type": "Point", "coordinates": [-119.4888134814148, 49.893998006460755]}, "properties": {"id": "kelowna-24108", "species_group": "magnolia", "scientific_name": "Magnolia spp.", "common_name": "Magnolia", "subtype_name": "Magnolia spp.", "zip_code": null, "ownership": "public", "ownership_raw": "City of Kelowna", "city": "Kelowna", "source_dataset": "Tree Inventory", "source_department": "City of Kelowna", "source_last_edit_at": ""}}, {"type": "Feature", "geometry": {"type": "Point", "coordinates": [-119.48873495964487, 49.8939983074557]}, "properties": {"id": "kelowna-24109", "species_group": "magnolia", "scientific_name": "Magnolia spp.", "common_name": "Magnolia", "subtype_name": "Magnolia spp.", "zip_code": null, "ownership": "public", "ownership_raw": "City of Kelowna", "city": "Kelowna", "source_dataset": "Tree Inventory", "source_department": "City of Kelowna", "source_last_edit_at": ""}}, {"type": "Feature", "geometry": {"type": "Point", "coordinates": [-119.48873475224708, 49.89391580374815]}, "properties": {"id": "kelowna-24110", "species_group": "magnolia", "scientific_name": "Magnolia spp.", "common_name": "Magnolia", "subtype_name": "Magnolia spp.", "zip_code": null, "ownership": "public", "ownership_raw": "City of Kelowna", "city": "Kelowna", "source_dataset": "Tree Inventory", "source_department": "City of Kelowna", "source_last_edit_at": ""}}, {"type": "Feature", "geometry": {"type": "Point", "coordinates": [-119.48862911459716, 49.893844856681035]}, "properties": {"id": "kelowna-24111", "species_group": "magnolia", "scientific_name": "Magnolia spp.", "common_name": "Magnolia", "subtype_name": "Magnolia spp.", "zip_code": null, "ownership": "public", "ownership_raw": "City of Kelowna", "city": "Kelowna", "source_dataset": "Tree Inventory", "source_department": "City of Kelowna", "source_last_edit_at": ""}}, {"type": "Feature", "geometry": {"type": "Point", "coordinates": [-119.4886275103124, 49.89392408889217]}, "properties": {"id": "kelowna-24112", "species_group": "magnolia", "scientific_name": "Magnolia spp.", "common_name": "Magnolia", "subtype_name": "Magnolia spp.", "zip_code": null, "ownership": "public", "ownership_raw": "City of Kelowna", "city": "Kelowna", "source_dataset": "Tree Inventory", "source_department": "City of Kelowna", "source_last_edit_at": ""}}, {"type": "Feature", "geometry": {"type": "Point", "coordinates": [-119.48862443587123, 49.89399937659333]}, "properties": {"id": "kelowna-24113", "species_group": "magnolia", "scientific_name": "Magnolia spp.", "common_name": "Magnolia", "subtype_name": "Magnolia spp.", "zip_code": null, "ownership": "public", "ownership_raw": "City of Kelowna", "city": "Kelowna", "source_dataset": "Tree Inventory", "source_department": "City of Kelowna", "source_last_edit_at": ""}}, {"type": "Feature", "geometry": {"type": "Point", "coordinates": [-119.48862458836638, 49.894078652037365]}, "properties": {"id": "kelowna-24114", "species_group": "magnolia", "scientific_name": "Magnolia spp.", "common_name": "Magnolia", "subtype_name": "Magnolia spp.", "zip_code": null, "ownership": "public", "ownership_raw": "City of Kelowna", "city": "Kelowna", "source_dataset": "Tree Inventory", "source_department": "City of Kelowna", "source_last_edit_at": ""}}, {"type": "Feature", "geometry": {"type": "Point", "coordinates": [-119.48862251932083, 49.89415913562682]}, "properties": {"id": "kelowna-24115", "species_group": "magnolia", "scientific_name": "Magnolia spp.", "common_name": "Magnolia", "subtype_name": "Magnolia spp.", "zip_code": null, "ownership": "public", "ownership_raw": "City of Kelowna", "city": "Kelowna", "source_dataset": "Tree Inventory", "source_department": "City of Kelowna", "source_last_edit_at": ""}}, {"type": "Feature", "geometry": {"type": "Point", "coordinates": [-119.48862180864602, 49.89423733213525]}, "properties": {"id": "kelowna-24116", "species_group": "magnolia", "scientific_name": "Magnolia spp.", "common_name": "Magnolia", "subtype_name": "Magnolia spp.", "zip_code": null, "ownership": "public", "ownership_raw": "City of Kelowna", "city": "Kelowna", "source_dataset": "Tree Inventory", "source_department": "City of Kelowna", "source_last_edit_at": ""}}, {"type": "Feature", "geometry": {"type": "Point", "coordinates": [-119.3906813685369, 49.874885413668544]}, "properties": {"id": "kelowna-275", "species_group": "crabapple", "scientific_name": "Malus spp.", "common_name": "Apple", "subtype_name": "Apple", "zip_code": null, "ownership": "public", "ownership_raw": "City of Kelowna", "city": "Kelowna", "source_dataset": "Tree Inventory", "source_department": "City of Kelowna", "source_last_edit_at": ""}}, {"type": "Feature", "geometry": {"type": "Point", "coordinates": [-119.4356714765302, 49.8817122389494]}, "properties": {"id": "kelowna-2978", "species_group": "crabapple", "scientific_name": "Malus spp.", "common_name": "Apple", "subtype_name": "Apple", "zip_code": null, "ownership": "public", "ownership_raw": "City of Kelowna", "city": "Kelowna", "source_dataset": "Tree Inventory", "source_department": "City of Kelowna", "source_last_edit_at": ""}}, {"type": "Feature", "geometry": {"type": "Point", "coordinates": [-119.43526729112196, 49.88171490453844]}, "properties": {"id": "kelowna-2979", "species_group": "crabapple", "scientific_name": "Malus spp.", "common_name": "Apple", "subtype_name": "Apple", "zip_code": null, "ownership": "public", "ownership_raw": "City of Kelowna", "city": "Kelowna", "source_dataset": "Tree Inventory", "source_department": "City of Kelowna", "source_last_edit_at": ""}}, {"type": "Feature", "geometry": {"type": "Point", "coordinates": [-119.44704426466755, 49.92026362621856]}, "properties": {"id": "kelowna-4065", "species_group": "crabapple", "scientific_name": "Malus spp.", "common_name": "Apple", "subtype_name": "Apple", "zip_code": null, "ownership": "public", "ownership_raw": "City of Kelowna", "city": "Kelowna", "source_dataset": "Tree Inventory", "source_department": "City of Kelowna", "source_last_edit_at": ""}}, {"type": "Feature", "geometry": {"type": "Point", "coordinates": [-119.48324830761884, 49.88579304055792]}, "properties": {"id": "kelowna-45453", "species_group": "magnolia", "scientific_name": "Magnolia", "common_name": "Tulip tree", "subtype_name": "Tulip tree", "zip_code": null, "ownership": "public", "ownership_raw": "City of Kelowna", "city": "Kelowna", "source_dataset": "Tree Inventory", "source_department": "City of Kelowna", "source_last_edit_at": ""}}, {"type": "Feature", "geometry": {"type": "Point", "coordinates": [-119.39979850461349, 49.88452251956711]}, "properties": {"id": "kelowna-717", "species_group": "magnolia", "scientific_name": "Magnolia spp.", "common_name": "Magnolia", "subtype_name": "Magnolia spp.", "zip_code": null, "ownership": "public", "ownership_raw": "City of Kelowna", "city": "Kelowna", "source_dataset": "Tree Inventory", "source_department": "City of Kelowna", "source_last_edit_at": ""}}, {"type": "Feature", "geometry": {"type": "Point", "coordinates": [-119.3997410843973, 49.88456114818566]}, "properties": {"id": "kelowna-718", "species_group": "magnolia", "scientific_name": "Magnolia spp.", "common_name": "Magnolia", "subtype_name": "Magnolia spp.", "zip_code": null, "ownership": "public", "ownership_raw": "City of Kelowna", "city": "Kelowna", "source_dataset": "Tree Inventory", "source_department": "City of Kelowna", "source_last_edit_at": ""}}, {"type": "Feature", "geometry": {"type": "Point", "coordinates": [-119.5001925456828, 49.88003033032551]}, "properties": {"id": "kelowna-7188", "species_group": "plum", "scientific_name": "Prunus cerasifera", "common_name": "Cherry plum", "subtype_name": "Cherry Plum", "zip_code": null, "ownership": "public", "ownership_raw": "City of Kelowna", "city": "Kelowna", "source_dataset": "Tree Inventory", "source_department": "City of Kelowna", "source_last_edit_at": ""}}, {"type": "Feature", "geometry": {"type": "Point", "coordinates": [-119.47572013493807, 49.818045885319904]}, "properties": {"id": "kelowna-7326", "species_group": "magnolia", "scientific_name": "Magnolia spp.", "common_name": "Magnolia", "subtype_name": "Magnolia spp.", "zip_code": null, "ownership": "public", "ownership_raw": "City of Kelowna", "city": "Kelowna", "source_dataset": "Tree Inventory", "source_department": "City of Kelowna", "source_last_edit_at": ""}}, {"type": "Feature", "geometry": {"type": "Point", "coordinates": [-119.40139432686149, 49.87435253611832]}, "properties": {"id": "kelowna-7735", "species_group": "magnolia", "scientific_name": "Magnolia spp.", "common_name": "Magnolia", "subtype_name": "Magnolia spp.", "zip_code": null, "ownership": "public", "ownership_raw": "City of Kelowna", "city": "Kelowna", "source_dataset": "Tree Inventory", "source_department": "City of Kelowna", "source_last_edit_at": ""}}, {"type": "Feature", "geometry": {"type": "Point", "coordinates": [-119.40803821381081, 49.877725135005434]}, "properties": {"id": "kelowna-7736", "species_group": "magnolia", "scientific_name": "Magnolia spp.", "common_name": "Magnolia", "subtype_name": "Magnolia spp.", "zip_code": null, "ownership": "public", "ownership_raw": "City of Kelowna", "city": "Kelowna", "source_dataset": "Tree Inventory", "source_department": "City of Kelowna", "source_last_edit_at": ""}}, {"type": "Feature", "geometry": {"type": "Point", "coordinates": [-119.40811656897345, 49.877736289449665]}, "properties": {"id": "kelowna-7737", "species_group": "magnolia", "scientific_name": "Magnolia spp.", "common_name": "Magnolia", "subtype_name": "Magnolia spp.", "zip_code": null, "ownership": "public", "ownership_raw": "City of Kelowna", "city": "Kelowna", "source_dataset": "Tree Inventory", "source_department": "City of Kelowna", "source_last_edit_at": ""}}, {"type": "Feature", "geometry": {"type": "Point", "coordinates": [-119.41331726121615, 49.879775001807126]}, "properties": {"id": "kelowna-7752", "species_group": "magnolia", "scientific_name": "Magnolia spp.", "common_name": "Magnolia", "subtype_name": "Magnolia spp.", "zip_code": null, "ownership": "public", "ownership_raw": "City of Kelowna", "city": "Kelowna", "source_dataset": "Tree Inventory", "source_department": "City of Kelowna", "source_last_edit_at": ""}}, {"type": "Feature", "geometry": {"type": "Point", "coordinates": [-119.41326189587406, 49.87973894906717]}, "properties": {"id": "kelowna-7753", "species_group": "magnolia", "scientific_name": "Magnolia spp.", "common_name": "Magnolia", "subtype_name": "Magnolia spp.", "zip_code": null, "ownership": "public", "ownership_raw": "City of Kelowna", "city": "Kelowna", "source_dataset": "Tree Inventory", "source_department": "City of Kelowna", "source_last_edit_at": ""}}, {"type": "Feature", "geometry": {"type": "Point", "coordinates": [-119.41204657752535, 49.87880358627581]}, "properties": {"id": "kelowna-7764", "species_group": "magnolia", "scientific_name": "Magnolia spp.", "common_name": "Magnolia", "subtype_name": "Magnolia spp.", "zip_code": null, "ownership": "public", "ownership_raw": "City of Kelowna", "city": "Kelowna", "source_dataset": "Tree Inventory", "source_department": "City of Kelowna", "source_last_edit_at": ""}}, {"type": "Feature", "geometry": {"type": "Point", "coordinates": [-119.41215973261907, 49.87883616077317]}, "properties": {"id": "kelowna-7765", "species_group": "magnolia", "scientific_name": "Magnolia spp.", "common_name": "Magnolia", "subtype_name": "Magnolia spp.", "zip_code": null, "ownership": "public", "ownership_raw": "City of Kelowna", "city": "Kelowna", "source_dataset": "Tree Inventory", "source_department": "City of Kelowna", "source_last_edit_at": ""}}, {"type": "Feature", "geometry": {"type": "Point", "coordinates": [-119.40249898759816, 49.87474486555773]}, "properties": {"id": "kelowna-7766", "species_group": "magnolia", "scientific_name": "Magnolia spp.", "common_name": "Magnolia", "subtype_name": "Magnolia spp.", "zip_code": null, "ownership": "public", "ownership_raw": "City of Kelowna", "city": "Kelowna", "source_dataset": "Tree Inventory", "source_department": "City of Kelowna", "source_last_edit_at": ""}}]}