{"type": "FeatureCollection", "features": [{"type": "Feature", "geometry": {"type": "Point", "coordinates": [-72.65200957199994, 44.152738990000046]}, "properties": {"id": "northfield-10419", "species_group": "crabapple", "scientific_name": "Malus species", "common_name": "Crabapple", "subtype_name": null, "zip_code": "05663", "ownership": "public", "ownership_raw": "Town of Northfield", "city": "Northfield", "source_dataset": "Municipal Tree Inventory", "source_department": "Town of Northfield", "source_last_edit_at": ""}}, {"type": "Feature", "geometry": {"type": "Point", "coordinates": [-72.65197399999994, 44.15276858500005]}, "properties": {"id": "northfield-10770", "species_group": "crabapple", "scientific_name": "Malus species", "common_name": "Crabapple", "subtype_name": null, "zip_code": "05663", "ownership": "public", "ownership_raw": "Town of Northfield", "city": "Northfield", "source_dataset": "Municipal Tree Inventory", "source_department": "Town of Northfield", "source_last_edit_at": ""}}, {"type": "Feature", "geometry": {"type": "Point", "coordinates": [-72.65603377499997, 44.16043790000003]}, "properties": {"id": "northfield-10783", "species_group": "crabapple", "scientific_name": "Malus species", "common_name": "Crabapple", "subtype_name": null, "zip_code": "05663", "ownership": "public", "ownership_raw": "Town of Northfield", "city": "Northfield", "source_dataset": "Municipal Tree Inventory", "source_department": "Town of Northfield", "source_last_edit_at": ""}}, {"type": "Feature", "geometry": {"type": "Point", "coordinates": [-72.66132832599999, 44.15403691400007]}, "properties": {"id": "northfield-10835", "species_group": "crabapple", "scientific_name": "Malus species", "common_name": "Crabapple", "subtype_name": null, "zip_code": "05663", "ownership": "public", "ownership_raw": "Town of Northfield", "city": "Northfield", "source_dataset": "Municipal Tree Inventory", "source_department": "Town of Northfield", "source_last_edit_at": ""}}, {"type": "Feature", "geometry": {"type": "Point", "coordinates": [-72.66060015199997, 44.153201049000074]}, "properties": {"id": "northfield-10836", "species_group": "crabapple", "scientific_name": "Malus species", "common_name": "Crabapple", "subtype_name": null, "zip_code": "05663", "ownership": "public", "ownership_raw": "Town of Northfield", "city": "Northfield", "source_dataset": "Municipal Tree Inventory", "source_department": "Town of Northfield", "source_last_edit_at": ""}}, {"type": "Feature", "geometry": {"type": "Point", "coordinates": [-72.65328545199998, 44.14637574400007]}, "properties": {"id": "northfield-11081", "species_group": "crabapple", "scientific_name": "Malus species", "common_name": "Crabapple", "subtype_name": null, "zip_code": "05663", "ownership": "public", "ownership_raw": "Town of Northfield", "city": "Northfield", "source_dataset": "Municipal Tree Inventory", "source_department": "Town of Northfield", "source_last_edit_at": ""}}, {"type": "Feature", "geometry": {"type": "Point", "coordinates": [-72.66149474199995, 44.154064721000054]}, "properties": {"id": "northfield-11082", "species_group": "crabapple", "scientific_name": "Malus species", "common_name": "Crabapple", "subtype_name": null, "zip_code": "05663", "ownership": "public", "ownership_raw": "Town of Northfield", "city": "Northfield", "source_dataset": "Municipal Tree Inventory", "source_department": "Town of Northfield", "source_last_edit_at": ""}}, {"type": "Feature", "geometry": {"type": "Point", "coordinates": [-72.65743799499995, 44.140317184000025]}, "properties": {"id": "northfield-11289", "species_group": "crabapple", "scientific_name": "Malus species", "common_name": "Crabapple", "subtype_name": null, "zip_code": "05663", "ownership": "public", "ownership_raw": "Town of Northfield", "city": "Northfield", "source_dataset": "Municipal Tree Inventory", "source_department": "Town of Northfield", "source_last_edit_at": ""}}, {"type": "Feature", "geometry": {"type": "Point", "coordinates": [-72.65631369999994, 44.16048618000008]}, "properties": {"id": "northfield-11594", "species_group": "crabapple", "scientific_name": "Malus species", "common_name": "Crabapple", "subtype_name": null, "zip_code": "05663", "ownership": "public", "ownership_raw": "Town of Northfield", "city": "Northfield", "source_dataset": "Municipal Tree Inventory", "source_department": "Town of Northfield", "source_last_edit_at": ""}}, {"type": "Feature", "geometry": {"type": "Point", "coordinates": [-72.66143116399996, 44.15424070300003]}, "properties": {"id": "northfield-12035", "species_group": "crabapple", "scientific_name": "Malus species", "common_name": "Crabapple", "subtype_name": null, "zip_code": "05663", "ownership": "public", "ownership_raw": "Town of Northfield", "city": "Northfield", "source_dataset": "Municipal Tree Inventory", "source_department": "Town of Northfield", "source_last_edit_at": ""}}, {"type": "Feature", "geometry": {"type": "Point", "coordinates": [-72.65595086999997, 44.160288163000075]}, "properties": {"id": "northfield-12520", "species_group": "crabapple", "scientific_name": "Malus species", "common_name": "Crabapple", "subtype_name": null, "zip_code": "05663", "ownership": "public", "ownership_raw": "Town of Northfield", "city": "Northfield", "source_dataset": "Municipal Tree Inventory", "source_department": "Town of Northfield", "source_last_edit_at": ""}}, {"type": "Feature", "geometry": {"type": "Point", "coordinates": [-72.65749264499993, 44.139572368000074]}, "properties": {"id": "northfield-13416", "species_group": "crabapple", "scientific_name": "Malus species", "common_name": "Crabapple", "subtype_name": null, "zip_code": "05663", "ownership": "public", "ownership_raw": "Town of Northfield", "city": "Northfield", "source_dataset": "Municipal Tree Inventory", "source_department": "Town of Northfield", "source_last_edit_at": ""}}, {"type": "Feature", "geometry": {"type": "Point", "coordinates": [-72.65205947599998, 44.15263614500003]}, "properties": {"id": "northfield-13484", "species_group": "crabapple", "scientific_name": "Malus species", "common_name": "Crabapple", "subtype_name": null, "zip_code": "05663", "ownership": "public", "ownership_raw": "Town of Northfield", "city": "Northfield", "source_dataset": "Municipal Tree Inventory", "source_department": "Town of Northfield", "source_last_edit_at": ""}}, {"type": "Feature", "geometry": {"type": "Point", "coordinates": [-72.66170823999994, 44.15441847900007]}, "properties": {"id": "northfield-13498", "species_group": "crabapple", "scientific_name": "Malus species", "common_name": "Crabapple", "subtype_name": null, "zip_code": "05663", "ownership": "public", "ownership_raw": "Town of Northfield", "city": "Northfield", "source_dataset": "Municipal Tree Inventory", "source_department": "Town of Northfield", "source_last_edit_at": ""}}, {"type": "Feature", "geometry": {"type": "Point", "coordinates": [-72.66052159799995, 44.15330364000005]}, "properties": {"id": "northfield-14203", "species_group": "crabapple", "scientific_name": "Malus species", "common_name": "Crabapple", "subtype_name": null, "zip_code": "05663", "ownership": "public", "ownership_raw": "Town of Northfield", "city": "Northfield", "source_dataset": "Municipal Tree Inventory", "source_department": "Town of Northfield", "source_last_edit_at": ""}}, {"type": "Feature", "geometry": {"type": "Point", "coordinates": [-72.65284588499998, 44.14416462200006]}, "properties": {"id": "northfield-15034", "species_group": "crabapple", "scientific_name": "Malus species", "common_name": "Crabapple", "subtype_name": null, "zip_code": "05663", "ownership": "public", "ownership_raw": "Town of Northfield", "city": "Northfield", "source_dataset": "Municipal Tree Inventory", "source_department": "Town of Northfield", "source_last_edit_at": ""}}, {"type": "Feature", "geometry": {"type": "Point", "coordinates": [-72.65209034099996, 44.15256821600008]}, "properties": {"id": "northfield-15425", "species_group": "crabapple", "scientific_name": "Malus species", "common_name": "Crabapple", "subtype_name": null, "zip_code": "05663", "ownership": "public", "ownership_raw": "Town of Northfield", "city": "Northfield", "source_dataset": "Municipal Tree Inventory", "source_department": "Town of Northfield", "source_last_edit_at": ""}}, {"type": "Feature", "geometry": {"type": "Point", "coordinates": [-72.65554852899999, 44.14787837800003]}, "properties": {"id": "northfield-15976", "species_group": "crabapple", "scientific_name": "Malus species", "common_name": "Crabapple", "subtype_name": null, "zip_code": "05663", "ownership": "public", "ownership_raw": "Town of Northfield", "city": "Northfield", "source_dataset": "Municipal Tree Inventory", "source_department": "Town of Northfield", "source_last_edit_at": ""}}, {"type": "Feature", "geometry": {"type": "Point", "coordinates": [-72.65751326399999, 44.13973581500005]}, "properties": {"id": "northfield-16066", "species_group": "crabapple", "scientific_name": "Malus species", "common_name": "Crabapple", "subtype_name": null, "zip_code": "05663", "ownership": "public", "ownership_raw": "Town of Northfield", "city": "Northfield", "source_dataset": "Municipal Tree Inventory", "source_department": "Town of Northfield", "source_last_edit_at": ""}}, {"type": "Feature", "geometry": {"type": "Point", "coordinates": [-72.66486327199993, 44.14743342000003]}, "properties": {"id": "northfield-16380", "species_group": "crabapple", "scientific_name": "Malus species", "common_name": "Crabapple", "subtype_name": null, "zip_code": "05663", "ownership": "public", "ownership_raw": "Town of Northfield", "city": "Northfield", "source_dataset": "Municipal Tree Inventory", "source_department": "Town of Northfield", "source_last_edit_at": ""}}, {"type": "Feature", "geometry": {"type": "Point", "coordinates": [-72.65750077599995, 44.13997666900008]}, "properties": {"id": "northfield-16774", "species_group": "crabapple", "scientific_name": "Malus species", "common_name": "Crabapple", "subtype_name": null, "zip_code": "05663", "ownership": "public", "ownership_raw": "Town of Northfield", "city": "Northfield", "source_dataset": "Municipal Tree Inventory", "source_department": "Town of Northfield", "source_last_edit_at": ""}}, {"type": "Feature", "geometry": {"type": "Point", "coordinates": [-72.66150331799997, 44.15408830600006]}, "properties": {"id": "northfield-16799", "species_group": "crabapple", "scientific_name": "Malus species", "common_name": "Crabapple", "subtype_name": null, "zip_code": "05663", "ownership": "public", "ownership_raw": "Town of Northfield", "city": "Northfield", "source_dataset": "Municipal Tree Inventory", "source_department": "Town of Northfield", "source_last_edit_at": ""}}, {"type": "Feature", "geometry": {"type": "Point", "coordinates": [-72.66246152099995, 44.15396648500007]}, "properties": {"id": "northfield-17197", "species_group": "crabapple", "scientific_name": "Malus species", "common_name": "Crabapple", "subtype_name": null, "zip_code": "05663", "ownership": "public", "ownership_raw": "Town of Northfield", "city": "Northfield", "source_dataset": "Municipal Tree Inventory", "source_department": "Town of Northfield", "source_last_edit_at": ""}}, {"type": "Feature", "geometry": {"type": "Point", "coordinates": [-72.66485430299997, 44.14730844500008]}, "properties": {"id": "northfield-17317", "species_group": "crabapple", "scientific_name": "Malus species", "common_name": "Crabapple", "subtype_name": null, "zip_code": "05663", "ownership": "public", "ownership_raw": "Town of Northfield", "city": "Northfield", "source_dataset": "Municipal Tree Inventory", "source_department": "Town of Northfield", "source_last_edit_at": ""}}, {"type": "Feature", "geometry": {"type": "Point", "coordinates": [-72.65707338299995, 44.148558653000066]}, "properties": {"id": "northfield-17351", "species_group": "crabapple", "scientific_name": "Malus species", "common_name": "Crabapple", "subtype_name": null, "zip_code": "05663", "ownership": "public", "ownership_raw": "Town of Northfield", "city": "Northfield", "source_dataset": "Municipal Tree Inventory", "source_department": "Town of Northfield", "source_last_edit_at": ""}}, {"type": "Feature", "geometry": {"type": "Point", "coordinates": [-72.65603377499997, 44.16034134100005]}, "properties": {"id": "northfield-18193", "species_group": "crabapple", "scientific_name": "Malus species", "common_name": "Crabapple", "subtype_name": null, "zip_code": "05663", "ownership": "public", "ownership_raw": "Town of Northfield", "city": "Northfield", "source_dataset": "Municipal Tree Inventory", "source_department": "Town of Northfield", "source_last_edit_at": ""}}, {"type": "Feature", "geometry": {"type": "Point", "coordinates": [-72.65621113599997, 44.14744108900004]}, "properties": {"id": "northfield-19064", "species_group": "crabapple", "scientific_name": "Malus species", "common_name": "Crabapple", "subtype_name": null, "zip_code": "05663", "ownership": "public", "ownership_raw": "Town of Northfield", "city": "Northfield", "source_dataset": "Municipal Tree Inventory", "source_department": "Town of Northfield", "source_last_edit_at": ""}}, {"type": "Feature", "geometry": {"type": "Point", "coordinates": [-72.65593428899996, 44.16040431500005]}, "properties": {"id": "northfield-19432", "species_group": "crabapple", "scientific_name": "Malus species", "common_name": "Crabapple", "subtype_name": null, "zip_code": "05663", "ownership": "public", "ownership_raw": "Town of Northfield", "city": "Northfield", "source_dataset": "Municipal Tree Inventory", "source_department": "Town of Northfield", "source_last_edit_at": ""}}, {"type": "Feature", "geometry": {"type": "Point", "coordinates": [-72.66148451899994, 44.15403838800006]}, "properties": {"id": "northfield-19602", "species_group": "crabapple", "scientific_name": "Malus species", "common_name": "Crabapple", "subtype_name": null, "zip_code": "05663", "ownership": "public", "ownership_raw": "Town of Northfield", "city": "Northfield", "source_dataset": "Municipal Tree Inventory", "source_department": "Town of Northfield", "source_last_edit_at": ""}}, {"type": "Feature", "geometry": {"type": "Point", "coordinates": [-72.65589904899997, 44.14739157400004]}, "properties": {"id": "northfield-19772", "species_group": "crabapple", "scientific_name": "Malus species", "common_name": "Crabapple", "subtype_name": null, "zip_code": "05663", "ownership": "public", "ownership_raw": "Town of Northfield", "city": "Northfield", "source_dataset": "Municipal Tree Inventory", "source_department": "Town of Northfield", "source_last_edit_at": ""}}, {"type": "Feature", "geometry": {"type": "Point", "coordinates": [-72.66228223299998, 44.15449710100006]}, "properties": {"id": "northfield-2038", "species_group": "cherry", "scientific_name": "Prunus species", "common_name": "Common Chokecherry", "subtype_name": "Common Chokecherry", "zip_code": "05663", "ownership": "public", "ownership_raw": "Town of Northfield", "city": "Northfield", "source_dataset": "Municipal Tree Inventory", "source_department": "Town of Northfield", "source_last_edit_at": ""}}, {"type": "Feature", "geometry": {"type": "Point", "coordinates": [-72.66247317199998, 44.13521222800006]}, "properties": {"id": "northfield-20897", "species_group": "crabapple", "scientific_name": "Malus species", "common_name": "Crabapple", "subtype_name": null, "zip_code": "05663", "ownership": "public", "ownership_raw": "Town of Northfield", "city": "Northfield", "source_dataset": "Municipal Tree Inventory", "source_department": "Town of Northfield", "source_last_edit_at": ""}}, {"type": "Feature", "geometry": {"type": "Point", "coordinates": [-72.65740354499997, 44.140747092000026]}, "properties": {"id": "northfield-21130", "species_group": "crabapple", "scientific_name": "Malus species", "common_name": "Crabapple", "subtype_name": null, "zip_code": "05663", "ownership": "public", "ownership_raw": "Town of Northfield", "city": "Northfield", "source_dataset": "Municipal Tree Inventory", "source_department": "Town of Northfield", "source_last_edit_at": ""}}, {"type": "Feature", "geometry": {"type": "Point", "coordinates": [-72.66180857099994, 44.154468644000076]}, "properties": {"id": "northfield-21225", "species_group": "crabapple", "scientific_name": "Malus species", "common_name": "Crabapple", "subtype_name": null, "zip_code": "05663", "ownership": "public", "ownership_raw": "Town of Northfield", "city": "Northfield", "source_dataset": "Municipal Tree Inventory", "source_department": "Town of Northfield", "source_last_edit_at": ""}}, {"type": "Feature", "geometry": {"type": "Point", "coordinates": [-72.65610985199999, 44.16045609300005]}, "properties": {"id": "northfield-21430", "species_group": "crabapple", "scientific_name": "Malus species", "common_name": "Crabapple", "subtype_name": null, "zip_code": "05663", "ownership": "public", "ownership_raw": "Town of Northfield", "city": "Northfield", "source_dataset": "Municipal Tree Inventory", "source_department": "Town of Northfield", "source_last_edit_at": ""}}, {"type": "Feature", "geometry": {"type": "Point", "coordinates": [-72.65203158399999, 44.152695118000054]}, "properties": {"id": "northfield-21436", "species_group": "crabapple", "scientific_name": "Malus species", "common_name": "Crabapple", "subtype_name": null, "zip_code": "05663", "ownership": "public", "ownership_raw": "Town of Northfield", "city": "Northfield", "source_dataset": "Municipal Tree Inventory", "source_department": "Town of Northfield", "source_last_edit_at": ""}}, {"type": "Feature", "geometry": {"type": "Point", "coordinates": [-72.65741276499995, 44.140638798000055]}, "properties": {"id": "northfield-22270", "species_group": "crabapple", "scientific_name": "Malus species", "common_name": "Crabapple", "subtype_name": null, "zip_code": "05663", "ownership": "public", "ownership_raw": "Town of Northfield", "city": "Northfield", "source_dataset": "Municipal Tree Inventory", "source_department": "Town of Northfield", "source_last_edit_at": ""}}, {"type": "Feature", "geometry": {"type": "Point", "coordinates": [-72.65410275199997, 44.14369961700004]}, "properties": {"id": "northfield-22413", "species_group": "crabapple", "scientific_name": "Malus species", "common_name": "Crabapple", "subtype_name": null, "zip_code": "05663", "ownership": "public", "ownership_raw": "Town of Northfield", "city": "Northfield", "source_dataset": "Municipal Tree Inventory", "source_department": "Town of Northfield", "source_last_edit_at": ""}}, {"type": "Feature", "geometry": {"type": "Point", "coordinates": [-72.66291255199997, 44.147762913000065]}, "properties": {"id": "northfield-22422", "species_group": "crabapple", "scientific_name": "Malus species", "common_name": "Crabapple", "subtype_name": null, "zip_code": "05663", "ownership": "public", "ownership_raw": "Town of Northfield", "city": "Northfield", "source_dataset": "Municipal Tree Inventory", "source_department": "Town of Northfield", "source_last_edit_at": ""}}, {"type": "Feature", "geometry": {"type": "Point", "coordinates": [-72.65548746499996, 44.14786212300004]}, "properties": {"id": "northfield-22450", "species_group": "crabapple", "scientific_name": "Malus species", "common_name": "Crabapple", "subtype_name": null, "zip_code": "05663", "ownership": "public", "ownership_raw": "Town of Northfield", "city": "Northfield", "source_dataset": "Municipal Tree Inventory", "source_department": "Town of Northfield", "source_last_edit_at": ""}}, {"type": "Feature", "geometry": {"type": "Point", "coordinates": [-72.65204834699995, 44.15271682700006]}, "properties": {"id": "northfield-2270", "species_group": "crabapple", "scientific_name": "Malus species", "common_name": "Crabapple", "subtype_name": null, "zip_code": "05663", "ownership": "public", "ownership_raw": "Town of Northfield", "city": "Northfield", "source_dataset": "Municipal Tree Inventory", "source_department": "Town of Northfield", "source_last_edit_at": ""}}, {"type": "Feature", "geometry": {"type": "Point", "coordinates": [-72.66201484999993, 44.15434886700007]}, "properties": {"id": "northfield-23", "species_group": "cherry", "scientific_name": "Prunus species", "common_name": "Common Chokecherry", "subtype_name": "Common Chokecherry", "zip_code": "05663", "ownership": "public", "ownership_raw": "Town of Northfield", "city": "Northfield", "source_dataset": "Municipal Tree Inventory", "source_department": "Town of Northfield", "source_last_edit_at": ""}}, {"type": "Feature", "geometry": {"type": "Point", "coordinates": [-72.65407928299999, 44.14371051400008]}, "properties": {"id": "northfield-24662", "species_group": "crabapple", "scientific_name": "Malus species", "common_name": "Crabapple", "subtype_name": null, "zip_code": "05663", "ownership": "public", "ownership_raw": "Town of Northfield", "city": "Northfield", "source_dataset": "Municipal Tree Inventory", "source_department": "Town of Northfield", "source_last_edit_at": ""}}, {"type": "Feature", "geometry": {"type": "Point", "coordinates": [-72.66163221599999, 44.15527376800003]}, "properties": {"id": "northfield-24913", "species_group": "crabapple", "scientific_name": "Malus species", "common_name": "Crabapple", "subtype_name": null, "zip_code": "05663", "ownership": "public", "ownership_raw": "Town of Northfield", "city": "Northfield", "source_dataset": "Municipal Tree Inventory", "source_department": "Town of Northfield", "source_last_edit_at": ""}}, {"type": "Feature", "geometry": {"type": "Point", "coordinates": [-72.66303786099996, 44.147725613000034]}, "properties": {"id": "northfield-25195", "species_group": "crabapple", "scientific_name": "Malus species", "common_name": "Crabapple", "subtype_name": null, "zip_code": "05663", "ownership": "public", "ownership_raw": "Town of Northfield", "city": "Northfield", "source_dataset": "Municipal Tree Inventory", "source_department": "Town of Northfield", "source_last_edit_at": ""}}, {"type": "Feature", "geometry": {"type": "Point", "coordinates": [-72.66060048699995, 44.15322267400006]}, "properties": {"id": "northfield-25915", "species_group": "crabapple", "scientific_name": "Malus species", "common_name": "Crabapple", "subtype_name": null, "zip_code": "05663", "ownership": "public", "ownership_raw": "Town of Northfield", "city": "Northfield", "source_dataset": "Municipal Tree Inventory", "source_department": "Town of Northfield", "source_last_edit_at": ""}}, {"type": "Feature", "geometry": {"type": "Point", "coordinates": [-72.65711455299999, 44.14858740600005]}, "properties": {"id": "northfield-2592", "species_group": "crabapple", "scientific_name": "Malus species", "common_name": "Crabapple", "subtype_name": null, "zip_code": "05663", "ownership": "public", "ownership_raw": "Town of Northfield", "city": "Northfield", "source_dataset": "Municipal Tree Inventory", "source_department": "Town of Northfield", "source_last_edit_at": ""}}, {"type": "Feature", "geometry": {"type": "Point", "coordinates": [-72.65979205199994, 44.13463366700006]}, "properties": {"id": "northfield-25948", "species_group": "crabapple", "scientific_name": "Malus species", "common_name": "Crabapple", "subtype_name": null, "zip_code": "05663", "ownership": "public", "ownership_raw": "Town of Northfield", "city": "Northfield", "source_dataset": "Municipal Tree Inventory", "source_department": "Town of Northfield", "source_last_edit_at": ""}}, {"type": "Feature", "geometry": {"type": "Point", "coordinates": [-72.66008060099995, 44.15377133100003]}, "properties": {"id": "northfield-26050", "species_group": "crabapple", "scientific_name": "Malus species", "common_name": "Crabapple", "subtype_name": null, "zip_code": "05663", "ownership": "public", "ownership_raw": "Town of Northfield", "city": "Northfield", "source_dataset": "Municipal Tree Inventory", "source_department": "Town of Northfield", "source_last_edit_at": ""}}, {"type": "Feature", "geometry": {"type": "Point", "coordinates": [-72.66003441899994, 44.15385846800007]}, "properties": {"id": "northfield-26101", "species_group": "crabapple", "scientific_name": "Malus species", "common_name": "Crabapple", "subtype_name": null, "zip_code": "05663", "ownership": "public", "ownership_raw": "Town of Northfield", "city": "Northfield", "source_dataset": "Municipal Tree Inventory", "source_department": "Town of Northfield", "source_last_edit_at": ""}}, {"type": "Feature", "geometry": {"type": "Point", "coordinates": [-72.65204987499999, 44.15266790800007]}, "properties": {"id": "northfield-26204", "species_group": "crabapple", "scientific_name": "Malus species", "common_name": "Crabapple", "subtype_name": null, "zip_code": "05663", "ownership": "public", "ownership_raw": "Town of Northfield", "city": "Northfield", "source_dataset": "Municipal Tree Inventory", "source_department": "Town of Northfield", "source_last_edit_at": ""}}, {"type": "Feature", "geometry": {"type": "Point", "coordinates": [-72.66480869799994, 44.14731743900006]}, "properties": {"id": "northfield-26268", "species_group": "crabapple", "scientific_name": "Malus species", "common_name": "Crabapple", "subtype_name": null, "zip_code": "05663", "ownership": "public", "ownership_raw": "Town of Northfield", "city": "Northfield", "source_dataset": "Municipal Tree Inventory", "source_department": "Town of Northfield", "source_last_edit_at": ""}}, {"type": "Feature", "geometry": {"type": "Point", "coordinates": [-72.65589039899999, 44.16037842500003]}, "properties": {"id": "northfield-26683", "species_group": "crabapple", "scientific_name": "Malus species", "common_name": "Crabapple", "subtype_name": null, "zip_code": "05663", "ownership": "public", "ownership_raw": "Town of Northfield", "city": "Northfield", "source_dataset": "Municipal Tree Inventory", "source_department": "Town of Northfield", "source_last_edit_at": ""}}, {"type": "Feature", "geometry": {"type": "Point", "coordinates": [-72.65911211299994, 44.149095886000055]}, "properties": {"id": "northfield-26771", "species_group": "crabapple", "scientific_name": "Malus species", "common_name": "Crabapple", "subtype_name": null, "zip_code": "05663", "ownership": "public", "ownership_raw": "Town of Northfield", "city": "Northfield", "source_dataset": "Municipal Tree Inventory", "source_department": "Town of Northfield", "source_last_edit_at": ""}}, {"type": "Feature", "geometry": {"type": "Point", "coordinates": [-72.66183957299995, 44.153692758000034]}, "properties": {"id": "northfield-26879", "species_group": "crabapple", "scientific_name": "Malus species", "common_name": "Crabapple", "subtype_name": null, "zip_code": "05663", "ownership": "public", "ownership_raw": "Town of Northfield", "city": "Northfield", "source_dataset": "Municipal Tree Inventory", "source_department": "Town of Northfield", "source_last_edit_at": ""}}, {"type": "Feature", "geometry": {"type": "Point", "coordinates": [-72.65646380299995, 44.16051914800005]}, "properties": {"id": "northfield-27108", "species_group": "crabapple", "scientific_name": "Malus species", "common_name": "Crabapple", "subtype_name": null, "zip_code": "05663", "ownership": "public", "ownership_raw": "Town of Northfield", "city": "Northfield", "source_dataset": "Municipal Tree Inventory", "source_department": "Town of Northfield", "source_last_edit_at": ""}}, {"type": "Feature", "geometry": {"type": "Point", "coordinates": [-72.65747512699994, 44.14004774800003]}, "properties": {"id": "northfield-28200", "species_group": "crabapple", "scientific_name": "Malus species", "common_name": "Crabapple", "subtype_name": null, "zip_code": "05663", "ownership": "public", "ownership_raw": "Town of Northfield", "city": "Northfield", "source_dataset": "Municipal Tree Inventory", "source_department": "Town of Northfield", "source_last_edit_at": ""}}, {"type": "Feature", "geometry": {"type": "Point", "coordinates": [-72.65615861899994, 44.16046239100007]}, "properties": {"id": "northfield-29157", "species_group": "crabapple", "scientific_name": "Malus species", "common_name": "Crabapple", "subtype_name": null, "zip_code": "05663", "ownership": "public", "ownership_raw": "Town of Northfield", "city": "Northfield", "source_dataset": "Municipal Tree Inventory", "source_department": "Town of Northfield", "source_last_edit_at": ""}}, {"type": "Feature", "geometry": {"type": "Point", "coordinates": [-72.65207858799994, 44.152604764000046]}, "properties": {"id": "northfield-29262", "species_group": "crabapple", "scientific_name": "Malus species", "common_name": "Crabapple", "subtype_name": null, "zip_code": "05663", "ownership": "public", "ownership_raw": "Town of Northfield", "city": "Northfield", "source_dataset": "Municipal Tree Inventory", "source_department": "Town of Northfield", "source_last_edit_at": ""}}, {"type": "Feature", "geometry": {"type": "Point", "coordinates": [-72.65590108899994, 44.16021100200004]}, "properties": {"id": "northfield-29723", "species_group": "crabapple", "scientific_name": "Malus species", "common_name": "Crabapple", "subtype_name": null, "zip_code": "05663", "ownership": "public", "ownership_raw": "Town of Northfield", "city": "Northfield", "source_dataset": "Municipal Tree Inventory", "source_department": "Town of Northfield", "source_last_edit_at": ""}}, {"type": "Feature", "geometry": {"type": "Point", "coordinates": [-72.65977336099996, 44.134672726000076]}, "properties": {"id": "northfield-29791", "species_group": "crabapple", "scientific_name": "Malus species", "common_name": "Crabapple", "subtype_name": null, "zip_code": "05663", "ownership": "public", "ownership_raw": "Town of Northfield", "city": "Northfield", "source_dataset": "Municipal Tree Inventory", "source_department": "Town of Northfield", "source_last_edit_at": ""}}, {"type": "Feature", "geometry": {"type": "Point", "coordinates": [-72.65754478099996, 44.13947287500008]}, "properties": {"id": "northfield-29944", "species_group": "crabapple", "scientific_name": "Malus species", "common_name": "Crabapple", "subtype_name": null, "zip_code": "05663", "ownership": "public", "ownership_raw": "Town of Northfield", "city": "Northfield", "source_dataset": "Municipal Tree Inventory", "source_department": "Town of Northfield", "source_last_edit_at": ""}}, {"type": "Feature", "geometry": {"type": "Point", "coordinates": [-72.65563043799995, 44.14788671300005]}, "properties": {"id": "northfield-30789", "species_group": "crabapple", "scientific_name": "Malus species", "common_name": "Crabapple", "subtype_name": null, "zip_code": "05663", "ownership": "public", "ownership_raw": "Town of Northfield", "city": "Northfield", "source_dataset": "Municipal Tree Inventory", "source_department": "Town of Northfield", "source_last_edit_at": ""}}, {"type": "Feature", "geometry": {"type": "Point", "coordinates": [-72.65757998499998, 44.13940724500003]}, "properties": {"id": "northfield-30991", "species_group": "crabapple", "scientific_name": "Malus species", "common_name": "Crabapple", "subtype_name": null, "zip_code": "05663", "ownership": "public", "ownership_raw": "Town of Northfield", "city": "Northfield", "source_dataset": "Municipal Tree Inventory", "source_department": "Town of Northfield", "source_last_edit_at": ""}}, {"type": "Feature", "geometry": {"type": "Point", "coordinates": [-72.65742536199997, 44.140567961000045]}, "properties": {"id": "northfield-31099", "species_group": "crabapple", "scientific_name": "Malus species", "common_name": "Crabapple", "subtype_name": null, "zip_code": "05663", "ownership": "public", "ownership_raw": "Town of Northfield", "city": "Northfield", "source_dataset": "Municipal Tree Inventory", "source_department": "Town of Northfield", "source_last_edit_at": ""}}, {"type": "Feature", "geometry": {"type": "Point", "coordinates": [-72.65808793899998, 44.153483109000035]}, "properties": {"id": "northfield-31186", "species_group": "crabapple", "scientific_name": "Malus species", "common_name": "Crabapple", "subtype_name": null, "zip_code": "05663", "ownership": "public", "ownership_raw": "Town of Northfield", "city": "Northfield", "source_dataset": "Municipal Tree Inventory", "source_department": "Town of Northfield", "source_last_edit_at": ""}}, {"type": "Feature", "geometry": {"type": "Point", "coordinates": [-72.66048420799996, 44.15332917500007]}, "properties": {"id": "northfield-31233", "species_group": "crabapple", "scientific_name": "Malus species", "common_name": "Crabapple", "subtype_name": null, "zip_code": "05663", "ownership": "public", "ownership_raw": "Town of Northfield", "city": "Northfield", "source_dataset": "Municipal Tree Inventory", "source_department": "Town of Northfield", "source_last_edit_at": ""}}, {"type": "Feature", "geometry": {"type": "Point", "coordinates": [-72.66034802399997, 44.15276083100008]}, "properties": {"id": "northfield-4036", "species_group": "crabapple", "scientific_name": "Malus species", "common_name": "Crabapple", "subtype_name": null, "zip_code": "05663", "ownership": "public", "ownership_raw": "Town of Northfield", "city": "Northfield", "source_dataset": "Municipal Tree Inventory", "source_department": "Town of Northfield", "source_last_edit_at": ""}}, {"type": "Feature", "geometry": {"type": "Point", "coordinates": [-72.66200697099998, 44.15439379400004]}, "properties": {"id": "northfield-4412", "species_group": "cherry", "scientific_name": "Prunus species", "common_name": "Common Chokecherry", "subtype_name": "Common Chokecherry", "zip_code": "05663", "ownership": "public", "ownership_raw": "Town of Northfield", "city": "Northfield", "source_dataset": "Municipal Tree Inventory", "source_department": "Town of Northfield", "source_last_edit_at": ""}}, {"type": "Feature", "geometry": {"type": "Point", "coordinates": [-72.66245682699997, 44.14753031400005]}, "properties": {"id": "northfield-4592", "species_group": "crabapple", "scientific_name": "Malus species", "common_name": "Crabapple", "subtype_name": null, "zip_code": "05663", "ownership": "public", "ownership_raw": "Town of Northfield", "city": "Northfield", "source_dataset": "Municipal Tree Inventory", "source_department": "Town of Northfield", "source_last_edit_at": ""}}, {"type": "Feature", "geometry": {"type": "Point", "coordinates": [-72.65749742299994, 44.13986058000006]}, "properties": {"id": "northfield-4931", "species_group": "crabapple", "scientific_name": "Malus species", "common_name": "Crabapple", "subtype_name": null, "zip_code": "05663", "ownership": "public", "ownership_raw": "Town of Northfield", "city": "Northfield", "source_dataset": "Municipal Tree Inventory", "source_department": "Town of Northfield", "source_last_edit_at": ""}}, {"type": "Feature", "geometry": {"type": "Point", "coordinates": [-72.66263209299996, 44.13554997600005]}, "properties": {"id": "northfield-5012", "species_group": "cherry", "scientific_name": "Prunus species", "common_name": "Common Chokecherry", "subtype_name": "Common Chokecherry", "zip_code": "05663", "ownership": "public", "ownership_raw": "Town of Northfield", "city": "Northfield", "source_dataset": "Municipal Tree Inventory", "source_department": "Town of Northfield", "source_last_edit_at": ""}}, {"type": "Feature", "geometry": {"type": "Point", "coordinates": [-72.66011199399998, 44.15369533300003]}, "properties": {"id": "northfield-5482", "species_group": "crabapple", "scientific_name": "Malus species", "common_name": "Crabapple", "subtype_name": null, "zip_code": "05663", "ownership": "public", "ownership_raw": "Town of Northfield", "city": "Northfield", "source_dataset": "Municipal Tree Inventory", "source_department": "Town of Northfield", "source_last_edit_at": ""}}, {"type": "Feature", "geometry": {"type": "Point", "coordinates": [-72.65618422999995, 44.14739943100005]}, "properties": {"id": "northfield-5881", "species_group": "crabapple", "scientific_name": "Malus species", "common_name": "Crabapple", "subtype_name": null, "zip_code": "05663", "ownership": "public", "ownership_raw": "Town of Northfield", "city": "Northfield", "source_dataset": "Municipal Tree Inventory", "source_department": "Town of Northfield", "source_last_edit_at": ""}}, {"type": "Feature", "geometry": {"type": "Point", "coordinates": [-72.66142228199993, 44.154239209000025]}, "properties": {"id": "northfield-6813", "species_group": "crabapple", "scientific_name": "Malus species", "common_name": "Crabapple", "subtype_name": null, "zip_code": "05663", "ownership": "public", "ownership_raw": "Town of Northfield", "city": "Northfield", "source_dataset": "Municipal Tree Inventory", "source_department": "Town of Northfield", "source_last_edit_at": ""}}, {"type": "Feature", "geometry": {"type": "Point", "coordinates": [-72.65808970299997, 44.153398871000036]}, "properties": {"id": "northfield-7247", "species_group": "crabapple", "scientific_name": "Malus species", "common_name": "Crabapple", "subtype_name": null, "zip_code": "05663", "ownership": "public", "ownership_raw": "Town of Northfield", "city": "Northfield", "source_dataset": "Municipal Tree Inventory", "source_department": "Town of Northfield", "source_last_edit_at": ""}}, {"type": "Feature", "geometry": {"type": "Point", "coordinates": [-72.65616070399994, 44.148050194000064]}, "properties": {"id": "northfield-74", "species_group": "crabapple", "scientific_name": "Malus species", "common_name": "Crabapple", "subtype_name": null, "zip_code": "05663", "ownership": "public", "ownership_raw": "Town of Northfield", "city": "Northfield", "source_dataset": "Municipal Tree Inventory", "source_department": "Town of Northfield", "source_last_edit_at": ""}}, {"type": "Feature", "geometry": {"type": "Point", "coordinates": [-72.65618663199996, 44.147563465000076]}, "properties": {"id": "northfield-7489", "species_group": "crabapple", "scientific_name": "Malus species", "common_name": "Crabapple", "subtype_name": null, "zip_code": "05663", "ownership": "public", "ownership_raw": "Town of Northfield", "city": "Northfield", "source_dataset": "Municipal Tree Inventory", "source_department": "Town of Northfield", "source_last_edit_at": ""}}, {"type": "Feature", "geometry": {"type": "Point", "coordinates": [-72.66055539299998, 44.15326341100007]}, "properties": {"id": "northfield-7826", "species_group": "crabapple", "scientific_name": "Malus species", "common_name": "Crabapple", "subtype_name": null, "zip_code": "05663", "ownership": "public", "ownership_raw": "Town of Northfield", "city": "Northfield", "source_dataset": "Municipal Tree Inventory", "source_department": "Town of Northfield", "source_last_edit_at": ""}}, {"type": "Feature", "geometry": {"type": "Point", "coordinates": [-72.65297396099999, 44.14257107800006]}, "properties": {"id": "northfield-8273", "species_group": "crabapple", "scientific_name": "Malus species", "common_name": "Crabapple", "subtype_name": null, "zip_code": "05663", "ownership": "public", "ownership_raw": "Town of Northfield", "city": "Northfield", "source_dataset": "Municipal Tree Inventory", "source_department": "Town of Northfield", "source_last_edit_at": ""}}, {"type": "Feature", "geometry": {"type": "Point", "coordinates": [-72.66012003599997, 44.15312582200005]}, "properties": {"id": "northfield-8371", "species_group": "crabapple", "scientific_name": "Malus species", "common_name": "Crabapple", "subtype_name": null, "zip_code": "05663", "ownership": "public", "ownership_raw": "Town of Northfield", "city": "Northfield", "source_dataset": "Municipal Tree Inventory", "source_department": "Town of Northfield", "source_last_edit_at": ""}}, {"type": "Feature", "geometry": {"type": "Point", "coordinates": [-72.65915024999998, 44.137250539000036]}, "properties": {"id": "northfield-9144", "species_group": "plum", "scientific_name": "Prunus species", "common_name": "Plum", "subtype_name": null, "zip_code": "05663", "ownership": "public", "ownership_raw": "Town of Northfield", "city": "Northfield", "source_dataset": "Municipal Tree Inventory", "source_department": "Town of Northfield", "source_last_edit_at": ""}}, {"type": "Feature", "geometry": {"type": "Point", "coordinates": [-72.66248574499997, 44.13522941100007]}, "properties": {"id": "northfield-9690", "species_group": "crabapple", "scientific_name": "Malus species", "common_name": "Crabapple", "subtype_name": null, "zip_code": "05663", "ownership": "public", "ownership_raw": "Town of Northfield", "city": "Northfield", "source_dataset": "Municipal Tree Inventory", "source_department": "Town of Northfield", "source_last_edit_at": ""}}, {"type": "Feature", "geometry": {"type": "Point", "coordinates": [-72.66271599599997, 44.150178158000074]}, "properties": {"id": "northfield-9744", "species_group": "crabapple", "scientific_name": "Malus species", "common_name": "Crabapple", "subtype_name": null, "zip_code": "05663", "ownership": "public", "ownership_raw": "Town of Northfield", "city": "Northfield", "source_dataset": "Municipal Tree Inventory", "source_department": "Town of Northfield", "source_last_edit_at": ""}}, {"type": "Feature", "geometry": {"type": "Point", "coordinates": [-72.65742827199995, 44.14038063500004]}, "properties": {"id": "northfield-9863", "species_group": "crabapple", "scientific_name": "Malus species", "common_name": "Crabapple", "subtype_name": null, "zip_code": "05663", "ownership": "public", "ownership_raw": "Town of Northfield", "city": "Northfield", "source_dataset": "Municipal Tree Inventory", "source_department": "Town of Northfield", "source_last_edit_at": ""}}]}