{"type": "FeatureCollection", "features": [{"type": "Feature", "geometry": {"type": "Point", "coordinates": [-66.05879475285228, 45.2677715341518]}, "properties": {"id": "saint-john-1680", "species_group": "crabapple", "scientific_name": "Malus species", "common_name": "Apple", "subtype_name": "Apple", "zip_code": null, "ownership": "public", "ownership_raw": "City of Saint John", "city": "Saint John", "source_dataset": "Urban Forestry Trees", "source_department": "City of Saint John", "source_last_edit_at": "2023-06-26T13:22:30.751000+00:00"}}, {"type": "Feature", "geometry": {"type": "Point", "coordinates": [-66.0069304671819, 45.31245256277277]}, "properties": {"id": "saint-john-1707", "species_group": "crabapple", "scientific_name": "Malus species", "common_name": "Apple", "subtype_name": "Apple", "zip_code": null, "ownership": "public", "ownership_raw": "City of Saint John", "city": "Saint John", "source_dataset": "Urban Forestry Trees", "source_department": "City of Saint John", "source_last_edit_at": "2023-06-26T13:22:30.751000+00:00"}}, {"type": "Feature", "geometry": {"type": "Point", "coordinates": [-66.08056663950445, 45.31929816181158]}, "properties": {"id": "saint-john-1990", "species_group": "cherry", "scientific_name": "Prunus species", "common_name": "Cherry", "subtype_name": null, "zip_code": null, "ownership": "public", "ownership_raw": "City of Saint John", "city": "Saint John", "source_dataset": "Urban Forestry Trees", "source_department": "City of Saint John", "source_last_edit_at": "2023-06-26T13:22:30.751000+00:00"}}, {"type": "Feature", "geometry": {"type": "Point", "coordinates": [-66.07908227847764, 45.32039406658111]}, "properties": {"id": "saint-john-1996", "species_group": "cherry", "scientific_name": "Prunus species", "common_name": "Cherry", "subtype_name": null, "zip_code": null, "ownership": "public", "ownership_raw": "City of Saint John", "city": "Saint John", "source_dataset": "Urban Forestry Trees", "source_department": "City of Saint John", "source_last_edit_at": "2023-06-26T13:22:30.751000+00:00"}}, {"type": "Feature", "geometry": {"type": "Point", "coordinates": [-66.03465263634696, 45.29147978055001]}, "properties": {"id": "saint-john-2031", "species_group": "crabapple", "scientific_name": "Malus species", "common_name": "Apple", "subtype_name": "Apple", "zip_code": null, "ownership": "public", "ownership_raw": "City of Saint John", "city": "Saint John", "source_dataset": "Urban Forestry Trees", "source_department": "City of Saint John", "source_last_edit_at": "2023-06-26T13:22:30.751000+00:00"}}, {"type": "Feature", "geometry": {"type": "Point", "coordinates": [-66.1083983014641, 45.29491103716622]}, "properties": {"id": "saint-john-2299", "species_group": "crabapple", "scientific_name": "Malus species", "common_name": "Apple", "subtype_name": "Apple", "zip_code": null, "ownership": "public", "ownership_raw": "City of Saint John", "city": "Saint John", "source_dataset": "Urban Forestry Trees", "source_department": "City of Saint John", "source_last_edit_at": "2023-06-26T13:22:30.751000+00:00"}}, {"type": "Feature", "geometry": {"type": "Point", "coordinates": [-66.10483966091277, 45.25336958833433]}, "properties": {"id": "saint-john-2330", "species_group": "crabapple", "scientific_name": "Malus species", "common_name": "Apple", "subtype_name": "Apple", "zip_code": null, "ownership": "public", "ownership_raw": "City of Saint John", "city": "Saint John", "source_dataset": "Urban Forestry Trees", "source_department": "City of Saint John", "source_last_edit_at": "2023-06-26T13:22:30.751000+00:00"}}, {"type": "Feature", "geometry": {"type": "Point", "coordinates": [-65.99048970346088, 45.309340705594344]}, "properties": {"id": "saint-john-306", "species_group": "crabapple", "scientific_name": "Malus species", "common_name": "Apple", "subtype_name": "Apple", "zip_code": null, "ownership": "public", "ownership_raw": "City of Saint John", "city": "Saint John", "source_dataset": "Urban Forestry Trees", "source_department": "City of Saint John", "source_last_edit_at": "2023-06-26T13:22:30.751000+00:00"}}, {"type": "Feature", "geometry": {"type": "Point", "coordinates": [-66.00654093811167, 45.29375551975112]}, "properties": {"id": "saint-john-3368", "species_group": "crabapple", "scientific_name": "Malus species", "common_name": "Apple", "subtype_name": "Apple", "zip_code": null, "ownership": "public", "ownership_raw": "City of Saint John", "city": "Saint John", "source_dataset": "Urban Forestry Trees", "source_department": "City of Saint John", "source_last_edit_at": "2023-06-26T13:22:30.751000+00:00"}}, {"type": "Feature", "geometry": {"type": "Point", "coordinates": [-66.11201928406479, 45.2510633424618]}, "properties": {"id": "saint-john-3682", "species_group": "cherry", "scientific_name": "Prunus species", "common_name": "Cherry", "subtype_name": null, "zip_code": null, "ownership": "public", "ownership_raw": "City of Saint John", "city": "Saint John", "source_dataset": "Urban Forestry Trees", "source_department": "City of Saint John", "source_last_edit_at": "2023-06-26T13:22:30.751000+00:00"}}, {"type": "Feature", "geometry": {"type": "Point", "coordinates": [-66.11891272152808, 45.29016941111596]}, "properties": {"id": "saint-john-3996", "species_group": "cherry", "scientific_name": "Prunus species", "common_name": "Cherry", "subtype_name": null, "zip_code": null, "ownership": "public", "ownership_raw": "City of Saint John", "city": "Saint John", "source_dataset": "Urban Forestry Trees", "source_department": "City of Saint John", "source_last_edit_at": "2023-06-26T13:22:30.751000+00:00"}}, {"type": "Feature", "geometry": {"type": "Point", "coordinates": [-66.03386590862868, 45.28349490217725]}, "properties": {"id": "saint-john-4022", "species_group": "crabapple", "scientific_name": "Malus species", "common_name": "Apple", "subtype_name": "Apple", "zip_code": null, "ownership": "public", "ownership_raw": "City of Saint John", "city": "Saint John", "source_dataset": "Urban Forestry Trees", "source_department": "City of Saint John", "source_last_edit_at": "2023-06-26T13:22:30.751000+00:00"}}, {"type": "Feature", "geometry": {"type": "Point", "coordinates": [-66.00721712271515, 45.29467805511524]}, "properties": {"id": "saint-john-4076", "species_group": "crabapple", "scientific_name": "Malus species", "common_name": "Apple", "subtype_name": "Apple", "zip_code": null, "ownership": "public", "ownership_raw": "City of Saint John", "city": "Saint John", "source_dataset": "Urban Forestry Trees", "source_department": "City of Saint John", "source_last_edit_at": "2023-06-26T13:22:30.751000+00:00"}}]}