{"type": "FeatureCollection", "features": [{"type": "Feature", "geometry": {"type": "Point", "coordinates": [-115.1383522666497, 36.254529568245246]}, "properties": {"id": "north-las-vegas-10622", "species_group": "plum", "scientific_name": "Prunus cerasifera", "common_name": "Purple-leaf plum", "subtype_name": "Purpleleaf Plum", "zip_code": "89031", "ownership": "public", "ownership_raw": "Nevada Division of Forestry", "city": "North Las Vegas", "source_dataset": "Clark County Schools Tree Inventory", "source_department": "Nevada Division of Forestry", "source_last_edit_at": "2024-11-18T19:16:08.490000+00:00"}}, {"type": "Feature", "geometry": {"type": "Point", "coordinates": [-115.11365869340021, 36.2246323035929]}, "properties": {"id": "north-las-vegas-10840", "species_group": "plum", "scientific_name": "Prunus cerasifera", "common_name": "Purple-leaf plum", "subtype_name": "Purpleleaf Plum", "zip_code": "89030", "ownership": "public", "ownership_raw": "Nevada Division of Forestry", "city": "North Las Vegas", "source_dataset": "Clark County Schools Tree Inventory", "source_department": "Nevada Division of Forestry", "source_last_edit_at": "2024-11-18T19:16:08.490000+00:00"}}, {"type": "Feature", "geometry": {"type": "Point", "coordinates": [-115.13841199473462, 36.25464718600895]}, "properties": {"id": "north-las-vegas-11297", "species_group": "plum", "scientific_name": "Prunus cerasifera", "common_name": "Purple-leaf plum", "subtype_name": "Purpleleaf Plum", "zip_code": "89031", "ownership": "public", "ownership_raw": "Nevada Division of Forestry", "city": "North Las Vegas", "source_dataset": "Clark County Schools Tree Inventory", "source_department": "Nevada Division of Forestry", "source_last_edit_at": "2024-11-18T19:16:08.490000+00:00"}}, {"type": "Feature", "geometry": {"type": "Point", "coordinates": [-115.13837818574059, 36.25464510408785]}, "properties": {"id": "north-las-vegas-12713", "species_group": "plum", "scientific_name": "Prunus cerasifera", "common_name": "Purple-leaf plum", "subtype_name": "Purpleleaf Plum", "zip_code": "89031", "ownership": "public", "ownership_raw": "Nevada Division of Forestry", "city": "North Las Vegas", "source_dataset": "Clark County Schools Tree Inventory", "source_department": "Nevada Division of Forestry", "source_last_edit_at": "2024-11-18T19:16:08.490000+00:00"}}, {"type": "Feature", "geometry": {"type": "Point", "coordinates": [-115.13891271118241, 36.254531651618265]}, "properties": {"id": "north-las-vegas-14046", "species_group": "plum", "scientific_name": "Prunus cerasifera", "common_name": "Purple-leaf plum", "subtype_name": "Purpleleaf Plum", "zip_code": "89031", "ownership": "public", "ownership_raw": "Nevada Division of Forestry", "city": "North Las Vegas", "source_dataset": "Clark County Schools Tree Inventory", "source_department": "Nevada Division of Forestry", "source_last_edit_at": "2024-11-18T19:16:08.490000+00:00"}}, {"type": "Feature", "geometry": {"type": "Point", "coordinates": [-115.13880399437178, 36.25453320473077]}, "properties": {"id": "north-las-vegas-14767", "species_group": "plum", "scientific_name": "Prunus cerasifera", "common_name": "Purple-leaf plum", "subtype_name": "Purpleleaf Plum", "zip_code": "89031", "ownership": "public", "ownership_raw": "Nevada Division of Forestry", "city": "North Las Vegas", "source_dataset": "Clark County Schools Tree Inventory", "source_department": "Nevada Division of Forestry", "source_last_edit_at": "2024-11-18T19:16:08.490000+00:00"}}, {"type": "Feature", "geometry": {"type": "Point", "coordinates": [-115.138262864516, 36.25453314895199]}, "properties": {"id": "north-las-vegas-22491", "species_group": "plum", "scientific_name": "Prunus cerasifera", "common_name": "Purple-leaf plum", "subtype_name": "Purpleleaf Plum", "zip_code": "89031", "ownership": "public", "ownership_raw": "Nevada Division of Forestry", "city": "North Las Vegas", "source_dataset": "Clark County Schools Tree Inventory", "source_department": "Nevada Division of Forestry", "source_last_edit_at": "2024-11-18T19:16:08.490000+00:00"}}, {"type": "Feature", "geometry": {"type": "Point", "coordinates": [-115.13824773688661, 36.25464461874087]}, "properties": {"id": "north-las-vegas-23537", "species_group": "plum", "scientific_name": "Prunus cerasifera", "common_name": "Purple-leaf plum", "subtype_name": "Purpleleaf Plum", "zip_code": "89031", "ownership": "public", "ownership_raw": "Nevada Division of Forestry", "city": "North Las Vegas", "source_dataset": "Clark County Schools Tree Inventory", "source_department": "Nevada Division of Forestry", "source_last_edit_at": "2024-11-18T19:16:08.490000+00:00"}}, {"type": "Feature", "geometry": {"type": "Point", "coordinates": [-115.13829120905817, 36.25464673688188]}, "properties": {"id": "north-las-vegas-24916", "species_group": "plum", "scientific_name": "Prunus cerasifera", "common_name": "Purple-leaf plum", "subtype_name": "Purpleleaf Plum", "zip_code": "89031", "ownership": "public", "ownership_raw": "Nevada Division of Forestry", "city": "North Las Vegas", "source_dataset": "Clark County Schools Tree Inventory", "source_department": "Nevada Division of Forestry", "source_last_edit_at": "2024-11-18T19:16:08.490000+00:00"}}, {"type": "Feature", "geometry": {"type": "Point", "coordinates": [-115.14514060528307, 36.268020433350756]}, "properties": {"id": "north-las-vegas-26026", "species_group": "plum", "scientific_name": "Prunus cerasifera", "common_name": "Purple-leaf plum", "subtype_name": "Purpleleaf Plum", "zip_code": "89031", "ownership": "public", "ownership_raw": "Nevada Division of Forestry", "city": "North Las Vegas", "source_dataset": "Clark County Schools Tree Inventory", "source_department": "Nevada Division of Forestry", "source_last_edit_at": "2024-11-18T19:16:08.490000+00:00"}}, {"type": "Feature", "geometry": {"type": "Point", "coordinates": [-115.10565323637152, 36.194057529195476]}, "properties": {"id": "north-las-vegas-29001", "species_group": "crabapple", "scientific_name": "Malus species", "common_name": "Apple", "subtype_name": "Apple", "zip_code": "89030", "ownership": "public", "ownership_raw": "Nevada Division of Forestry", "city": "North Las Vegas", "source_dataset": "Clark County Schools Tree Inventory", "source_department": "Nevada Division of Forestry", "source_last_edit_at": "2024-11-18T19:16:08.490000+00:00"}}, {"type": "Feature", "geometry": {"type": "Point", "coordinates": [-115.13833711835908, 36.254644951239776]}, "properties": {"id": "north-las-vegas-30916", "species_group": "plum", "scientific_name": "Prunus cerasifera", "common_name": "Purple-leaf plum", "subtype_name": "Purpleleaf Plum", "zip_code": "89031", "ownership": "public", "ownership_raw": "Nevada Division of Forestry", "city": "North Las Vegas", "source_dataset": "Clark County Schools Tree Inventory", "source_department": "Nevada Division of Forestry", "source_last_edit_at": "2024-11-18T19:16:08.490000+00:00"}}, {"type": "Feature", "geometry": {"type": "Point", "coordinates": [-115.12342220823713, 36.19176711568852]}, "properties": {"id": "north-las-vegas-5497", "species_group": "plum", "scientific_name": "Prunus cerasifera", "common_name": "Purple-leaf plum", "subtype_name": "Purpleleaf Plum", "zip_code": "89030", "ownership": "public", "ownership_raw": "Nevada Division of Forestry", "city": "North Las Vegas", "source_dataset": "Clark County Schools Tree Inventory", "source_department": "Nevada Division of Forestry", "source_last_edit_at": "2024-11-18T19:16:08.490000+00:00"}}, {"type": "Feature", "geometry": {"type": "Point", "coordinates": [-115.11243956637192, 36.21482875090823]}, "properties": {"id": "north-las-vegas-600", "species_group": "plum", "scientific_name": "Prunus cerasifera", "common_name": "Purple-leaf plum", "subtype_name": "Purpleleaf Plum", "zip_code": "89030", "ownership": "public", "ownership_raw": "Nevada Division of Forestry", "city": "North Las Vegas", "source_dataset": "Clark County Schools Tree Inventory", "source_department": "Nevada Division of Forestry", "source_last_edit_at": "2024-11-18T19:16:08.490000+00:00"}}, {"type": "Feature", "geometry": {"type": "Point", "coordinates": [-115.13848696992486, 36.254631812099554]}, "properties": {"id": "north-las-vegas-84", "species_group": "plum", "scientific_name": "Prunus cerasifera", "common_name": "Purple-leaf plum", "subtype_name": "Purpleleaf Plum", "zip_code": "89031", "ownership": "public", "ownership_raw": "Nevada Division of Forestry", "city": "North Las Vegas", "source_dataset": "Clark County Schools Tree Inventory", "source_department": "Nevada Division of Forestry", "source_last_edit_at": "2024-11-18T19:16:08.490000+00:00"}}, {"type": "Feature", "geometry": {"type": "Point", "coordinates": [-115.18299150246175, 36.23369366848581]}, "properties": {"id": "north-las-vegas-9856", "species_group": "plum", "scientific_name": "Prunus cerasifera", "common_name": "Purple-leaf plum", "subtype_name": "Purpleleaf Plum", "zip_code": "89032", "ownership": "public", "ownership_raw": "Nevada Division of Forestry", "city": "North Las Vegas", "source_dataset": "Clark County Schools Tree Inventory", "source_department": "Nevada Division of Forestry", "source_last_edit_at": "2024-11-18T19:16:08.490000+00:00"}}]}