{"type": "FeatureCollection", "features": [{"type": "Feature", "geometry": {"type": "Point", "coordinates": [-119.59644611301403, 49.50382853086141]}, "properties": {"id": "penticton-1010", "species_group": "crabapple", "scientific_name": "Malus crab apple", "common_name": null, "subtype_name": "Malus crab apple", "zip_code": null, "ownership": "public", "ownership_raw": "City of Penticton", "city": "Penticton", "source_dataset": "Trees", "source_department": "City of Penticton", "source_last_edit_at": "2026-03-27T10:35:42.675000+00:00"}}, {"type": "Feature", "geometry": {"type": "Point", "coordinates": [-119.6116314397184, 49.50148771327691]}, "properties": {"id": "penticton-1200", "species_group": "crabapple", "scientific_name": "Malus Crab apple", "common_name": null, "subtype_name": "Malus Crab apple", "zip_code": null, "ownership": "public", "ownership_raw": "City of Penticton", "city": "Penticton", "source_dataset": "Trees", "source_department": "City of Penticton", "source_last_edit_at": "2026-03-27T10:35:42.675000+00:00"}}, {"type": "Feature", "geometry": {"type": "Point", "coordinates": [-119.61180392556308, 49.501235514674285]}, "properties": {"id": "penticton-1201", "species_group": "crabapple", "scientific_name": "Malus Crab apple", "common_name": null, "subtype_name": "Malus Crab apple", "zip_code": null, "ownership": "public", "ownership_raw": "City of Penticton", "city": "Penticton", "source_dataset": "Trees", "source_department": "City of Penticton", "source_last_edit_at": "2026-03-27T10:35:42.675000+00:00"}}, {"type": "Feature", "geometry": {"type": "Point", "coordinates": [-119.61612674311203, 49.49573257025311]}, "properties": {"id": "penticton-1254", "species_group": "crabapple", "scientific_name": "Malus", "common_name": null, "subtype_name": null, "zip_code": null, "ownership": "public", "ownership_raw": "City of Penticton", "city": "Penticton", "source_dataset": "Trees", "source_department": "City of Penticton", "source_last_edit_at": "2026-03-27T10:35:42.675000+00:00"}}, {"type": "Feature", "geometry": {"type": "Point", "coordinates": [-119.61460370287794, 49.49881787419791]}, "properties": {"id": "penticton-1338", "species_group": "crabapple", "scientific_name": "Malus", "common_name": null, "subtype_name": null, "zip_code": null, "ownership": "public", "ownership_raw": "City of Penticton", "city": "Penticton", "source_dataset": "Trees", "source_department": "City of Penticton", "source_last_edit_at": "2026-03-27T10:35:42.675000+00:00"}}, {"type": "Feature", "geometry": {"type": "Point", "coordinates": [-119.61438866933443, 49.49898857034748]}, "properties": {"id": "penticton-1342", "species_group": "magnolia", "scientific_name": "Magnolia Saucer magnolia", "common_name": null, "subtype_name": "Saucer Magnolia", "zip_code": null, "ownership": "public", "ownership_raw": "City of Penticton", "city": "Penticton", "source_dataset": "Trees", "source_department": "City of Penticton", "source_last_edit_at": "2026-03-27T10:35:42.675000+00:00"}}, {"type": "Feature", "geometry": {"type": "Point", "coordinates": [-119.61397583198998, 49.49921311391261]}, "properties": {"id": "penticton-1347", "species_group": "crabapple", "scientific_name": "Malus Crab apple", "common_name": null, "subtype_name": "Malus Crab apple", "zip_code": null, "ownership": "public", "ownership_raw": "City of Penticton", "city": "Penticton", "source_dataset": "Trees", "source_department": "City of Penticton", "source_last_edit_at": "2026-03-27T10:35:42.675000+00:00"}}, {"type": "Feature", "geometry": {"type": "Point", "coordinates": [-119.61363153085739, 49.499362486308215]}, "properties": {"id": "penticton-1351", "species_group": "crabapple", "scientific_name": "Malus", "common_name": null, "subtype_name": null, "zip_code": null, "ownership": "public", "ownership_raw": "City of Penticton", "city": "Penticton", "source_dataset": "Trees", "source_department": "City of Penticton", "source_last_edit_at": "2026-03-27T10:35:42.675000+00:00"}}, {"type": "Feature", "geometry": {"type": "Point", "coordinates": [-119.60434742980974, 49.49494026694346]}, "properties": {"id": "penticton-1445", "species_group": "crabapple", "scientific_name": "Malus", "common_name": null, "subtype_name": null, "zip_code": null, "ownership": "public", "ownership_raw": "City of Penticton", "city": "Penticton", "source_dataset": "Trees", "source_department": "City of Penticton", "source_last_edit_at": "2026-03-27T10:35:42.675000+00:00"}}, {"type": "Feature", "geometry": {"type": "Point", "coordinates": [-119.60453181024099, 49.49501116292158]}, "properties": {"id": "penticton-1446", "species_group": "crabapple", "scientific_name": "Malus", "common_name": null, "subtype_name": null, "zip_code": null, "ownership": "public", "ownership_raw": "City of Penticton", "city": "Penticton", "source_dataset": "Trees", "source_department": "City of Penticton", "source_last_edit_at": "2026-03-27T10:35:42.675000+00:00"}}, {"type": "Feature", "geometry": {"type": "Point", "coordinates": [-119.60601717119319, 49.49732569859724]}, "properties": {"id": "penticton-1519", "species_group": "crabapple", "scientific_name": "Malus Crab apple", "common_name": null, "subtype_name": "Malus Crab apple", "zip_code": null, "ownership": "public", "ownership_raw": "City of Penticton", "city": "Penticton", "source_dataset": "Trees", "source_department": "City of Penticton", "source_last_edit_at": "2026-03-27T10:35:42.675000+00:00"}}, {"type": "Feature", "geometry": {"type": "Point", "coordinates": [-119.60599132690518, 49.497270739885295]}, "properties": {"id": "penticton-1520", "species_group": "crabapple", "scientific_name": "Malus Crab apple", "common_name": null, "subtype_name": "Malus Crab apple", "zip_code": null, "ownership": "public", "ownership_raw": "City of Penticton", "city": "Penticton", "source_dataset": "Trees", "source_department": "City of Penticton", "source_last_edit_at": "2026-03-27T10:35:42.675000+00:00"}}, {"type": "Feature", "geometry": {"type": "Point", "coordinates": [-119.56363053923039, 49.483399241706564]}, "properties": {"id": "penticton-1897", "species_group": "crabapple", "scientific_name": "Malus", "common_name": null, "subtype_name": null, "zip_code": null, "ownership": "public", "ownership_raw": "City of Penticton", "city": "Penticton", "source_dataset": "Trees", "source_department": "City of Penticton", "source_last_edit_at": "2026-03-27T10:35:42.675000+00:00"}}, {"type": "Feature", "geometry": {"type": "Point", "coordinates": [-119.59161420240369, 49.47269851099795]}, "properties": {"id": "penticton-2067", "species_group": "magnolia", "scientific_name": "Magnolia", "common_name": null, "subtype_name": null, "zip_code": null, "ownership": "public", "ownership_raw": "City of Penticton", "city": "Penticton", "source_dataset": "Trees", "source_department": "City of Penticton", "source_last_edit_at": "2026-03-27T10:35:42.675000+00:00"}}, {"type": "Feature", "geometry": {"type": "Point", "coordinates": [-119.59163907792464, 49.47265886795326]}, "properties": {"id": "penticton-2068", "species_group": "magnolia", "scientific_name": "Magnolia", "common_name": null, "subtype_name": null, "zip_code": null, "ownership": "public", "ownership_raw": "City of Penticton", "city": "Penticton", "source_dataset": "Trees", "source_department": "City of Penticton", "source_last_edit_at": "2026-03-27T10:35:42.675000+00:00"}}, {"type": "Feature", "geometry": {"type": "Point", "coordinates": [-119.58928165630354, 49.473410705561264]}, "properties": {"id": "penticton-2079", "species_group": "magnolia", "scientific_name": "Magnolia", "common_name": null, "subtype_name": null, "zip_code": null, "ownership": "public", "ownership_raw": "City of Penticton", "city": "Penticton", "source_dataset": "Trees", "source_department": "City of Penticton", "source_last_edit_at": "2026-03-27T10:35:42.675000+00:00"}}, {"type": "Feature", "geometry": {"type": "Point", "coordinates": [-119.58876283035734, 49.47368555668379]}, "properties": {"id": "penticton-2086", "species_group": "crabapple", "scientific_name": "Malus", "common_name": null, "subtype_name": null, "zip_code": null, "ownership": "public", "ownership_raw": "City of Penticton", "city": "Penticton", "source_dataset": "Trees", "source_department": "City of Penticton", "source_last_edit_at": "2026-03-27T10:35:42.675000+00:00"}}, {"type": "Feature", "geometry": {"type": "Point", "coordinates": [-119.5941560232957, 49.50140485487054]}, "properties": {"id": "penticton-2201", "species_group": "crabapple", "scientific_name": "Malus crab apple", "common_name": null, "subtype_name": "Malus crab apple", "zip_code": null, "ownership": "public", "ownership_raw": "City of Penticton", "city": "Penticton", "source_dataset": "Trees", "source_department": "City of Penticton", "source_last_edit_at": "2026-03-27T10:35:42.675000+00:00"}}, {"type": "Feature", "geometry": {"type": "Point", "coordinates": [-119.57989848800366, 49.453666642353866]}, "properties": {"id": "penticton-2251", "species_group": "crabapple", "scientific_name": "Malus crab apple", "common_name": null, "subtype_name": "Malus crab apple", "zip_code": null, "ownership": "public", "ownership_raw": "City of Penticton", "city": "Penticton", "source_dataset": "Trees", "source_department": "City of Penticton", "source_last_edit_at": "2026-03-27T10:35:42.675000+00:00"}}, {"type": "Feature", "geometry": {"type": "Point", "coordinates": [-119.58774758493429, 49.49672388710919]}, "properties": {"id": "penticton-2308", "species_group": "magnolia", "scientific_name": "Magnolia", "common_name": null, "subtype_name": null, "zip_code": null, "ownership": "public", "ownership_raw": "City of Penticton", "city": "Penticton", "source_dataset": "Trees", "source_department": "City of Penticton", "source_last_edit_at": "2026-03-27T10:35:42.675000+00:00"}}, {"type": "Feature", "geometry": {"type": "Point", "coordinates": [-119.58842951365916, 49.49603723863546]}, "properties": {"id": "penticton-2377", "species_group": "crabapple", "scientific_name": "Malus", "common_name": null, "subtype_name": null, "zip_code": null, "ownership": "public", "ownership_raw": "City of Penticton", "city": "Penticton", "source_dataset": "Trees", "source_department": "City of Penticton", "source_last_edit_at": "2026-03-27T10:35:42.675000+00:00"}}, {"type": "Feature", "geometry": {"type": "Point", "coordinates": [-119.58400835291731, 49.48493678879779]}, "properties": {"id": "penticton-2877", "species_group": "crabapple", "scientific_name": "Malus Crab apple", "common_name": null, "subtype_name": "Malus Crab apple", "zip_code": null, "ownership": "public", "ownership_raw": "City of Penticton", "city": "Penticton", "source_dataset": "Trees", "source_department": "City of Penticton", "source_last_edit_at": "2026-03-27T10:35:42.675000+00:00"}}, {"type": "Feature", "geometry": {"type": "Point", "coordinates": [-119.53799117242286, 49.49133530515113]}, "properties": {"id": "penticton-3119", "species_group": "crabapple", "scientific_name": "Malus", "common_name": null, "subtype_name": null, "zip_code": null, "ownership": "public", "ownership_raw": "City of Penticton", "city": "Penticton", "source_dataset": "Trees", "source_department": "City of Penticton", "source_last_edit_at": "2026-03-27T10:35:42.675000+00:00"}}, {"type": "Feature", "geometry": {"type": "Point", "coordinates": [-119.53790556534503, 49.49165152227992]}, "properties": {"id": "penticton-3123", "species_group": "crabapple", "scientific_name": "Malus", "common_name": null, "subtype_name": null, "zip_code": null, "ownership": "public", "ownership_raw": "City of Penticton", "city": "Penticton", "source_dataset": "Trees", "source_department": "City of Penticton", "source_last_edit_at": "2026-03-27T10:35:42.675000+00:00"}}, {"type": "Feature", "geometry": {"type": "Point", "coordinates": [-119.53787379572547, 49.49252464243288]}, "properties": {"id": "penticton-3132", "species_group": "crabapple", "scientific_name": "Malus", "common_name": null, "subtype_name": null, "zip_code": null, "ownership": "public", "ownership_raw": "City of Penticton", "city": "Penticton", "source_dataset": "Trees", "source_department": "City of Penticton", "source_last_edit_at": "2026-03-27T10:35:42.675000+00:00"}}, {"type": "Feature", "geometry": {"type": "Point", "coordinates": [-119.53786890903126, 49.49259913943593]}, "properties": {"id": "penticton-3133", "species_group": "crabapple", "scientific_name": "Malus", "common_name": null, "subtype_name": null, "zip_code": null, "ownership": "public", "ownership_raw": "City of Penticton", "city": "Penticton", "source_dataset": "Trees", "source_department": "City of Penticton", "source_last_edit_at": "2026-03-27T10:35:42.675000+00:00"}}, {"type": "Feature", "geometry": {"type": "Point", "coordinates": [-119.53785558473822, 49.492951654562695]}, "properties": {"id": "penticton-3137", "species_group": "crabapple", "scientific_name": "Malus", "common_name": null, "subtype_name": null, "zip_code": null, "ownership": "public", "ownership_raw": "City of Penticton", "city": "Penticton", "source_dataset": "Trees", "source_department": "City of Penticton", "source_last_edit_at": "2026-03-27T10:35:42.675000+00:00"}}, {"type": "Feature", "geometry": {"type": "Point", "coordinates": [-119.53784072143934, 49.49340693845713]}, "properties": {"id": "penticton-3140", "species_group": "crabapple", "scientific_name": "Malus", "common_name": null, "subtype_name": null, "zip_code": null, "ownership": "public", "ownership_raw": "City of Penticton", "city": "Penticton", "source_dataset": "Trees", "source_department": "City of Penticton", "source_last_edit_at": "2026-03-27T10:35:42.675000+00:00"}}, {"type": "Feature", "geometry": {"type": "Point", "coordinates": [-119.54109702380676, 49.491651412390645]}, "properties": {"id": "penticton-3161", "species_group": "crabapple", "scientific_name": "Malus", "common_name": null, "subtype_name": null, "zip_code": null, "ownership": "public", "ownership_raw": "City of Penticton", "city": "Penticton", "source_dataset": "Trees", "source_department": "City of Penticton", "source_last_edit_at": "2026-03-27T10:35:42.675000+00:00"}}, {"type": "Feature", "geometry": {"type": "Point", "coordinates": [-119.53738398842711, 49.494024121806305]}, "properties": {"id": "penticton-3173", "species_group": "crabapple", "scientific_name": "Malus", "common_name": null, "subtype_name": null, "zip_code": null, "ownership": "public", "ownership_raw": "City of Penticton", "city": "Penticton", "source_dataset": "Trees", "source_department": "City of Penticton", "source_last_edit_at": "2026-03-27T10:35:42.675000+00:00"}}, {"type": "Feature", "geometry": {"type": "Point", "coordinates": [-119.537903349958, 49.493778415467794]}, "properties": {"id": "penticton-3180", "species_group": "crabapple", "scientific_name": "Malus", "common_name": null, "subtype_name": null, "zip_code": null, "ownership": "public", "ownership_raw": "City of Penticton", "city": "Penticton", "source_dataset": "Trees", "source_department": "City of Penticton", "source_last_edit_at": "2026-03-27T10:35:42.675000+00:00"}}, {"type": "Feature", "geometry": {"type": "Point", "coordinates": [-119.53904333853755, 49.49402476465796]}, "properties": {"id": "penticton-3185", "species_group": "crabapple", "scientific_name": "Malus", "common_name": null, "subtype_name": null, "zip_code": null, "ownership": "public", "ownership_raw": "City of Penticton", "city": "Penticton", "source_dataset": "Trees", "source_department": "City of Penticton", "source_last_edit_at": "2026-03-27T10:35:42.675000+00:00"}}, {"type": "Feature", "geometry": {"type": "Point", "coordinates": [-119.53957511613037, 49.493778281479955]}, "properties": {"id": "penticton-3189", "species_group": "crabapple", "scientific_name": "Malus", "common_name": null, "subtype_name": null, "zip_code": null, "ownership": "public", "ownership_raw": "City of Penticton", "city": "Penticton", "source_dataset": "Trees", "source_department": "City of Penticton", "source_last_edit_at": "2026-03-27T10:35:42.675000+00:00"}}, {"type": "Feature", "geometry": {"type": "Point", "coordinates": [-119.54047681384571, 49.4930735561481]}, "properties": {"id": "penticton-3194", "species_group": "crabapple", "scientific_name": "Malus", "common_name": null, "subtype_name": null, "zip_code": null, "ownership": "public", "ownership_raw": "City of Penticton", "city": "Penticton", "source_dataset": "Trees", "source_department": "City of Penticton", "source_last_edit_at": "2026-03-27T10:35:42.675000+00:00"}}, {"type": "Feature", "geometry": {"type": "Point", "coordinates": [-119.54140119539143, 49.492759803618604]}, "properties": {"id": "penticton-3198", "species_group": "crabapple", "scientific_name": "Malus", "common_name": null, "subtype_name": null, "zip_code": null, "ownership": "public", "ownership_raw": "City of Penticton", "city": "Penticton", "source_dataset": "Trees", "source_department": "City of Penticton", "source_last_edit_at": "2026-03-27T10:35:42.675000+00:00"}}, {"type": "Feature", "geometry": {"type": "Point", "coordinates": [-119.54161657216102, 49.49268746678942]}, "properties": {"id": "penticton-3199", "species_group": "crabapple", "scientific_name": "Malus", "common_name": null, "subtype_name": null, "zip_code": null, "ownership": "public", "ownership_raw": "City of Penticton", "city": "Penticton", "source_dataset": "Trees", "source_department": "City of Penticton", "source_last_edit_at": "2026-03-27T10:35:42.675000+00:00"}}, {"type": "Feature", "geometry": {"type": "Point", "coordinates": [-119.54215316025065, 49.49237981470626]}, "properties": {"id": "penticton-3202", "species_group": "crabapple", "scientific_name": "Malus", "common_name": null, "subtype_name": null, "zip_code": null, "ownership": "public", "ownership_raw": "City of Penticton", "city": "Penticton", "source_dataset": "Trees", "source_department": "City of Penticton", "source_last_edit_at": "2026-03-27T10:35:42.675000+00:00"}}, {"type": "Feature", "geometry": {"type": "Point", "coordinates": [-119.54279095754843, 49.49079370076286]}, "properties": {"id": "penticton-3205", "species_group": "crabapple", "scientific_name": "Malus", "common_name": null, "subtype_name": null, "zip_code": null, "ownership": "public", "ownership_raw": "City of Penticton", "city": "Penticton", "source_dataset": "Trees", "source_department": "City of Penticton", "source_last_edit_at": "2026-03-27T10:35:42.675000+00:00"}}, {"type": "Feature", "geometry": {"type": "Point", "coordinates": [-119.55815126776534, 49.47718453905024]}, "properties": {"id": "penticton-3581", "species_group": "magnolia", "scientific_name": "Magnolia", "common_name": null, "subtype_name": null, "zip_code": null, "ownership": "public", "ownership_raw": "City of Penticton", "city": "Penticton", "source_dataset": "Trees", "source_department": "City of Penticton", "source_last_edit_at": "2026-03-27T10:35:42.675000+00:00"}}, {"type": "Feature", "geometry": {"type": "Point", "coordinates": [-119.57435787769431, 49.49585238260286]}, "properties": {"id": "penticton-3647", "species_group": "crabapple", "scientific_name": "Malus", "common_name": null, "subtype_name": null, "zip_code": null, "ownership": "public", "ownership_raw": "City of Penticton", "city": "Penticton", "source_dataset": "Trees", "source_department": "City of Penticton", "source_last_edit_at": "2026-03-27T10:35:42.675000+00:00"}}, {"type": "Feature", "geometry": {"type": "Point", "coordinates": [-119.58033237227956, 49.50509759685894]}, "properties": {"id": "penticton-3658", "species_group": "crabapple", "scientific_name": "Malus", "common_name": null, "subtype_name": null, "zip_code": null, "ownership": "public", "ownership_raw": "City of Penticton", "city": "Penticton", "source_dataset": "Trees", "source_department": "City of Penticton", "source_last_edit_at": "2026-03-27T10:35:42.675000+00:00"}}, {"type": "Feature", "geometry": {"type": "Point", "coordinates": [-119.58014872783339, 49.502527855387996]}, "properties": {"id": "penticton-3673", "species_group": "crabapple", "scientific_name": "Malus", "common_name": null, "subtype_name": null, "zip_code": null, "ownership": "public", "ownership_raw": "City of Penticton", "city": "Penticton", "source_dataset": "Trees", "source_department": "City of Penticton", "source_last_edit_at": "2026-03-27T10:35:42.675000+00:00"}}, {"type": "Feature", "geometry": {"type": "Point", "coordinates": [-119.56826221861776, 49.49382074625717]}, "properties": {"id": "penticton-3736", "species_group": "crabapple", "scientific_name": "Malus", "common_name": null, "subtype_name": null, "zip_code": null, "ownership": "public", "ownership_raw": "City of Penticton", "city": "Penticton", "source_dataset": "Trees", "source_department": "City of Penticton", "source_last_edit_at": "2026-03-27T10:35:42.675000+00:00"}}, {"type": "Feature", "geometry": {"type": "Point", "coordinates": [-119.59635087661027, 49.49670855770919]}, "properties": {"id": "penticton-4103", "species_group": "crabapple", "scientific_name": "Malus", "common_name": null, "subtype_name": null, "zip_code": null, "ownership": "public", "ownership_raw": "City of Penticton", "city": "Penticton", "source_dataset": "Trees", "source_department": "City of Penticton", "source_last_edit_at": "2026-03-27T10:35:42.675000+00:00"}}, {"type": "Feature", "geometry": {"type": "Point", "coordinates": [-119.57663663640298, 49.518318120389644]}, "properties": {"id": "penticton-4205", "species_group": "crabapple", "scientific_name": "Malus", "common_name": null, "subtype_name": null, "zip_code": null, "ownership": "public", "ownership_raw": "City of Penticton", "city": "Penticton", "source_dataset": "Trees", "source_department": "City of Penticton", "source_last_edit_at": "2026-03-27T10:35:42.675000+00:00"}}, {"type": "Feature", "geometry": {"type": "Point", "coordinates": [-119.58722087897146, 49.4950261153894]}, "properties": {"id": "penticton-4828", "species_group": "crabapple", "scientific_name": "Malus Gladiator", "common_name": null, "subtype_name": "Malus Gladiator", "zip_code": null, "ownership": "public", "ownership_raw": "City of Penticton", "city": "Penticton", "source_dataset": "Trees", "source_department": "City of Penticton", "source_last_edit_at": "2026-03-27T10:35:42.675000+00:00"}}, {"type": "Feature", "geometry": {"type": "Point", "coordinates": [-119.58549929438415, 49.49514951607276]}, "properties": {"id": "penticton-4833", "species_group": "crabapple", "scientific_name": "Malus Gladiator", "common_name": null, "subtype_name": "Malus Gladiator", "zip_code": null, "ownership": "public", "ownership_raw": "City of Penticton", "city": "Penticton", "source_dataset": "Trees", "source_department": "City of Penticton", "source_last_edit_at": "2026-03-27T10:35:42.675000+00:00"}}, {"type": "Feature", "geometry": {"type": "Point", "coordinates": [-119.58769642268443, 49.49492220695736]}, "properties": {"id": "penticton-4878", "species_group": "crabapple", "scientific_name": "Malus Gladiator", "common_name": null, "subtype_name": "Malus Gladiator", "zip_code": null, "ownership": "public", "ownership_raw": "City of Penticton", "city": "Penticton", "source_dataset": "Trees", "source_department": "City of Penticton", "source_last_edit_at": "2026-03-27T10:35:42.675000+00:00"}}, {"type": "Feature", "geometry": {"type": "Point", "coordinates": [-119.59756795434035, 49.50308551974132]}, "properties": {"id": "penticton-4891", "species_group": "crabapple", "scientific_name": "Malus Flowering crab apple", "common_name": null, "subtype_name": "Malus Flowering crab apple", "zip_code": null, "ownership": "public", "ownership_raw": "City of Penticton", "city": "Penticton", "source_dataset": "Trees", "source_department": "City of Penticton", "source_last_edit_at": "2026-03-27T10:35:42.675000+00:00"}}, {"type": "Feature", "geometry": {"type": "Point", "coordinates": [-119.54002311142926, 49.49158965581499]}, "properties": {"id": "penticton-4902", "species_group": "crabapple", "scientific_name": "Malus", "common_name": null, "subtype_name": null, "zip_code": null, "ownership": "public", "ownership_raw": "City of Penticton", "city": "Penticton", "source_dataset": "Trees", "source_department": "City of Penticton", "source_last_edit_at": "2026-03-27T10:35:42.675000+00:00"}}, {"type": "Feature", "geometry": {"type": "Point", "coordinates": [-119.59053973851076, 49.453895981258235]}, "properties": {"id": "penticton-5", "species_group": "crabapple", "scientific_name": "Malus Crab apple", "common_name": null, "subtype_name": "Malus Crab apple", "zip_code": null, "ownership": "public", "ownership_raw": "City of Penticton", "city": "Penticton", "source_dataset": "Trees", "source_department": "City of Penticton", "source_last_edit_at": "2026-03-27T10:35:42.675000+00:00"}}, {"type": "Feature", "geometry": {"type": "Point", "coordinates": [-119.58934199265394, 49.473397877455106]}, "properties": {"id": "penticton-5105", "species_group": "magnolia", "scientific_name": "Magnolia", "common_name": null, "subtype_name": null, "zip_code": null, "ownership": "public", "ownership_raw": "City of Penticton", "city": "Penticton", "source_dataset": "Trees", "source_department": "City of Penticton", "source_last_edit_at": "2026-03-27T10:35:42.675000+00:00"}}, {"type": "Feature", "geometry": {"type": "Point", "coordinates": [-119.59012551760041, 49.49405012301518]}, "properties": {"id": "penticton-5409", "species_group": "crabapple", "scientific_name": "Malus", "common_name": null, "subtype_name": null, "zip_code": null, "ownership": "public", "ownership_raw": "City of Penticton", "city": "Penticton", "source_dataset": "Trees", "source_department": "City of Penticton", "source_last_edit_at": "2026-03-27T10:35:42.675000+00:00"}}, {"type": "Feature", "geometry": {"type": "Point", "coordinates": [-119.5898360132392, 49.49584193707577]}, "properties": {"id": "penticton-5411", "species_group": "crabapple", "scientific_name": "Malus", "common_name": null, "subtype_name": null, "zip_code": null, "ownership": "public", "ownership_raw": "City of Penticton", "city": "Penticton", "source_dataset": "Trees", "source_department": "City of Penticton", "source_last_edit_at": "2026-03-27T10:35:42.675000+00:00"}}, {"type": "Feature", "geometry": {"type": "Point", "coordinates": [-119.59106735564554, 49.50288799083563]}, "properties": {"id": "penticton-5608", "species_group": "magnolia", "scientific_name": "Magnolia Yellow bird", "common_name": null, "subtype_name": "Magnolia Yellow bird", "zip_code": null, "ownership": "public", "ownership_raw": "City of Penticton", "city": "Penticton", "source_dataset": "Trees", "source_department": "City of Penticton", "source_last_edit_at": "2026-03-27T10:35:42.675000+00:00"}}, {"type": "Feature", "geometry": {"type": "Point", "coordinates": [-119.59110028514196, 49.50315357373223]}, "properties": {"id": "penticton-5612", "species_group": "crabapple", "scientific_name": "Malus Crabapple", "common_name": null, "subtype_name": "Malus Crabapple", "zip_code": null, "ownership": "public", "ownership_raw": "City of Penticton", "city": "Penticton", "source_dataset": "Trees", "source_department": "City of Penticton", "source_last_edit_at": "2026-03-27T10:35:42.675000+00:00"}}, {"type": "Feature", "geometry": {"type": "Point", "coordinates": [-119.54345784188618, 49.492009683108925]}, "properties": {"id": "penticton-5716", "species_group": "crabapple", "scientific_name": "Malus Crabapple", "common_name": null, "subtype_name": "Malus Crabapple", "zip_code": null, "ownership": "public", "ownership_raw": "City of Penticton", "city": "Penticton", "source_dataset": "Trees", "source_department": "City of Penticton", "source_last_edit_at": "2026-03-27T10:35:42.675000+00:00"}}, {"type": "Feature", "geometry": {"type": "Point", "coordinates": [-119.58543231721814, 49.495045055901635]}, "properties": {"id": "penticton-5841", "species_group": "crabapple", "scientific_name": "Malus", "common_name": null, "subtype_name": null, "zip_code": null, "ownership": "public", "ownership_raw": "City of Penticton", "city": "Penticton", "source_dataset": "Trees", "source_department": "City of Penticton", "source_last_edit_at": "2026-03-27T10:35:42.675000+00:00"}}, {"type": "Feature", "geometry": {"type": "Point", "coordinates": [-119.58195313783173, 49.453801046958674]}, "properties": {"id": "penticton-610", "species_group": "crabapple", "scientific_name": "Malus Crab apple", "common_name": null, "subtype_name": "Malus Crab apple", "zip_code": null, "ownership": "public", "ownership_raw": "City of Penticton", "city": "Penticton", "source_dataset": "Trees", "source_department": "City of Penticton", "source_last_edit_at": "2026-03-27T10:35:42.675000+00:00"}}, {"type": "Feature", "geometry": {"type": "Point", "coordinates": [-119.5861148657468, 49.493943429015054]}, "properties": {"id": "penticton-7869", "species_group": "crabapple", "scientific_name": "Malus Gladiator", "common_name": null, "subtype_name": "Malus Gladiator", "zip_code": null, "ownership": "public", "ownership_raw": "City of Penticton", "city": "Penticton", "source_dataset": "Trees", "source_department": "City of Penticton", "source_last_edit_at": "2026-03-27T10:35:42.675000+00:00"}}, {"type": "Feature", "geometry": {"type": "Point", "coordinates": [-119.5381494875213, 49.491700696147355]}, "properties": {"id": "penticton-7897", "species_group": "crabapple", "scientific_name": "Malus", "common_name": null, "subtype_name": null, "zip_code": null, "ownership": "public", "ownership_raw": "City of Penticton", "city": "Penticton", "source_dataset": "Trees", "source_department": "City of Penticton", "source_last_edit_at": "2026-03-27T10:35:42.675000+00:00"}}, {"type": "Feature", "geometry": {"type": "Point", "coordinates": [-119.53871889710355, 49.492071543307354]}, "properties": {"id": "penticton-8176", "species_group": "crabapple", "scientific_name": "Malus", "common_name": null, "subtype_name": null, "zip_code": null, "ownership": "public", "ownership_raw": "City of Penticton", "city": "Penticton", "source_dataset": "Trees", "source_department": "City of Penticton", "source_last_edit_at": "2026-03-27T10:35:42.675000+00:00"}}, {"type": "Feature", "geometry": {"type": "Point", "coordinates": [-119.53892919023305, 49.491957215412505]}, "properties": {"id": "penticton-8177", "species_group": "crabapple", "scientific_name": "Malus", "common_name": null, "subtype_name": null, "zip_code": null, "ownership": "public", "ownership_raw": "City of Penticton", "city": "Penticton", "source_dataset": "Trees", "source_department": "City of Penticton", "source_last_edit_at": "2026-03-27T10:35:42.675000+00:00"}}, {"type": "Feature", "geometry": {"type": "Point", "coordinates": [-119.53838857304879, 49.49160268778245]}, "properties": {"id": "penticton-8185", "species_group": "crabapple", "scientific_name": "Malus", "common_name": null, "subtype_name": null, "zip_code": null, "ownership": "public", "ownership_raw": "City of Penticton", "city": "Penticton", "source_dataset": "Trees", "source_department": "City of Penticton", "source_last_edit_at": "2026-03-27T10:35:42.675000+00:00"}}, {"type": "Feature", "geometry": {"type": "Point", "coordinates": [-119.53822569422651, 49.4916822612891]}, "properties": {"id": "penticton-8186", "species_group": "crabapple", "scientific_name": "Malus", "common_name": null, "subtype_name": null, "zip_code": null, "ownership": "public", "ownership_raw": "City of Penticton", "city": "Penticton", "source_dataset": "Trees", "source_department": "City of Penticton", "source_last_edit_at": "2026-03-27T10:35:42.675000+00:00"}}, {"type": "Feature", "geometry": {"type": "Point", "coordinates": [-119.53816383679394, 49.4915785821936]}, "properties": {"id": "penticton-8187", "species_group": "crabapple", "scientific_name": "Malus", "common_name": null, "subtype_name": null, "zip_code": null, "ownership": "public", "ownership_raw": "City of Penticton", "city": "Penticton", "source_dataset": "Trees", "source_department": "City of Penticton", "source_last_edit_at": "2026-03-27T10:35:42.675000+00:00"}}, {"type": "Feature", "geometry": {"type": "Point", "coordinates": [-119.53822825777644, 49.49161092075782]}, "properties": {"id": "penticton-8188", "species_group": "crabapple", "scientific_name": "Malus", "common_name": null, "subtype_name": null, "zip_code": null, "ownership": "public", "ownership_raw": "City of Penticton", "city": "Penticton", "source_dataset": "Trees", "source_department": "City of Penticton", "source_last_edit_at": "2026-03-27T10:35:42.675000+00:00"}}, {"type": "Feature", "geometry": {"type": "Point", "coordinates": [-119.5935061699992, 49.503799147904864]}, "properties": {"id": "penticton-949", "species_group": "crabapple", "scientific_name": "Malus Crab apple", "common_name": null, "subtype_name": "Malus Crab apple", "zip_code": null, "ownership": "public", "ownership_raw": "City of Penticton", "city": "Penticton", "source_dataset": "Trees", "source_department": "City of Penticton", "source_last_edit_at": "2026-03-27T10:35:42.675000+00:00"}}, {"type": "Feature", "geometry": {"type": "Point", "coordinates": [-119.59577059750389, 49.50255531236582]}, "properties": {"id": "penticton-995", "species_group": "plum", "scientific_name": "Prunus Cherry plum", "common_name": null, "subtype_name": "Cherry Plum", "zip_code": null, "ownership": "public", "ownership_raw": "City of Penticton", "city": "Penticton", "source_dataset": "Trees", "source_department": "City of Penticton", "source_last_edit_at": "2026-03-27T10:35:42.675000+00:00"}}]}