{"type": "FeatureCollection", "features": [{"type": "Feature", "geometry": {"type": "Point", "coordinates": [-79.38436915202699, 44.185189639255455]}, "properties": {"id": "east-gwillimbury-18671", "species_group": "crabapple", "scientific_name": "Malus sp.", "common_name": "Apple Species", "subtype_name": "Apple", "zip_code": null, "ownership": "public", "ownership_raw": "York Region", "city": "East Gwillimbury", "source_dataset": "Street Trees", "source_department": "York Region", "source_last_edit_at": ""}}, {"type": "Feature", "geometry": {"type": "Point", "coordinates": [-79.38380267045898, 44.18379416298156]}, "properties": {"id": "east-gwillimbury-18724", "species_group": "crabapple", "scientific_name": "Malus sp.", "common_name": "Apple Species", "subtype_name": "Apple", "zip_code": null, "ownership": "public", "ownership_raw": "York Region", "city": "East Gwillimbury", "source_dataset": "Street Trees", "source_department": "York Region", "source_last_edit_at": ""}}, {"type": "Feature", "geometry": {"type": "Point", "coordinates": [-79.34801950862179, 44.14193871940208]}, "properties": {"id": "east-gwillimbury-18776", "species_group": "crabapple", "scientific_name": "Malus sp.", "common_name": "Apple Species", "subtype_name": "Apple", "zip_code": null, "ownership": "public", "ownership_raw": "York Region", "city": "East Gwillimbury", "source_dataset": "Street Trees", "source_department": "York Region", "source_last_edit_at": ""}}, {"type": "Feature", "geometry": {"type": "Point", "coordinates": [-79.35108553594573, 44.15433027005833]}, "properties": {"id": "east-gwillimbury-18781", "species_group": "crabapple", "scientific_name": "Malus sp.", "common_name": "Apple Species", "subtype_name": "Apple", "zip_code": null, "ownership": "public", "ownership_raw": "York Region", "city": "East Gwillimbury", "source_dataset": "Street Trees", "source_department": "York Region", "source_last_edit_at": ""}}, {"type": "Feature", "geometry": {"type": "Point", "coordinates": [-79.46559828529969, 44.11588599547987]}, "properties": {"id": "east-gwillimbury-19279", "species_group": "crabapple", "scientific_name": "Malus sp.", "common_name": "Apple Species", "subtype_name": "Apple", "zip_code": null, "ownership": "public", "ownership_raw": "York Region", "city": "East Gwillimbury", "source_dataset": "Street Trees", "source_department": "York Region", "source_last_edit_at": ""}}, {"type": "Feature", "geometry": {"type": "Point", "coordinates": [-79.38608691780533, 44.088715909090354]}, "properties": {"id": "east-gwillimbury-20051", "species_group": "crabapple", "scientific_name": "Malus sp.", "common_name": "Apple Species", "subtype_name": "Apple", "zip_code": null, "ownership": "public", "ownership_raw": "York Region", "city": "East Gwillimbury", "source_dataset": "Street Trees", "source_department": "York Region", "source_last_edit_at": ""}}, {"type": "Feature", "geometry": {"type": "Point", "coordinates": [-79.48936060026752, 44.11068181638362]}, "properties": {"id": "east-gwillimbury-20372", "species_group": "crabapple", "scientific_name": "Malus sp.", "common_name": "Apple Species", "subtype_name": "Apple", "zip_code": null, "ownership": "public", "ownership_raw": "York Region", "city": "East Gwillimbury", "source_dataset": "Street Trees", "source_department": "York Region", "source_last_edit_at": ""}}, {"type": "Feature", "geometry": {"type": "Point", "coordinates": [-79.39038812445514, 44.104952524656596]}, "properties": {"id": "east-gwillimbury-20500", "species_group": "crabapple", "scientific_name": "Malus sp.", "common_name": "Apple Species", "subtype_name": "Apple", "zip_code": null, "ownership": "public", "ownership_raw": "York Region", "city": "East Gwillimbury", "source_dataset": "Street Trees", "source_department": "York Region", "source_last_edit_at": ""}}, {"type": "Feature", "geometry": {"type": "Point", "coordinates": [-79.38799929345244, 44.09654293689895]}, "properties": {"id": "east-gwillimbury-22297", "species_group": "crabapple", "scientific_name": "Malus sp.", "common_name": "Apple Species", "subtype_name": "Apple", "zip_code": null, "ownership": "public", "ownership_raw": "York Region", "city": "East Gwillimbury", "source_dataset": "Street Trees", "source_department": "York Region", "source_last_edit_at": ""}}, {"type": "Feature", "geometry": {"type": "Point", "coordinates": [-79.42675756223063, 44.14417968818711]}, "properties": {"id": "east-gwillimbury-22876", "species_group": "crabapple", "scientific_name": "Malus sp.", "common_name": "Apple Species", "subtype_name": "Apple", "zip_code": null, "ownership": "public", "ownership_raw": "York Region", "city": "East Gwillimbury", "source_dataset": "Street Trees", "source_department": "York Region", "source_last_edit_at": ""}}, {"type": "Feature", "geometry": {"type": "Point", "coordinates": [-79.42760689710434, 44.14396794030288]}, "properties": {"id": "east-gwillimbury-22877", "species_group": "crabapple", "scientific_name": "Malus sp.", "common_name": "Apple Species", "subtype_name": "Apple", "zip_code": null, "ownership": "public", "ownership_raw": "York Region", "city": "East Gwillimbury", "source_dataset": "Street Trees", "source_department": "York Region", "source_last_edit_at": ""}}, {"type": "Feature", "geometry": {"type": "Point", "coordinates": [-79.42766064976209, 44.1439867838721]}, "properties": {"id": "east-gwillimbury-22878", "species_group": "crabapple", "scientific_name": "Malus sp.", "common_name": "Apple Species", "subtype_name": "Apple", "zip_code": null, "ownership": "public", "ownership_raw": "York Region", "city": "East Gwillimbury", "source_dataset": "Street Trees", "source_department": "York Region", "source_last_edit_at": ""}}, {"type": "Feature", "geometry": {"type": "Point", "coordinates": [-79.49690795794871, 44.08703558480427]}, "properties": {"id": "east-gwillimbury-23284", "species_group": "crabapple", "scientific_name": "Malus sp.", "common_name": "Apple Species", "subtype_name": "Apple", "zip_code": null, "ownership": "public", "ownership_raw": "York Region", "city": "East Gwillimbury", "source_dataset": "Street Trees", "source_department": "York Region", "source_last_edit_at": ""}}, {"type": "Feature", "geometry": {"type": "Point", "coordinates": [-79.42774571895796, 44.143977736312294]}, "properties": {"id": "east-gwillimbury-23609", "species_group": "crabapple", "scientific_name": "Malus sp.", "common_name": "Apple Species", "subtype_name": "Apple", "zip_code": null, "ownership": "public", "ownership_raw": "York Region", "city": "East Gwillimbury", "source_dataset": "Street Trees", "source_department": "York Region", "source_last_edit_at": ""}}, {"type": "Feature", "geometry": {"type": "Point", "coordinates": [-79.42778528098955, 44.14396426294752]}, "properties": {"id": "east-gwillimbury-23610", "species_group": "crabapple", "scientific_name": "Malus sp.", "common_name": "Apple Species", "subtype_name": "Apple", "zip_code": null, "ownership": "public", "ownership_raw": "York Region", "city": "East Gwillimbury", "source_dataset": "Street Trees", "source_department": "York Region", "source_last_edit_at": ""}}, {"type": "Feature", "geometry": {"type": "Point", "coordinates": [-79.42803085211261, 44.14389850129266]}, "properties": {"id": "east-gwillimbury-23611", "species_group": "crabapple", "scientific_name": "Malus sp.", "common_name": "Apple Species", "subtype_name": "Apple", "zip_code": null, "ownership": "public", "ownership_raw": "York Region", "city": "East Gwillimbury", "source_dataset": "Street Trees", "source_department": "York Region", "source_last_edit_at": ""}}, {"type": "Feature", "geometry": {"type": "Point", "coordinates": [-79.42815996838335, 44.14386978807885]}, "properties": {"id": "east-gwillimbury-23844", "species_group": "crabapple", "scientific_name": "Malus sp.", "common_name": "Apple Species", "subtype_name": "Apple", "zip_code": null, "ownership": "public", "ownership_raw": "York Region", "city": "East Gwillimbury", "source_dataset": "Street Trees", "source_department": "York Region", "source_last_edit_at": ""}}, {"type": "Feature", "geometry": {"type": "Point", "coordinates": [-79.49249212672791, 44.11228416041248]}, "properties": {"id": "east-gwillimbury-30037", "species_group": "cherry", "scientific_name": "Prunus 'Kwanzan'", "common_name": "Kwanzan cherry", "subtype_name": "Kwanzan", "zip_code": null, "ownership": "public", "ownership_raw": "York Region", "city": "East Gwillimbury", "source_dataset": "Street Trees", "source_department": "York Region", "source_last_edit_at": ""}}, {"type": "Feature", "geometry": {"type": "Point", "coordinates": [-79.49252763407688, 44.11235561051087]}, "properties": {"id": "east-gwillimbury-30038", "species_group": "cherry", "scientific_name": "Prunus 'Kwanzan'", "common_name": "Kwanzan cherry", "subtype_name": "Kwanzan", "zip_code": null, "ownership": "public", "ownership_raw": "York Region", "city": "East Gwillimbury", "source_dataset": "Street Trees", "source_department": "York Region", "source_last_edit_at": ""}}, {"type": "Feature", "geometry": {"type": "Point", "coordinates": [-79.4261905715914, 44.10578531482795]}, "properties": {"id": "east-gwillimbury-32474", "species_group": "crabapple", "scientific_name": "Malus sp.", "common_name": "Apple Species", "subtype_name": "Apple", "zip_code": null, "ownership": "public", "ownership_raw": "York Region", "city": "East Gwillimbury", "source_dataset": "Street Trees", "source_department": "York Region", "source_last_edit_at": ""}}, {"type": "Feature", "geometry": {"type": "Point", "coordinates": [-79.42629927128935, 44.10575993154944]}, "properties": {"id": "east-gwillimbury-32480", "species_group": "crabapple", "scientific_name": "Malus sp.", "common_name": "Apple Species", "subtype_name": "Apple", "zip_code": null, "ownership": "public", "ownership_raw": "York Region", "city": "East Gwillimbury", "source_dataset": "Street Trees", "source_department": "York Region", "source_last_edit_at": ""}}, {"type": "Feature", "geometry": {"type": "Point", "coordinates": [-79.50272621897949, 44.06882465386802]}, "properties": {"id": "east-gwillimbury-40743", "species_group": "cherry", "scientific_name": "Prunus maackii 'Goldrush'", "common_name": "Goldrush Amur Cherry", "subtype_name": "Goldrush Amur Cherry", "zip_code": null, "ownership": "public", "ownership_raw": "York Region", "city": "East Gwillimbury", "source_dataset": "Street Trees", "source_department": "York Region", "source_last_edit_at": ""}}, {"type": "Feature", "geometry": {"type": "Point", "coordinates": [-79.50262831833327, 44.068845852708534]}, "properties": {"id": "east-gwillimbury-40744", "species_group": "cherry", "scientific_name": "Prunus maackii 'Goldrush'", "common_name": "Goldrush Amur Cherry", "subtype_name": "Goldrush Amur Cherry", "zip_code": null, "ownership": "public", "ownership_raw": "York Region", "city": "East Gwillimbury", "source_dataset": "Street Trees", "source_department": "York Region", "source_last_edit_at": ""}}, {"type": "Feature", "geometry": {"type": "Point", "coordinates": [-79.50253309952052, 44.0688665698329]}, "properties": {"id": "east-gwillimbury-40745", "species_group": "cherry", "scientific_name": "Prunus maackii 'Goldrush'", "common_name": "Goldrush Amur Cherry", "subtype_name": "Goldrush Amur Cherry", "zip_code": null, "ownership": "public", "ownership_raw": "York Region", "city": "East Gwillimbury", "source_dataset": "Street Trees", "source_department": "York Region", "source_last_edit_at": ""}}, {"type": "Feature", "geometry": {"type": "Point", "coordinates": [-79.50421685685947, 44.06854183961367]}, "properties": {"id": "east-gwillimbury-43657", "species_group": "cherry", "scientific_name": "Prunus sp.", "common_name": "Cherry Species", "subtype_name": null, "zip_code": null, "ownership": "public", "ownership_raw": "York Region", "city": "East Gwillimbury", "source_dataset": "Street Trees", "source_department": "York Region", "source_last_edit_at": ""}}, {"type": "Feature", "geometry": {"type": "Point", "coordinates": [-79.44948169780224, 44.13401797270724]}, "properties": {"id": "east-gwillimbury-47422", "species_group": "crabapple", "scientific_name": "Malus sp.", "common_name": "Apple Species", "subtype_name": "Apple", "zip_code": null, "ownership": "public", "ownership_raw": "York Region", "city": "East Gwillimbury", "source_dataset": "Street Trees", "source_department": "York Region", "source_last_edit_at": ""}}, {"type": "Feature", "geometry": {"type": "Point", "coordinates": [-79.46264050768167, 44.19357951186071]}, "properties": {"id": "east-gwillimbury-47476", "species_group": "crabapple", "scientific_name": "Malus sp.", "common_name": "Apple Species", "subtype_name": "Apple", "zip_code": null, "ownership": "public", "ownership_raw": "York Region", "city": "East Gwillimbury", "source_dataset": "Street Trees", "source_department": "York Region", "source_last_edit_at": ""}}, {"type": "Feature", "geometry": {"type": "Point", "coordinates": [-79.46113644001463, 44.19389084562561]}, "properties": {"id": "east-gwillimbury-47703", "species_group": "crabapple", "scientific_name": "Malus sp.", "common_name": "Apple Species", "subtype_name": "Apple", "zip_code": null, "ownership": "public", "ownership_raw": "York Region", "city": "East Gwillimbury", "source_dataset": "Street Trees", "source_department": "York Region", "source_last_edit_at": ""}}, {"type": "Feature", "geometry": {"type": "Point", "coordinates": [-79.43691069153701, 44.10343379096951]}, "properties": {"id": "east-gwillimbury-47988", "species_group": "crabapple", "scientific_name": "Malus sp.", "common_name": "Apple Species", "subtype_name": "Apple", "zip_code": null, "ownership": "public", "ownership_raw": "York Region", "city": "East Gwillimbury", "source_dataset": "Street Trees", "source_department": "York Region", "source_last_edit_at": ""}}, {"type": "Feature", "geometry": {"type": "Point", "coordinates": [-79.46315740082893, 44.19345564769014]}, "properties": {"id": "east-gwillimbury-48049", "species_group": "crabapple", "scientific_name": "Malus sp.", "common_name": "Apple Species", "subtype_name": "Apple", "zip_code": null, "ownership": "public", "ownership_raw": "York Region", "city": "East Gwillimbury", "source_dataset": "Street Trees", "source_department": "York Region", "source_last_edit_at": ""}}, {"type": "Feature", "geometry": {"type": "Point", "coordinates": [-79.46337798040835, 44.193420022833635]}, "properties": {"id": "east-gwillimbury-48050", "species_group": "crabapple", "scientific_name": "Malus sp.", "common_name": "Apple Species", "subtype_name": "Apple", "zip_code": null, "ownership": "public", "ownership_raw": "York Region", "city": "East Gwillimbury", "source_dataset": "Street Trees", "source_department": "York Region", "source_last_edit_at": ""}}, {"type": "Feature", "geometry": {"type": "Point", "coordinates": [-79.40630030676141, 44.17118832844826]}, "properties": {"id": "east-gwillimbury-49016", "species_group": "crabapple", "scientific_name": "Malus sp.", "common_name": "Apple Species", "subtype_name": "Apple", "zip_code": null, "ownership": "public", "ownership_raw": "York Region", "city": "East Gwillimbury", "source_dataset": "Street Trees", "source_department": "York Region", "source_last_edit_at": ""}}, {"type": "Feature", "geometry": {"type": "Point", "coordinates": [-79.50411895564834, 44.06855918451459]}, "properties": {"id": "east-gwillimbury-49319", "species_group": "cherry", "scientific_name": "Prunus maackii 'Goldrush'", "common_name": "Goldrush Amur Cherry", "subtype_name": "Goldrush Amur Cherry", "zip_code": null, "ownership": "public", "ownership_raw": "York Region", "city": "East Gwillimbury", "source_dataset": "Street Trees", "source_department": "York Region", "source_last_edit_at": ""}}, {"type": "Feature", "geometry": {"type": "Point", "coordinates": [-79.50402128636583, 44.06857579679943]}, "properties": {"id": "east-gwillimbury-49320", "species_group": "cherry", "scientific_name": "Prunus maackii 'Goldrush'", "common_name": "Goldrush Amur Cherry", "subtype_name": "Goldrush Amur Cherry", "zip_code": null, "ownership": "public", "ownership_raw": "York Region", "city": "East Gwillimbury", "source_dataset": "Street Trees", "source_department": "York Region", "source_last_edit_at": ""}}, {"type": "Feature", "geometry": {"type": "Point", "coordinates": [-79.44018768128568, 44.08300665518546]}, "properties": {"id": "east-gwillimbury-55873", "species_group": "crabapple", "scientific_name": "Malus sp.", "common_name": "Apple Species", "subtype_name": "Apple", "zip_code": null, "ownership": "public", "ownership_raw": "York Region", "city": "East Gwillimbury", "source_dataset": "Street Trees", "source_department": "York Region", "source_last_edit_at": ""}}, {"type": "Feature", "geometry": {"type": "Point", "coordinates": [-79.46731178208752, 44.07717382163313]}, "properties": {"id": "east-gwillimbury-56313", "species_group": "cherry", "scientific_name": "Prunus sp.", "common_name": "Cherry Species", "subtype_name": null, "zip_code": null, "ownership": "public", "ownership_raw": "York Region", "city": "East Gwillimbury", "source_dataset": "Street Trees", "source_department": "York Region", "source_last_edit_at": ""}}, {"type": "Feature", "geometry": {"type": "Point", "coordinates": [-79.45833578914612, 44.07893561803881]}, "properties": {"id": "east-gwillimbury-56317", "species_group": "cherry", "scientific_name": "Prunus sargentii", "common_name": "Sargent cherry", "subtype_name": "Sargent", "zip_code": null, "ownership": "public", "ownership_raw": "York Region", "city": "East Gwillimbury", "source_dataset": "Street Trees", "source_department": "York Region", "source_last_edit_at": ""}}, {"type": "Feature", "geometry": {"type": "Point", "coordinates": [-79.46685278223238, 44.077285724570196]}, "properties": {"id": "east-gwillimbury-56356", "species_group": "cherry", "scientific_name": "Prunus sp.", "common_name": "Cherry Species", "subtype_name": null, "zip_code": null, "ownership": "public", "ownership_raw": "York Region", "city": "East Gwillimbury", "source_dataset": "Street Trees", "source_department": "York Region", "source_last_edit_at": ""}}, {"type": "Feature", "geometry": {"type": "Point", "coordinates": [-79.4679452815633, 44.07704815777923]}, "properties": {"id": "east-gwillimbury-56392", "species_group": "cherry", "scientific_name": "Prunus sp.", "common_name": "Cherry Species", "subtype_name": null, "zip_code": null, "ownership": "public", "ownership_raw": "York Region", "city": "East Gwillimbury", "source_dataset": "Street Trees", "source_department": "York Region", "source_last_edit_at": ""}}, {"type": "Feature", "geometry": {"type": "Point", "coordinates": [-79.34203507142902, 44.117107780712466]}, "properties": {"id": "east-gwillimbury-57972", "species_group": "crabapple", "scientific_name": "Malus 'Hargozam'", "common_name": "Harvest Gold Crabapple", "subtype_name": "Harvest Gold Crabapple", "zip_code": null, "ownership": "public", "ownership_raw": "York Region", "city": "East Gwillimbury", "source_dataset": "Street Trees", "source_department": "York Region", "source_last_edit_at": ""}}, {"type": "Feature", "geometry": {"type": "Point", "coordinates": [-79.43913155979642, 44.094734544459705]}, "properties": {"id": "east-gwillimbury-57995", "species_group": "cherry", "scientific_name": "Prunus 'Kwanzan'", "common_name": "Kwanzan cherry", "subtype_name": "Kwanzan", "zip_code": null, "ownership": "public", "ownership_raw": "York Region", "city": "East Gwillimbury", "source_dataset": "Street Trees", "source_department": "York Region", "source_last_edit_at": ""}}, {"type": "Feature", "geometry": {"type": "Point", "coordinates": [-79.43914341521112, 44.09478155487799]}, "properties": {"id": "east-gwillimbury-57996", "species_group": "cherry", "scientific_name": "Prunus 'Kwanzan'", "common_name": "Kwanzan cherry", "subtype_name": "Kwanzan", "zip_code": null, "ownership": "public", "ownership_raw": "York Region", "city": "East Gwillimbury", "source_dataset": "Street Trees", "source_department": "York Region", "source_last_edit_at": ""}}, {"type": "Feature", "geometry": {"type": "Point", "coordinates": [-79.43916016870526, 44.094826392217385]}, "properties": {"id": "east-gwillimbury-57997", "species_group": "cherry", "scientific_name": "Prunus 'Kwanzan'", "common_name": "Kwanzan cherry", "subtype_name": "Kwanzan", "zip_code": null, "ownership": "public", "ownership_raw": "York Region", "city": "East Gwillimbury", "source_dataset": "Street Trees", "source_department": "York Region", "source_last_edit_at": ""}}, {"type": "Feature", "geometry": {"type": "Point", "coordinates": [-79.43917961500499, 44.09488659078267]}, "properties": {"id": "east-gwillimbury-58005", "species_group": "cherry", "scientific_name": "Prunus 'Kwanzan'", "common_name": "Kwanzan cherry", "subtype_name": "Kwanzan", "zip_code": null, "ownership": "public", "ownership_raw": "York Region", "city": "East Gwillimbury", "source_dataset": "Street Trees", "source_department": "York Region", "source_last_edit_at": ""}}, {"type": "Feature", "geometry": {"type": "Point", "coordinates": [-79.43919570744232, 44.09493908264969]}, "properties": {"id": "east-gwillimbury-58006", "species_group": "cherry", "scientific_name": "Prunus 'Kwanzan'", "common_name": "Kwanzan cherry", "subtype_name": "Kwanzan", "zip_code": null, "ownership": "public", "ownership_raw": "York Region", "city": "East Gwillimbury", "source_dataset": "Street Trees", "source_department": "York Region", "source_last_edit_at": ""}}, {"type": "Feature", "geometry": {"type": "Point", "coordinates": [-79.34205451789127, 44.11721320781042]}, "properties": {"id": "east-gwillimbury-58661", "species_group": "crabapple", "scientific_name": "Malus 'Hargozam'", "common_name": "Harvest Gold Crabapple", "subtype_name": "Harvest Gold Crabapple", "zip_code": null, "ownership": "public", "ownership_raw": "York Region", "city": "East Gwillimbury", "source_dataset": "Street Trees", "source_department": "York Region", "source_last_edit_at": ""}}, {"type": "Feature", "geometry": {"type": "Point", "coordinates": [-79.44750515269756, 44.12601249013678]}, "properties": {"id": "east-gwillimbury-62061", "species_group": "crabapple", "scientific_name": "Malus 'Profusion'", "common_name": "Profusion Crabapple", "subtype_name": "Profusion Crabapple", "zip_code": null, "ownership": "public", "ownership_raw": "York Region", "city": "East Gwillimbury", "source_dataset": "Street Trees", "source_department": "York Region", "source_last_edit_at": ""}}, {"type": "Feature", "geometry": {"type": "Point", "coordinates": [-79.44749174151447, 44.12596146944689]}, "properties": {"id": "east-gwillimbury-62062", "species_group": "crabapple", "scientific_name": "Malus 'Profusion'", "common_name": "Profusion Crabapple", "subtype_name": "Profusion Crabapple", "zip_code": null, "ownership": "public", "ownership_raw": "York Region", "city": "East Gwillimbury", "source_dataset": "Street Trees", "source_department": "York Region", "source_last_edit_at": ""}}, {"type": "Feature", "geometry": {"type": "Point", "coordinates": [-79.4474793361242, 44.12590545484295]}, "properties": {"id": "east-gwillimbury-62063", "species_group": "crabapple", "scientific_name": "Malus 'Profusion'", "common_name": "Profusion Crabapple", "subtype_name": "Profusion Crabapple", "zip_code": null, "ownership": "public", "ownership_raw": "York Region", "city": "East Gwillimbury", "source_dataset": "Street Trees", "source_department": "York Region", "source_last_edit_at": ""}}, {"type": "Feature", "geometry": {"type": "Point", "coordinates": [-79.44731672668274, 44.12533766305748]}, "properties": {"id": "east-gwillimbury-62064", "species_group": "crabapple", "scientific_name": "Malus 'Profusion'", "common_name": "Profusion Crabapple", "subtype_name": "Profusion Crabapple", "zip_code": null, "ownership": "public", "ownership_raw": "York Region", "city": "East Gwillimbury", "source_dataset": "Street Trees", "source_department": "York Region", "source_last_edit_at": ""}}, {"type": "Feature", "geometry": {"type": "Point", "coordinates": [-79.44730331617687, 44.125290492120605]}, "properties": {"id": "east-gwillimbury-62065", "species_group": "crabapple", "scientific_name": "Malus 'Profusion'", "common_name": "Profusion Crabapple", "subtype_name": "Profusion Crabapple", "zip_code": null, "ownership": "public", "ownership_raw": "York Region", "city": "East Gwillimbury", "source_dataset": "Street Trees", "source_department": "York Region", "source_last_edit_at": ""}}, {"type": "Feature", "geometry": {"type": "Point", "coordinates": [-79.4472925866103, 44.12523850759885]}, "properties": {"id": "east-gwillimbury-62066", "species_group": "crabapple", "scientific_name": "Malus 'Profusion'", "common_name": "Profusion Crabapple", "subtype_name": "Profusion Crabapple", "zip_code": null, "ownership": "public", "ownership_raw": "York Region", "city": "East Gwillimbury", "source_dataset": "Street Trees", "source_department": "York Region", "source_last_edit_at": ""}}, {"type": "Feature", "geometry": {"type": "Point", "coordinates": [-79.50281261032127, 44.06880840085902]}, "properties": {"id": "east-gwillimbury-62624", "species_group": "cherry", "scientific_name": "Prunus maackii 'Goldrush'", "common_name": "Goldrush Amur Cherry", "subtype_name": "Goldrush Amur Cherry", "zip_code": null, "ownership": "public", "ownership_raw": "York Region", "city": "East Gwillimbury", "source_dataset": "Street Trees", "source_department": "York Region", "source_last_edit_at": ""}}, {"type": "Feature", "geometry": {"type": "Point", "coordinates": [-79.5089181761908, 44.06755330138272]}, "properties": {"id": "east-gwillimbury-64350", "species_group": "crabapple", "scientific_name": "Malus sp.", "common_name": "Apple Species", "subtype_name": "Apple", "zip_code": null, "ownership": "public", "ownership_raw": "York Region", "city": "East Gwillimbury", "source_dataset": "Street Trees", "source_department": "York Region", "source_last_edit_at": ""}}, {"type": "Feature", "geometry": {"type": "Point", "coordinates": [-79.4551330690282, 44.103080398293855]}, "properties": {"id": "east-gwillimbury-67390", "species_group": "crabapple", "scientific_name": "Malus sp.", "common_name": "Apple Species", "subtype_name": "Apple", "zip_code": null, "ownership": "public", "ownership_raw": "York Region", "city": "East Gwillimbury", "source_dataset": "Street Trees", "source_department": "York Region", "source_last_edit_at": ""}}, {"type": "Feature", "geometry": {"type": "Point", "coordinates": [-79.45503449824335, 44.10310784483956]}, "properties": {"id": "east-gwillimbury-67391", "species_group": "crabapple", "scientific_name": "Malus sp.", "common_name": "Apple Species", "subtype_name": "Apple", "zip_code": null, "ownership": "public", "ownership_raw": "York Region", "city": "East Gwillimbury", "source_dataset": "Street Trees", "source_department": "York Region", "source_last_edit_at": ""}}, {"type": "Feature", "geometry": {"type": "Point", "coordinates": [-79.45495872482475, 44.1031208460614]}, "properties": {"id": "east-gwillimbury-67392", "species_group": "crabapple", "scientific_name": "Malus sp.", "common_name": "Apple Species", "subtype_name": "Apple", "zip_code": null, "ownership": "public", "ownership_raw": "York Region", "city": "East Gwillimbury", "source_dataset": "Street Trees", "source_department": "York Region", "source_last_edit_at": ""}}, {"type": "Feature", "geometry": {"type": "Point", "coordinates": [-79.45465429410231, 44.10318296190185]}, "properties": {"id": "east-gwillimbury-67398", "species_group": "crabapple", "scientific_name": "Malus sp.", "common_name": "Apple Species", "subtype_name": "Apple", "zip_code": null, "ownership": "public", "ownership_raw": "York Region", "city": "East Gwillimbury", "source_dataset": "Street Trees", "source_department": "York Region", "source_last_edit_at": ""}}, {"type": "Feature", "geometry": {"type": "Point", "coordinates": [-79.45416277995787, 44.10331393367947]}, "properties": {"id": "east-gwillimbury-67399", "species_group": "crabapple", "scientific_name": "Malus sp.", "common_name": "Apple Species", "subtype_name": "Apple", "zip_code": null, "ownership": "public", "ownership_raw": "York Region", "city": "East Gwillimbury", "source_dataset": "Street Trees", "source_department": "York Region", "source_last_edit_at": ""}}, {"type": "Feature", "geometry": {"type": "Point", "coordinates": [-79.45356196532627, 44.10345068380675]}, "properties": {"id": "east-gwillimbury-67400", "species_group": "crabapple", "scientific_name": "Malus sp.", "common_name": "Apple Species", "subtype_name": "Apple", "zip_code": null, "ownership": "public", "ownership_raw": "York Region", "city": "East Gwillimbury", "source_dataset": "Street Trees", "source_department": "York Region", "source_last_edit_at": ""}}, {"type": "Feature", "geometry": {"type": "Point", "coordinates": [-79.43040538528376, 44.104668118045296]}, "properties": {"id": "east-gwillimbury-67425", "species_group": "crabapple", "scientific_name": "Malus sp.", "common_name": "Apple Species", "subtype_name": "Apple", "zip_code": null, "ownership": "public", "ownership_raw": "York Region", "city": "East Gwillimbury", "source_dataset": "Street Trees", "source_department": "York Region", "source_last_edit_at": ""}}, {"type": "Feature", "geometry": {"type": "Point", "coordinates": [-79.49457264925601, 44.12090537998279]}, "properties": {"id": "east-gwillimbury-679", "species_group": "crabapple", "scientific_name": "Malus sp.", "common_name": "Apple Species", "subtype_name": "Apple", "zip_code": null, "ownership": "public", "ownership_raw": "York Region", "city": "East Gwillimbury", "source_dataset": "Street Trees", "source_department": "York Region", "source_last_edit_at": ""}}, {"type": "Feature", "geometry": {"type": "Point", "coordinates": [-79.40751141259987, 44.175147261367705]}, "properties": {"id": "east-gwillimbury-70720", "species_group": "crabapple", "scientific_name": "Malus sp.", "common_name": "Apple Species", "subtype_name": "Apple", "zip_code": null, "ownership": "public", "ownership_raw": "York Region", "city": "East Gwillimbury", "source_dataset": "Street Trees", "source_department": "York Region", "source_last_edit_at": ""}}, {"type": "Feature", "geometry": {"type": "Point", "coordinates": [-79.40330275991242, 44.158668554614096]}, "properties": {"id": "east-gwillimbury-70831", "species_group": "cherry", "scientific_name": "Prunus padus", "common_name": "Bird Cherry", "subtype_name": "Bird Cherry", "zip_code": null, "ownership": "public", "ownership_raw": "York Region", "city": "East Gwillimbury", "source_dataset": "Street Trees", "source_department": "York Region", "source_last_edit_at": ""}}, {"type": "Feature", "geometry": {"type": "Point", "coordinates": [-79.40123810965254, 44.15024541988695]}, "properties": {"id": "east-gwillimbury-70845", "species_group": "magnolia", "scientific_name": "Magnolia x soulangiana", "common_name": "Red Pine", "subtype_name": "Saucer Magnolia", "zip_code": null, "ownership": "public", "ownership_raw": "York Region", "city": "East Gwillimbury", "source_dataset": "Street Trees", "source_department": "York Region", "source_last_edit_at": ""}}, {"type": "Feature", "geometry": {"type": "Point", "coordinates": [-79.40074614303745, 44.148241609603645]}, "properties": {"id": "east-gwillimbury-70947", "species_group": "crabapple", "scientific_name": "Malus sp.", "common_name": "Apple Species", "subtype_name": "Apple", "zip_code": null, "ownership": "public", "ownership_raw": "York Region", "city": "East Gwillimbury", "source_dataset": "Street Trees", "source_department": "York Region", "source_last_edit_at": ""}}, {"type": "Feature", "geometry": {"type": "Point", "coordinates": [-79.40073910232445, 44.14821322126809]}, "properties": {"id": "east-gwillimbury-70948", "species_group": "crabapple", "scientific_name": "Malus sp.", "common_name": "Apple Species", "subtype_name": "Apple", "zip_code": null, "ownership": "public", "ownership_raw": "York Region", "city": "East Gwillimbury", "source_dataset": "Street Trees", "source_department": "York Region", "source_last_edit_at": ""}}, {"type": "Feature", "geometry": {"type": "Point", "coordinates": [-79.39826324042693, 44.138048537491315]}, "properties": {"id": "east-gwillimbury-70976", "species_group": "crabapple", "scientific_name": "Malus sp.", "common_name": "Apple Species", "subtype_name": "Apple", "zip_code": null, "ownership": "public", "ownership_raw": "York Region", "city": "East Gwillimbury", "source_dataset": "Street Trees", "source_department": "York Region", "source_last_edit_at": ""}}, {"type": "Feature", "geometry": {"type": "Point", "coordinates": [-79.39825452268745, 44.13800522697501]}, "properties": {"id": "east-gwillimbury-70978", "species_group": "crabapple", "scientific_name": "Malus sp.", "common_name": "Apple Species", "subtype_name": "Apple", "zip_code": null, "ownership": "public", "ownership_raw": "York Region", "city": "East Gwillimbury", "source_dataset": "Street Trees", "source_department": "York Region", "source_last_edit_at": ""}}, {"type": "Feature", "geometry": {"type": "Point", "coordinates": [-79.39639560818367, 44.13042645868569]}, "properties": {"id": "east-gwillimbury-70982", "species_group": "crabapple", "scientific_name": "Malus sp.", "common_name": "Apple Species", "subtype_name": "Apple", "zip_code": null, "ownership": "public", "ownership_raw": "York Region", "city": "East Gwillimbury", "source_dataset": "Street Trees", "source_department": "York Region", "source_last_edit_at": ""}}, {"type": "Feature", "geometry": {"type": "Point", "coordinates": [-79.39621353773619, 44.129711982922366]}, "properties": {"id": "east-gwillimbury-70989", "species_group": "crabapple", "scientific_name": "Malus sp.", "common_name": "Apple Species", "subtype_name": "Apple", "zip_code": null, "ownership": "public", "ownership_raw": "York Region", "city": "East Gwillimbury", "source_dataset": "Street Trees", "source_department": "York Region", "source_last_edit_at": ""}}, {"type": "Feature", "geometry": {"type": "Point", "coordinates": [-79.39604657047389, 44.12895874495538]}, "properties": {"id": "east-gwillimbury-70991", "species_group": "crabapple", "scientific_name": "Malus sp.", "common_name": "Apple Species", "subtype_name": "Apple", "zip_code": null, "ownership": "public", "ownership_raw": "York Region", "city": "East Gwillimbury", "source_dataset": "Street Trees", "source_department": "York Region", "source_last_edit_at": ""}}, {"type": "Feature", "geometry": {"type": "Point", "coordinates": [-79.38640541680475, 44.19448723171648]}, "properties": {"id": "east-gwillimbury-71000", "species_group": "crabapple", "scientific_name": "Malus sp.", "common_name": "Apple Species", "subtype_name": "Apple", "zip_code": null, "ownership": "public", "ownership_raw": "York Region", "city": "East Gwillimbury", "source_dataset": "Street Trees", "source_department": "York Region", "source_last_edit_at": ""}}, {"type": "Feature", "geometry": {"type": "Point", "coordinates": [-79.39615989438094, 44.12945978218709]}, "properties": {"id": "east-gwillimbury-71054", "species_group": "crabapple", "scientific_name": "Malus sp.", "common_name": "Apple Species", "subtype_name": "Apple", "zip_code": null, "ownership": "public", "ownership_raw": "York Region", "city": "East Gwillimbury", "source_dataset": "Street Trees", "source_department": "York Region", "source_last_edit_at": ""}}, {"type": "Feature", "geometry": {"type": "Point", "coordinates": [-79.38299722035764, 44.180525029226764]}, "properties": {"id": "east-gwillimbury-71091", "species_group": "crabapple", "scientific_name": "Malus sp.", "common_name": "Apple Species", "subtype_name": "Apple", "zip_code": null, "ownership": "public", "ownership_raw": "York Region", "city": "East Gwillimbury", "source_dataset": "Street Trees", "source_department": "York Region", "source_last_edit_at": ""}}, {"type": "Feature", "geometry": {"type": "Point", "coordinates": [-79.38873784332945, 44.0983380814799]}, "properties": {"id": "east-gwillimbury-71179", "species_group": "crabapple", "scientific_name": "Malus sp.", "common_name": "Apple Species", "subtype_name": "Apple", "zip_code": null, "ownership": "public", "ownership_raw": "York Region", "city": "East Gwillimbury", "source_dataset": "Street Trees", "source_department": "York Region", "source_last_edit_at": ""}}, {"type": "Feature", "geometry": {"type": "Point", "coordinates": [-79.34676413546904, 44.135345106231306]}, "properties": {"id": "east-gwillimbury-71290", "species_group": "crabapple", "scientific_name": "Malus sp.", "common_name": "Apple Species", "subtype_name": "Apple", "zip_code": null, "ownership": "public", "ownership_raw": "York Region", "city": "East Gwillimbury", "source_dataset": "Street Trees", "source_department": "York Region", "source_last_edit_at": ""}}, {"type": "Feature", "geometry": {"type": "Point", "coordinates": [-79.42877175212122, 44.15445191046591]}, "properties": {"id": "east-gwillimbury-71353", "species_group": "crabapple", "scientific_name": "Malus sp.", "common_name": "Apple Species", "subtype_name": "Apple", "zip_code": null, "ownership": "public", "ownership_raw": "York Region", "city": "East Gwillimbury", "source_dataset": "Street Trees", "source_department": "York Region", "source_last_edit_at": ""}}, {"type": "Feature", "geometry": {"type": "Point", "coordinates": [-79.42488788699184, 44.14046572254467]}, "properties": {"id": "east-gwillimbury-71377", "species_group": "crabapple", "scientific_name": "Malus sp.", "common_name": "Apple Species", "subtype_name": "Apple", "zip_code": null, "ownership": "public", "ownership_raw": "York Region", "city": "East Gwillimbury", "source_dataset": "Street Trees", "source_department": "York Region", "source_last_edit_at": ""}}, {"type": "Feature", "geometry": {"type": "Point", "coordinates": [-79.45148425424296, 44.141677828129716]}, "properties": {"id": "east-gwillimbury-71485", "species_group": "crabapple", "scientific_name": "Malus sp.", "common_name": "Apple Species", "subtype_name": "Apple", "zip_code": null, "ownership": "public", "ownership_raw": "York Region", "city": "East Gwillimbury", "source_dataset": "Street Trees", "source_department": "York Region", "source_last_edit_at": ""}}, {"type": "Feature", "geometry": {"type": "Point", "coordinates": [-79.44973659455023, 44.13599996530373]}, "properties": {"id": "east-gwillimbury-71493", "species_group": "crabapple", "scientific_name": "Malus sp.", "common_name": "Apple Species", "subtype_name": "Apple", "zip_code": null, "ownership": "public", "ownership_raw": "York Region", "city": "East Gwillimbury", "source_dataset": "Street Trees", "source_department": "York Region", "source_last_edit_at": ""}}, {"type": "Feature", "geometry": {"type": "Point", "coordinates": [-79.36145547788483, 44.196865073433344]}, "properties": {"id": "east-gwillimbury-71501", "species_group": "cherry", "scientific_name": "Prunus sp.", "common_name": "Cherry Species", "subtype_name": null, "zip_code": null, "ownership": "public", "ownership_raw": "York Region", "city": "East Gwillimbury", "source_dataset": "Street Trees", "source_department": "York Region", "source_last_edit_at": ""}}, {"type": "Feature", "geometry": {"type": "Point", "coordinates": [-79.37850871104688, 44.16200716085843]}, "properties": {"id": "east-gwillimbury-71526", "species_group": "crabapple", "scientific_name": "Malus sp.", "common_name": "Apple Species", "subtype_name": "Apple", "zip_code": null, "ownership": "public", "ownership_raw": "York Region", "city": "East Gwillimbury", "source_dataset": "Street Trees", "source_department": "York Region", "source_last_edit_at": ""}}, {"type": "Feature", "geometry": {"type": "Point", "coordinates": [-79.37857984061755, 44.16241904712405]}, "properties": {"id": "east-gwillimbury-71610", "species_group": "crabapple", "scientific_name": "Malus sp.", "common_name": "Apple Species", "subtype_name": "Apple", "zip_code": null, "ownership": "public", "ownership_raw": "York Region", "city": "East Gwillimbury", "source_dataset": "Street Trees", "source_department": "York Region", "source_last_edit_at": ""}}, {"type": "Feature", "geometry": {"type": "Point", "coordinates": [-79.4923294242196, 44.104976938237215]}, "properties": {"id": "east-gwillimbury-71658", "species_group": "crabapple", "scientific_name": "Malus sp.", "common_name": "Apple Species", "subtype_name": "Apple", "zip_code": null, "ownership": "public", "ownership_raw": "York Region", "city": "East Gwillimbury", "source_dataset": "Street Trees", "source_department": "York Region", "source_last_edit_at": ""}}, {"type": "Feature", "geometry": {"type": "Point", "coordinates": [-79.34379490433709, 44.12315185993132]}, "properties": {"id": "east-gwillimbury-71969", "species_group": "crabapple", "scientific_name": "Malus sp.", "common_name": "Apple Species", "subtype_name": "Apple", "zip_code": null, "ownership": "public", "ownership_raw": "York Region", "city": "East Gwillimbury", "source_dataset": "Street Trees", "source_department": "York Region", "source_last_edit_at": ""}}, {"type": "Feature", "geometry": {"type": "Point", "coordinates": [-79.34348913353945, 44.121911705470616]}, "properties": {"id": "east-gwillimbury-71973", "species_group": "crabapple", "scientific_name": "Malus sp.", "common_name": "Apple Species", "subtype_name": "Apple", "zip_code": null, "ownership": "public", "ownership_raw": "York Region", "city": "East Gwillimbury", "source_dataset": "Street Trees", "source_department": "York Region", "source_last_edit_at": ""}}, {"type": "Feature", "geometry": {"type": "Point", "coordinates": [-79.3430914248174, 44.12154497602859]}, "properties": {"id": "east-gwillimbury-72020", "species_group": "crabapple", "scientific_name": "Malus sp.", "common_name": "Apple Species", "subtype_name": "Apple", "zip_code": null, "ownership": "public", "ownership_raw": "York Region", "city": "East Gwillimbury", "source_dataset": "Street Trees", "source_department": "York Region", "source_last_edit_at": ""}}, {"type": "Feature", "geometry": {"type": "Point", "coordinates": [-79.34326342076731, 44.120860469349736]}, "properties": {"id": "east-gwillimbury-72028", "species_group": "crabapple", "scientific_name": "Malus sp.", "common_name": "Apple Species", "subtype_name": "Apple", "zip_code": null, "ownership": "public", "ownership_raw": "York Region", "city": "East Gwillimbury", "source_dataset": "Street Trees", "source_department": "York Region", "source_last_edit_at": ""}}, {"type": "Feature", "geometry": {"type": "Point", "coordinates": [-79.34367286383444, 44.12255883053154]}, "properties": {"id": "east-gwillimbury-72037", "species_group": "crabapple", "scientific_name": "Malus sp.", "common_name": "Apple Species", "subtype_name": "Apple", "zip_code": null, "ownership": "public", "ownership_raw": "York Region", "city": "East Gwillimbury", "source_dataset": "Street Trees", "source_department": "York Region", "source_last_edit_at": ""}}, {"type": "Feature", "geometry": {"type": "Point", "coordinates": [-79.48592130142131, 44.11144643832921]}, "properties": {"id": "east-gwillimbury-72294", "species_group": "cherry", "scientific_name": "Prunus sp.", "common_name": "Cherry Species", "subtype_name": null, "zip_code": null, "ownership": "public", "ownership_raw": "York Region", "city": "East Gwillimbury", "source_dataset": "Street Trees", "source_department": "York Region", "source_last_edit_at": ""}}, {"type": "Feature", "geometry": {"type": "Point", "coordinates": [-79.48969913576333, 44.11061152575934]}, "properties": {"id": "east-gwillimbury-72364", "species_group": "crabapple", "scientific_name": "Malus sp.", "common_name": "Apple Species", "subtype_name": "Apple", "zip_code": null, "ownership": "public", "ownership_raw": "York Region", "city": "East Gwillimbury", "source_dataset": "Street Trees", "source_department": "York Region", "source_last_edit_at": ""}}, {"type": "Feature", "geometry": {"type": "Point", "coordinates": [-79.45927898950876, 44.1171699880525]}, "properties": {"id": "east-gwillimbury-72369", "species_group": "crabapple", "scientific_name": "Malus sp.", "common_name": "Apple Species", "subtype_name": "Apple", "zip_code": null, "ownership": "public", "ownership_raw": "York Region", "city": "East Gwillimbury", "source_dataset": "Street Trees", "source_department": "York Region", "source_last_edit_at": ""}}, {"type": "Feature", "geometry": {"type": "Point", "coordinates": [-79.45311628140477, 44.11870327923316]}, "properties": {"id": "east-gwillimbury-72437", "species_group": "crabapple", "scientific_name": "Malus sp.", "common_name": "Apple Species", "subtype_name": "Apple", "zip_code": null, "ownership": "public", "ownership_raw": "York Region", "city": "East Gwillimbury", "source_dataset": "Street Trees", "source_department": "York Region", "source_last_edit_at": ""}}, {"type": "Feature", "geometry": {"type": "Point", "coordinates": [-79.45153511962968, 44.11904458361253]}, "properties": {"id": "east-gwillimbury-72439", "species_group": "crabapple", "scientific_name": "Malus sp.", "common_name": "Apple Species", "subtype_name": "Apple", "zip_code": null, "ownership": "public", "ownership_raw": "York Region", "city": "East Gwillimbury", "source_dataset": "Street Trees", "source_department": "York Region", "source_last_edit_at": ""}}, {"type": "Feature", "geometry": {"type": "Point", "coordinates": [-79.40988995305564, 44.109179908560726]}, "properties": {"id": "east-gwillimbury-72477", "species_group": "crabapple", "scientific_name": "Malus sp.", "common_name": "Apple Species", "subtype_name": "Apple", "zip_code": null, "ownership": "public", "ownership_raw": "York Region", "city": "East Gwillimbury", "source_dataset": "Street Trees", "source_department": "York Region", "source_last_edit_at": ""}}, {"type": "Feature", "geometry": {"type": "Point", "coordinates": [-79.50764441006001, 44.12574749500651]}, "properties": {"id": "east-gwillimbury-72862", "species_group": "cherry", "scientific_name": "Prunus padus", "common_name": "Bird Cherry", "subtype_name": "Bird Cherry", "zip_code": null, "ownership": "public", "ownership_raw": "York Region", "city": "East Gwillimbury", "source_dataset": "Street Trees", "source_department": "York Region", "source_last_edit_at": ""}}, {"type": "Feature", "geometry": {"type": "Point", "coordinates": [-79.41285071609204, 44.0889451297682]}, "properties": {"id": "east-gwillimbury-8469", "species_group": "crabapple", "scientific_name": "Malus sp.", "common_name": "Apple Species", "subtype_name": "Apple", "zip_code": null, "ownership": "public", "ownership_raw": "York Region", "city": "East Gwillimbury", "source_dataset": "Street Trees", "source_department": "York Region", "source_last_edit_at": ""}}, {"type": "Feature", "geometry": {"type": "Point", "coordinates": [-79.42973518828312, 44.08544121093145]}, "properties": {"id": "east-gwillimbury-8482", "species_group": "crabapple", "scientific_name": "Malus sp.", "common_name": "Apple Species", "subtype_name": "Apple", "zip_code": null, "ownership": "public", "ownership_raw": "York Region", "city": "East Gwillimbury", "source_dataset": "Street Trees", "source_department": "York Region", "source_last_edit_at": ""}}, {"type": "Feature", "geometry": {"type": "Point", "coordinates": [-79.41321671456014, 44.08888926275516]}, "properties": {"id": "east-gwillimbury-8535", "species_group": "crabapple", "scientific_name": "Malus sp.", "common_name": "Apple Species", "subtype_name": "Apple", "zip_code": null, "ownership": "public", "ownership_raw": "York Region", "city": "East Gwillimbury", "source_dataset": "Street Trees", "source_department": "York Region", "source_last_edit_at": ""}}, {"type": "Feature", "geometry": {"type": "Point", "coordinates": [-79.41383650004205, 44.08879116272696]}, "properties": {"id": "east-gwillimbury-8536", "species_group": "crabapple", "scientific_name": "Malus sp.", "common_name": "Apple Species", "subtype_name": "Apple", "zip_code": null, "ownership": "public", "ownership_raw": "York Region", "city": "East Gwillimbury", "source_dataset": "Street Trees", "source_department": "York Region", "source_last_edit_at": ""}}, {"type": "Feature", "geometry": {"type": "Point", "coordinates": [-79.4143008822962, 44.08873397903364]}, "properties": {"id": "east-gwillimbury-8568", "species_group": "crabapple", "scientific_name": "Malus sp.", "common_name": "Apple Species", "subtype_name": "Apple", "zip_code": null, "ownership": "public", "ownership_raw": "York Region", "city": "East Gwillimbury", "source_dataset": "Street Trees", "source_department": "York Region", "source_last_edit_at": ""}}]}