{"type": "FeatureCollection", "features": [{"type": "Feature", "geometry": {"type": "Point", "coordinates": [139.74344340000013, 35.72885264994312]}, "properties": {"id": "bunkyo-ward-17-0-125728853-319743443", "species_group": "cherry", "scientific_name": "Prunus species", "common_name": "サクラ", "subtype_name": "サクラ", "zip_code": null, "ownership": "public", "ownership_raw": "Tokyo Metropolitan Government", "city": "Bunkyo Ward", "source_dataset": "Street Trees / 街路樹", "source_department": "Tokyo Metropolitan Government", "source_last_edit_at": ""}}, {"type": "Feature", "geometry": {"type": "Point", "coordinates": [139.7423480000002, 35.730074549943055]}, "properties": {"id": "bunkyo-ward-17-0-125730075-319742348", "species_group": "peach", "scientific_name": "Prunus species", "common_name": "ハナモモ", "subtype_name": "ハナモモ", "zip_code": null, "ownership": "public", "ownership_raw": "Tokyo Metropolitan Government", "city": "Bunkyo Ward", "source_dataset": "Street Trees / 街路樹", "source_department": "Tokyo Metropolitan Government", "source_last_edit_at": ""}}, {"type": "Feature", "geometry": {"type": "Point", "coordinates": [139.74257760000017, 35.730111299943054]}, "properties": {"id": "bunkyo-ward-17-0-125730111-319742578", "species_group": "peach", "scientific_name": "Prunus species", "common_name": "ハナモモ", "subtype_name": "ハナモモ", "zip_code": null, "ownership": "public", "ownership_raw": "Tokyo Metropolitan Government", "city": "Bunkyo Ward", "source_dataset": "Street Trees / 街路樹", "source_department": "Tokyo Metropolitan Government", "source_last_edit_at": ""}}, {"type": "Feature", "geometry": {"type": "Point", "coordinates": [139.74171340000018, 35.73052793994306]}, "properties": {"id": "bunkyo-ward-17-0-125730528-319741713", "species_group": "cherry", "scientific_name": "Prunus species", "common_name": "サクラ", "subtype_name": "サクラ", "zip_code": null, "ownership": "public", "ownership_raw": "Tokyo Metropolitan Government", "city": "Bunkyo Ward", "source_dataset": "Street Trees / 街路樹", "source_department": "Tokyo Metropolitan Government", "source_last_edit_at": ""}}, {"type": "Feature", "geometry": {"type": "Point", "coordinates": [139.75513850000007, 35.70270690994371]}, "properties": {"id": "bunkyo-ward-301-0-125702707-319755139", "species_group": "cherry", "scientific_name": "Prunus species", "common_name": "サクラ", "subtype_name": "サクラ", "zip_code": null, "ownership": "public", "ownership_raw": "Tokyo Metropolitan Government", "city": "Bunkyo Ward", "source_dataset": "Street Trees / 街路樹", "source_department": "Tokyo Metropolitan Government", "source_last_edit_at": ""}}, {"type": "Feature", "geometry": {"type": "Point", "coordinates": [139.75509520000008, 35.70281441994366]}, "properties": {"id": "bunkyo-ward-301-0-125702814-319755095", "species_group": "cherry", "scientific_name": "Prunus species", "common_name": "サクラ", "subtype_name": "サクラ", "zip_code": null, "ownership": "public", "ownership_raw": "Tokyo Metropolitan Government", "city": "Bunkyo Ward", "source_dataset": "Street Trees / 街路樹", "source_department": "Tokyo Metropolitan Government", "source_last_edit_at": ""}}, {"type": "Feature", "geometry": {"type": "Point", "coordinates": [139.75561210000006, 35.70286048994366]}, "properties": {"id": "bunkyo-ward-301-0-125702860-319755612", "species_group": "cherry", "scientific_name": "Prunus species", "common_name": "サクラ", "subtype_name": "サクラ", "zip_code": null, "ownership": "public", "ownership_raw": "Tokyo Metropolitan Government", "city": "Bunkyo Ward", "source_dataset": "Street Trees / 街路樹", "source_department": "Tokyo Metropolitan Government", "source_last_edit_at": ""}}, {"type": "Feature", "geometry": {"type": "Point", "coordinates": [139.75285070000012, 35.71022391994349]}, "properties": {"id": "bunkyo-ward-301-0-125710224-319752851", "species_group": "cherry", "scientific_name": "Prunus species", "common_name": "サクラ", "subtype_name": "サクラ", "zip_code": null, "ownership": "public", "ownership_raw": "Tokyo Metropolitan Government", "city": "Bunkyo Ward", "source_dataset": "Street Trees / 街路樹", "source_department": "Tokyo Metropolitan Government", "source_last_edit_at": ""}}, {"type": "Feature", "geometry": {"type": "Point", "coordinates": [139.75279810000012, 35.71060363994349]}, "properties": {"id": "bunkyo-ward-301-0-125710604-319752798", "species_group": "cherry", "scientific_name": "Prunus species", "common_name": "サクラ", "subtype_name": "サクラ", "zip_code": null, "ownership": "public", "ownership_raw": "Tokyo Metropolitan Government", "city": "Bunkyo Ward", "source_dataset": "Street Trees / 街路樹", "source_department": "Tokyo Metropolitan Government", "source_last_edit_at": ""}}, {"type": "Feature", "geometry": {"type": "Point", "coordinates": [139.75279280000012, 35.71062484994349]}, "properties": {"id": "bunkyo-ward-301-0-125710625-319752793", "species_group": "peach", "scientific_name": "Prunus species", "common_name": "ハナモモ", "subtype_name": "ハナモモ", "zip_code": null, "ownership": "public", "ownership_raw": "Tokyo Metropolitan Government", "city": "Bunkyo Ward", "source_dataset": "Street Trees / 街路樹", "source_department": "Tokyo Metropolitan Government", "source_last_edit_at": ""}}, {"type": "Feature", "geometry": {"type": "Point", "coordinates": [139.75266920000007, 35.71084064994353]}, "properties": {"id": "bunkyo-ward-301-0-125710841-319752669", "species_group": "magnolia", "scientific_name": "Magnolia species", "common_name": "コブシ", "subtype_name": "コブシ", "zip_code": null, "ownership": "public", "ownership_raw": "Tokyo Metropolitan Government", "city": "Bunkyo Ward", "source_dataset": "Street Trees / 街路樹", "source_department": "Tokyo Metropolitan Government", "source_last_edit_at": ""}}, {"type": "Feature", "geometry": {"type": "Point", "coordinates": [139.75266660000017, 35.7108519599435]}, "properties": {"id": "bunkyo-ward-301-0-125710852-319752667", "species_group": "magnolia", "scientific_name": "Magnolia species", "common_name": "コブシ", "subtype_name": "コブシ", "zip_code": null, "ownership": "public", "ownership_raw": "Tokyo Metropolitan Government", "city": "Bunkyo Ward", "source_dataset": "Street Trees / 街路樹", "source_department": "Tokyo Metropolitan Government", "source_last_edit_at": ""}}, {"type": "Feature", "geometry": {"type": "Point", "coordinates": [139.75255800000008, 35.71101683994352]}, "properties": {"id": "bunkyo-ward-301-0-125711017-319752558", "species_group": "plum", "scientific_name": "Prunus species", "common_name": "ウメ", "subtype_name": "ウメ", "zip_code": null, "ownership": "public", "ownership_raw": "Tokyo Metropolitan Government", "city": "Bunkyo Ward", "source_dataset": "Street Trees / 街路樹", "source_department": "Tokyo Metropolitan Government", "source_last_edit_at": ""}}, {"type": "Feature", "geometry": {"type": "Point", "coordinates": [139.7530139000001, 35.7110419899435]}, "properties": {"id": "bunkyo-ward-301-0-125711042-319753014", "species_group": "cherry", "scientific_name": "Prunus species", "common_name": "サクラ", "subtype_name": "サクラ", "zip_code": null, "ownership": "public", "ownership_raw": "Tokyo Metropolitan Government", "city": "Bunkyo Ward", "source_dataset": "Street Trees / 街路樹", "source_department": "Tokyo Metropolitan Government", "source_last_edit_at": ""}}, {"type": "Feature", "geometry": {"type": "Point", "coordinates": [139.75192250000015, 35.71442465994345]}, "properties": {"id": "bunkyo-ward-301-0-125714425-319751923", "species_group": "cherry", "scientific_name": "Prunus species", "common_name": "サクラ", "subtype_name": "サクラ", "zip_code": null, "ownership": "public", "ownership_raw": "Tokyo Metropolitan Government", "city": "Bunkyo Ward", "source_dataset": "Street Trees / 街路樹", "source_department": "Tokyo Metropolitan Government", "source_last_edit_at": ""}}, {"type": "Feature", "geometry": {"type": "Point", "coordinates": [139.7461626000001, 35.72453294994317]}, "properties": {"id": "bunkyo-ward-301-0-125724533-319746163", "species_group": "plum", "scientific_name": "Prunus species", "common_name": "ウメ", "subtype_name": "ウメ", "zip_code": null, "ownership": "public", "ownership_raw": "Tokyo Metropolitan Government", "city": "Bunkyo Ward", "source_dataset": "Street Trees / 街路樹", "source_department": "Tokyo Metropolitan Government", "source_last_edit_at": ""}}, {"type": "Feature", "geometry": {"type": "Point", "coordinates": [139.74651640000008, 35.724683359943164]}, "properties": {"id": "bunkyo-ward-301-0-125724683-319746516", "species_group": "cherry", "scientific_name": "Prunus species", "common_name": "サクラ", "subtype_name": "サクラ", "zip_code": null, "ownership": "public", "ownership_raw": "Tokyo Metropolitan Government", "city": "Bunkyo Ward", "source_dataset": "Street Trees / 街路樹", "source_department": "Tokyo Metropolitan Government", "source_last_edit_at": ""}}, {"type": "Feature", "geometry": {"type": "Point", "coordinates": [139.74400780000013, 35.71736943994332]}, "properties": {"id": "bunkyo-ward-319-0-125717369-319744008", "species_group": "cherry", "scientific_name": "Prunus species", "common_name": "サクラ", "subtype_name": "サクラ", "zip_code": null, "ownership": "public", "ownership_raw": "Tokyo Metropolitan Government", "city": "Bunkyo Ward", "source_dataset": "Street Trees / 街路樹", "source_department": "Tokyo Metropolitan Government", "source_last_edit_at": ""}}, {"type": "Feature", "geometry": {"type": "Point", "coordinates": [139.74405240000016, 35.71737860994332]}, "properties": {"id": "bunkyo-ward-319-0-125717379-319744052", "species_group": "cherry", "scientific_name": "Prunus species", "common_name": "サクラ", "subtype_name": "サクラ", "zip_code": null, "ownership": "public", "ownership_raw": "Tokyo Metropolitan Government", "city": "Bunkyo Ward", "source_dataset": "Street Trees / 街路樹", "source_department": "Tokyo Metropolitan Government", "source_last_edit_at": ""}}, {"type": "Feature", "geometry": {"type": "Point", "coordinates": [139.75644790000007, 35.701980469943656]}, "properties": {"id": "bunkyo-ward-405-0-125701980-319756448", "species_group": "cherry", "scientific_name": "Prunus species", "common_name": "サクラ", "subtype_name": "サクラ", "zip_code": null, "ownership": "public", "ownership_raw": "Tokyo Metropolitan Government", "city": "Bunkyo Ward", "source_dataset": "Street Trees / 街路樹", "source_department": "Tokyo Metropolitan Government", "source_last_edit_at": ""}}, {"type": "Feature", "geometry": {"type": "Point", "coordinates": [139.7609905000001, 35.70206151994366]}, "properties": {"id": "bunkyo-ward-405-0-125702062-319760991", "species_group": "cherry", "scientific_name": "Prunus species", "common_name": "サクラ", "subtype_name": "サクラ", "zip_code": null, "ownership": "public", "ownership_raw": "Tokyo Metropolitan Government", "city": "Bunkyo Ward", "source_dataset": "Street Trees / 街路樹", "source_department": "Tokyo Metropolitan Government", "source_last_edit_at": ""}}, {"type": "Feature", "geometry": {"type": "Point", "coordinates": [139.76168030000014, 35.70206901994371]}, "properties": {"id": "bunkyo-ward-405-0-125702069-319761680", "species_group": "cherry", "scientific_name": "Prunus species", "common_name": "サクラ", "subtype_name": "サクラ", "zip_code": null, "ownership": "public", "ownership_raw": "Tokyo Metropolitan Government", "city": "Bunkyo Ward", "source_dataset": "Street Trees / 街路樹", "source_department": "Tokyo Metropolitan Government", "source_last_edit_at": ""}}, {"type": "Feature", "geometry": {"type": "Point", "coordinates": [139.7611884000001, 35.70207006994369]}, "properties": {"id": "bunkyo-ward-405-0-125702070-319761188", "species_group": "cherry", "scientific_name": "Prunus species", "common_name": "サクラ", "subtype_name": "サクラ", "zip_code": null, "ownership": "public", "ownership_raw": "Tokyo Metropolitan Government", "city": "Bunkyo Ward", "source_dataset": "Street Trees / 街路樹", "source_department": "Tokyo Metropolitan Government", "source_last_edit_at": ""}}, {"type": "Feature", "geometry": {"type": "Point", "coordinates": [139.7617393000001, 35.70207698994372]}, "properties": {"id": "bunkyo-ward-405-0-125702077-319761739", "species_group": "magnolia", "scientific_name": "Magnolia species", "common_name": "コブシ", "subtype_name": "コブシ", "zip_code": null, "ownership": "public", "ownership_raw": "Tokyo Metropolitan Government", "city": "Bunkyo Ward", "source_dataset": "Street Trees / 街路樹", "source_department": "Tokyo Metropolitan Government", "source_last_edit_at": ""}}, {"type": "Feature", "geometry": {"type": "Point", "coordinates": [139.7612678000001, 35.702085029943674]}, "properties": {"id": "bunkyo-ward-405-0-125702085-319761268", "species_group": "magnolia", "scientific_name": "Magnolia species", "common_name": "コブシ", "subtype_name": "コブシ", "zip_code": null, "ownership": "public", "ownership_raw": "Tokyo Metropolitan Government", "city": "Bunkyo Ward", "source_dataset": "Street Trees / 街路樹", "source_department": "Tokyo Metropolitan Government", "source_last_edit_at": ""}}, {"type": "Feature", "geometry": {"type": "Point", "coordinates": [139.75617790000007, 35.70232210994371]}, "properties": {"id": "bunkyo-ward-405-0-125702322-319756178", "species_group": "magnolia", "scientific_name": "Magnolia species", "common_name": "コブシ", "subtype_name": "コブシ", "zip_code": null, "ownership": "public", "ownership_raw": "Tokyo Metropolitan Government", "city": "Bunkyo Ward", "source_dataset": "Street Trees / 街路樹", "source_department": "Tokyo Metropolitan Government", "source_last_edit_at": ""}}, {"type": "Feature", "geometry": {"type": "Point", "coordinates": [139.75579450000012, 35.70244533994368]}, "properties": {"id": "bunkyo-ward-405-0-125702445-319755795", "species_group": "magnolia", "scientific_name": "Magnolia species", "common_name": "コブシ", "subtype_name": "コブシ", "zip_code": null, "ownership": "public", "ownership_raw": "Tokyo Metropolitan Government", "city": "Bunkyo Ward", "source_dataset": "Street Trees / 街路樹", "source_department": "Tokyo Metropolitan Government", "source_last_edit_at": ""}}, {"type": "Feature", "geometry": {"type": "Point", "coordinates": [139.7539738000001, 35.70305572994369]}, "properties": {"id": "bunkyo-ward-405-0-125703056-319753974", "species_group": "cherry", "scientific_name": "Prunus species", "common_name": "サクラ", "subtype_name": "サクラ", "zip_code": null, "ownership": "public", "ownership_raw": "Tokyo Metropolitan Government", "city": "Bunkyo Ward", "source_dataset": "Street Trees / 街路樹", "source_department": "Tokyo Metropolitan Government", "source_last_edit_at": ""}}, {"type": "Feature", "geometry": {"type": "Point", "coordinates": [139.7539688000001, 35.70309629994364]}, "properties": {"id": "bunkyo-ward-405-0-125703096-319753969", "species_group": "magnolia", "scientific_name": "Magnolia species", "common_name": "コブシ", "subtype_name": "コブシ", "zip_code": null, "ownership": "public", "ownership_raw": "Tokyo Metropolitan Government", "city": "Bunkyo Ward", "source_dataset": "Street Trees / 街路樹", "source_department": "Tokyo Metropolitan Government", "source_last_edit_at": ""}}, {"type": "Feature", "geometry": {"type": "Point", "coordinates": [139.75108730000017, 35.70328526994365]}, "properties": {"id": "bunkyo-ward-405-0-125703285-319751087", "species_group": "magnolia", "scientific_name": "Magnolia species", "common_name": "コブシ", "subtype_name": "コブシ", "zip_code": null, "ownership": "public", "ownership_raw": "Tokyo Metropolitan Government", "city": "Bunkyo Ward", "source_dataset": "Street Trees / 街路樹", "source_department": "Tokyo Metropolitan Government", "source_last_edit_at": ""}}, {"type": "Feature", "geometry": {"type": "Point", "coordinates": [139.75109580000006, 35.70331846994367]}, "properties": {"id": "bunkyo-ward-405-0-125703318-319751096", "species_group": "magnolia", "scientific_name": "Magnolia species", "common_name": "コブシ", "subtype_name": "コブシ", "zip_code": null, "ownership": "public", "ownership_raw": "Tokyo Metropolitan Government", "city": "Bunkyo Ward", "source_dataset": "Street Trees / 街路樹", "source_department": "Tokyo Metropolitan Government", "source_last_edit_at": ""}}, {"type": "Feature", "geometry": {"type": "Point", "coordinates": [139.75098380000014, 35.70333200994366]}, "properties": {"id": "bunkyo-ward-405-0-125703332-319750984", "species_group": "magnolia", "scientific_name": "Magnolia species", "common_name": "コブシ", "subtype_name": "コブシ", "zip_code": null, "ownership": "public", "ownership_raw": "Tokyo Metropolitan Government", "city": "Bunkyo Ward", "source_dataset": "Street Trees / 街路樹", "source_department": "Tokyo Metropolitan Government", "source_last_edit_at": ""}}, {"type": "Feature", "geometry": {"type": "Point", "coordinates": [139.75109960000015, 35.703341659943646]}, "properties": {"id": "bunkyo-ward-405-0-125703342-319751100", "species_group": "magnolia", "scientific_name": "Magnolia species", "common_name": "コブシ", "subtype_name": "コブシ", "zip_code": null, "ownership": "public", "ownership_raw": "Tokyo Metropolitan Government", "city": "Bunkyo Ward", "source_dataset": "Street Trees / 街路樹", "source_department": "Tokyo Metropolitan Government", "source_last_edit_at": ""}}, {"type": "Feature", "geometry": {"type": "Point", "coordinates": [139.74646050000007, 35.70346059994363]}, "properties": {"id": "bunkyo-ward-405-0-125703461-319746461", "species_group": "magnolia", "scientific_name": "Magnolia species", "common_name": "コブシ", "subtype_name": "コブシ", "zip_code": null, "ownership": "public", "ownership_raw": "Tokyo Metropolitan Government", "city": "Bunkyo Ward", "source_dataset": "Street Trees / 街路樹", "source_department": "Tokyo Metropolitan Government", "source_last_edit_at": ""}}, {"type": "Feature", "geometry": {"type": "Point", "coordinates": [139.75425150000007, 35.70539865994365]}, "properties": {"id": "bunkyo-ward-434-0-125705399-319754252", "species_group": "cherry", "scientific_name": "Prunus species", "common_name": "サクラ", "subtype_name": "サクラ", "zip_code": null, "ownership": "public", "ownership_raw": "Tokyo Metropolitan Government", "city": "Bunkyo Ward", "source_dataset": "Street Trees / 街路樹", "source_department": "Tokyo Metropolitan Government", "source_last_edit_at": ""}}, {"type": "Feature", "geometry": {"type": "Point", "coordinates": [139.7540317000001, 35.70576072994362]}, "properties": {"id": "bunkyo-ward-434-0-125705761-319754032", "species_group": "peach", "scientific_name": "Prunus species", "common_name": "ハナモモ", "subtype_name": "ハナモモ", "zip_code": null, "ownership": "public", "ownership_raw": "Tokyo Metropolitan Government", "city": "Bunkyo Ward", "source_dataset": "Street Trees / 街路樹", "source_department": "Tokyo Metropolitan Government", "source_last_edit_at": ""}}, {"type": "Feature", "geometry": {"type": "Point", "coordinates": [139.75398230000013, 35.70579073994361]}, "properties": {"id": "bunkyo-ward-434-0-125705791-319753982", "species_group": "peach", "scientific_name": "Prunus species", "common_name": "ハナモモ", "subtype_name": "ハナモモ", "zip_code": null, "ownership": "public", "ownership_raw": "Tokyo Metropolitan Government", "city": "Bunkyo Ward", "source_dataset": "Street Trees / 街路樹", "source_department": "Tokyo Metropolitan Government", "source_last_edit_at": ""}}, {"type": "Feature", "geometry": {"type": "Point", "coordinates": [139.7539093000001, 35.70583303994362]}, "properties": {"id": "bunkyo-ward-434-0-125705833-319753909", "species_group": "peach", "scientific_name": "Prunus species", "common_name": "ハナモモ", "subtype_name": "ハナモモ", "zip_code": null, "ownership": "public", "ownership_raw": "Tokyo Metropolitan Government", "city": "Bunkyo Ward", "source_dataset": "Street Trees / 街路樹", "source_department": "Tokyo Metropolitan Government", "source_last_edit_at": ""}}, {"type": "Feature", "geometry": {"type": "Point", "coordinates": [139.7534159000001, 35.70583403994362]}, "properties": {"id": "bunkyo-ward-434-0-125705834-319753416", "species_group": "cherry", "scientific_name": "Prunus species", "common_name": "サクラ", "subtype_name": "サクラ", "zip_code": null, "ownership": "public", "ownership_raw": "Tokyo Metropolitan Government", "city": "Bunkyo Ward", "source_dataset": "Street Trees / 街路樹", "source_department": "Tokyo Metropolitan Government", "source_last_edit_at": ""}}, {"type": "Feature", "geometry": {"type": "Point", "coordinates": [139.75337470000017, 35.70584173994359]}, "properties": {"id": "bunkyo-ward-434-0-125705842-319753375", "species_group": "cherry", "scientific_name": "Prunus species", "common_name": "サクラ", "subtype_name": "サクラ", "zip_code": null, "ownership": "public", "ownership_raw": "Tokyo Metropolitan Government", "city": "Bunkyo Ward", "source_dataset": "Street Trees / 街路樹", "source_department": "Tokyo Metropolitan Government", "source_last_edit_at": ""}}, {"type": "Feature", "geometry": {"type": "Point", "coordinates": [139.7538566000001, 35.70586297994362]}, "properties": {"id": "bunkyo-ward-434-0-125705863-319753857", "species_group": "peach", "scientific_name": "Prunus species", "common_name": "ハナモモ", "subtype_name": "ハナモモ", "zip_code": null, "ownership": "public", "ownership_raw": "Tokyo Metropolitan Government", "city": "Bunkyo Ward", "source_dataset": "Street Trees / 街路樹", "source_department": "Tokyo Metropolitan Government", "source_last_edit_at": ""}}, {"type": "Feature", "geometry": {"type": "Point", "coordinates": [139.75337800000017, 35.705884349943624]}, "properties": {"id": "bunkyo-ward-434-0-125705884-319753378", "species_group": "cherry", "scientific_name": "Prunus species", "common_name": "サクラ", "subtype_name": "サクラ", "zip_code": null, "ownership": "public", "ownership_raw": "Tokyo Metropolitan Government", "city": "Bunkyo Ward", "source_dataset": "Street Trees / 街路樹", "source_department": "Tokyo Metropolitan Government", "source_last_edit_at": ""}}, {"type": "Feature", "geometry": {"type": "Point", "coordinates": [139.75362620000016, 35.706018899943615]}, "properties": {"id": "bunkyo-ward-434-0-125706019-319753626", "species_group": "peach", "scientific_name": "Prunus species", "common_name": "ハナモモ", "subtype_name": "ハナモモ", "zip_code": null, "ownership": "public", "ownership_raw": "Tokyo Metropolitan Government", "city": "Bunkyo Ward", "source_dataset": "Street Trees / 街路樹", "source_department": "Tokyo Metropolitan Government", "source_last_edit_at": ""}}, {"type": "Feature", "geometry": {"type": "Point", "coordinates": [139.75353820000015, 35.706072149943616]}, "properties": {"id": "bunkyo-ward-434-0-125706072-319753538", "species_group": "peach", "scientific_name": "Prunus species", "common_name": "ハナモモ", "subtype_name": "ハナモモ", "zip_code": null, "ownership": "public", "ownership_raw": "Tokyo Metropolitan Government", "city": "Bunkyo Ward", "source_dataset": "Street Trees / 街路樹", "source_department": "Tokyo Metropolitan Government", "source_last_edit_at": ""}}, {"type": "Feature", "geometry": {"type": "Point", "coordinates": [139.75341710000012, 35.70614918994362]}, "properties": {"id": "bunkyo-ward-434-0-125706149-319753417", "species_group": "peach", "scientific_name": "Prunus species", "common_name": "ハナモモ", "subtype_name": "ハナモモ", "zip_code": null, "ownership": "public", "ownership_raw": "Tokyo Metropolitan Government", "city": "Bunkyo Ward", "source_dataset": "Street Trees / 街路樹", "source_department": "Tokyo Metropolitan Government", "source_last_edit_at": ""}}, {"type": "Feature", "geometry": {"type": "Point", "coordinates": [139.7533447000001, 35.70620355994362]}, "properties": {"id": "bunkyo-ward-434-0-125706204-319753345", "species_group": "peach", "scientific_name": "Prunus species", "common_name": "ハナモモ", "subtype_name": "ハナモモ", "zip_code": null, "ownership": "public", "ownership_raw": "Tokyo Metropolitan Government", "city": "Bunkyo Ward", "source_dataset": "Street Trees / 街路樹", "source_department": "Tokyo Metropolitan Government", "source_last_edit_at": ""}}, {"type": "Feature", "geometry": {"type": "Point", "coordinates": [139.75324210000014, 35.706265099943586]}, "properties": {"id": "bunkyo-ward-434-0-125706265-319753242", "species_group": "peach", "scientific_name": "Prunus species", "common_name": "ハナモモ", "subtype_name": "ハナモモ", "zip_code": null, "ownership": "public", "ownership_raw": "Tokyo Metropolitan Government", "city": "Bunkyo Ward", "source_dataset": "Street Trees / 街路樹", "source_department": "Tokyo Metropolitan Government", "source_last_edit_at": ""}}, {"type": "Feature", "geometry": {"type": "Point", "coordinates": [139.75290390000015, 35.70626658994358]}, "properties": {"id": "bunkyo-ward-434-0-125706267-319752904", "species_group": "peach", "scientific_name": "Prunus species", "common_name": "ハナモモ", "subtype_name": "ハナモモ", "zip_code": null, "ownership": "public", "ownership_raw": "Tokyo Metropolitan Government", "city": "Bunkyo Ward", "source_dataset": "Street Trees / 街路樹", "source_department": "Tokyo Metropolitan Government", "source_last_edit_at": ""}}, {"type": "Feature", "geometry": {"type": "Point", "coordinates": [139.75288600000016, 35.706278829943564]}, "properties": {"id": "bunkyo-ward-434-0-125706279-319752886", "species_group": "peach", "scientific_name": "Prunus species", "common_name": "ハナモモ", "subtype_name": "ハナモモ", "zip_code": null, "ownership": "public", "ownership_raw": "Tokyo Metropolitan Government", "city": "Bunkyo Ward", "source_dataset": "Street Trees / 街路樹", "source_department": "Tokyo Metropolitan Government", "source_last_edit_at": ""}}, {"type": "Feature", "geometry": {"type": "Point", "coordinates": [139.75317910000007, 35.7063040299436]}, "properties": {"id": "bunkyo-ward-434-0-125706304-319753179", "species_group": "peach", "scientific_name": "Prunus species", "common_name": "ハナモモ", "subtype_name": "ハナモモ", "zip_code": null, "ownership": "public", "ownership_raw": "Tokyo Metropolitan Government", "city": "Bunkyo Ward", "source_dataset": "Street Trees / 街路樹", "source_department": "Tokyo Metropolitan Government", "source_last_edit_at": ""}}, {"type": "Feature", "geometry": {"type": "Point", "coordinates": [139.75282250000015, 35.70631532994359]}, "properties": {"id": "bunkyo-ward-434-0-125706315-319752823", "species_group": "peach", "scientific_name": "Prunus species", "common_name": "ハナモモ", "subtype_name": "ハナモモ", "zip_code": null, "ownership": "public", "ownership_raw": "Tokyo Metropolitan Government", "city": "Bunkyo Ward", "source_dataset": "Street Trees / 街路樹", "source_department": "Tokyo Metropolitan Government", "source_last_edit_at": ""}}, {"type": "Feature", "geometry": {"type": "Point", "coordinates": [139.75269300000008, 35.70639872994359]}, "properties": {"id": "bunkyo-ward-434-0-125706399-319752693", "species_group": "peach", "scientific_name": "Prunus species", "common_name": "ハナモモ", "subtype_name": "ハナモモ", "zip_code": null, "ownership": "public", "ownership_raw": "Tokyo Metropolitan Government", "city": "Bunkyo Ward", "source_dataset": "Street Trees / 街路樹", "source_department": "Tokyo Metropolitan Government", "source_last_edit_at": ""}}, {"type": "Feature", "geometry": {"type": "Point", "coordinates": [139.75297410000013, 35.70643531994357]}, "properties": {"id": "bunkyo-ward-434-0-125706435-319752974", "species_group": "peach", "scientific_name": "Prunus species", "common_name": "ハナモモ", "subtype_name": "ハナモモ", "zip_code": null, "ownership": "public", "ownership_raw": "Tokyo Metropolitan Government", "city": "Bunkyo Ward", "source_dataset": "Street Trees / 街路樹", "source_department": "Tokyo Metropolitan Government", "source_last_edit_at": ""}}, {"type": "Feature", "geometry": {"type": "Point", "coordinates": [139.7526324000001, 35.70644055994357]}, "properties": {"id": "bunkyo-ward-434-0-125706441-319752632", "species_group": "peach", "scientific_name": "Prunus species", "common_name": "ハナモモ", "subtype_name": "ハナモモ", "zip_code": null, "ownership": "public", "ownership_raw": "Tokyo Metropolitan Government", "city": "Bunkyo Ward", "source_dataset": "Street Trees / 街路樹", "source_department": "Tokyo Metropolitan Government", "source_last_edit_at": ""}}, {"type": "Feature", "geometry": {"type": "Point", "coordinates": [139.75290150000018, 35.706487459943595]}, "properties": {"id": "bunkyo-ward-434-0-125706487-319752902", "species_group": "peach", "scientific_name": "Prunus species", "common_name": "ハナモモ", "subtype_name": "ハナモモ", "zip_code": null, "ownership": "public", "ownership_raw": "Tokyo Metropolitan Government", "city": "Bunkyo Ward", "source_dataset": "Street Trees / 街路樹", "source_department": "Tokyo Metropolitan Government", "source_last_edit_at": ""}}, {"type": "Feature", "geometry": {"type": "Point", "coordinates": [139.75255160000012, 35.7064877499436]}, "properties": {"id": "bunkyo-ward-434-0-125706488-319752552", "species_group": "peach", "scientific_name": "Prunus species", "common_name": "ハナモモ", "subtype_name": "ハナモモ", "zip_code": null, "ownership": "public", "ownership_raw": "Tokyo Metropolitan Government", "city": "Bunkyo Ward", "source_dataset": "Street Trees / 街路樹", "source_department": "Tokyo Metropolitan Government", "source_last_edit_at": ""}}, {"type": "Feature", "geometry": {"type": "Point", "coordinates": [139.75248420000008, 35.70653376994362]}, "properties": {"id": "bunkyo-ward-434-0-125706534-319752484", "species_group": "peach", "scientific_name": "Prunus species", "common_name": "ハナモモ", "subtype_name": "ハナモモ", "zip_code": null, "ownership": "public", "ownership_raw": "Tokyo Metropolitan Government", "city": "Bunkyo Ward", "source_dataset": "Street Trees / 街路樹", "source_department": "Tokyo Metropolitan Government", "source_last_edit_at": ""}}, {"type": "Feature", "geometry": {"type": "Point", "coordinates": [139.7528279000001, 35.70653717994359]}, "properties": {"id": "bunkyo-ward-434-0-125706537-319752828", "species_group": "peach", "scientific_name": "Prunus species", "common_name": "ハナモモ", "subtype_name": "ハナモモ", "zip_code": null, "ownership": "public", "ownership_raw": "Tokyo Metropolitan Government", "city": "Bunkyo Ward", "source_dataset": "Street Trees / 街路樹", "source_department": "Tokyo Metropolitan Government", "source_last_edit_at": ""}}, {"type": "Feature", "geometry": {"type": "Point", "coordinates": [139.75278740000016, 35.706563119943596]}, "properties": {"id": "bunkyo-ward-434-0-125706563-319752787", "species_group": "peach", "scientific_name": "Prunus species", "common_name": "ハナモモ", "subtype_name": "ハナモモ", "zip_code": null, "ownership": "public", "ownership_raw": "Tokyo Metropolitan Government", "city": "Bunkyo Ward", "source_dataset": "Street Trees / 街路樹", "source_department": "Tokyo Metropolitan Government", "source_last_edit_at": ""}}, {"type": "Feature", "geometry": {"type": "Point", "coordinates": [139.75271930000014, 35.70660367994359]}, "properties": {"id": "bunkyo-ward-434-0-125706604-319752719", "species_group": "peach", "scientific_name": "Prunus species", "common_name": "ハナモモ", "subtype_name": "ハナモモ", "zip_code": null, "ownership": "public", "ownership_raw": "Tokyo Metropolitan Government", "city": "Bunkyo Ward", "source_dataset": "Street Trees / 街路樹", "source_department": "Tokyo Metropolitan Government", "source_last_edit_at": ""}}, {"type": "Feature", "geometry": {"type": "Point", "coordinates": [139.75235630000014, 35.70661143994361]}, "properties": {"id": "bunkyo-ward-434-0-125706611-319752356", "species_group": "peach", "scientific_name": "Prunus species", "common_name": "ハナモモ", "subtype_name": "ハナモモ", "zip_code": null, "ownership": "public", "ownership_raw": "Tokyo Metropolitan Government", "city": "Bunkyo Ward", "source_dataset": "Street Trees / 街路樹", "source_department": "Tokyo Metropolitan Government", "source_last_edit_at": ""}}, {"type": "Feature", "geometry": {"type": "Point", "coordinates": [139.7526228000001, 35.706665109943614]}, "properties": {"id": "bunkyo-ward-434-0-125706665-319752623", "species_group": "peach", "scientific_name": "Prunus species", "common_name": "ハナモモ", "subtype_name": "ハナモモ", "zip_code": null, "ownership": "public", "ownership_raw": "Tokyo Metropolitan Government", "city": "Bunkyo Ward", "source_dataset": "Street Trees / 街路樹", "source_department": "Tokyo Metropolitan Government", "source_last_edit_at": ""}}, {"type": "Feature", "geometry": {"type": "Point", "coordinates": [139.75227230000013, 35.70667143994356]}, "properties": {"id": "bunkyo-ward-434-0-125706671-319752272", "species_group": "peach", "scientific_name": "Prunus species", "common_name": "ハナモモ", "subtype_name": "ハナモモ", "zip_code": null, "ownership": "public", "ownership_raw": "Tokyo Metropolitan Government", "city": "Bunkyo Ward", "source_dataset": "Street Trees / 街路樹", "source_department": "Tokyo Metropolitan Government", "source_last_edit_at": ""}}, {"type": "Feature", "geometry": {"type": "Point", "coordinates": [139.74820300000016, 35.706712509943586]}, "properties": {"id": "bunkyo-ward-434-0-125706713-319748203", "species_group": "cherry", "scientific_name": "Prunus species", "common_name": "サクラ", "subtype_name": "サクラ", "zip_code": null, "ownership": "public", "ownership_raw": "Tokyo Metropolitan Government", "city": "Bunkyo Ward", "source_dataset": "Street Trees / 街路樹", "source_department": "Tokyo Metropolitan Government", "source_last_edit_at": ""}}, {"type": "Feature", "geometry": {"type": "Point", "coordinates": [139.7482052000001, 35.706712609943594]}, "properties": {"id": "bunkyo-ward-434-0-125706713-319748205", "species_group": "cherry", "scientific_name": "Prunus species", "common_name": "サクラ", "subtype_name": "サクラ", "zip_code": null, "ownership": "public", "ownership_raw": "Tokyo Metropolitan Government", "city": "Bunkyo Ward", "source_dataset": "Street Trees / 街路樹", "source_department": "Tokyo Metropolitan Government", "source_last_edit_at": ""}}, {"type": "Feature", "geometry": {"type": "Point", "coordinates": [139.74802590000007, 35.70672530994356]}, "properties": {"id": "bunkyo-ward-434-0-125706725-319748026", "species_group": "crabapple", "scientific_name": "Malus species", "common_name": "ヒメリンゴ", "subtype_name": "ヒメリンゴ", "zip_code": null, "ownership": "public", "ownership_raw": "Tokyo Metropolitan Government", "city": "Bunkyo Ward", "source_dataset": "Street Trees / 街路樹", "source_department": "Tokyo Metropolitan Government", "source_last_edit_at": ""}}, {"type": "Feature", "geometry": {"type": "Point", "coordinates": [139.74802360000007, 35.70672998994359]}, "properties": {"id": "bunkyo-ward-434-0-125706730-319748024", "species_group": "crabapple", "scientific_name": "Malus species", "common_name": "ヒメリンゴ", "subtype_name": "ヒメリンゴ", "zip_code": null, "ownership": "public", "ownership_raw": "Tokyo Metropolitan Government", "city": "Bunkyo Ward", "source_dataset": "Street Trees / 街路樹", "source_department": "Tokyo Metropolitan Government", "source_last_edit_at": ""}}, {"type": "Feature", "geometry": {"type": "Point", "coordinates": [139.75241880000016, 35.70679785994358]}, "properties": {"id": "bunkyo-ward-434-0-125706798-319752419", "species_group": "peach", "scientific_name": "Prunus species", "common_name": "ハナモモ", "subtype_name": "ハナモモ", "zip_code": null, "ownership": "public", "ownership_raw": "Tokyo Metropolitan Government", "city": "Bunkyo Ward", "source_dataset": "Street Trees / 街路樹", "source_department": "Tokyo Metropolitan Government", "source_last_edit_at": ""}}, {"type": "Feature", "geometry": {"type": "Point", "coordinates": [139.75219040000005, 35.706945209943605]}, "properties": {"id": "bunkyo-ward-434-0-125706945-319752190", "species_group": "peach", "scientific_name": "Prunus species", "common_name": "ハナモモ", "subtype_name": "ハナモモ", "zip_code": null, "ownership": "public", "ownership_raw": "Tokyo Metropolitan Government", "city": "Bunkyo Ward", "source_dataset": "Street Trees / 街路樹", "source_department": "Tokyo Metropolitan Government", "source_last_edit_at": ""}}, {"type": "Feature", "geometry": {"type": "Point", "coordinates": [139.72779940000018, 35.718115919943344]}, "properties": {"id": "bunkyo-ward-435-0-125718116-319727799", "species_group": "magnolia", "scientific_name": "Magnolia species", "common_name": "コブシ", "subtype_name": "コブシ", "zip_code": null, "ownership": "public", "ownership_raw": "Tokyo Metropolitan Government", "city": "Bunkyo Ward", "source_dataset": "Street Trees / 街路樹", "source_department": "Tokyo Metropolitan Government", "source_last_edit_at": ""}}, {"type": "Feature", "geometry": {"type": "Point", "coordinates": [139.7277522000001, 35.718197139943314]}, "properties": {"id": "bunkyo-ward-435-0-125718197-319727752", "species_group": "magnolia", "scientific_name": "Magnolia species", "common_name": "コブシ", "subtype_name": "コブシ", "zip_code": null, "ownership": "public", "ownership_raw": "Tokyo Metropolitan Government", "city": "Bunkyo Ward", "source_dataset": "Street Trees / 街路樹", "source_department": "Tokyo Metropolitan Government", "source_last_edit_at": ""}}, {"type": "Feature", "geometry": {"type": "Point", "coordinates": [139.7277034000002, 35.718324609943295]}, "properties": {"id": "bunkyo-ward-435-0-125718325-319727703", "species_group": "magnolia", "scientific_name": "Magnolia species", "common_name": "コブシ", "subtype_name": "コブシ", "zip_code": null, "ownership": "public", "ownership_raw": "Tokyo Metropolitan Government", "city": "Bunkyo Ward", "source_dataset": "Street Trees / 街路樹", "source_department": "Tokyo Metropolitan Government", "source_last_edit_at": ""}}, {"type": "Feature", "geometry": {"type": "Point", "coordinates": [139.7259252000002, 35.71942078994333]}, "properties": {"id": "bunkyo-ward-435-0-125719421-319725925", "species_group": "cherry", "scientific_name": "Prunus species", "common_name": "サクラ", "subtype_name": "サクラ", "zip_code": null, "ownership": "public", "ownership_raw": "Tokyo Metropolitan Government", "city": "Bunkyo Ward", "source_dataset": "Street Trees / 街路樹", "source_department": "Tokyo Metropolitan Government", "source_last_edit_at": ""}}, {"type": "Feature", "geometry": {"type": "Point", "coordinates": [139.72731040000016, 35.71971394994327]}, "properties": {"id": "bunkyo-ward-435-0-125719714-319727310", "species_group": "magnolia", "scientific_name": "Magnolia species", "common_name": "コブシ", "subtype_name": "コブシ", "zip_code": null, "ownership": "public", "ownership_raw": "Tokyo Metropolitan Government", "city": "Bunkyo Ward", "source_dataset": "Street Trees / 街路樹", "source_department": "Tokyo Metropolitan Government", "source_last_edit_at": ""}}, {"type": "Feature", "geometry": {"type": "Point", "coordinates": [139.7273027000002, 35.719724399943324]}, "properties": {"id": "bunkyo-ward-435-0-125719724-319727303", "species_group": "magnolia", "scientific_name": "Magnolia species", "common_name": "コブシ", "subtype_name": "コブシ", "zip_code": null, "ownership": "public", "ownership_raw": "Tokyo Metropolitan Government", "city": "Bunkyo Ward", "source_dataset": "Street Trees / 街路樹", "source_department": "Tokyo Metropolitan Government", "source_last_edit_at": ""}}, {"type": "Feature", "geometry": {"type": "Point", "coordinates": [139.72729920000015, 35.719734319943285]}, "properties": {"id": "bunkyo-ward-435-0-125719734-319727299", "species_group": "magnolia", "scientific_name": "Magnolia species", "common_name": "コブシ", "subtype_name": "コブシ", "zip_code": null, "ownership": "public", "ownership_raw": "Tokyo Metropolitan Government", "city": "Bunkyo Ward", "source_dataset": "Street Trees / 街路樹", "source_department": "Tokyo Metropolitan Government", "source_last_edit_at": ""}}, {"type": "Feature", "geometry": {"type": "Point", "coordinates": [139.72489080000008, 35.719908039943306]}, "properties": {"id": "bunkyo-ward-435-0-125719908-319724891", "species_group": "cherry", "scientific_name": "Prunus species", "common_name": "サクラ", "subtype_name": "サクラ", "zip_code": null, "ownership": "public", "ownership_raw": "Tokyo Metropolitan Government", "city": "Bunkyo Ward", "source_dataset": "Street Trees / 街路樹", "source_department": "Tokyo Metropolitan Government", "source_last_edit_at": ""}}, {"type": "Feature", "geometry": {"type": "Point", "coordinates": [139.75195150000008, 35.708816709943555]}, "properties": {"id": "bunkyo-ward-436-0-125708817-319751952", "species_group": "cherry", "scientific_name": "Prunus species", "common_name": "サクラ", "subtype_name": "サクラ", "zip_code": null, "ownership": "public", "ownership_raw": "Tokyo Metropolitan Government", "city": "Bunkyo Ward", "source_dataset": "Street Trees / 街路樹", "source_department": "Tokyo Metropolitan Government", "source_last_edit_at": ""}}, {"type": "Feature", "geometry": {"type": "Point", "coordinates": [139.75195660000014, 35.70886138994352]}, "properties": {"id": "bunkyo-ward-436-0-125708861-319751957", "species_group": "cherry", "scientific_name": "Prunus species", "common_name": "サクラ", "subtype_name": "サクラ", "zip_code": null, "ownership": "public", "ownership_raw": "Tokyo Metropolitan Government", "city": "Bunkyo Ward", "source_dataset": "Street Trees / 街路樹", "source_department": "Tokyo Metropolitan Government", "source_last_edit_at": ""}}, {"type": "Feature", "geometry": {"type": "Point", "coordinates": [139.75196420000015, 35.70895209994352]}, "properties": {"id": "bunkyo-ward-436-0-125708952-319751964", "species_group": "cherry", "scientific_name": "Prunus species", "common_name": "サクラ", "subtype_name": "サクラ", "zip_code": null, "ownership": "public", "ownership_raw": "Tokyo Metropolitan Government", "city": "Bunkyo Ward", "source_dataset": "Street Trees / 街路樹", "source_department": "Tokyo Metropolitan Government", "source_last_edit_at": ""}}, {"type": "Feature", "geometry": {"type": "Point", "coordinates": [139.75191580000018, 35.70978283994353]}, "properties": {"id": "bunkyo-ward-436-0-125709783-319751916", "species_group": "cherry", "scientific_name": "Prunus species", "common_name": "サクラ", "subtype_name": "サクラ", "zip_code": null, "ownership": "public", "ownership_raw": "Tokyo Metropolitan Government", "city": "Bunkyo Ward", "source_dataset": "Street Trees / 街路樹", "source_department": "Tokyo Metropolitan Government", "source_last_edit_at": ""}}, {"type": "Feature", "geometry": {"type": "Point", "coordinates": [139.75191720000015, 35.709814839943505]}, "properties": {"id": "bunkyo-ward-436-0-125709815-319751917", "species_group": "cherry", "scientific_name": "Prunus species", "common_name": "サクラ", "subtype_name": "サクラ", "zip_code": null, "ownership": "public", "ownership_raw": "Tokyo Metropolitan Government", "city": "Bunkyo Ward", "source_dataset": "Street Trees / 街路樹", "source_department": "Tokyo Metropolitan Government", "source_last_edit_at": ""}}, {"type": "Feature", "geometry": {"type": "Point", "coordinates": [139.75102640000017, 35.71286664994342]}, "properties": {"id": "bunkyo-ward-436-0-125712867-319751026", "species_group": "magnolia", "scientific_name": "Magnolia species", "common_name": "コブシ", "subtype_name": "コブシ", "zip_code": null, "ownership": "public", "ownership_raw": "Tokyo Metropolitan Government", "city": "Bunkyo Ward", "source_dataset": "Street Trees / 街路樹", "source_department": "Tokyo Metropolitan Government", "source_last_edit_at": ""}}, {"type": "Feature", "geometry": {"type": "Point", "coordinates": [139.75102040000007, 35.71288870994347]}, "properties": {"id": "bunkyo-ward-436-0-125712889-319751020", "species_group": "magnolia", "scientific_name": "Magnolia species", "common_name": "コブシ", "subtype_name": "コブシ", "zip_code": null, "ownership": "public", "ownership_raw": "Tokyo Metropolitan Government", "city": "Bunkyo Ward", "source_dataset": "Street Trees / 街路樹", "source_department": "Tokyo Metropolitan Government", "source_last_edit_at": ""}}, {"type": "Feature", "geometry": {"type": "Point", "coordinates": [139.75100520000007, 35.71294581994347]}, "properties": {"id": "bunkyo-ward-436-0-125712946-319751005", "species_group": "magnolia", "scientific_name": "Magnolia species", "common_name": "コブシ", "subtype_name": "コブシ", "zip_code": null, "ownership": "public", "ownership_raw": "Tokyo Metropolitan Government", "city": "Bunkyo Ward", "source_dataset": "Street Trees / 街路樹", "source_department": "Tokyo Metropolitan Government", "source_last_edit_at": ""}}, {"type": "Feature", "geometry": {"type": "Point", "coordinates": [139.75096810000008, 35.71298889994342]}, "properties": {"id": "bunkyo-ward-436-0-125712989-319750968", "species_group": "magnolia", "scientific_name": "Magnolia species", "common_name": "コブシ", "subtype_name": "コブシ", "zip_code": null, "ownership": "public", "ownership_raw": "Tokyo Metropolitan Government", "city": "Bunkyo Ward", "source_dataset": "Street Trees / 街路樹", "source_department": "Tokyo Metropolitan Government", "source_last_edit_at": ""}}, {"type": "Feature", "geometry": {"type": "Point", "coordinates": [139.74416460000015, 35.717226199943326]}, "properties": {"id": "bunkyo-ward-436-0-125717226-319744165", "species_group": "crabapple", "scientific_name": "Malus species", "common_name": "ハナカイドウ", "subtype_name": "ハナカイドウ", "zip_code": null, "ownership": "public", "ownership_raw": "Tokyo Metropolitan Government", "city": "Bunkyo Ward", "source_dataset": "Street Trees / 街路樹", "source_department": "Tokyo Metropolitan Government", "source_last_edit_at": ""}}, {"type": "Feature", "geometry": {"type": "Point", "coordinates": [139.7441886000001, 35.71723435994337]}, "properties": {"id": "bunkyo-ward-436-0-125717234-319744189", "species_group": "crabapple", "scientific_name": "Malus species", "common_name": "ハナカイドウ", "subtype_name": "ハナカイドウ", "zip_code": null, "ownership": "public", "ownership_raw": "Tokyo Metropolitan Government", "city": "Bunkyo Ward", "source_dataset": "Street Trees / 街路樹", "source_department": "Tokyo Metropolitan Government", "source_last_edit_at": ""}}, {"type": "Feature", "geometry": {"type": "Point", "coordinates": [139.7441478000001, 35.71723465994333]}, "properties": {"id": "bunkyo-ward-436-0-125717235-319744148", "species_group": "crabapple", "scientific_name": "Malus species", "common_name": "ハナカイドウ", "subtype_name": "ハナカイドウ", "zip_code": null, "ownership": "public", "ownership_raw": "Tokyo Metropolitan Government", "city": "Bunkyo Ward", "source_dataset": "Street Trees / 街路樹", "source_department": "Tokyo Metropolitan Government", "source_last_edit_at": ""}}, {"type": "Feature", "geometry": {"type": "Point", "coordinates": [139.74415570000014, 35.71730248994338]}, "properties": {"id": "bunkyo-ward-436-0-125717302-319744156", "species_group": "crabapple", "scientific_name": "Malus species", "common_name": "ハナカイドウ", "subtype_name": "ハナカイドウ", "zip_code": null, "ownership": "public", "ownership_raw": "Tokyo Metropolitan Government", "city": "Bunkyo Ward", "source_dataset": "Street Trees / 街路樹", "source_department": "Tokyo Metropolitan Government", "source_last_edit_at": ""}}, {"type": "Feature", "geometry": {"type": "Point", "coordinates": [139.74416520000017, 35.71730735994336]}, "properties": {"id": "bunkyo-ward-436-0-125717307-319744165", "species_group": "crabapple", "scientific_name": "Malus species", "common_name": "ハナカイドウ", "subtype_name": "ハナカイドウ", "zip_code": null, "ownership": "public", "ownership_raw": "Tokyo Metropolitan Government", "city": "Bunkyo Ward", "source_dataset": "Street Trees / 街路樹", "source_department": "Tokyo Metropolitan Government", "source_last_edit_at": ""}}, {"type": "Feature", "geometry": {"type": "Point", "coordinates": [139.74414870000012, 35.71730779994338]}, "properties": {"id": "bunkyo-ward-436-0-125717308-319744149", "species_group": "crabapple", "scientific_name": "Malus species", "common_name": "ハナカイドウ", "subtype_name": "ハナカイドウ", "zip_code": null, "ownership": "public", "ownership_raw": "Tokyo Metropolitan Government", "city": "Bunkyo Ward", "source_dataset": "Street Trees / 街路樹", "source_department": "Tokyo Metropolitan Government", "source_last_edit_at": ""}}, {"type": "Feature", "geometry": {"type": "Point", "coordinates": [139.74413610000016, 35.71740175994333]}, "properties": {"id": "bunkyo-ward-436-0-125717402-319744136", "species_group": "cherry", "scientific_name": "Prunus species", "common_name": "サクラ", "subtype_name": "サクラ", "zip_code": null, "ownership": "public", "ownership_raw": "Tokyo Metropolitan Government", "city": "Bunkyo Ward", "source_dataset": "Street Trees / 街路樹", "source_department": "Tokyo Metropolitan Government", "source_last_edit_at": ""}}, {"type": "Feature", "geometry": {"type": "Point", "coordinates": [139.74383600000016, 35.71800864994334]}, "properties": {"id": "bunkyo-ward-436-0-125718009-319743836", "species_group": "magnolia", "scientific_name": "Magnolia species", "common_name": "コブシ", "subtype_name": "コブシ", "zip_code": null, "ownership": "public", "ownership_raw": "Tokyo Metropolitan Government", "city": "Bunkyo Ward", "source_dataset": "Street Trees / 街路樹", "source_department": "Tokyo Metropolitan Government", "source_last_edit_at": ""}}, {"type": "Feature", "geometry": {"type": "Point", "coordinates": [139.7434362000001, 35.71830788994334]}, "properties": {"id": "bunkyo-ward-436-0-125718308-319743436", "species_group": "crabapple", "scientific_name": "Malus species", "common_name": "ヒメリンゴ", "subtype_name": "ヒメリンゴ", "zip_code": null, "ownership": "public", "ownership_raw": "Tokyo Metropolitan Government", "city": "Bunkyo Ward", "source_dataset": "Street Trees / 街路樹", "source_department": "Tokyo Metropolitan Government", "source_last_edit_at": ""}}, {"type": "Feature", "geometry": {"type": "Point", "coordinates": [139.72137740000014, 35.7181539299433]}, "properties": {"id": "bunkyo-ward-437-0-125718154-319721377", "species_group": "cherry", "scientific_name": "Prunus species", "common_name": "サクラ", "subtype_name": "サクラ", "zip_code": null, "ownership": "public", "ownership_raw": "Tokyo Metropolitan Government", "city": "Bunkyo Ward", "source_dataset": "Street Trees / 街路樹", "source_department": "Tokyo Metropolitan Government", "source_last_edit_at": ""}}, {"type": "Feature", "geometry": {"type": "Point", "coordinates": [139.72812710000014, 35.72038380994327]}, "properties": {"id": "bunkyo-ward-437-0-125720384-319728127", "species_group": "cherry", "scientific_name": "Prunus species", "common_name": "サクラ", "subtype_name": "サクラ", "zip_code": null, "ownership": "public", "ownership_raw": "Tokyo Metropolitan Government", "city": "Bunkyo Ward", "source_dataset": "Street Trees / 街路樹", "source_department": "Tokyo Metropolitan Government", "source_last_edit_at": ""}}, {"type": "Feature", "geometry": {"type": "Point", "coordinates": [139.72941750000012, 35.72083369994329]}, "properties": {"id": "bunkyo-ward-437-0-125720834-319729418", "species_group": "cherry", "scientific_name": "Prunus species", "common_name": "サクラ", "subtype_name": "サクラ", "zip_code": null, "ownership": "public", "ownership_raw": "Tokyo Metropolitan Government", "city": "Bunkyo Ward", "source_dataset": "Street Trees / 街路樹", "source_department": "Tokyo Metropolitan Government", "source_last_edit_at": ""}}, {"type": "Feature", "geometry": {"type": "Point", "coordinates": [139.73677110000014, 35.72285072994324]}, "properties": {"id": "bunkyo-ward-437-0-125722851-319736771", "species_group": "magnolia", "scientific_name": "Magnolia species", "common_name": "コブシ", "subtype_name": "コブシ", "zip_code": null, "ownership": "public", "ownership_raw": "Tokyo Metropolitan Government", "city": "Bunkyo Ward", "source_dataset": "Street Trees / 街路樹", "source_department": "Tokyo Metropolitan Government", "source_last_edit_at": ""}}, {"type": "Feature", "geometry": {"type": "Point", "coordinates": [139.74699560000016, 35.73054673994308]}, "properties": {"id": "bunkyo-ward-437-0-125730547-319746996", "species_group": "magnolia", "scientific_name": "Magnolia species", "common_name": "コブシ", "subtype_name": "コブシ", "zip_code": null, "ownership": "public", "ownership_raw": "Tokyo Metropolitan Government", "city": "Bunkyo Ward", "source_dataset": "Street Trees / 街路樹", "source_department": "Tokyo Metropolitan Government", "source_last_edit_at": ""}}, {"type": "Feature", "geometry": {"type": "Point", "coordinates": [139.74703390000008, 35.730554879943064]}, "properties": {"id": "bunkyo-ward-437-0-125730555-319747034", "species_group": "plum", "scientific_name": "Prunus species", "common_name": "ウメ", "subtype_name": "ウメ", "zip_code": null, "ownership": "public", "ownership_raw": "Tokyo Metropolitan Government", "city": "Bunkyo Ward", "source_dataset": "Street Trees / 街路樹", "source_department": "Tokyo Metropolitan Government", "source_last_edit_at": ""}}, {"type": "Feature", "geometry": {"type": "Point", "coordinates": [139.7470474000001, 35.73056379994304]}, "properties": {"id": "bunkyo-ward-437-0-125730564-319747047", "species_group": "plum", "scientific_name": "Prunus species", "common_name": "ウメ", "subtype_name": "ウメ", "zip_code": null, "ownership": "public", "ownership_raw": "Tokyo Metropolitan Government", "city": "Bunkyo Ward", "source_dataset": "Street Trees / 街路樹", "source_department": "Tokyo Metropolitan Government", "source_last_edit_at": ""}}, {"type": "Feature", "geometry": {"type": "Point", "coordinates": [139.74706200000008, 35.73056885994307]}, "properties": {"id": "bunkyo-ward-437-0-125730569-319747062", "species_group": "magnolia", "scientific_name": "Magnolia species", "common_name": "コブシ", "subtype_name": "コブシ", "zip_code": null, "ownership": "public", "ownership_raw": "Tokyo Metropolitan Government", "city": "Bunkyo Ward", "source_dataset": "Street Trees / 街路樹", "source_department": "Tokyo Metropolitan Government", "source_last_edit_at": ""}}, {"type": "Feature", "geometry": {"type": "Point", "coordinates": [139.75972680000012, 35.731423039943024]}, "properties": {"id": "bunkyo-ward-437-0-125731423-319759727", "species_group": "crabapple", "scientific_name": "Malus species", "common_name": "ヒメリンゴ", "subtype_name": "ヒメリンゴ", "zip_code": null, "ownership": "public", "ownership_raw": "Tokyo Metropolitan Government", "city": "Bunkyo Ward", "source_dataset": "Street Trees / 街路樹", "source_department": "Tokyo Metropolitan Government", "source_last_edit_at": ""}}, {"type": "Feature", "geometry": {"type": "Point", "coordinates": [139.7581585000001, 35.73236544994299]}, "properties": {"id": "bunkyo-ward-437-0-125732365-319758159", "species_group": "cherry", "scientific_name": "Prunus species", "common_name": "サクラ", "subtype_name": "サクラ", "zip_code": null, "ownership": "public", "ownership_raw": "Tokyo Metropolitan Government", "city": "Bunkyo Ward", "source_dataset": "Street Trees / 街路樹", "source_department": "Tokyo Metropolitan Government", "source_last_edit_at": ""}}, {"type": "Feature", "geometry": {"type": "Point", "coordinates": [139.75804750000015, 35.73243206994304]}, "properties": {"id": "bunkyo-ward-437-0-125732432-319758048", "species_group": "crabapple", "scientific_name": "Malus species", "common_name": "ヒメリンゴ", "subtype_name": "ヒメリンゴ", "zip_code": null, "ownership": "public", "ownership_raw": "Tokyo Metropolitan Government", "city": "Bunkyo Ward", "source_dataset": "Street Trees / 街路樹", "source_department": "Tokyo Metropolitan Government", "source_last_edit_at": ""}}, {"type": "Feature", "geometry": {"type": "Point", "coordinates": [139.75773120000014, 35.732617649943016]}, "properties": {"id": "bunkyo-ward-437-0-125732618-319757731", "species_group": "crabapple", "scientific_name": "Malus species", "common_name": "ヒメリンゴ", "subtype_name": "ヒメリンゴ", "zip_code": null, "ownership": "public", "ownership_raw": "Tokyo Metropolitan Government", "city": "Bunkyo Ward", "source_dataset": "Street Trees / 街路樹", "source_department": "Tokyo Metropolitan Government", "source_last_edit_at": ""}}, {"type": "Feature", "geometry": {"type": "Point", "coordinates": [139.75771780000008, 35.732626859943]}, "properties": {"id": "bunkyo-ward-437-0-125732627-319757718", "species_group": "crabapple", "scientific_name": "Malus species", "common_name": "ヒメリンゴ", "subtype_name": "ヒメリンゴ", "zip_code": null, "ownership": "public", "ownership_raw": "Tokyo Metropolitan Government", "city": "Bunkyo Ward", "source_dataset": "Street Trees / 街路樹", "source_department": "Tokyo Metropolitan Government", "source_last_edit_at": ""}}, {"type": "Feature", "geometry": {"type": "Point", "coordinates": [139.75727320000016, 35.73288771994301]}, "properties": {"id": "bunkyo-ward-437-0-125732888-319757273", "species_group": "cherry", "scientific_name": "Prunus species", "common_name": "サクラ", "subtype_name": "サクラ", "zip_code": null, "ownership": "public", "ownership_raw": "Tokyo Metropolitan Government", "city": "Bunkyo Ward", "source_dataset": "Street Trees / 街路樹", "source_department": "Tokyo Metropolitan Government", "source_last_edit_at": ""}}, {"type": "Feature", "geometry": {"type": "Point", "coordinates": [139.75654600000013, 35.733317769942985]}, "properties": {"id": "bunkyo-ward-437-0-125733318-319756546", "species_group": "crabapple", "scientific_name": "Malus species", "common_name": "ヒメリンゴ", "subtype_name": "ヒメリンゴ", "zip_code": null, "ownership": "public", "ownership_raw": "Tokyo Metropolitan Government", "city": "Bunkyo Ward", "source_dataset": "Street Trees / 街路樹", "source_department": "Tokyo Metropolitan Government", "source_last_edit_at": ""}}, {"type": "Feature", "geometry": {"type": "Point", "coordinates": [139.7637392000001, 35.724718719943176]}, "properties": {"id": "bunkyo-ward-452-0-125724719-319763739", "species_group": "cherry", "scientific_name": "Prunus species", "common_name": "サクラ", "subtype_name": "サクラ", "zip_code": null, "ownership": "public", "ownership_raw": "Tokyo Metropolitan Government", "city": "Bunkyo Ward", "source_dataset": "Street Trees / 街路樹", "source_department": "Tokyo Metropolitan Government", "source_last_edit_at": ""}}, {"type": "Feature", "geometry": {"type": "Point", "coordinates": [139.76351950000006, 35.72476346994316]}, "properties": {"id": "bunkyo-ward-452-0-125724763-319763520", "species_group": "peach", "scientific_name": "Prunus species", "common_name": "ハナモモ", "subtype_name": "ハナモモ", "zip_code": null, "ownership": "public", "ownership_raw": "Tokyo Metropolitan Government", "city": "Bunkyo Ward", "source_dataset": "Street Trees / 街路樹", "source_department": "Tokyo Metropolitan Government", "source_last_edit_at": ""}}, {"type": "Feature", "geometry": {"type": "Point", "coordinates": [139.76353280000018, 35.72476341994318]}, "properties": {"id": "bunkyo-ward-452-0-125724763-319763533", "species_group": "plum", "scientific_name": "Prunus species", "common_name": "ウメ", "subtype_name": "ウメ", "zip_code": null, "ownership": "public", "ownership_raw": "Tokyo Metropolitan Government", "city": "Bunkyo Ward", "source_dataset": "Street Trees / 街路樹", "source_department": "Tokyo Metropolitan Government", "source_last_edit_at": ""}}, {"type": "Feature", "geometry": {"type": "Point", "coordinates": [139.76334920000016, 35.72479453994319]}, "properties": {"id": "bunkyo-ward-452-0-125724795-319763349", "species_group": "plum", "scientific_name": "Prunus species", "common_name": "ウメ", "subtype_name": "ウメ", "zip_code": null, "ownership": "public", "ownership_raw": "Tokyo Metropolitan Government", "city": "Bunkyo Ward", "source_dataset": "Street Trees / 街路樹", "source_department": "Tokyo Metropolitan Government", "source_last_edit_at": ""}}, {"type": "Feature", "geometry": {"type": "Point", "coordinates": [139.77125570000015, 35.70808170994354]}, "properties": {"id": "bunkyo-ward-453-0-125708082-319771256", "species_group": "peach", "scientific_name": "Prunus species", "common_name": "ハナモモ", "subtype_name": "ハナモモ", "zip_code": null, "ownership": "public", "ownership_raw": "Tokyo Metropolitan Government", "city": "Bunkyo Ward", "source_dataset": "Street Trees / 街路樹", "source_department": "Tokyo Metropolitan Government", "source_last_edit_at": ""}}, {"type": "Feature", "geometry": {"type": "Point", "coordinates": [139.77110440000007, 35.70809293994352]}, "properties": {"id": "bunkyo-ward-453-0-125708093-319771104", "species_group": "peach", "scientific_name": "Prunus species", "common_name": "ハナモモ", "subtype_name": "ハナモモ", "zip_code": null, "ownership": "public", "ownership_raw": "Tokyo Metropolitan Government", "city": "Bunkyo Ward", "source_dataset": "Street Trees / 街路樹", "source_department": "Tokyo Metropolitan Government", "source_last_edit_at": ""}}, {"type": "Feature", "geometry": {"type": "Point", "coordinates": [139.77100160000015, 35.70809438994355]}, "properties": {"id": "bunkyo-ward-453-0-125708094-319771002", "species_group": "peach", "scientific_name": "Prunus species", "common_name": "ハナモモ", "subtype_name": "ハナモモ", "zip_code": null, "ownership": "public", "ownership_raw": "Tokyo Metropolitan Government", "city": "Bunkyo Ward", "source_dataset": "Street Trees / 街路樹", "source_department": "Tokyo Metropolitan Government", "source_last_edit_at": ""}}, {"type": "Feature", "geometry": {"type": "Point", "coordinates": [139.77080520000007, 35.70810384994354]}, "properties": {"id": "bunkyo-ward-453-0-125708104-319770805", "species_group": "peach", "scientific_name": "Prunus species", "common_name": "ハナモモ", "subtype_name": "ハナモモ", "zip_code": null, "ownership": "public", "ownership_raw": "Tokyo Metropolitan Government", "city": "Bunkyo Ward", "source_dataset": "Street Trees / 街路樹", "source_department": "Tokyo Metropolitan Government", "source_last_edit_at": ""}}, {"type": "Feature", "geometry": {"type": "Point", "coordinates": [139.7709213000001, 35.708111809943546]}, "properties": {"id": "bunkyo-ward-453-0-125708112-319770921", "species_group": "peach", "scientific_name": "Prunus species", "common_name": "ハナモモ", "subtype_name": "ハナモモ", "zip_code": null, "ownership": "public", "ownership_raw": "Tokyo Metropolitan Government", "city": "Bunkyo Ward", "source_dataset": "Street Trees / 街路樹", "source_department": "Tokyo Metropolitan Government", "source_last_edit_at": ""}}, {"type": "Feature", "geometry": {"type": "Point", "coordinates": [139.77063470000013, 35.708124459943576]}, "properties": {"id": "bunkyo-ward-453-0-125708124-319770635", "species_group": "peach", "scientific_name": "Prunus species", "common_name": "ハナモモ", "subtype_name": "ハナモモ", "zip_code": null, "ownership": "public", "ownership_raw": "Tokyo Metropolitan Government", "city": "Bunkyo Ward", "source_dataset": "Street Trees / 街路樹", "source_department": "Tokyo Metropolitan Government", "source_last_edit_at": ""}}, {"type": "Feature", "geometry": {"type": "Point", "coordinates": [139.77054200000015, 35.70813284994353]}, "properties": {"id": "bunkyo-ward-453-0-125708133-319770542", "species_group": "peach", "scientific_name": "Prunus species", "common_name": "ハナモモ", "subtype_name": "ハナモモ", "zip_code": null, "ownership": "public", "ownership_raw": "Tokyo Metropolitan Government", "city": "Bunkyo Ward", "source_dataset": "Street Trees / 街路樹", "source_department": "Tokyo Metropolitan Government", "source_last_edit_at": ""}}, {"type": "Feature", "geometry": {"type": "Point", "coordinates": [139.77046660000013, 35.70814707994355]}, "properties": {"id": "bunkyo-ward-453-0-125708147-319770467", "species_group": "peach", "scientific_name": "Prunus species", "common_name": "ハナモモ", "subtype_name": "ハナモモ", "zip_code": null, "ownership": "public", "ownership_raw": "Tokyo Metropolitan Government", "city": "Bunkyo Ward", "source_dataset": "Street Trees / 街路樹", "source_department": "Tokyo Metropolitan Government", "source_last_edit_at": ""}}, {"type": "Feature", "geometry": {"type": "Point", "coordinates": [139.77014090000017, 35.708151809943566]}, "properties": {"id": "bunkyo-ward-453-0-125708152-319770141", "species_group": "peach", "scientific_name": "Prunus species", "common_name": "ハナモモ", "subtype_name": "ハナモモ", "zip_code": null, "ownership": "public", "ownership_raw": "Tokyo Metropolitan Government", "city": "Bunkyo Ward", "source_dataset": "Street Trees / 街路樹", "source_department": "Tokyo Metropolitan Government", "source_last_edit_at": ""}}, {"type": "Feature", "geometry": {"type": "Point", "coordinates": [139.77222450000016, 35.70815979994352]}, "properties": {"id": "bunkyo-ward-453-0-125708160-319772225", "species_group": "peach", "scientific_name": "Prunus species", "common_name": "ハナモモ", "subtype_name": "ハナモモ", "zip_code": null, "ownership": "public", "ownership_raw": "Tokyo Metropolitan Government", "city": "Bunkyo Ward", "source_dataset": "Street Trees / 街路樹", "source_department": "Tokyo Metropolitan Government", "source_last_edit_at": ""}}, {"type": "Feature", "geometry": {"type": "Point", "coordinates": [139.76965390000015, 35.70820934994356]}, "properties": {"id": "bunkyo-ward-453-0-125708209-319769654", "species_group": "peach", "scientific_name": "Prunus species", "common_name": "ハナモモ", "subtype_name": "ハナモモ", "zip_code": null, "ownership": "public", "ownership_raw": "Tokyo Metropolitan Government", "city": "Bunkyo Ward", "source_dataset": "Street Trees / 街路樹", "source_department": "Tokyo Metropolitan Government", "source_last_edit_at": ""}}, {"type": "Feature", "geometry": {"type": "Point", "coordinates": [139.76950590000007, 35.70822339994356]}, "properties": {"id": "bunkyo-ward-453-0-125708223-319769506", "species_group": "peach", "scientific_name": "Prunus species", "common_name": "ハナモモ", "subtype_name": "ハナモモ", "zip_code": null, "ownership": "public", "ownership_raw": "Tokyo Metropolitan Government", "city": "Bunkyo Ward", "source_dataset": "Street Trees / 街路樹", "source_department": "Tokyo Metropolitan Government", "source_last_edit_at": ""}}, {"type": "Feature", "geometry": {"type": "Point", "coordinates": [139.77134770000015, 35.708229209943575]}, "properties": {"id": "bunkyo-ward-453-0-125708229-319771348", "species_group": "peach", "scientific_name": "Prunus species", "common_name": "ハナモモ", "subtype_name": "ハナモモ", "zip_code": null, "ownership": "public", "ownership_raw": "Tokyo Metropolitan Government", "city": "Bunkyo Ward", "source_dataset": "Street Trees / 街路樹", "source_department": "Tokyo Metropolitan Government", "source_last_edit_at": ""}}, {"type": "Feature", "geometry": {"type": "Point", "coordinates": [139.76935830000008, 35.708235359943565]}, "properties": {"id": "bunkyo-ward-453-0-125708235-319769358", "species_group": "peach", "scientific_name": "Prunus species", "common_name": "ハナモモ", "subtype_name": "ハナモモ", "zip_code": null, "ownership": "public", "ownership_raw": "Tokyo Metropolitan Government", "city": "Bunkyo Ward", "source_dataset": "Street Trees / 街路樹", "source_department": "Tokyo Metropolitan Government", "source_last_edit_at": ""}}, {"type": "Feature", "geometry": {"type": "Point", "coordinates": [139.77069880000016, 35.708283659943575]}, "properties": {"id": "bunkyo-ward-453-0-125708284-319770699", "species_group": "peach", "scientific_name": "Prunus species", "common_name": "ハナモモ", "subtype_name": "ハナモモ", "zip_code": null, "ownership": "public", "ownership_raw": "Tokyo Metropolitan Government", "city": "Bunkyo Ward", "source_dataset": "Street Trees / 街路樹", "source_department": "Tokyo Metropolitan Government", "source_last_edit_at": ""}}, {"type": "Feature", "geometry": {"type": "Point", "coordinates": [139.77061750000013, 35.70829588994354]}, "properties": {"id": "bunkyo-ward-453-0-125708296-319770618", "species_group": "peach", "scientific_name": "Prunus species", "common_name": "ハナモモ", "subtype_name": "ハナモモ", "zip_code": null, "ownership": "public", "ownership_raw": "Tokyo Metropolitan Government", "city": "Bunkyo Ward", "source_dataset": "Street Trees / 街路樹", "source_department": "Tokyo Metropolitan Government", "source_last_edit_at": ""}}, {"type": "Feature", "geometry": {"type": "Point", "coordinates": [139.7705077000001, 35.70830896994357]}, "properties": {"id": "bunkyo-ward-453-0-125708309-319770508", "species_group": "peach", "scientific_name": "Prunus species", "common_name": "ハナモモ", "subtype_name": "ハナモモ", "zip_code": null, "ownership": "public", "ownership_raw": "Tokyo Metropolitan Government", "city": "Bunkyo Ward", "source_dataset": "Street Trees / 街路樹", "source_department": "Tokyo Metropolitan Government", "source_last_edit_at": ""}}, {"type": "Feature", "geometry": {"type": "Point", "coordinates": [139.7702093000001, 35.708330109943574]}, "properties": {"id": "bunkyo-ward-453-0-125708330-319770209", "species_group": "peach", "scientific_name": "Prunus species", "common_name": "ハナモモ", "subtype_name": "ハナモモ", "zip_code": null, "ownership": "public", "ownership_raw": "Tokyo Metropolitan Government", "city": "Bunkyo Ward", "source_dataset": "Street Trees / 街路樹", "source_department": "Tokyo Metropolitan Government", "source_last_edit_at": ""}}, {"type": "Feature", "geometry": {"type": "Point", "coordinates": [139.77008700000016, 35.70833949994358]}, "properties": {"id": "bunkyo-ward-453-0-125708339-319770087", "species_group": "peach", "scientific_name": "Prunus species", "common_name": "ハナモモ", "subtype_name": "ハナモモ", "zip_code": null, "ownership": "public", "ownership_raw": "Tokyo Metropolitan Government", "city": "Bunkyo Ward", "source_dataset": "Street Trees / 街路樹", "source_department": "Tokyo Metropolitan Government", "source_last_edit_at": ""}}, {"type": "Feature", "geometry": {"type": "Point", "coordinates": [139.76825220000018, 35.70835919994358]}, "properties": {"id": "bunkyo-ward-453-0-125708359-319768252", "species_group": "cherry", "scientific_name": "Prunus species", "common_name": "サクラ", "subtype_name": "サクラ", "zip_code": null, "ownership": "public", "ownership_raw": "Tokyo Metropolitan Government", "city": "Bunkyo Ward", "source_dataset": "Street Trees / 街路樹", "source_department": "Tokyo Metropolitan Government", "source_last_edit_at": ""}}, {"type": "Feature", "geometry": {"type": "Point", "coordinates": [139.7696732000001, 35.70836241994356]}, "properties": {"id": "bunkyo-ward-453-0-125708362-319769673", "species_group": "peach", "scientific_name": "Prunus species", "common_name": "ハナモモ", "subtype_name": "ハナモモ", "zip_code": null, "ownership": "public", "ownership_raw": "Tokyo Metropolitan Government", "city": "Bunkyo Ward", "source_dataset": "Street Trees / 街路樹", "source_department": "Tokyo Metropolitan Government", "source_last_edit_at": ""}}, {"type": "Feature", "geometry": {"type": "Point", "coordinates": [139.7683093000001, 35.708364239943535]}, "properties": {"id": "bunkyo-ward-453-0-125708364-319768309", "species_group": "cherry", "scientific_name": "Prunus species", "common_name": "サクラ", "subtype_name": "サクラ", "zip_code": null, "ownership": "public", "ownership_raw": "Tokyo Metropolitan Government", "city": "Bunkyo Ward", "source_dataset": "Street Trees / 街路樹", "source_department": "Tokyo Metropolitan Government", "source_last_edit_at": ""}}, {"type": "Feature", "geometry": {"type": "Point", "coordinates": [139.76946890000016, 35.708375069943536]}, "properties": {"id": "bunkyo-ward-453-0-125708375-319769469", "species_group": "peach", "scientific_name": "Prunus species", "common_name": "ハナモモ", "subtype_name": "ハナモモ", "zip_code": null, "ownership": "public", "ownership_raw": "Tokyo Metropolitan Government", "city": "Bunkyo Ward", "source_dataset": "Street Trees / 街路樹", "source_department": "Tokyo Metropolitan Government", "source_last_edit_at": ""}}, {"type": "Feature", "geometry": {"type": "Point", "coordinates": [139.76835690000013, 35.70837789994358]}, "properties": {"id": "bunkyo-ward-453-0-125708378-319768357", "species_group": "cherry", "scientific_name": "Prunus species", "common_name": "サクラ", "subtype_name": "サクラ", "zip_code": null, "ownership": "public", "ownership_raw": "Tokyo Metropolitan Government", "city": "Bunkyo Ward", "source_dataset": "Street Trees / 街路樹", "source_department": "Tokyo Metropolitan Government", "source_last_edit_at": ""}}, {"type": "Feature", "geometry": {"type": "Point", "coordinates": [139.76928490000017, 35.70838789994354]}, "properties": {"id": "bunkyo-ward-453-0-125708388-319769285", "species_group": "peach", "scientific_name": "Prunus species", "common_name": "ハナモモ", "subtype_name": "ハナモモ", "zip_code": null, "ownership": "public", "ownership_raw": "Tokyo Metropolitan Government", "city": "Bunkyo Ward", "source_dataset": "Street Trees / 街路樹", "source_department": "Tokyo Metropolitan Government", "source_last_edit_at": ""}}, {"type": "Feature", "geometry": {"type": "Point", "coordinates": [139.76878290000008, 35.70848242994355]}, "properties": {"id": "bunkyo-ward-453-0-125708482-319768783", "species_group": "plum", "scientific_name": "Prunus species", "common_name": "ウメ", "subtype_name": "ウメ", "zip_code": null, "ownership": "public", "ownership_raw": "Tokyo Metropolitan Government", "city": "Bunkyo Ward", "source_dataset": "Street Trees / 街路樹", "source_department": "Tokyo Metropolitan Government", "source_last_edit_at": ""}}, {"type": "Feature", "geometry": {"type": "Point", "coordinates": [139.75850100000008, 35.71665734994336]}, "properties": {"id": "bunkyo-ward-455-0-125716657-319758501", "species_group": "cherry", "scientific_name": "Prunus species", "common_name": "サクラ", "subtype_name": "サクラ", "zip_code": null, "ownership": "public", "ownership_raw": "Tokyo Metropolitan Government", "city": "Bunkyo Ward", "source_dataset": "Street Trees / 街路樹", "source_department": "Tokyo Metropolitan Government", "source_last_edit_at": ""}}, {"type": "Feature", "geometry": {"type": "Point", "coordinates": [139.75848400000012, 35.716714329943365]}, "properties": {"id": "bunkyo-ward-455-0-125716714-319758484", "species_group": "cherry", "scientific_name": "Prunus species", "common_name": "サクラ", "subtype_name": "サクラ", "zip_code": null, "ownership": "public", "ownership_raw": "Tokyo Metropolitan Government", "city": "Bunkyo Ward", "source_dataset": "Street Trees / 街路樹", "source_department": "Tokyo Metropolitan Government", "source_last_edit_at": ""}}, {"type": "Feature", "geometry": {"type": "Point", "coordinates": [139.7584794000001, 35.716730539943384]}, "properties": {"id": "bunkyo-ward-455-0-125716731-319758479", "species_group": "cherry", "scientific_name": "Prunus species", "common_name": "サクラ", "subtype_name": "サクラ", "zip_code": null, "ownership": "public", "ownership_raw": "Tokyo Metropolitan Government", "city": "Bunkyo Ward", "source_dataset": "Street Trees / 街路樹", "source_department": "Tokyo Metropolitan Government", "source_last_edit_at": ""}}, {"type": "Feature", "geometry": {"type": "Point", "coordinates": [139.75846910000013, 35.716770579943365]}, "properties": {"id": "bunkyo-ward-455-0-125716771-319758469", "species_group": "cherry", "scientific_name": "Prunus species", "common_name": "サクラ", "subtype_name": "サクラ", "zip_code": null, "ownership": "public", "ownership_raw": "Tokyo Metropolitan Government", "city": "Bunkyo Ward", "source_dataset": "Street Trees / 街路樹", "source_department": "Tokyo Metropolitan Government", "source_last_edit_at": ""}}, {"type": "Feature", "geometry": {"type": "Point", "coordinates": [139.7584629000001, 35.71678694994334]}, "properties": {"id": "bunkyo-ward-455-0-125716787-319758463", "species_group": "cherry", "scientific_name": "Prunus species", "common_name": "サクラ", "subtype_name": "サクラ", "zip_code": null, "ownership": "public", "ownership_raw": "Tokyo Metropolitan Government", "city": "Bunkyo Ward", "source_dataset": "Street Trees / 街路樹", "source_department": "Tokyo Metropolitan Government", "source_last_edit_at": ""}}, {"type": "Feature", "geometry": {"type": "Point", "coordinates": [139.7582716000001, 35.71680708994334]}, "properties": {"id": "bunkyo-ward-455-0-125716807-319758272", "species_group": "cherry", "scientific_name": "Prunus species", "common_name": "サクラ", "subtype_name": "サクラ", "zip_code": null, "ownership": "public", "ownership_raw": "Tokyo Metropolitan Government", "city": "Bunkyo Ward", "source_dataset": "Street Trees / 街路樹", "source_department": "Tokyo Metropolitan Government", "source_last_edit_at": ""}}, {"type": "Feature", "geometry": {"type": "Point", "coordinates": [139.75749200000013, 35.71858037994332]}, "properties": {"id": "bunkyo-ward-455-0-125718580-319757492", "species_group": "cherry", "scientific_name": "Prunus species", "common_name": "サクラ", "subtype_name": "サクラ", "zip_code": null, "ownership": "public", "ownership_raw": "Tokyo Metropolitan Government", "city": "Bunkyo Ward", "source_dataset": "Street Trees / 街路樹", "source_department": "Tokyo Metropolitan Government", "source_last_edit_at": ""}}, {"type": "Feature", "geometry": {"type": "Point", "coordinates": [139.75736380000018, 35.7186710699433]}, "properties": {"id": "bunkyo-ward-455-0-125718671-319757364", "species_group": "cherry", "scientific_name": "Prunus species", "common_name": "サクラ", "subtype_name": "サクラ", "zip_code": null, "ownership": "public", "ownership_raw": "Tokyo Metropolitan Government", "city": "Bunkyo Ward", "source_dataset": "Street Trees / 街路樹", "source_department": "Tokyo Metropolitan Government", "source_last_edit_at": ""}}, {"type": "Feature", "geometry": {"type": "Point", "coordinates": [139.75732550000015, 35.71872501994335]}, "properties": {"id": "bunkyo-ward-455-0-125718725-319757326", "species_group": "cherry", "scientific_name": "Prunus species", "common_name": "サクラ", "subtype_name": "サクラ", "zip_code": null, "ownership": "public", "ownership_raw": "Tokyo Metropolitan Government", "city": "Bunkyo Ward", "source_dataset": "Street Trees / 街路樹", "source_department": "Tokyo Metropolitan Government", "source_last_edit_at": ""}}, {"type": "Feature", "geometry": {"type": "Point", "coordinates": [139.75650920000015, 35.72042121994328]}, "properties": {"id": "bunkyo-ward-455-0-125720421-319756509", "species_group": "magnolia", "scientific_name": "Magnolia species", "common_name": "コブシ", "subtype_name": "コブシ", "zip_code": null, "ownership": "public", "ownership_raw": "Tokyo Metropolitan Government", "city": "Bunkyo Ward", "source_dataset": "Street Trees / 街路樹", "source_department": "Tokyo Metropolitan Government", "source_last_edit_at": ""}}, {"type": "Feature", "geometry": {"type": "Point", "coordinates": [139.75660180000017, 35.7205123999433]}, "properties": {"id": "bunkyo-ward-455-0-125720512-319756602", "species_group": "plum", "scientific_name": "Prunus species", "common_name": "ウメ", "subtype_name": "ウメ", "zip_code": null, "ownership": "public", "ownership_raw": "Tokyo Metropolitan Government", "city": "Bunkyo Ward", "source_dataset": "Street Trees / 街路樹", "source_department": "Tokyo Metropolitan Government", "source_last_edit_at": ""}}, {"type": "Feature", "geometry": {"type": "Point", "coordinates": [139.7558645000001, 35.72051699994326]}, "properties": {"id": "bunkyo-ward-455-0-125720517-319755865", "species_group": "magnolia", "scientific_name": "Magnolia species", "common_name": "コブシ", "subtype_name": "コブシ", "zip_code": null, "ownership": "public", "ownership_raw": "Tokyo Metropolitan Government", "city": "Bunkyo Ward", "source_dataset": "Street Trees / 街路樹", "source_department": "Tokyo Metropolitan Government", "source_last_edit_at": ""}}, {"type": "Feature", "geometry": {"type": "Point", "coordinates": [139.75653440000013, 35.720516519943274]}, "properties": {"id": "bunkyo-ward-455-0-125720517-319756534", "species_group": "plum", "scientific_name": "Prunus species", "common_name": "ウメ", "subtype_name": "ウメ", "zip_code": null, "ownership": "public", "ownership_raw": "Tokyo Metropolitan Government", "city": "Bunkyo Ward", "source_dataset": "Street Trees / 街路樹", "source_department": "Tokyo Metropolitan Government", "source_last_edit_at": ""}}, {"type": "Feature", "geometry": {"type": "Point", "coordinates": [139.7563889000001, 35.720518869943255]}, "properties": {"id": "bunkyo-ward-455-0-125720519-319756389", "species_group": "magnolia", "scientific_name": "Magnolia species", "common_name": "コブシ", "subtype_name": "コブシ", "zip_code": null, "ownership": "public", "ownership_raw": "Tokyo Metropolitan Government", "city": "Bunkyo Ward", "source_dataset": "Street Trees / 街路樹", "source_department": "Tokyo Metropolitan Government", "source_last_edit_at": ""}}, {"type": "Feature", "geometry": {"type": "Point", "coordinates": [139.7563575000001, 35.72051987994327]}, "properties": {"id": "bunkyo-ward-455-0-125720520-319756358", "species_group": "magnolia", "scientific_name": "Magnolia species", "common_name": "コブシ", "subtype_name": "コブシ", "zip_code": null, "ownership": "public", "ownership_raw": "Tokyo Metropolitan Government", "city": "Bunkyo Ward", "source_dataset": "Street Trees / 街路樹", "source_department": "Tokyo Metropolitan Government", "source_last_edit_at": ""}}, {"type": "Feature", "geometry": {"type": "Point", "coordinates": [139.75585790000008, 35.72052907994329]}, "properties": {"id": "bunkyo-ward-455-0-125720529-319755858", "species_group": "magnolia", "scientific_name": "Magnolia species", "common_name": "コブシ", "subtype_name": "コブシ", "zip_code": null, "ownership": "public", "ownership_raw": "Tokyo Metropolitan Government", "city": "Bunkyo Ward", "source_dataset": "Street Trees / 街路樹", "source_department": "Tokyo Metropolitan Government", "source_last_edit_at": ""}}, {"type": "Feature", "geometry": {"type": "Point", "coordinates": [139.75581540000013, 35.72103730994325]}, "properties": {"id": "bunkyo-ward-455-0-125721037-319755815", "species_group": "cherry", "scientific_name": "Prunus species", "common_name": "サクラ", "subtype_name": "サクラ", "zip_code": null, "ownership": "public", "ownership_raw": "Tokyo Metropolitan Government", "city": "Bunkyo Ward", "source_dataset": "Street Trees / 街路樹", "source_department": "Tokyo Metropolitan Government", "source_last_edit_at": ""}}, {"type": "Feature", "geometry": {"type": "Point", "coordinates": [139.7557917000001, 35.721058899943266]}, "properties": {"id": "bunkyo-ward-455-0-125721059-319755792", "species_group": "cherry", "scientific_name": "Prunus species", "common_name": "サクラ", "subtype_name": "サクラ", "zip_code": null, "ownership": "public", "ownership_raw": "Tokyo Metropolitan Government", "city": "Bunkyo Ward", "source_dataset": "Street Trees / 街路樹", "source_department": "Tokyo Metropolitan Government", "source_last_edit_at": ""}}, {"type": "Feature", "geometry": {"type": "Point", "coordinates": [139.75577600000014, 35.72107906994325]}, "properties": {"id": "bunkyo-ward-455-0-125721079-319755776", "species_group": "cherry", "scientific_name": "Prunus species", "common_name": "サクラ", "subtype_name": "サクラ", "zip_code": null, "ownership": "public", "ownership_raw": "Tokyo Metropolitan Government", "city": "Bunkyo Ward", "source_dataset": "Street Trees / 街路樹", "source_department": "Tokyo Metropolitan Government", "source_last_edit_at": ""}}, {"type": "Feature", "geometry": {"type": "Point", "coordinates": [139.75500630000016, 35.721662869943245]}, "properties": {"id": "bunkyo-ward-455-0-125721663-319755006", "species_group": "cherry", "scientific_name": "Prunus species", "common_name": "サクラ", "subtype_name": "サクラ", "zip_code": null, "ownership": "public", "ownership_raw": "Tokyo Metropolitan Government", "city": "Bunkyo Ward", "source_dataset": "Street Trees / 街路樹", "source_department": "Tokyo Metropolitan Government", "source_last_edit_at": ""}}, {"type": "Feature", "geometry": {"type": "Point", "coordinates": [139.75498080000017, 35.72169871994327]}, "properties": {"id": "bunkyo-ward-455-0-125721699-319754981", "species_group": "cherry", "scientific_name": "Prunus species", "common_name": "サクラ", "subtype_name": "サクラ", "zip_code": null, "ownership": "public", "ownership_raw": "Tokyo Metropolitan Government", "city": "Bunkyo Ward", "source_dataset": "Street Trees / 街路樹", "source_department": "Tokyo Metropolitan Government", "source_last_edit_at": ""}}, {"type": "Feature", "geometry": {"type": "Point", "coordinates": [139.75492450000007, 35.721774339943224]}, "properties": {"id": "bunkyo-ward-455-0-125721774-319754925", "species_group": "cherry", "scientific_name": "Prunus species", "common_name": "サクラ", "subtype_name": "サクラ", "zip_code": null, "ownership": "public", "ownership_raw": "Tokyo Metropolitan Government", "city": "Bunkyo Ward", "source_dataset": "Street Trees / 街路樹", "source_department": "Tokyo Metropolitan Government", "source_last_edit_at": ""}}, {"type": "Feature", "geometry": {"type": "Point", "coordinates": [139.75482410000012, 35.72186637994324]}, "properties": {"id": "bunkyo-ward-455-0-125721866-319754824", "species_group": "cherry", "scientific_name": "Prunus species", "common_name": "サクラ", "subtype_name": "サクラ", "zip_code": null, "ownership": "public", "ownership_raw": "Tokyo Metropolitan Government", "city": "Bunkyo Ward", "source_dataset": "Street Trees / 街路樹", "source_department": "Tokyo Metropolitan Government", "source_last_edit_at": ""}}, {"type": "Feature", "geometry": {"type": "Point", "coordinates": [139.7536025000001, 35.72485808994319]}, "properties": {"id": "bunkyo-ward-455-0-125724858-319753603", "species_group": "cherry", "scientific_name": "Prunus species", "common_name": "サクラ", "subtype_name": "サクラ", "zip_code": null, "ownership": "public", "ownership_raw": "Tokyo Metropolitan Government", "city": "Bunkyo Ward", "source_dataset": "Street Trees / 街路樹", "source_department": "Tokyo Metropolitan Government", "source_last_edit_at": ""}}, {"type": "Feature", "geometry": {"type": "Point", "coordinates": [139.7534219000001, 35.72585419994318]}, "properties": {"id": "bunkyo-ward-455-0-125725854-319753422", "species_group": "plum", "scientific_name": "Prunus species", "common_name": "ウメ", "subtype_name": "ウメ", "zip_code": null, "ownership": "public", "ownership_raw": "Tokyo Metropolitan Government", "city": "Bunkyo Ward", "source_dataset": "Street Trees / 街路樹", "source_department": "Tokyo Metropolitan Government", "source_last_edit_at": ""}}, {"type": "Feature", "geometry": {"type": "Point", "coordinates": [139.7530222000001, 35.72682420994315]}, "properties": {"id": "bunkyo-ward-455-0-125726824-319753022", "species_group": "plum", "scientific_name": "Prunus species", "common_name": "ウメ", "subtype_name": "ウメ", "zip_code": null, "ownership": "public", "ownership_raw": "Tokyo Metropolitan Government", "city": "Bunkyo Ward", "source_dataset": "Street Trees / 街路樹", "source_department": "Tokyo Metropolitan Government", "source_last_edit_at": ""}}, {"type": "Feature", "geometry": {"type": "Point", "coordinates": [139.75269200000008, 35.72754474994312]}, "properties": {"id": "bunkyo-ward-455-0-125727545-319752692", "species_group": "cherry", "scientific_name": "Prunus species", "common_name": "サクラ", "subtype_name": "サクラ", "zip_code": null, "ownership": "public", "ownership_raw": "Tokyo Metropolitan Government", "city": "Bunkyo Ward", "source_dataset": "Street Trees / 街路樹", "source_department": "Tokyo Metropolitan Government", "source_last_edit_at": ""}}, {"type": "Feature", "geometry": {"type": "Point", "coordinates": [139.7523240000001, 35.72772431994313]}, "properties": {"id": "bunkyo-ward-455-0-125727724-319752324", "species_group": "crabapple", "scientific_name": "Malus species", "common_name": "ヒメリンゴ", "subtype_name": "ヒメリンゴ", "zip_code": null, "ownership": "public", "ownership_raw": "Tokyo Metropolitan Government", "city": "Bunkyo Ward", "source_dataset": "Street Trees / 街路樹", "source_department": "Tokyo Metropolitan Government", "source_last_edit_at": ""}}, {"type": "Feature", "geometry": {"type": "Point", "coordinates": [139.75097640000007, 35.73019395994308]}, "properties": {"id": "bunkyo-ward-455-0-125730194-319750976", "species_group": "magnolia", "scientific_name": "Magnolia species", "common_name": "コブシ", "subtype_name": "コブシ", "zip_code": null, "ownership": "public", "ownership_raw": "Tokyo Metropolitan Government", "city": "Bunkyo Ward", "source_dataset": "Street Trees / 街路樹", "source_department": "Tokyo Metropolitan Government", "source_last_edit_at": ""}}, {"type": "Feature", "geometry": {"type": "Point", "coordinates": [139.75091530000014, 35.73026490994309]}, "properties": {"id": "bunkyo-ward-455-0-125730265-319750915", "species_group": "cherry", "scientific_name": "Prunus species", "common_name": "サクラ", "subtype_name": "サクラ", "zip_code": null, "ownership": "public", "ownership_raw": "Tokyo Metropolitan Government", "city": "Bunkyo Ward", "source_dataset": "Street Trees / 街路樹", "source_department": "Tokyo Metropolitan Government", "source_last_edit_at": ""}}, {"type": "Feature", "geometry": {"type": "Point", "coordinates": [139.74959210000014, 35.73179187994304]}, "properties": {"id": "bunkyo-ward-455-0-125731792-319749592", "species_group": "cherry", "scientific_name": "Prunus species", "common_name": "サクラ", "subtype_name": "サクラ", "zip_code": null, "ownership": "public", "ownership_raw": "Tokyo Metropolitan Government", "city": "Bunkyo Ward", "source_dataset": "Street Trees / 街路樹", "source_department": "Tokyo Metropolitan Government", "source_last_edit_at": ""}}, {"type": "Feature", "geometry": {"type": "Point", "coordinates": [139.75502010000008, 35.72553118994314]}, "properties": {"id": "bunkyo-ward-458-0-125725531-319755020", "species_group": "cherry", "scientific_name": "Prunus species", "common_name": "サクラ", "subtype_name": "サクラ", "zip_code": null, "ownership": "public", "ownership_raw": "Tokyo Metropolitan Government", "city": "Bunkyo Ward", "source_dataset": "Street Trees / 街路樹", "source_department": "Tokyo Metropolitan Government", "source_last_edit_at": ""}}, {"type": "Feature", "geometry": {"type": "Point", "coordinates": [139.75506020000017, 35.725738079943156]}, "properties": {"id": "bunkyo-ward-458-0-125725738-319755060", "species_group": "magnolia", "scientific_name": "Magnolia species", "common_name": "コブシ", "subtype_name": "コブシ", "zip_code": null, "ownership": "public", "ownership_raw": "Tokyo Metropolitan Government", "city": "Bunkyo Ward", "source_dataset": "Street Trees / 街路樹", "source_department": "Tokyo Metropolitan Government", "source_last_edit_at": ""}}, {"type": "Feature", "geometry": {"type": "Point", "coordinates": [139.75673680000017, 35.72804658994314]}, "properties": {"id": "bunkyo-ward-458-0-125728047-319756737", "species_group": "cherry", "scientific_name": "Prunus species", "common_name": "サクラ", "subtype_name": "サクラ", "zip_code": null, "ownership": "public", "ownership_raw": "Tokyo Metropolitan Government", "city": "Bunkyo Ward", "source_dataset": "Street Trees / 街路樹", "source_department": "Tokyo Metropolitan Government", "source_last_edit_at": ""}}, {"type": "Feature", "geometry": {"type": "Point", "coordinates": [139.7565534000001, 35.72810446994312]}, "properties": {"id": "bunkyo-ward-458-0-125728104-319756553", "species_group": "plum", "scientific_name": "Prunus species", "common_name": "ウメ", "subtype_name": "ウメ", "zip_code": null, "ownership": "public", "ownership_raw": "Tokyo Metropolitan Government", "city": "Bunkyo Ward", "source_dataset": "Street Trees / 街路樹", "source_department": "Tokyo Metropolitan Government", "source_last_edit_at": ""}}, {"type": "Feature", "geometry": {"type": "Point", "coordinates": [139.7254663000002, 35.7098014299435]}, "properties": {"id": "bunkyo-ward-8-0-125709801-319725466", "species_group": "plum", "scientific_name": "Prunus species", "common_name": "ウメ", "subtype_name": "ウメ", "zip_code": null, "ownership": "public", "ownership_raw": "Tokyo Metropolitan Government", "city": "Bunkyo Ward", "source_dataset": "Street Trees / 街路樹", "source_department": "Tokyo Metropolitan Government", "source_last_edit_at": ""}}, {"type": "Feature", "geometry": {"type": "Point", "coordinates": [139.7254663000002, 35.7098014299435]}, "properties": {"id": "bunkyo-ward-8-0-125709801-319725466", "species_group": "plum", "scientific_name": "Prunus species", "common_name": "ウメ", "subtype_name": "ウメ", "zip_code": null, "ownership": "public", "ownership_raw": "Tokyo Metropolitan Government", "city": "Bunkyo Ward", "source_dataset": "Street Trees / 街路樹", "source_department": "Tokyo Metropolitan Government", "source_last_edit_at": ""}}, {"type": "Feature", "geometry": {"type": "Point", "coordinates": [139.73120910000017, 35.71094071994349]}, "properties": {"id": "bunkyo-ward-8-0-125710941-319731209", "species_group": "cherry", "scientific_name": "Prunus species", "common_name": "サクラ", "subtype_name": "サクラ", "zip_code": null, "ownership": "public", "ownership_raw": "Tokyo Metropolitan Government", "city": "Bunkyo Ward", "source_dataset": "Street Trees / 街路樹", "source_department": "Tokyo Metropolitan Government", "source_last_edit_at": ""}}, {"type": "Feature", "geometry": {"type": "Point", "coordinates": [139.73117720000013, 35.71095496994349]}, "properties": {"id": "bunkyo-ward-8-0-125710955-319731177", "species_group": "cherry", "scientific_name": "Prunus species", "common_name": "サクラ", "subtype_name": "サクラ", "zip_code": null, "ownership": "public", "ownership_raw": "Tokyo Metropolitan Government", "city": "Bunkyo Ward", "source_dataset": "Street Trees / 街路樹", "source_department": "Tokyo Metropolitan Government", "source_last_edit_at": ""}}, {"type": "Feature", "geometry": {"type": "Point", "coordinates": [139.73119460000015, 35.71097675994349]}, "properties": {"id": "bunkyo-ward-8-0-125710977-319731195", "species_group": "cherry", "scientific_name": "Prunus species", "common_name": "サクラ", "subtype_name": "サクラ", "zip_code": null, "ownership": "public", "ownership_raw": "Tokyo Metropolitan Government", "city": "Bunkyo Ward", "source_dataset": "Street Trees / 街路樹", "source_department": "Tokyo Metropolitan Government", "source_last_edit_at": ""}}, {"type": "Feature", "geometry": {"type": "Point", "coordinates": [139.73044480000019, 35.71223632994346]}, "properties": {"id": "bunkyo-ward-8-0-125712236-319730445", "species_group": "cherry", "scientific_name": "Prunus species", "common_name": "サクラ", "subtype_name": "サクラ", "zip_code": null, "ownership": "public", "ownership_raw": "Tokyo Metropolitan Government", "city": "Bunkyo Ward", "source_dataset": "Street Trees / 街路樹", "source_department": "Tokyo Metropolitan Government", "source_last_edit_at": ""}}, {"type": "Feature", "geometry": {"type": "Point", "coordinates": [139.73061810000007, 35.71240858994346]}, "properties": {"id": "bunkyo-ward-8-0-125712409-319730618", "species_group": "magnolia", "scientific_name": "Magnolia species", "common_name": "コブシ", "subtype_name": "コブシ", "zip_code": null, "ownership": "public", "ownership_raw": "Tokyo Metropolitan Government", "city": "Bunkyo Ward", "source_dataset": "Street Trees / 街路樹", "source_department": "Tokyo Metropolitan Government", "source_last_edit_at": ""}}, {"type": "Feature", "geometry": {"type": "Point", "coordinates": [139.7227152000001, 35.71560242994338]}, "properties": {"id": "bunkyo-ward-8-0-125715602-319722715", "species_group": "cherry", "scientific_name": "Prunus species", "common_name": "サクラ", "subtype_name": "サクラ", "zip_code": null, "ownership": "public", "ownership_raw": "Tokyo Metropolitan Government", "city": "Bunkyo Ward", "source_dataset": "Street Trees / 街路樹", "source_department": "Tokyo Metropolitan Government", "source_last_edit_at": ""}}, {"type": "Feature", "geometry": {"type": "Point", "coordinates": [139.72262050000012, 35.71561194994338]}, "properties": {"id": "bunkyo-ward-8-0-125715612-319722621", "species_group": "plum", "scientific_name": "Prunus species", "common_name": "ウメ", "subtype_name": "ウメ", "zip_code": null, "ownership": "public", "ownership_raw": "Tokyo Metropolitan Government", "city": "Bunkyo Ward", "source_dataset": "Street Trees / 街路樹", "source_department": "Tokyo Metropolitan Government", "source_last_edit_at": ""}}, {"type": "Feature", "geometry": {"type": "Point", "coordinates": [139.71892910000014, 35.71635981994336]}, "properties": {"id": "bunkyo-ward-8-0-125716360-319718929", "species_group": "cherry", "scientific_name": "Prunus species", "common_name": "サクラ", "subtype_name": "サクラ", "zip_code": null, "ownership": "public", "ownership_raw": "Tokyo Metropolitan Government", "city": "Bunkyo Ward", "source_dataset": "Street Trees / 街路樹", "source_department": "Tokyo Metropolitan Government", "source_last_edit_at": ""}}, {"type": "Feature", "geometry": {"type": "Point", "coordinates": [139.71891400000013, 35.71636242994337]}, "properties": {"id": "bunkyo-ward-8-0-125716362-319718914", "species_group": "cherry", "scientific_name": "Prunus species", "common_name": "サクラ", "subtype_name": "サクラ", "zip_code": null, "ownership": "public", "ownership_raw": "Tokyo Metropolitan Government", "city": "Bunkyo Ward", "source_dataset": "Street Trees / 街路樹", "source_department": "Tokyo Metropolitan Government", "source_last_edit_at": ""}}]}