{"type": "FeatureCollection", "features": [{"type": "Feature", "geometry": {"type": "Point", "coordinates": [-121.1773756, 44.28727699999999]}, "properties": {"id": "redmond-585904", "species_group": "crabapple", "scientific_name": "Malus", "common_name": "crabapple spp", "subtype_name": "crabapple spp", "zip_code": "97756", "ownership": "public", "ownership_raw": "Oregon Department of Forestry", "city": "Redmond", "source_dataset": "Tree Inventory", "source_department": "Oregon Department of Forestry", "source_last_edit_at": ""}}, {"type": "Feature", "geometry": {"type": "Point", "coordinates": [-121.18482510000001, 44.26632890000001]}, "properties": {"id": "redmond-585936", "species_group": "crabapple", "scientific_name": "Malus", "common_name": "crabapple spp", "subtype_name": "crabapple spp", "zip_code": "97756", "ownership": "public", "ownership_raw": "Oregon Department of Forestry", "city": "Redmond", "source_dataset": "Tree Inventory", "source_department": "Oregon Department of Forestry", "source_last_edit_at": ""}}, {"type": "Feature", "geometry": {"type": "Point", "coordinates": [-121.2038195, 44.24743142]}, "properties": {"id": "redmond-585997", "species_group": "crabapple", "scientific_name": "Malus", "common_name": "crabapple spp", "subtype_name": "crabapple spp", "zip_code": "97756", "ownership": "public", "ownership_raw": "Oregon Department of Forestry", "city": "Redmond", "source_dataset": "Tree Inventory", "source_department": "Oregon Department of Forestry", "source_last_edit_at": ""}}, {"type": "Feature", "geometry": {"type": "Point", "coordinates": [-121.18034660000001, 44.27927513000001]}, "properties": {"id": "redmond-586100", "species_group": "crabapple", "scientific_name": "Malus", "common_name": "crabapple spp", "subtype_name": "crabapple spp", "zip_code": "97756", "ownership": "public", "ownership_raw": "Oregon Department of Forestry", "city": "Redmond", "source_dataset": "Tree Inventory", "source_department": "Oregon Department of Forestry", "source_last_edit_at": ""}}, {"type": "Feature", "geometry": {"type": "Point", "coordinates": [-121.2035678, 44.24762989]}, "properties": {"id": "redmond-586215", "species_group": "crabapple", "scientific_name": "Malus", "common_name": "crabapple spp", "subtype_name": "crabapple spp", "zip_code": "97756", "ownership": "public", "ownership_raw": "Oregon Department of Forestry", "city": "Redmond", "source_dataset": "Tree Inventory", "source_department": "Oregon Department of Forestry", "source_last_edit_at": ""}}, {"type": "Feature", "geometry": {"type": "Point", "coordinates": [-121.20356769999998, 44.24760000999999]}, "properties": {"id": "redmond-586216", "species_group": "crabapple", "scientific_name": "Malus", "common_name": "crabapple spp", "subtype_name": "crabapple spp", "zip_code": "97756", "ownership": "public", "ownership_raw": "Oregon Department of Forestry", "city": "Redmond", "source_dataset": "Tree Inventory", "source_department": "Oregon Department of Forestry", "source_last_edit_at": ""}}, {"type": "Feature", "geometry": {"type": "Point", "coordinates": [-121.20340430000002, 44.24753412999997]}, "properties": {"id": "redmond-586220", "species_group": "crabapple", "scientific_name": "Malus", "common_name": "crabapple spp", "subtype_name": "crabapple spp", "zip_code": "97756", "ownership": "public", "ownership_raw": "Oregon Department of Forestry", "city": "Redmond", "source_dataset": "Tree Inventory", "source_department": "Oregon Department of Forestry", "source_last_edit_at": ""}}, {"type": "Feature", "geometry": {"type": "Point", "coordinates": [-121.2033118, 44.247520789999996]}, "properties": {"id": "redmond-586221", "species_group": "crabapple", "scientific_name": "Malus", "common_name": "crabapple spp", "subtype_name": "crabapple spp", "zip_code": "97756", "ownership": "public", "ownership_raw": "Oregon Department of Forestry", "city": "Redmond", "source_dataset": "Tree Inventory", "source_department": "Oregon Department of Forestry", "source_last_edit_at": ""}}, {"type": "Feature", "geometry": {"type": "Point", "coordinates": [-121.2032545, 44.247483429999996]}, "properties": {"id": "redmond-586222", "species_group": "crabapple", "scientific_name": "Malus", "common_name": "crabapple spp", "subtype_name": "crabapple spp", "zip_code": "97756", "ownership": "public", "ownership_raw": "Oregon Department of Forestry", "city": "Redmond", "source_dataset": "Tree Inventory", "source_department": "Oregon Department of Forestry", "source_last_edit_at": ""}}, {"type": "Feature", "geometry": {"type": "Point", "coordinates": [-121.1890822, 44.26987732999999]}, "properties": {"id": "redmond-586345", "species_group": "crabapple", "scientific_name": "Malus", "common_name": "crabapple spp", "subtype_name": "crabapple spp", "zip_code": "97756", "ownership": "public", "ownership_raw": "Oregon Department of Forestry", "city": "Redmond", "source_dataset": "Tree Inventory", "source_department": "Oregon Department of Forestry", "source_last_edit_at": ""}}, {"type": "Feature", "geometry": {"type": "Point", "coordinates": [-121.18892280000001, 44.26993448000001]}, "properties": {"id": "redmond-586346", "species_group": "crabapple", "scientific_name": "Malus", "common_name": "crabapple spp", "subtype_name": "crabapple spp", "zip_code": "97756", "ownership": "public", "ownership_raw": "Oregon Department of Forestry", "city": "Redmond", "source_dataset": "Tree Inventory", "source_department": "Oregon Department of Forestry", "source_last_edit_at": ""}}, {"type": "Feature", "geometry": {"type": "Point", "coordinates": [-121.18914360000001, 44.269922249999986]}, "properties": {"id": "redmond-586347", "species_group": "crabapple", "scientific_name": "Malus", "common_name": "crabapple spp", "subtype_name": "crabapple spp", "zip_code": "97756", "ownership": "public", "ownership_raw": "Oregon Department of Forestry", "city": "Redmond", "source_dataset": "Tree Inventory", "source_department": "Oregon Department of Forestry", "source_last_edit_at": ""}}, {"type": "Feature", "geometry": {"type": "Point", "coordinates": [-121.1891225, 44.26978166]}, "properties": {"id": "redmond-586371", "species_group": "crabapple", "scientific_name": "Malus", "common_name": "crabapple spp", "subtype_name": "crabapple spp", "zip_code": "97756", "ownership": "public", "ownership_raw": "Oregon Department of Forestry", "city": "Redmond", "source_dataset": "Tree Inventory", "source_department": "Oregon Department of Forestry", "source_last_edit_at": ""}}, {"type": "Feature", "geometry": {"type": "Point", "coordinates": [-121.18907279999999, 44.269667489999996]}, "properties": {"id": "redmond-586372", "species_group": "crabapple", "scientific_name": "Malus", "common_name": "crabapple spp", "subtype_name": "crabapple spp", "zip_code": "97756", "ownership": "public", "ownership_raw": "Oregon Department of Forestry", "city": "Redmond", "source_dataset": "Tree Inventory", "source_department": "Oregon Department of Forestry", "source_last_edit_at": ""}}, {"type": "Feature", "geometry": {"type": "Point", "coordinates": [-121.188985, 44.26967220000002]}, "properties": {"id": "redmond-586373", "species_group": "crabapple", "scientific_name": "Malus", "common_name": "crabapple spp", "subtype_name": "crabapple spp", "zip_code": "97756", "ownership": "public", "ownership_raw": "Oregon Department of Forestry", "city": "Redmond", "source_dataset": "Tree Inventory", "source_department": "Oregon Department of Forestry", "source_last_edit_at": ""}}, {"type": "Feature", "geometry": {"type": "Point", "coordinates": [-121.18902459999998, 44.26977476]}, "properties": {"id": "redmond-586411", "species_group": "crabapple", "scientific_name": "Malus", "common_name": "crabapple spp", "subtype_name": "crabapple spp", "zip_code": "97756", "ownership": "public", "ownership_raw": "Oregon Department of Forestry", "city": "Redmond", "source_dataset": "Tree Inventory", "source_department": "Oregon Department of Forestry", "source_last_edit_at": ""}}, {"type": "Feature", "geometry": {"type": "Point", "coordinates": [-121.18427780000002, 44.27626851]}, "properties": {"id": "redmond-586412", "species_group": "crabapple", "scientific_name": "Malus", "common_name": "crabapple spp", "subtype_name": "crabapple spp", "zip_code": "97756", "ownership": "public", "ownership_raw": "Oregon Department of Forestry", "city": "Redmond", "source_dataset": "Tree Inventory", "source_department": "Oregon Department of Forestry", "source_last_edit_at": ""}}, {"type": "Feature", "geometry": {"type": "Point", "coordinates": [-121.2038083, 44.24753557]}, "properties": {"id": "redmond-586522", "species_group": "crabapple", "scientific_name": "Malus", "common_name": "crabapple spp", "subtype_name": "crabapple spp", "zip_code": "97756", "ownership": "public", "ownership_raw": "Oregon Department of Forestry", "city": "Redmond", "source_dataset": "Tree Inventory", "source_department": "Oregon Department of Forestry", "source_last_edit_at": ""}}, {"type": "Feature", "geometry": {"type": "Point", "coordinates": [-121.1648685, 44.27686504]}, "properties": {"id": "redmond-586526", "species_group": "crabapple", "scientific_name": "Malus", "common_name": "crabapple spp", "subtype_name": "crabapple spp", "zip_code": "97756", "ownership": "public", "ownership_raw": "Oregon Department of Forestry", "city": "Redmond", "source_dataset": "Tree Inventory", "source_department": "Oregon Department of Forestry", "source_last_edit_at": ""}}, {"type": "Feature", "geometry": {"type": "Point", "coordinates": [-121.172363, 44.27839241000001]}, "properties": {"id": "redmond-586533", "species_group": "crabapple", "scientific_name": "Malus", "common_name": "crabapple spp", "subtype_name": "crabapple spp", "zip_code": "97756", "ownership": "public", "ownership_raw": "Oregon Department of Forestry", "city": "Redmond", "source_dataset": "Tree Inventory", "source_department": "Oregon Department of Forestry", "source_last_edit_at": ""}}, {"type": "Feature", "geometry": {"type": "Point", "coordinates": [-121.1865221, 44.26674352]}, "properties": {"id": "redmond-586567", "species_group": "crabapple", "scientific_name": "Malus", "common_name": "crabapple spp", "subtype_name": "crabapple spp", "zip_code": "97756", "ownership": "public", "ownership_raw": "Oregon Department of Forestry", "city": "Redmond", "source_dataset": "Tree Inventory", "source_department": "Oregon Department of Forestry", "source_last_edit_at": ""}}, {"type": "Feature", "geometry": {"type": "Point", "coordinates": [-121.2084881, 44.25734065999999]}, "properties": {"id": "redmond-586654", "species_group": "crabapple", "scientific_name": "Malus", "common_name": "crabapple spp", "subtype_name": "crabapple spp", "zip_code": "97756", "ownership": "public", "ownership_raw": "Oregon Department of Forestry", "city": "Redmond", "source_dataset": "Tree Inventory", "source_department": "Oregon Department of Forestry", "source_last_edit_at": ""}}, {"type": "Feature", "geometry": {"type": "Point", "coordinates": [-121.16870029999998, 44.282572939999994]}, "properties": {"id": "redmond-586655", "species_group": "crabapple", "scientific_name": "Malus", "common_name": "crabapple spp", "subtype_name": "crabapple spp", "zip_code": "97756", "ownership": "public", "ownership_raw": "Oregon Department of Forestry", "city": "Redmond", "source_dataset": "Tree Inventory", "source_department": "Oregon Department of Forestry", "source_last_edit_at": ""}}, {"type": "Feature", "geometry": {"type": "Point", "coordinates": [-121.168869, 44.28049150999998]}, "properties": {"id": "redmond-586656", "species_group": "crabapple", "scientific_name": "Malus", "common_name": "crabapple spp", "subtype_name": "crabapple spp", "zip_code": "97756", "ownership": "public", "ownership_raw": "Oregon Department of Forestry", "city": "Redmond", "source_dataset": "Tree Inventory", "source_department": "Oregon Department of Forestry", "source_last_edit_at": ""}}, {"type": "Feature", "geometry": {"type": "Point", "coordinates": [-121.16888990000001, 44.28041704000002]}, "properties": {"id": "redmond-586660", "species_group": "crabapple", "scientific_name": "Malus", "common_name": "crabapple spp", "subtype_name": "crabapple spp", "zip_code": "97756", "ownership": "public", "ownership_raw": "Oregon Department of Forestry", "city": "Redmond", "source_dataset": "Tree Inventory", "source_department": "Oregon Department of Forestry", "source_last_edit_at": ""}}, {"type": "Feature", "geometry": {"type": "Point", "coordinates": [-121.16883040000002, 44.28014938]}, "properties": {"id": "redmond-586687", "species_group": "crabapple", "scientific_name": "Malus", "common_name": "crabapple spp", "subtype_name": "crabapple spp", "zip_code": "97756", "ownership": "public", "ownership_raw": "Oregon Department of Forestry", "city": "Redmond", "source_dataset": "Tree Inventory", "source_department": "Oregon Department of Forestry", "source_last_edit_at": ""}}, {"type": "Feature", "geometry": {"type": "Point", "coordinates": [-121.1688226, 44.28030890999999]}, "properties": {"id": "redmond-586688", "species_group": "crabapple", "scientific_name": "Malus", "common_name": "crabapple spp", "subtype_name": "crabapple spp", "zip_code": "97756", "ownership": "public", "ownership_raw": "Oregon Department of Forestry", "city": "Redmond", "source_dataset": "Tree Inventory", "source_department": "Oregon Department of Forestry", "source_last_edit_at": ""}}, {"type": "Feature", "geometry": {"type": "Point", "coordinates": [-121.20424270000001, 44.246669190000006]}, "properties": {"id": "redmond-586689", "species_group": "crabapple", "scientific_name": "Malus", "common_name": "crabapple spp", "subtype_name": "crabapple spp", "zip_code": "97756", "ownership": "public", "ownership_raw": "Oregon Department of Forestry", "city": "Redmond", "source_dataset": "Tree Inventory", "source_department": "Oregon Department of Forestry", "source_last_edit_at": ""}}, {"type": "Feature", "geometry": {"type": "Point", "coordinates": [-121.17114910000001, 44.279714459999994]}, "properties": {"id": "redmond-586693", "species_group": "crabapple", "scientific_name": "Malus", "common_name": "crabapple spp", "subtype_name": "crabapple spp", "zip_code": "97756", "ownership": "public", "ownership_raw": "Oregon Department of Forestry", "city": "Redmond", "source_dataset": "Tree Inventory", "source_department": "Oregon Department of Forestry", "source_last_edit_at": ""}}, {"type": "Feature", "geometry": {"type": "Point", "coordinates": [-121.2039434, 44.247403459999994]}, "properties": {"id": "redmond-586696", "species_group": "crabapple", "scientific_name": "Malus", "common_name": "crabapple spp", "subtype_name": "crabapple spp", "zip_code": "97756", "ownership": "public", "ownership_raw": "Oregon Department of Forestry", "city": "Redmond", "source_dataset": "Tree Inventory", "source_department": "Oregon Department of Forestry", "source_last_edit_at": ""}}, {"type": "Feature", "geometry": {"type": "Point", "coordinates": [-121.2039128, 44.24749168999999]}, "properties": {"id": "redmond-586697", "species_group": "crabapple", "scientific_name": "Malus", "common_name": "crabapple spp", "subtype_name": "crabapple spp", "zip_code": "97756", "ownership": "public", "ownership_raw": "Oregon Department of Forestry", "city": "Redmond", "source_dataset": "Tree Inventory", "source_department": "Oregon Department of Forestry", "source_last_edit_at": ""}}, {"type": "Feature", "geometry": {"type": "Point", "coordinates": [-121.1724602, 44.27839114]}, "properties": {"id": "redmond-586713", "species_group": "crabapple", "scientific_name": "Malus", "common_name": "crabapple spp", "subtype_name": "crabapple spp", "zip_code": "97756", "ownership": "public", "ownership_raw": "Oregon Department of Forestry", "city": "Redmond", "source_dataset": "Tree Inventory", "source_department": "Oregon Department of Forestry", "source_last_edit_at": ""}}, {"type": "Feature", "geometry": {"type": "Point", "coordinates": [-121.1725554, 44.27839189000003]}, "properties": {"id": "redmond-586714", "species_group": "crabapple", "scientific_name": "Malus", "common_name": "crabapple spp", "subtype_name": "crabapple spp", "zip_code": "97756", "ownership": "public", "ownership_raw": "Oregon Department of Forestry", "city": "Redmond", "source_dataset": "Tree Inventory", "source_department": "Oregon Department of Forestry", "source_last_edit_at": ""}}, {"type": "Feature", "geometry": {"type": "Point", "coordinates": [-121.1847167, 44.26658611999999]}, "properties": {"id": "redmond-587031", "species_group": "crabapple", "scientific_name": "Malus", "common_name": "crabapple spp", "subtype_name": "crabapple spp", "zip_code": "97756", "ownership": "public", "ownership_raw": "Oregon Department of Forestry", "city": "Redmond", "source_dataset": "Tree Inventory", "source_department": "Oregon Department of Forestry", "source_last_edit_at": ""}}, {"type": "Feature", "geometry": {"type": "Point", "coordinates": [-121.1862429, 44.26193215]}, "properties": {"id": "redmond-587266", "species_group": "crabapple", "scientific_name": "Malus", "common_name": "crabapple spp", "subtype_name": "crabapple spp", "zip_code": "97756", "ownership": "public", "ownership_raw": "Oregon Department of Forestry", "city": "Redmond", "source_dataset": "Tree Inventory", "source_department": "Oregon Department of Forestry", "source_last_edit_at": ""}}, {"type": "Feature", "geometry": {"type": "Point", "coordinates": [-121.18634659999998, 44.26194842999999]}, "properties": {"id": "redmond-587267", "species_group": "crabapple", "scientific_name": "Malus", "common_name": "crabapple spp", "subtype_name": "crabapple spp", "zip_code": "97756", "ownership": "public", "ownership_raw": "Oregon Department of Forestry", "city": "Redmond", "source_dataset": "Tree Inventory", "source_department": "Oregon Department of Forestry", "source_last_edit_at": ""}}, {"type": "Feature", "geometry": {"type": "Point", "coordinates": [-121.1861273, 44.261495249999996]}, "properties": {"id": "redmond-587268", "species_group": "crabapple", "scientific_name": "Malus", "common_name": "crabapple spp", "subtype_name": "crabapple spp", "zip_code": "97756", "ownership": "public", "ownership_raw": "Oregon Department of Forestry", "city": "Redmond", "source_dataset": "Tree Inventory", "source_department": "Oregon Department of Forestry", "source_last_edit_at": ""}}, {"type": "Feature", "geometry": {"type": "Point", "coordinates": [-121.17881200000001, 44.27458934999999]}, "properties": {"id": "redmond-587296", "species_group": "crabapple", "scientific_name": "Malus", "common_name": "crabapple spp", "subtype_name": "crabapple spp", "zip_code": "97756", "ownership": "public", "ownership_raw": "Oregon Department of Forestry", "city": "Redmond", "source_dataset": "Tree Inventory", "source_department": "Oregon Department of Forestry", "source_last_edit_at": ""}}, {"type": "Feature", "geometry": {"type": "Point", "coordinates": [-121.17283720000002, 44.278391009999986]}, "properties": {"id": "redmond-587704", "species_group": "crabapple", "scientific_name": "Malus", "common_name": "crabapple spp", "subtype_name": "crabapple spp", "zip_code": "97756", "ownership": "public", "ownership_raw": "Oregon Department of Forestry", "city": "Redmond", "source_dataset": "Tree Inventory", "source_department": "Oregon Department of Forestry", "source_last_edit_at": ""}}, {"type": "Feature", "geometry": {"type": "Point", "coordinates": [-121.1729352, 44.27838862000001]}, "properties": {"id": "redmond-587705", "species_group": "crabapple", "scientific_name": "Malus", "common_name": "crabapple spp", "subtype_name": "crabapple spp", "zip_code": "97756", "ownership": "public", "ownership_raw": "Oregon Department of Forestry", "city": "Redmond", "source_dataset": "Tree Inventory", "source_department": "Oregon Department of Forestry", "source_last_edit_at": ""}}, {"type": "Feature", "geometry": {"type": "Point", "coordinates": [-121.1730403, 44.27839075]}, "properties": {"id": "redmond-587706", "species_group": "crabapple", "scientific_name": "Malus", "common_name": "crabapple spp", "subtype_name": "crabapple spp", "zip_code": "97756", "ownership": "public", "ownership_raw": "Oregon Department of Forestry", "city": "Redmond", "source_dataset": "Tree Inventory", "source_department": "Oregon Department of Forestry", "source_last_edit_at": ""}}, {"type": "Feature", "geometry": {"type": "Point", "coordinates": [-121.18888020000001, 44.26986585]}, "properties": {"id": "redmond-587707", "species_group": "crabapple", "scientific_name": "Malus", "common_name": "crabapple spp", "subtype_name": "crabapple spp", "zip_code": "97756", "ownership": "public", "ownership_raw": "Oregon Department of Forestry", "city": "Redmond", "source_dataset": "Tree Inventory", "source_department": "Oregon Department of Forestry", "source_last_edit_at": ""}}, {"type": "Feature", "geometry": {"type": "Point", "coordinates": [-121.20343740000001, 44.24759298000001]}, "properties": {"id": "redmond-587839", "species_group": "crabapple", "scientific_name": "Malus", "common_name": "crabapple spp", "subtype_name": "crabapple spp", "zip_code": "97756", "ownership": "public", "ownership_raw": "Oregon Department of Forestry", "city": "Redmond", "source_dataset": "Tree Inventory", "source_department": "Oregon Department of Forestry", "source_last_edit_at": ""}}, {"type": "Feature", "geometry": {"type": "Point", "coordinates": [-121.17112060000001, 44.27946187999999]}, "properties": {"id": "redmond-587906", "species_group": "crabapple", "scientific_name": "Malus", "common_name": "crabapple spp", "subtype_name": "crabapple spp", "zip_code": "97756", "ownership": "public", "ownership_raw": "Oregon Department of Forestry", "city": "Redmond", "source_dataset": "Tree Inventory", "source_department": "Oregon Department of Forestry", "source_last_edit_at": ""}}, {"type": "Feature", "geometry": {"type": "Point", "coordinates": [-121.17130380000002, 44.279465120000005]}, "properties": {"id": "redmond-587907", "species_group": "crabapple", "scientific_name": "Malus", "common_name": "crabapple spp", "subtype_name": "crabapple spp", "zip_code": "97756", "ownership": "public", "ownership_raw": "Oregon Department of Forestry", "city": "Redmond", "source_dataset": "Tree Inventory", "source_department": "Oregon Department of Forestry", "source_last_edit_at": ""}}, {"type": "Feature", "geometry": {"type": "Point", "coordinates": [-121.1713683, 44.27946652999999]}, "properties": {"id": "redmond-587908", "species_group": "crabapple", "scientific_name": "Malus", "common_name": "crabapple spp", "subtype_name": "crabapple spp", "zip_code": "97756", "ownership": "public", "ownership_raw": "Oregon Department of Forestry", "city": "Redmond", "source_dataset": "Tree Inventory", "source_department": "Oregon Department of Forestry", "source_last_edit_at": ""}}, {"type": "Feature", "geometry": {"type": "Point", "coordinates": [-121.1715149, 44.27931941000001]}, "properties": {"id": "redmond-587909", "species_group": "crabapple", "scientific_name": "Malus", "common_name": "crabapple spp", "subtype_name": "crabapple spp", "zip_code": "97756", "ownership": "public", "ownership_raw": "Oregon Department of Forestry", "city": "Redmond", "source_dataset": "Tree Inventory", "source_department": "Oregon Department of Forestry", "source_last_edit_at": ""}}, {"type": "Feature", "geometry": {"type": "Point", "coordinates": [-121.17122679999999, 44.2793156]}, "properties": {"id": "redmond-587910", "species_group": "crabapple", "scientific_name": "Malus", "common_name": "crabapple spp", "subtype_name": "crabapple spp", "zip_code": "97756", "ownership": "public", "ownership_raw": "Oregon Department of Forestry", "city": "Redmond", "source_dataset": "Tree Inventory", "source_department": "Oregon Department of Forestry", "source_last_edit_at": ""}}, {"type": "Feature", "geometry": {"type": "Point", "coordinates": [-121.17113790000002, 44.279314209999995]}, "properties": {"id": "redmond-587911", "species_group": "crabapple", "scientific_name": "Malus", "common_name": "crabapple spp", "subtype_name": "crabapple spp", "zip_code": "97756", "ownership": "public", "ownership_raw": "Oregon Department of Forestry", "city": "Redmond", "source_dataset": "Tree Inventory", "source_department": "Oregon Department of Forestry", "source_last_edit_at": ""}}, {"type": "Feature", "geometry": {"type": "Point", "coordinates": [-121.171343, 44.279717969999986]}, "properties": {"id": "redmond-587912", "species_group": "crabapple", "scientific_name": "Malus", "common_name": "crabapple spp", "subtype_name": "crabapple spp", "zip_code": "97756", "ownership": "public", "ownership_raw": "Oregon Department of Forestry", "city": "Redmond", "source_dataset": "Tree Inventory", "source_department": "Oregon Department of Forestry", "source_last_edit_at": ""}}, {"type": "Feature", "geometry": {"type": "Point", "coordinates": [-121.18878170000002, 44.269952319999994]}, "properties": {"id": "redmond-587913", "species_group": "crabapple", "scientific_name": "Malus", "common_name": "crabapple spp", "subtype_name": "crabapple spp", "zip_code": "97756", "ownership": "public", "ownership_raw": "Oregon Department of Forestry", "city": "Redmond", "source_dataset": "Tree Inventory", "source_department": "Oregon Department of Forestry", "source_last_edit_at": ""}}, {"type": "Feature", "geometry": {"type": "Point", "coordinates": [-121.17700860000001, 44.28727537000002]}, "properties": {"id": "redmond-588095", "species_group": "crabapple", "scientific_name": "Malus", "common_name": "crabapple spp", "subtype_name": "crabapple spp", "zip_code": "97756", "ownership": "public", "ownership_raw": "Oregon Department of Forestry", "city": "Redmond", "source_dataset": "Tree Inventory", "source_department": "Oregon Department of Forestry", "source_last_edit_at": ""}}, {"type": "Feature", "geometry": {"type": "Point", "coordinates": [-121.20319130000001, 44.24752025000001]}, "properties": {"id": "redmond-588160", "species_group": "crabapple", "scientific_name": "Malus", "common_name": "crabapple spp", "subtype_name": "crabapple spp", "zip_code": "97756", "ownership": "public", "ownership_raw": "Oregon Department of Forestry", "city": "Redmond", "source_dataset": "Tree Inventory", "source_department": "Oregon Department of Forestry", "source_last_edit_at": ""}}, {"type": "Feature", "geometry": {"type": "Point", "coordinates": [-121.2030376, 44.247489640000005]}, "properties": {"id": "redmond-588161", "species_group": "crabapple", "scientific_name": "Malus", "common_name": "crabapple spp", "subtype_name": "crabapple spp", "zip_code": "97756", "ownership": "public", "ownership_raw": "Oregon Department of Forestry", "city": "Redmond", "source_dataset": "Tree Inventory", "source_department": "Oregon Department of Forestry", "source_last_edit_at": ""}}, {"type": "Feature", "geometry": {"type": "Point", "coordinates": [-121.2029524, 44.24609975999999]}, "properties": {"id": "redmond-588162", "species_group": "crabapple", "scientific_name": "Malus", "common_name": "crabapple spp", "subtype_name": "crabapple spp", "zip_code": "97756", "ownership": "public", "ownership_raw": "Oregon Department of Forestry", "city": "Redmond", "source_dataset": "Tree Inventory", "source_department": "Oregon Department of Forestry", "source_last_edit_at": ""}}, {"type": "Feature", "geometry": {"type": "Point", "coordinates": [-121.1713256, 44.26719298999999]}, "properties": {"id": "redmond-588306", "species_group": "crabapple", "scientific_name": "Malus", "common_name": "crabapple spp", "subtype_name": "crabapple spp", "zip_code": "97756", "ownership": "public", "ownership_raw": "Oregon Department of Forestry", "city": "Redmond", "source_dataset": "Tree Inventory", "source_department": "Oregon Department of Forestry", "source_last_edit_at": ""}}, {"type": "Feature", "geometry": {"type": "Point", "coordinates": [-121.20837450000002, 44.25725303000001]}, "properties": {"id": "redmond-588307", "species_group": "crabapple", "scientific_name": "Malus", "common_name": "crabapple spp", "subtype_name": "crabapple spp", "zip_code": "97756", "ownership": "public", "ownership_raw": "Oregon Department of Forestry", "city": "Redmond", "source_dataset": "Tree Inventory", "source_department": "Oregon Department of Forestry", "source_last_edit_at": ""}}, {"type": "Feature", "geometry": {"type": "Point", "coordinates": [-121.20837469999998, 44.25731738999999]}, "properties": {"id": "redmond-588308", "species_group": "crabapple", "scientific_name": "Malus", "common_name": "crabapple spp", "subtype_name": "crabapple spp", "zip_code": "97756", "ownership": "public", "ownership_raw": "Oregon Department of Forestry", "city": "Redmond", "source_dataset": "Tree Inventory", "source_department": "Oregon Department of Forestry", "source_last_edit_at": ""}}]}