{"type": "FeatureCollection", "features": [{"type": "Feature", "geometry": {"type": "Point", "coordinates": [-134.42353564660147, 58.30435688399269]}, "properties": {"id": "juneau-196", "species_group": "crabapple", "scientific_name": "Malus sp.", "common_name": "Crabapples", "subtype_name": "Crabapples", "zip_code": "99801", "ownership": "public", "ownership_raw": "City and Borough of Juneau", "city": "Juneau", "source_dataset": "Final Tree Map", "source_department": "City and Borough of Juneau", "source_last_edit_at": "2024-09-13T20:04:51.417000+00:00"}}, {"type": "Feature", "geometry": {"type": "Point", "coordinates": [-134.42353083682875, 58.30435764472156]}, "properties": {"id": "juneau-197", "species_group": "crabapple", "scientific_name": "Malus sp.", "common_name": "Crabapples", "subtype_name": "Crabapples", "zip_code": "99801", "ownership": "public", "ownership_raw": "City and Borough of Juneau", "city": "Juneau", "source_dataset": "Final Tree Map", "source_department": "City and Borough of Juneau", "source_last_edit_at": "2024-09-13T20:04:51.417000+00:00"}}, {"type": "Feature", "geometry": {"type": "Point", "coordinates": [-134.42270778674924, 58.30472039770309]}, "properties": {"id": "juneau-200", "species_group": "cherry", "scientific_name": "Prunus 'accolade\"", "common_name": "Accolade Cherry", "subtype_name": "Accolade", "zip_code": "99801", "ownership": "public", "ownership_raw": "City and Borough of Juneau", "city": "Juneau", "source_dataset": "Final Tree Map", "source_department": "City and Borough of Juneau", "source_last_edit_at": "2024-09-13T20:04:51.417000+00:00"}}, {"type": "Feature", "geometry": {"type": "Point", "coordinates": [-134.42313071312327, 58.30465941615896]}, "properties": {"id": "juneau-201", "species_group": "crabapple", "scientific_name": "Malus sp.", "common_name": "Crabapples", "subtype_name": "Crabapples", "zip_code": "99801", "ownership": "public", "ownership_raw": "City and Borough of Juneau", "city": "Juneau", "source_dataset": "Final Tree Map", "source_department": "City and Borough of Juneau", "source_last_edit_at": "2024-09-13T20:04:51.417000+00:00"}}, {"type": "Feature", "geometry": {"type": "Point", "coordinates": [-134.4231376740847, 58.30474460152354]}, "properties": {"id": "juneau-202", "species_group": "crabapple", "scientific_name": "Malus sp.", "common_name": "Crabapples", "subtype_name": "Crabapples", "zip_code": "99801", "ownership": "public", "ownership_raw": "City and Borough of Juneau", "city": "Juneau", "source_dataset": "Final Tree Map", "source_department": "City and Borough of Juneau", "source_last_edit_at": "2024-09-13T20:04:51.417000+00:00"}}, {"type": "Feature", "geometry": {"type": "Point", "coordinates": [-134.4231406734257, 58.30482180142682]}, "properties": {"id": "juneau-203", "species_group": "crabapple", "scientific_name": "Malus sp.", "common_name": "Crabapples", "subtype_name": "Crabapples", "zip_code": "99801", "ownership": "public", "ownership_raw": "City and Borough of Juneau", "city": "Juneau", "source_dataset": "Final Tree Map", "source_department": "City and Borough of Juneau", "source_last_edit_at": "2024-09-13T20:04:51.417000+00:00"}}]}