{"type": "FeatureCollection", "features": [{"type": "Feature", "geometry": {"type": "Point", "coordinates": [-111.89309140767887, 40.408314992510746]}, "properties": {"id": "lehi-17640", "species_group": "crabapple", "scientific_name": "Malus species", "common_name": "Crabapple", "subtype_name": null, "zip_code": "84043", "ownership": "public", "ownership_raw": "City of Lehi", "city": "Lehi", "source_dataset": "Utah Urban Tree Inventory", "source_department": "City of Lehi", "source_last_edit_at": "2026-03-28T17:19:55.001000+00:00"}}, {"type": "Feature", "geometry": {"type": "Point", "coordinates": [-111.84575851358879, 40.388042698406615]}, "properties": {"id": "lehi-18120", "species_group": "crabapple", "scientific_name": "Malus species", "common_name": "Crabapple", "subtype_name": null, "zip_code": "84043", "ownership": "public", "ownership_raw": "City of Lehi", "city": "Lehi", "source_dataset": "Utah Urban Tree Inventory", "source_department": "City of Lehi", "source_last_edit_at": "2026-03-28T17:19:55.001000+00:00"}}, {"type": "Feature", "geometry": {"type": "Point", "coordinates": [-111.84610605145117, 40.38802993336892]}, "properties": {"id": "lehi-18121", "species_group": "crabapple", "scientific_name": "Malus species", "common_name": "Crabapple", "subtype_name": null, "zip_code": "84043", "ownership": "public", "ownership_raw": "City of Lehi", "city": "Lehi", "source_dataset": "Utah Urban Tree Inventory", "source_department": "City of Lehi", "source_last_edit_at": "2026-03-28T17:19:55.001000+00:00"}}, {"type": "Feature", "geometry": {"type": "Point", "coordinates": [-111.84619301790684, 40.388032635735]}, "properties": {"id": "lehi-18122", "species_group": "crabapple", "scientific_name": "Malus species", "common_name": "Crabapple", "subtype_name": null, "zip_code": "84043", "ownership": "public", "ownership_raw": "City of Lehi", "city": "Lehi", "source_dataset": "Utah Urban Tree Inventory", "source_department": "City of Lehi", "source_last_edit_at": "2026-03-28T17:19:55.001000+00:00"}}, {"type": "Feature", "geometry": {"type": "Point", "coordinates": [-111.84628173174039, 40.38802734684257]}, "properties": {"id": "lehi-18123", "species_group": "crabapple", "scientific_name": "Malus species", "common_name": "Crabapple", "subtype_name": null, "zip_code": "84043", "ownership": "public", "ownership_raw": "City of Lehi", "city": "Lehi", "source_dataset": "Utah Urban Tree Inventory", "source_department": "City of Lehi", "source_last_edit_at": "2026-03-28T17:19:55.001000+00:00"}}, {"type": "Feature", "geometry": {"type": "Point", "coordinates": [-111.84766268156352, 40.38799022631975]}, "properties": {"id": "lehi-18128", "species_group": "crabapple", "scientific_name": "Malus species", "common_name": "Crabapple", "subtype_name": null, "zip_code": "84043", "ownership": "public", "ownership_raw": "City of Lehi", "city": "Lehi", "source_dataset": "Utah Urban Tree Inventory", "source_department": "City of Lehi", "source_last_edit_at": "2026-03-28T17:19:55.001000+00:00"}}, {"type": "Feature", "geometry": {"type": "Point", "coordinates": [-111.84779639250056, 40.38798295954605]}, "properties": {"id": "lehi-18129", "species_group": "crabapple", "scientific_name": "Malus species", "common_name": "Crabapple", "subtype_name": null, "zip_code": "84043", "ownership": "public", "ownership_raw": "City of Lehi", "city": "Lehi", "source_dataset": "Utah Urban Tree Inventory", "source_department": "City of Lehi", "source_last_edit_at": "2026-03-28T17:19:55.001000+00:00"}}, {"type": "Feature", "geometry": {"type": "Point", "coordinates": [-111.8490234631031, 40.38783210277207]}, "properties": {"id": "lehi-18137", "species_group": "crabapple", "scientific_name": "Malus species", "common_name": "Crabapple", "subtype_name": null, "zip_code": "84043", "ownership": "public", "ownership_raw": "City of Lehi", "city": "Lehi", "source_dataset": "Utah Urban Tree Inventory", "source_department": "City of Lehi", "source_last_edit_at": "2026-03-28T17:19:55.001000+00:00"}}, {"type": "Feature", "geometry": {"type": "Point", "coordinates": [-111.8489308369818, 40.38783166661556]}, "properties": {"id": "lehi-18138", "species_group": "crabapple", "scientific_name": "Malus species", "common_name": "Crabapple", "subtype_name": null, "zip_code": "84043", "ownership": "public", "ownership_raw": "City of Lehi", "city": "Lehi", "source_dataset": "Utah Urban Tree Inventory", "source_department": "City of Lehi", "source_last_edit_at": "2026-03-28T17:19:55.001000+00:00"}}, {"type": "Feature", "geometry": {"type": "Point", "coordinates": [-111.84775555631302, 40.38786314143723]}, "properties": {"id": "lehi-18146", "species_group": "crabapple", "scientific_name": "Malus species", "common_name": "Crabapple", "subtype_name": null, "zip_code": "84043", "ownership": "public", "ownership_raw": "City of Lehi", "city": "Lehi", "source_dataset": "Utah Urban Tree Inventory", "source_department": "City of Lehi", "source_last_edit_at": "2026-03-28T17:19:55.001000+00:00"}}, {"type": "Feature", "geometry": {"type": "Point", "coordinates": [-111.8476520796857, 40.38786613787074]}, "properties": {"id": "lehi-18147", "species_group": "crabapple", "scientific_name": "Malus species", "common_name": "Crabapple", "subtype_name": null, "zip_code": "84043", "ownership": "public", "ownership_raw": "City of Lehi", "city": "Lehi", "source_dataset": "Utah Urban Tree Inventory", "source_department": "City of Lehi", "source_last_edit_at": "2026-03-28T17:19:55.001000+00:00"}}, {"type": "Feature", "geometry": {"type": "Point", "coordinates": [-111.84726814094819, 40.38787554813903]}, "properties": {"id": "lehi-18148", "species_group": "crabapple", "scientific_name": "Malus species", "common_name": "Crabapple", "subtype_name": null, "zip_code": "84043", "ownership": "public", "ownership_raw": "City of Lehi", "city": "Lehi", "source_dataset": "Utah Urban Tree Inventory", "source_department": "City of Lehi", "source_last_edit_at": "2026-03-28T17:19:55.001000+00:00"}}, {"type": "Feature", "geometry": {"type": "Point", "coordinates": [-111.84722475711092, 40.38787793809369]}, "properties": {"id": "lehi-18149", "species_group": "crabapple", "scientific_name": "Malus species", "common_name": "Crabapple", "subtype_name": null, "zip_code": "84043", "ownership": "public", "ownership_raw": "City of Lehi", "city": "Lehi", "source_dataset": "Utah Urban Tree Inventory", "source_department": "City of Lehi", "source_last_edit_at": "2026-03-28T17:19:55.001000+00:00"}}, {"type": "Feature", "geometry": {"type": "Point", "coordinates": [-111.84618123976773, 40.38790660349352]}, "properties": {"id": "lehi-18155", "species_group": "crabapple", "scientific_name": "Malus species", "common_name": "Crabapple", "subtype_name": null, "zip_code": "84043", "ownership": "public", "ownership_raw": "City of Lehi", "city": "Lehi", "source_dataset": "Utah Urban Tree Inventory", "source_department": "City of Lehi", "source_last_edit_at": "2026-03-28T17:19:55.001000+00:00"}}, {"type": "Feature", "geometry": {"type": "Point", "coordinates": [-111.84609819465372, 40.38790909316311]}, "properties": {"id": "lehi-18156", "species_group": "crabapple", "scientific_name": "Malus species", "common_name": "Crabapple", "subtype_name": null, "zip_code": "84043", "ownership": "public", "ownership_raw": "City of Lehi", "city": "Lehi", "source_dataset": "Utah Urban Tree Inventory", "source_department": "City of Lehi", "source_last_edit_at": "2026-03-28T17:19:55.001000+00:00"}}, {"type": "Feature", "geometry": {"type": "Point", "coordinates": [-111.85265617470758, 40.3877279716527]}, "properties": {"id": "lehi-18192", "species_group": "crabapple", "scientific_name": "Malus species", "common_name": "Crabapple", "subtype_name": null, "zip_code": "84043", "ownership": "public", "ownership_raw": "City of Lehi", "city": "Lehi", "source_dataset": "Utah Urban Tree Inventory", "source_department": "City of Lehi", "source_last_edit_at": "2026-03-28T17:19:55.001000+00:00"}}, {"type": "Feature", "geometry": {"type": "Point", "coordinates": [-111.85255022770615, 40.387729646537]}, "properties": {"id": "lehi-18193", "species_group": "crabapple", "scientific_name": "Malus species", "common_name": "Crabapple", "subtype_name": null, "zip_code": "84043", "ownership": "public", "ownership_raw": "City of Lehi", "city": "Lehi", "source_dataset": "Utah Urban Tree Inventory", "source_department": "City of Lehi", "source_last_edit_at": "2026-03-28T17:19:55.001000+00:00"}}, {"type": "Feature", "geometry": {"type": "Point", "coordinates": [-111.85244436284879, 40.38773073513127]}, "properties": {"id": "lehi-18194", "species_group": "crabapple", "scientific_name": "Malus species", "common_name": "Crabapple", "subtype_name": null, "zip_code": "84043", "ownership": "public", "ownership_raw": "City of Lehi", "city": "Lehi", "source_dataset": "Utah Urban Tree Inventory", "source_department": "City of Lehi", "source_last_edit_at": "2026-03-28T17:19:55.001000+00:00"}}, {"type": "Feature", "geometry": {"type": "Point", "coordinates": [-111.85246967620125, 40.38786576694908]}, "properties": {"id": "lehi-18195", "species_group": "crabapple", "scientific_name": "Malus species", "common_name": "Crabapple", "subtype_name": null, "zip_code": "84043", "ownership": "public", "ownership_raw": "City of Lehi", "city": "Lehi", "source_dataset": "Utah Urban Tree Inventory", "source_department": "City of Lehi", "source_last_edit_at": "2026-03-28T17:19:55.001000+00:00"}}, {"type": "Feature", "geometry": {"type": "Point", "coordinates": [-111.85262055061416, 40.387864049161884]}, "properties": {"id": "lehi-18196", "species_group": "crabapple", "scientific_name": "Malus species", "common_name": "Crabapple", "subtype_name": null, "zip_code": "84043", "ownership": "public", "ownership_raw": "City of Lehi", "city": "Lehi", "source_dataset": "Utah Urban Tree Inventory", "source_department": "City of Lehi", "source_last_edit_at": "2026-03-28T17:19:55.001000+00:00"}}, {"type": "Feature", "geometry": {"type": "Point", "coordinates": [-111.85356033050398, 40.38783720947272]}, "properties": {"id": "lehi-18203", "species_group": "crabapple", "scientific_name": "Malus species", "common_name": "Crabapple", "subtype_name": null, "zip_code": "84043", "ownership": "public", "ownership_raw": "City of Lehi", "city": "Lehi", "source_dataset": "Utah Urban Tree Inventory", "source_department": "City of Lehi", "source_last_edit_at": "2026-03-28T17:19:55.001000+00:00"}}, {"type": "Feature", "geometry": {"type": "Point", "coordinates": [-111.85366694734813, 40.38784546478304]}, "properties": {"id": "lehi-18204", "species_group": "crabapple", "scientific_name": "Malus species", "common_name": "Crabapple", "subtype_name": null, "zip_code": "84043", "ownership": "public", "ownership_raw": "City of Lehi", "city": "Lehi", "source_dataset": "Utah Urban Tree Inventory", "source_department": "City of Lehi", "source_last_edit_at": "2026-03-28T17:19:55.001000+00:00"}}, {"type": "Feature", "geometry": {"type": "Point", "coordinates": [-111.85396718721, 40.38783301808544]}, "properties": {"id": "lehi-18205", "species_group": "crabapple", "scientific_name": "Malus species", "common_name": "Crabapple", "subtype_name": null, "zip_code": "84043", "ownership": "public", "ownership_raw": "City of Lehi", "city": "Lehi", "source_dataset": "Utah Urban Tree Inventory", "source_department": "City of Lehi", "source_last_edit_at": "2026-03-28T17:19:55.001000+00:00"}}, {"type": "Feature", "geometry": {"type": "Point", "coordinates": [-111.8540859591425, 40.38782968590941]}, "properties": {"id": "lehi-18206", "species_group": "crabapple", "scientific_name": "Malus species", "common_name": "Crabapple", "subtype_name": null, "zip_code": "84043", "ownership": "public", "ownership_raw": "City of Lehi", "city": "Lehi", "source_dataset": "Utah Urban Tree Inventory", "source_department": "City of Lehi", "source_last_edit_at": "2026-03-28T17:19:55.001000+00:00"}}, {"type": "Feature", "geometry": {"type": "Point", "coordinates": [-111.85419945043438, 40.38783194849303]}, "properties": {"id": "lehi-18207", "species_group": "crabapple", "scientific_name": "Malus species", "common_name": "Crabapple", "subtype_name": null, "zip_code": "84043", "ownership": "public", "ownership_raw": "City of Lehi", "city": "Lehi", "source_dataset": "Utah Urban Tree Inventory", "source_department": "City of Lehi", "source_last_edit_at": "2026-03-28T17:19:55.001000+00:00"}}, {"type": "Feature", "geometry": {"type": "Point", "coordinates": [-111.8542117716638, 40.38768067594046]}, "properties": {"id": "lehi-18208", "species_group": "crabapple", "scientific_name": "Malus species", "common_name": "Crabapple", "subtype_name": null, "zip_code": "84043", "ownership": "public", "ownership_raw": "City of Lehi", "city": "Lehi", "source_dataset": "Utah Urban Tree Inventory", "source_department": "City of Lehi", "source_last_edit_at": "2026-03-28T17:19:55.001000+00:00"}}, {"type": "Feature", "geometry": {"type": "Point", "coordinates": [-111.8540792530542, 40.387682708875765]}, "properties": {"id": "lehi-18209", "species_group": "crabapple", "scientific_name": "Malus species", "common_name": "Crabapple", "subtype_name": null, "zip_code": "84043", "ownership": "public", "ownership_raw": "City of Lehi", "city": "Lehi", "source_dataset": "Utah Urban Tree Inventory", "source_department": "City of Lehi", "source_last_edit_at": "2026-03-28T17:19:55.001000+00:00"}}, {"type": "Feature", "geometry": {"type": "Point", "coordinates": [-111.85395914107573, 40.38768467886442]}, "properties": {"id": "lehi-18210", "species_group": "crabapple", "scientific_name": "Malus species", "common_name": "Crabapple", "subtype_name": null, "zip_code": "84043", "ownership": "public", "ownership_raw": "City of Lehi", "city": "Lehi", "source_dataset": "Utah Urban Tree Inventory", "source_department": "City of Lehi", "source_last_edit_at": "2026-03-28T17:19:55.001000+00:00"}}, {"type": "Feature", "geometry": {"type": "Point", "coordinates": [-111.85370642584786, 40.387688139517344]}, "properties": {"id": "lehi-18211", "species_group": "crabapple", "scientific_name": "Malus species", "common_name": "Crabapple", "subtype_name": null, "zip_code": "84043", "ownership": "public", "ownership_raw": "City of Lehi", "city": "Lehi", "source_dataset": "Utah Urban Tree Inventory", "source_department": "City of Lehi", "source_last_edit_at": "2026-03-28T17:19:55.001000+00:00"}}, {"type": "Feature", "geometry": {"type": "Point", "coordinates": [-111.85355555230714, 40.387691385745676]}, "properties": {"id": "lehi-18212", "species_group": "crabapple", "scientific_name": "Malus species", "common_name": "Crabapple", "subtype_name": null, "zip_code": "84043", "ownership": "public", "ownership_raw": "City of Lehi", "city": "Lehi", "source_dataset": "Utah Urban Tree Inventory", "source_department": "City of Lehi", "source_last_edit_at": "2026-03-28T17:19:55.001000+00:00"}}, {"type": "Feature", "geometry": {"type": "Point", "coordinates": [-111.84170454508246, 40.38751584626516]}, "properties": {"id": "lehi-18234", "species_group": "crabapple", "scientific_name": "Malus species", "common_name": "Crabapple", "subtype_name": null, "zip_code": "84043", "ownership": "public", "ownership_raw": "City of Lehi", "city": "Lehi", "source_dataset": "Utah Urban Tree Inventory", "source_department": "City of Lehi", "source_last_edit_at": "2026-03-28T17:19:55.001000+00:00"}}, {"type": "Feature", "geometry": {"type": "Point", "coordinates": [-111.84128142527872, 40.38621644225435]}, "properties": {"id": "lehi-18254", "species_group": "plum", "scientific_name": "Prunus species", "common_name": "Plum-Flowering", "subtype_name": "Plum-Flowering", "zip_code": "84043", "ownership": "public", "ownership_raw": "City of Lehi", "city": "Lehi", "source_dataset": "Utah Urban Tree Inventory", "source_department": "City of Lehi", "source_last_edit_at": "2026-03-28T17:19:55.001000+00:00"}}, {"type": "Feature", "geometry": {"type": "Point", "coordinates": [-111.82516503574699, 40.3992654747578]}, "properties": {"id": "lehi-18604", "species_group": "cherry", "scientific_name": "Prunus species", "common_name": "Cherry-Flowering", "subtype_name": "Flowering Cherry", "zip_code": "84043", "ownership": "public", "ownership_raw": "City of Lehi", "city": "Lehi", "source_dataset": "Utah Urban Tree Inventory", "source_department": "City of Lehi", "source_last_edit_at": "2026-03-28T17:19:55.001000+00:00"}}, {"type": "Feature", "geometry": {"type": "Point", "coordinates": [-111.82511365557968, 40.39926622971102]}, "properties": {"id": "lehi-18605", "species_group": "cherry", "scientific_name": "Prunus species", "common_name": "Cherry-Flowering", "subtype_name": "Flowering Cherry", "zip_code": "84043", "ownership": "public", "ownership_raw": "City of Lehi", "city": "Lehi", "source_dataset": "Utah Urban Tree Inventory", "source_department": "City of Lehi", "source_last_edit_at": "2026-03-28T17:19:55.001000+00:00"}}, {"type": "Feature", "geometry": {"type": "Point", "coordinates": [-111.82504601279635, 40.39928592685263]}, "properties": {"id": "lehi-18606", "species_group": "cherry", "scientific_name": "Prunus species", "common_name": "Cherry-Flowering", "subtype_name": "Flowering Cherry", "zip_code": "84043", "ownership": "public", "ownership_raw": "City of Lehi", "city": "Lehi", "source_dataset": "Utah Urban Tree Inventory", "source_department": "City of Lehi", "source_last_edit_at": "2026-03-28T17:19:55.001000+00:00"}}, {"type": "Feature", "geometry": {"type": "Point", "coordinates": [-111.82500938468988, 40.39928483685191]}, "properties": {"id": "lehi-18607", "species_group": "cherry", "scientific_name": "Prunus species", "common_name": "Cherry-Flowering", "subtype_name": "Flowering Cherry", "zip_code": "84043", "ownership": "public", "ownership_raw": "City of Lehi", "city": "Lehi", "source_dataset": "Utah Urban Tree Inventory", "source_department": "City of Lehi", "source_last_edit_at": "2026-03-28T17:19:55.001000+00:00"}}, {"type": "Feature", "geometry": {"type": "Point", "coordinates": [-111.85313894425451, 40.42105258895269]}, "properties": {"id": "lehi-19220", "species_group": "cherry", "scientific_name": "Prunus species", "common_name": "Cherry-Flowering", "subtype_name": "Flowering Cherry", "zip_code": "84043", "ownership": "public", "ownership_raw": "City of Lehi", "city": "Lehi", "source_dataset": "Utah Urban Tree Inventory", "source_department": "City of Lehi", "source_last_edit_at": "2026-03-28T17:19:55.001000+00:00"}}, {"type": "Feature", "geometry": {"type": "Point", "coordinates": [-111.85307884547609, 40.421031634286386]}, "properties": {"id": "lehi-19221", "species_group": "cherry", "scientific_name": "Prunus species", "common_name": "Cherry-Flowering", "subtype_name": "Flowering Cherry", "zip_code": "84043", "ownership": "public", "ownership_raw": "City of Lehi", "city": "Lehi", "source_dataset": "Utah Urban Tree Inventory", "source_department": "City of Lehi", "source_last_edit_at": "2026-03-28T17:19:55.001000+00:00"}}, {"type": "Feature", "geometry": {"type": "Point", "coordinates": [-111.85304791678232, 40.42106231197065]}, "properties": {"id": "lehi-19222", "species_group": "cherry", "scientific_name": "Prunus species", "common_name": "Cherry-Flowering", "subtype_name": "Flowering Cherry", "zip_code": "84043", "ownership": "public", "ownership_raw": "City of Lehi", "city": "Lehi", "source_dataset": "Utah Urban Tree Inventory", "source_department": "City of Lehi", "source_last_edit_at": "2026-03-28T17:19:55.001000+00:00"}}, {"type": "Feature", "geometry": {"type": "Point", "coordinates": [-111.85301614977502, 40.4210745913756]}, "properties": {"id": "lehi-19223", "species_group": "cherry", "scientific_name": "Prunus species", "common_name": "Cherry-Flowering", "subtype_name": "Flowering Cherry", "zip_code": "84043", "ownership": "public", "ownership_raw": "City of Lehi", "city": "Lehi", "source_dataset": "Utah Urban Tree Inventory", "source_department": "City of Lehi", "source_last_edit_at": "2026-03-28T17:19:55.001000+00:00"}}, {"type": "Feature", "geometry": {"type": "Point", "coordinates": [-111.85298999779981, 40.42104118982334]}, "properties": {"id": "lehi-19224", "species_group": "cherry", "scientific_name": "Prunus species", "common_name": "Cherry-Flowering", "subtype_name": "Flowering Cherry", "zip_code": "84043", "ownership": "public", "ownership_raw": "City of Lehi", "city": "Lehi", "source_dataset": "Utah Urban Tree Inventory", "source_department": "City of Lehi", "source_last_edit_at": "2026-03-28T17:19:55.001000+00:00"}}, {"type": "Feature", "geometry": {"type": "Point", "coordinates": [-111.85301036579364, 40.42102421616513]}, "properties": {"id": "lehi-19225", "species_group": "cherry", "scientific_name": "Prunus species", "common_name": "Cherry-Flowering", "subtype_name": "Flowering Cherry", "zip_code": "84043", "ownership": "public", "ownership_raw": "City of Lehi", "city": "Lehi", "source_dataset": "Utah Urban Tree Inventory", "source_department": "City of Lehi", "source_last_edit_at": "2026-03-28T17:19:55.001000+00:00"}}, {"type": "Feature", "geometry": {"type": "Point", "coordinates": [-111.899604061008, 40.38311421048489]}, "properties": {"id": "lehi-19346", "species_group": "cherry", "scientific_name": "Prunus species", "common_name": "Chokecherry", "subtype_name": "Chokecherry", "zip_code": "84043", "ownership": "public", "ownership_raw": "City of Lehi", "city": "Lehi", "source_dataset": "Utah Urban Tree Inventory", "source_department": "City of Lehi", "source_last_edit_at": "2026-03-28T17:19:55.001000+00:00"}}, {"type": "Feature", "geometry": {"type": "Point", "coordinates": [-111.86641462164745, 40.42062599205618]}, "properties": {"id": "lehi-20701", "species_group": "plum", "scientific_name": "Prunus species", "common_name": "Plum-Flowering", "subtype_name": "Plum-Flowering", "zip_code": "84043", "ownership": "public", "ownership_raw": "City of Lehi", "city": "Lehi", "source_dataset": "Utah Urban Tree Inventory", "source_department": "City of Lehi", "source_last_edit_at": "2026-03-28T17:19:55.001000+00:00"}}, {"type": "Feature", "geometry": {"type": "Point", "coordinates": [-111.86636734778247, 40.4206363859352]}, "properties": {"id": "lehi-20702", "species_group": "plum", "scientific_name": "Prunus species", "common_name": "Plum-Flowering", "subtype_name": "Plum-Flowering", "zip_code": "84043", "ownership": "public", "ownership_raw": "City of Lehi", "city": "Lehi", "source_dataset": "Utah Urban Tree Inventory", "source_department": "City of Lehi", "source_last_edit_at": "2026-03-28T17:19:55.001000+00:00"}}, {"type": "Feature", "geometry": {"type": "Point", "coordinates": [-111.86638126210735, 40.420633284375185]}, "properties": {"id": "lehi-20703", "species_group": "cherry", "scientific_name": "Prunus species", "common_name": "Chokecherry", "subtype_name": "Chokecherry", "zip_code": "84043", "ownership": "public", "ownership_raw": "City of Lehi", "city": "Lehi", "source_dataset": "Utah Urban Tree Inventory", "source_department": "City of Lehi", "source_last_edit_at": "2026-03-28T17:19:55.001000+00:00"}}, {"type": "Feature", "geometry": {"type": "Point", "coordinates": [-111.86649064538686, 40.42067871401941]}, "properties": {"id": "lehi-21142", "species_group": "plum", "scientific_name": "Prunus species", "common_name": "Plum-Flowering", "subtype_name": "Plum-Flowering", "zip_code": "84043", "ownership": "public", "ownership_raw": "City of Lehi", "city": "Lehi", "source_dataset": "Utah Urban Tree Inventory", "source_department": "City of Lehi", "source_last_edit_at": "2026-03-28T17:19:55.001000+00:00"}}, {"type": "Feature", "geometry": {"type": "Point", "coordinates": [-111.86657597328471, 40.420677247442114]}, "properties": {"id": "lehi-21143", "species_group": "plum", "scientific_name": "Prunus species", "common_name": "Plum-Flowering", "subtype_name": "Plum-Flowering", "zip_code": "84043", "ownership": "public", "ownership_raw": "City of Lehi", "city": "Lehi", "source_dataset": "Utah Urban Tree Inventory", "source_department": "City of Lehi", "source_last_edit_at": "2026-03-28T17:19:55.001000+00:00"}}, {"type": "Feature", "geometry": {"type": "Point", "coordinates": [-111.86656021502318, 40.4206681953171]}, "properties": {"id": "lehi-21144", "species_group": "plum", "scientific_name": "Prunus species", "common_name": "Plum-Flowering", "subtype_name": "Plum-Flowering", "zip_code": "84043", "ownership": "public", "ownership_raw": "City of Lehi", "city": "Lehi", "source_dataset": "Utah Urban Tree Inventory", "source_department": "City of Lehi", "source_last_edit_at": "2026-03-28T17:19:55.001000+00:00"}}, {"type": "Feature", "geometry": {"type": "Point", "coordinates": [-111.89343469235888, 40.408094124567484]}, "properties": {"id": "lehi-21187", "species_group": "cherry", "scientific_name": "Prunus species", "common_name": "Cherry-Flowering", "subtype_name": "Flowering Cherry", "zip_code": "84043", "ownership": "public", "ownership_raw": "City of Lehi", "city": "Lehi", "source_dataset": "Utah Urban Tree Inventory", "source_department": "City of Lehi", "source_last_edit_at": "2026-03-28T17:19:55.001000+00:00"}}, {"type": "Feature", "geometry": {"type": "Point", "coordinates": [-111.89329186425388, 40.40818146402331]}, "properties": {"id": "lehi-21189", "species_group": "crabapple", "scientific_name": "Malus species", "common_name": "Crabapple", "subtype_name": null, "zip_code": "84043", "ownership": "public", "ownership_raw": "City of Lehi", "city": "Lehi", "source_dataset": "Utah Urban Tree Inventory", "source_department": "City of Lehi", "source_last_edit_at": "2026-03-28T17:19:55.001000+00:00"}}, {"type": "Feature", "geometry": {"type": "Point", "coordinates": [-111.89335397510347, 40.408163694974256]}, "properties": {"id": "lehi-21190", "species_group": "crabapple", "scientific_name": "Malus species", "common_name": "Crabapple", "subtype_name": null, "zip_code": "84043", "ownership": "public", "ownership_raw": "City of Lehi", "city": "Lehi", "source_dataset": "Utah Urban Tree Inventory", "source_department": "City of Lehi", "source_last_edit_at": "2026-03-28T17:19:55.001000+00:00"}}, {"type": "Feature", "geometry": {"type": "Point", "coordinates": [-111.89323956163715, 40.40818955277978]}, "properties": {"id": "lehi-21192", "species_group": "cherry", "scientific_name": "Prunus species", "common_name": "Cherry-Flowering", "subtype_name": "Flowering Cherry", "zip_code": "84043", "ownership": "public", "ownership_raw": "City of Lehi", "city": "Lehi", "source_dataset": "Utah Urban Tree Inventory", "source_department": "City of Lehi", "source_last_edit_at": "2026-03-28T17:19:55.001000+00:00"}}, {"type": "Feature", "geometry": {"type": "Point", "coordinates": [-111.85057634476208, 40.386824500738506]}, "properties": {"id": "lehi-21535", "species_group": "cherry", "scientific_name": "Prunus species", "common_name": "Cherry-Flowering", "subtype_name": "Flowering Cherry", "zip_code": "84043", "ownership": "public", "ownership_raw": "City of Lehi", "city": "Lehi", "source_dataset": "Utah Urban Tree Inventory", "source_department": "City of Lehi", "source_last_edit_at": "2026-03-28T17:19:55.001000+00:00"}}, {"type": "Feature", "geometry": {"type": "Point", "coordinates": [-111.85062244539024, 40.386922652936434]}, "properties": {"id": "lehi-21536", "species_group": "crabapple", "scientific_name": "Malus species", "common_name": "Crabapple", "subtype_name": null, "zip_code": "84043", "ownership": "public", "ownership_raw": "City of Lehi", "city": "Lehi", "source_dataset": "Utah Urban Tree Inventory", "source_department": "City of Lehi", "source_last_edit_at": "2026-03-28T17:19:55.001000+00:00"}}, {"type": "Feature", "geometry": {"type": "Point", "coordinates": [-111.85057181860168, 40.38706493572093]}, "properties": {"id": "lehi-21538", "species_group": "crabapple", "scientific_name": "Malus species", "common_name": "Crabapple", "subtype_name": null, "zip_code": "84043", "ownership": "public", "ownership_raw": "City of Lehi", "city": "Lehi", "source_dataset": "Utah Urban Tree Inventory", "source_department": "City of Lehi", "source_last_edit_at": "2026-03-28T17:19:55.001000+00:00"}}, {"type": "Feature", "geometry": {"type": "Point", "coordinates": [-111.85058623569144, 40.38711895687407]}, "properties": {"id": "lehi-21539", "species_group": "cherry", "scientific_name": "Prunus species", "common_name": "Cherry-Flowering", "subtype_name": "Flowering Cherry", "zip_code": "84043", "ownership": "public", "ownership_raw": "City of Lehi", "city": "Lehi", "source_dataset": "Utah Urban Tree Inventory", "source_department": "City of Lehi", "source_last_edit_at": "2026-03-28T17:19:55.001000+00:00"}}, {"type": "Feature", "geometry": {"type": "Point", "coordinates": [-111.8501936271746, 40.38732749892326]}, "properties": {"id": "lehi-21545", "species_group": "cherry", "scientific_name": "Prunus species", "common_name": "Cherry-Flowering", "subtype_name": "Flowering Cherry", "zip_code": "84043", "ownership": "public", "ownership_raw": "City of Lehi", "city": "Lehi", "source_dataset": "Utah Urban Tree Inventory", "source_department": "City of Lehi", "source_last_edit_at": "2026-03-28T17:19:55.001000+00:00"}}, {"type": "Feature", "geometry": {"type": "Point", "coordinates": [-111.85020695493318, 40.387338479343946]}, "properties": {"id": "lehi-21546", "species_group": "cherry", "scientific_name": "Prunus species", "common_name": "Cherry-Flowering", "subtype_name": "Flowering Cherry", "zip_code": "84043", "ownership": "public", "ownership_raw": "City of Lehi", "city": "Lehi", "source_dataset": "Utah Urban Tree Inventory", "source_department": "City of Lehi", "source_last_edit_at": "2026-03-28T17:19:55.001000+00:00"}}, {"type": "Feature", "geometry": {"type": "Point", "coordinates": [-111.85024023070763, 40.387379089760884]}, "properties": {"id": "lehi-21547", "species_group": "cherry", "scientific_name": "Prunus species", "common_name": "Cherry-Flowering", "subtype_name": "Flowering Cherry", "zip_code": "84043", "ownership": "public", "ownership_raw": "City of Lehi", "city": "Lehi", "source_dataset": "Utah Urban Tree Inventory", "source_department": "City of Lehi", "source_last_edit_at": "2026-03-28T17:19:55.001000+00:00"}}, {"type": "Feature", "geometry": {"type": "Point", "coordinates": [-111.85024458957362, 40.38745176064658]}, "properties": {"id": "lehi-21548", "species_group": "cherry", "scientific_name": "Prunus species", "common_name": "Cherry-Flowering", "subtype_name": "Flowering Cherry", "zip_code": "84043", "ownership": "public", "ownership_raw": "City of Lehi", "city": "Lehi", "source_dataset": "Utah Urban Tree Inventory", "source_department": "City of Lehi", "source_last_edit_at": "2026-03-28T17:19:55.001000+00:00"}}, {"type": "Feature", "geometry": {"type": "Point", "coordinates": [-111.8502156719173, 40.38750934462852]}, "properties": {"id": "lehi-21549", "species_group": "cherry", "scientific_name": "Prunus species", "common_name": "Cherry-Flowering", "subtype_name": "Flowering Cherry", "zip_code": "84043", "ownership": "public", "ownership_raw": "City of Lehi", "city": "Lehi", "source_dataset": "Utah Urban Tree Inventory", "source_department": "City of Lehi", "source_last_edit_at": "2026-03-28T17:19:55.001000+00:00"}}, {"type": "Feature", "geometry": {"type": "Point", "coordinates": [-111.84973765156371, 40.38963239636005]}, "properties": {"id": "lehi-21567", "species_group": "crabapple", "scientific_name": "Malus species", "common_name": "Crabapple", "subtype_name": null, "zip_code": "84043", "ownership": "public", "ownership_raw": "City of Lehi", "city": "Lehi", "source_dataset": "Utah Urban Tree Inventory", "source_department": "City of Lehi", "source_last_edit_at": "2026-03-28T17:19:55.001000+00:00"}}, {"type": "Feature", "geometry": {"type": "Point", "coordinates": [-111.84773261618143, 40.39000748644975]}, "properties": {"id": "lehi-21621", "species_group": "crabapple", "scientific_name": "Malus species", "common_name": "Crabapple", "subtype_name": null, "zip_code": "84043", "ownership": "public", "ownership_raw": "City of Lehi", "city": "Lehi", "source_dataset": "Utah Urban Tree Inventory", "source_department": "City of Lehi", "source_last_edit_at": "2026-03-28T17:19:55.001000+00:00"}}, {"type": "Feature", "geometry": {"type": "Point", "coordinates": [-111.8476826606925, 40.39004864198657]}, "properties": {"id": "lehi-21622", "species_group": "crabapple", "scientific_name": "Malus species", "common_name": "Crabapple", "subtype_name": null, "zip_code": "84043", "ownership": "public", "ownership_raw": "City of Lehi", "city": "Lehi", "source_dataset": "Utah Urban Tree Inventory", "source_department": "City of Lehi", "source_last_edit_at": "2026-03-28T17:19:55.001000+00:00"}}, {"type": "Feature", "geometry": {"type": "Point", "coordinates": [-111.84770889621946, 40.390125881406476]}, "properties": {"id": "lehi-21623", "species_group": "crabapple", "scientific_name": "Malus species", "common_name": "Crabapple", "subtype_name": null, "zip_code": "84043", "ownership": "public", "ownership_raw": "City of Lehi", "city": "Lehi", "source_dataset": "Utah Urban Tree Inventory", "source_department": "City of Lehi", "source_last_edit_at": "2026-03-28T17:19:55.001000+00:00"}}, {"type": "Feature", "geometry": {"type": "Point", "coordinates": [-111.88105798959137, 40.41335454999331]}, "properties": {"id": "lehi-27886", "species_group": "crabapple", "scientific_name": "Malus species", "common_name": "Crabapple", "subtype_name": null, "zip_code": "84043", "ownership": "public", "ownership_raw": "City of Lehi", "city": "Lehi", "source_dataset": "Utah Urban Tree Inventory", "source_department": "City of Lehi", "source_last_edit_at": "2026-03-28T17:19:55.001000+00:00"}}, {"type": "Feature", "geometry": {"type": "Point", "coordinates": [-111.8653121404753, 40.409755610119106]}, "properties": {"id": "lehi-27888", "species_group": "cherry", "scientific_name": "Prunus species", "common_name": "Cherry-Flowering", "subtype_name": "Flowering Cherry", "zip_code": "84043", "ownership": "public", "ownership_raw": "City of Lehi", "city": "Lehi", "source_dataset": "Utah Urban Tree Inventory", "source_department": "City of Lehi", "source_last_edit_at": "2026-03-28T17:19:55.001000+00:00"}}, {"type": "Feature", "geometry": {"type": "Point", "coordinates": [-111.90125759031683, 40.43644646999584]}, "properties": {"id": "lehi-27919", "species_group": "crabapple", "scientific_name": "Malus species", "common_name": "Crabapple", "subtype_name": null, "zip_code": "84043", "ownership": "public", "ownership_raw": "City of Lehi", "city": "Lehi", "source_dataset": "Utah Urban Tree Inventory", "source_department": "City of Lehi", "source_last_edit_at": "2026-03-28T17:19:55.001000+00:00"}}, {"type": "Feature", "geometry": {"type": "Point", "coordinates": [-111.88115821950706, 40.4133490798449]}, "properties": {"id": "lehi-27921", "species_group": "crabapple", "scientific_name": "Malus species", "common_name": "Crabapple", "subtype_name": null, "zip_code": "84043", "ownership": "public", "ownership_raw": "City of Lehi", "city": "Lehi", "source_dataset": "Utah Urban Tree Inventory", "source_department": "City of Lehi", "source_last_edit_at": "2026-03-28T17:19:55.001000+00:00"}}, {"type": "Feature", "geometry": {"type": "Point", "coordinates": [-111.86530503981575, 40.409730229959315]}, "properties": {"id": "lehi-27930", "species_group": "cherry", "scientific_name": "Prunus species", "common_name": "Cherry-Flowering", "subtype_name": "Flowering Cherry", "zip_code": "84043", "ownership": "public", "ownership_raw": "City of Lehi", "city": "Lehi", "source_dataset": "Utah Urban Tree Inventory", "source_department": "City of Lehi", "source_last_edit_at": "2026-03-28T17:19:55.001000+00:00"}}, {"type": "Feature", "geometry": {"type": "Point", "coordinates": [-111.86535735006329, 40.40976000958374]}, "properties": {"id": "lehi-27931", "species_group": "cherry", "scientific_name": "Prunus species", "common_name": "Cherry-Flowering", "subtype_name": "Flowering Cherry", "zip_code": "84043", "ownership": "public", "ownership_raw": "City of Lehi", "city": "Lehi", "source_dataset": "Utah Urban Tree Inventory", "source_department": "City of Lehi", "source_last_edit_at": "2026-03-28T17:19:55.001000+00:00"}}, {"type": "Feature", "geometry": {"type": "Point", "coordinates": [-111.86537479996424, 40.40979239965767]}, "properties": {"id": "lehi-27932", "species_group": "cherry", "scientific_name": "Prunus species", "common_name": "Cherry-Flowering", "subtype_name": "Flowering Cherry", "zip_code": "84043", "ownership": "public", "ownership_raw": "City of Lehi", "city": "Lehi", "source_dataset": "Utah Urban Tree Inventory", "source_department": "City of Lehi", "source_last_edit_at": "2026-03-28T17:19:55.001000+00:00"}}, {"type": "Feature", "geometry": {"type": "Point", "coordinates": [-111.865407829542, 40.40978422992149]}, "properties": {"id": "lehi-27933", "species_group": "cherry", "scientific_name": "Prunus species", "common_name": "Cherry-Flowering", "subtype_name": "Flowering Cherry", "zip_code": "84043", "ownership": "public", "ownership_raw": "City of Lehi", "city": "Lehi", "source_dataset": "Utah Urban Tree Inventory", "source_department": "City of Lehi", "source_last_edit_at": "2026-03-28T17:19:55.001000+00:00"}}, {"type": "Feature", "geometry": {"type": "Point", "coordinates": [-111.86541526999966, 40.40983052011804]}, "properties": {"id": "lehi-27934", "species_group": "cherry", "scientific_name": "Prunus species", "common_name": "Cherry-Flowering", "subtype_name": "Flowering Cherry", "zip_code": "84043", "ownership": "public", "ownership_raw": "City of Lehi", "city": "Lehi", "source_dataset": "Utah Urban Tree Inventory", "source_department": "City of Lehi", "source_last_edit_at": "2026-03-28T17:19:55.001000+00:00"}}, {"type": "Feature", "geometry": {"type": "Point", "coordinates": [-111.86545857951786, 40.40984004997502]}, "properties": {"id": "lehi-27935", "species_group": "cherry", "scientific_name": "Prunus species", "common_name": "Cherry-Flowering", "subtype_name": "Flowering Cherry", "zip_code": "84043", "ownership": "public", "ownership_raw": "City of Lehi", "city": "Lehi", "source_dataset": "Utah Urban Tree Inventory", "source_department": "City of Lehi", "source_last_edit_at": "2026-03-28T17:19:55.001000+00:00"}}, {"type": "Feature", "geometry": {"type": "Point", "coordinates": [-111.86545809034897, 40.40987482026024]}, "properties": {"id": "lehi-27936", "species_group": "cherry", "scientific_name": "Prunus species", "common_name": "Cherry-Flowering", "subtype_name": "Flowering Cherry", "zip_code": "84043", "ownership": "public", "ownership_raw": "City of Lehi", "city": "Lehi", "source_dataset": "Utah Urban Tree Inventory", "source_department": "City of Lehi", "source_last_edit_at": "2026-03-28T17:19:55.001000+00:00"}}, {"type": "Feature", "geometry": {"type": "Point", "coordinates": [-111.86549960028906, 40.40986935998746]}, "properties": {"id": "lehi-27937", "species_group": "cherry", "scientific_name": "Prunus species", "common_name": "Cherry-Flowering", "subtype_name": "Flowering Cherry", "zip_code": "84043", "ownership": "public", "ownership_raw": "City of Lehi", "city": "Lehi", "source_dataset": "Utah Urban Tree Inventory", "source_department": "City of Lehi", "source_last_edit_at": "2026-03-28T17:19:55.001000+00:00"}}, {"type": "Feature", "geometry": {"type": "Point", "coordinates": [-111.8654916695828, 40.40991727965593]}, "properties": {"id": "lehi-27938", "species_group": "cherry", "scientific_name": "Prunus species", "common_name": "Cherry-Flowering", "subtype_name": "Flowering Cherry", "zip_code": "84043", "ownership": "public", "ownership_raw": "City of Lehi", "city": "Lehi", "source_dataset": "Utah Urban Tree Inventory", "source_department": "City of Lehi", "source_last_edit_at": "2026-03-28T17:19:55.001000+00:00"}}, {"type": "Feature", "geometry": {"type": "Point", "coordinates": [-111.86553430001547, 40.409872880400826]}, "properties": {"id": "lehi-27939", "species_group": "cherry", "scientific_name": "Prunus species", "common_name": "Cherry-Flowering", "subtype_name": "Flowering Cherry", "zip_code": "84043", "ownership": "public", "ownership_raw": "City of Lehi", "city": "Lehi", "source_dataset": "Utah Urban Tree Inventory", "source_department": "City of Lehi", "source_last_edit_at": "2026-03-28T17:19:55.001000+00:00"}}, {"type": "Feature", "geometry": {"type": "Point", "coordinates": [-111.86557681059111, 40.40989695041037]}, "properties": {"id": "lehi-27940", "species_group": "cherry", "scientific_name": "Prunus species", "common_name": "Cherry-Flowering", "subtype_name": "Flowering Cherry", "zip_code": "84043", "ownership": "public", "ownership_raw": "City of Lehi", "city": "Lehi", "source_dataset": "Utah Urban Tree Inventory", "source_department": "City of Lehi", "source_last_edit_at": "2026-03-28T17:19:55.001000+00:00"}}, {"type": "Feature", "geometry": {"type": "Point", "coordinates": [-111.8655969302337, 40.40993717000216]}, "properties": {"id": "lehi-27941", "species_group": "cherry", "scientific_name": "Prunus species", "common_name": "Cherry-Flowering", "subtype_name": "Flowering Cherry", "zip_code": "84043", "ownership": "public", "ownership_raw": "City of Lehi", "city": "Lehi", "source_dataset": "Utah Urban Tree Inventory", "source_department": "City of Lehi", "source_last_edit_at": "2026-03-28T17:19:55.001000+00:00"}}, {"type": "Feature", "geometry": {"type": "Point", "coordinates": [-111.86560360968808, 40.40997482985727]}, "properties": {"id": "lehi-27942", "species_group": "cherry", "scientific_name": "Prunus species", "common_name": "Cherry-Flowering", "subtype_name": "Flowering Cherry", "zip_code": "84043", "ownership": "public", "ownership_raw": "City of Lehi", "city": "Lehi", "source_dataset": "Utah Urban Tree Inventory", "source_department": "City of Lehi", "source_last_edit_at": "2026-03-28T17:19:55.001000+00:00"}}, {"type": "Feature", "geometry": {"type": "Point", "coordinates": [-111.86562744977876, 40.40993638024713]}, "properties": {"id": "lehi-27943", "species_group": "cherry", "scientific_name": "Prunus species", "common_name": "Cherry-Flowering", "subtype_name": "Flowering Cherry", "zip_code": "84043", "ownership": "public", "ownership_raw": "City of Lehi", "city": "Lehi", "source_dataset": "Utah Urban Tree Inventory", "source_department": "City of Lehi", "source_last_edit_at": "2026-03-28T17:19:55.001000+00:00"}}, {"type": "Feature", "geometry": {"type": "Point", "coordinates": [-111.8656499799529, 40.4099871096963]}, "properties": {"id": "lehi-27944", "species_group": "cherry", "scientific_name": "Prunus species", "common_name": "Cherry-Flowering", "subtype_name": "Flowering Cherry", "zip_code": "84043", "ownership": "public", "ownership_raw": "City of Lehi", "city": "Lehi", "source_dataset": "Utah Urban Tree Inventory", "source_department": "City of Lehi", "source_last_edit_at": "2026-03-28T17:19:55.001000+00:00"}}, {"type": "Feature", "geometry": {"type": "Point", "coordinates": [-111.86565316021759, 40.410015200263786]}, "properties": {"id": "lehi-27945", "species_group": "cherry", "scientific_name": "Prunus species", "common_name": "Cherry-Flowering", "subtype_name": "Flowering Cherry", "zip_code": "84043", "ownership": "public", "ownership_raw": "City of Lehi", "city": "Lehi", "source_dataset": "Utah Urban Tree Inventory", "source_department": "City of Lehi", "source_last_edit_at": "2026-03-28T17:19:55.001000+00:00"}}, {"type": "Feature", "geometry": {"type": "Point", "coordinates": [-111.88048890962548, 40.37804893029202]}, "properties": {"id": "lehi-27952", "species_group": "cherry", "scientific_name": "Prunus species", "common_name": "Chokecherry", "subtype_name": "Chokecherry", "zip_code": "84043", "ownership": "public", "ownership_raw": "City of Lehi", "city": "Lehi", "source_dataset": "Utah Urban Tree Inventory", "source_department": "City of Lehi", "source_last_edit_at": "2026-03-28T17:19:55.001000+00:00"}}, {"type": "Feature", "geometry": {"type": "Point", "coordinates": [-111.85811014970594, 40.3625924296966]}, "properties": {"id": "lehi-27964", "species_group": "crabapple", "scientific_name": "Malus species", "common_name": "Crabapple", "subtype_name": null, "zip_code": "84043", "ownership": "public", "ownership_raw": "City of Lehi", "city": "Lehi", "source_dataset": "Utah Urban Tree Inventory", "source_department": "City of Lehi", "source_last_edit_at": "2026-03-28T17:19:55.001000+00:00"}}, {"type": "Feature", "geometry": {"type": "Point", "coordinates": [-111.85828802027757, 40.362500539752894]}, "properties": {"id": "lehi-27965", "species_group": "cherry", "scientific_name": "Prunus species", "common_name": "Cherry-Flowering", "subtype_name": "Flowering Cherry", "zip_code": "84043", "ownership": "public", "ownership_raw": "City of Lehi", "city": "Lehi", "source_dataset": "Utah Urban Tree Inventory", "source_department": "City of Lehi", "source_last_edit_at": "2026-03-28T17:19:55.001000+00:00"}}, {"type": "Feature", "geometry": {"type": "Point", "coordinates": [-111.8585406896058, 40.362385789613796]}, "properties": {"id": "lehi-27966", "species_group": "cherry", "scientific_name": "Prunus species", "common_name": "Cherry-Flowering", "subtype_name": "Flowering Cherry", "zip_code": "84043", "ownership": "public", "ownership_raw": "City of Lehi", "city": "Lehi", "source_dataset": "Utah Urban Tree Inventory", "source_department": "City of Lehi", "source_last_edit_at": "2026-03-28T17:19:55.001000+00:00"}}, {"type": "Feature", "geometry": {"type": "Point", "coordinates": [-111.85997194995822, 40.36196744002148]}, "properties": {"id": "lehi-27968", "species_group": "crabapple", "scientific_name": "Malus species", "common_name": "Crabapple", "subtype_name": null, "zip_code": "84043", "ownership": "public", "ownership_raw": "City of Lehi", "city": "Lehi", "source_dataset": "Utah Urban Tree Inventory", "source_department": "City of Lehi", "source_last_edit_at": "2026-03-28T17:19:55.001000+00:00"}}, {"type": "Feature", "geometry": {"type": "Point", "coordinates": [-111.85983007009237, 40.36192020993174]}, "properties": {"id": "lehi-27969", "species_group": "crabapple", "scientific_name": "Malus species", "common_name": "Crabapple", "subtype_name": null, "zip_code": "84043", "ownership": "public", "ownership_raw": "City of Lehi", "city": "Lehi", "source_dataset": "Utah Urban Tree Inventory", "source_department": "City of Lehi", "source_last_edit_at": "2026-03-28T17:19:55.001000+00:00"}}, {"type": "Feature", "geometry": {"type": "Point", "coordinates": [-111.85974406036047, 40.361954239695066]}, "properties": {"id": "lehi-27970", "species_group": "crabapple", "scientific_name": "Malus species", "common_name": "Crabapple", "subtype_name": null, "zip_code": "84043", "ownership": "public", "ownership_raw": "City of Lehi", "city": "Lehi", "source_dataset": "Utah Urban Tree Inventory", "source_department": "City of Lehi", "source_last_edit_at": "2026-03-28T17:19:55.001000+00:00"}}, {"type": "Feature", "geometry": {"type": "Point", "coordinates": [-111.85964727030634, 40.361976089980864]}, "properties": {"id": "lehi-27971", "species_group": "cherry", "scientific_name": "Prunus species", "common_name": "Cherry-Flowering", "subtype_name": "Flowering Cherry", "zip_code": "84043", "ownership": "public", "ownership_raw": "City of Lehi", "city": "Lehi", "source_dataset": "Utah Urban Tree Inventory", "source_department": "City of Lehi", "source_last_edit_at": "2026-03-28T17:19:55.001000+00:00"}}, {"type": "Feature", "geometry": {"type": "Point", "coordinates": [-111.85955652989885, 40.36200690970083]}, "properties": {"id": "lehi-27972", "species_group": "crabapple", "scientific_name": "Malus species", "common_name": "Crabapple", "subtype_name": null, "zip_code": "84043", "ownership": "public", "ownership_raw": "City of Lehi", "city": "Lehi", "source_dataset": "Utah Urban Tree Inventory", "source_department": "City of Lehi", "source_last_edit_at": "2026-03-28T17:19:55.001000+00:00"}}, {"type": "Feature", "geometry": {"type": "Point", "coordinates": [-111.84166600986673, 40.406492399671855]}, "properties": {"id": "lehi-37822", "species_group": "crabapple", "scientific_name": "Malus species", "common_name": "Crabapple", "subtype_name": null, "zip_code": "84043", "ownership": "public", "ownership_raw": "City of Lehi", "city": "Lehi", "source_dataset": "Utah Urban Tree Inventory", "source_department": "City of Lehi", "source_last_edit_at": "2026-03-28T17:19:55.001000+00:00"}}, {"type": "Feature", "geometry": {"type": "Point", "coordinates": [-111.8415723205473, 40.406395789723675]}, "properties": {"id": "lehi-37823", "species_group": "crabapple", "scientific_name": "Malus species", "common_name": "Crabapple", "subtype_name": null, "zip_code": "84043", "ownership": "public", "ownership_raw": "City of Lehi", "city": "Lehi", "source_dataset": "Utah Urban Tree Inventory", "source_department": "City of Lehi", "source_last_edit_at": "2026-03-28T17:19:55.001000+00:00"}}, {"type": "Feature", "geometry": {"type": "Point", "coordinates": [-111.86382947035868, 40.38819660972468]}, "properties": {"id": "lehi-37964", "species_group": "cherry", "scientific_name": "Prunus species", "common_name": "Chokecherry", "subtype_name": "Chokecherry", "zip_code": "84043", "ownership": "public", "ownership_raw": "City of Lehi", "city": "Lehi", "source_dataset": "Utah Urban Tree Inventory", "source_department": "City of Lehi", "source_last_edit_at": "2026-03-28T17:19:55.001000+00:00"}}, {"type": "Feature", "geometry": {"type": "Point", "coordinates": [-111.86693047017324, 40.3958369198291]}, "properties": {"id": "lehi-37965", "species_group": "crabapple", "scientific_name": "Malus species", "common_name": "Crabapple", "subtype_name": null, "zip_code": "84043", "ownership": "public", "ownership_raw": "City of Lehi", "city": "Lehi", "source_dataset": "Utah Urban Tree Inventory", "source_department": "City of Lehi", "source_last_edit_at": "2026-03-28T17:19:55.001000+00:00"}}, {"type": "Feature", "geometry": {"type": "Point", "coordinates": [-111.86691801956896, 40.396238629813105]}, "properties": {"id": "lehi-37966", "species_group": "cherry", "scientific_name": "Prunus species", "common_name": "Cherry-Flowering", "subtype_name": "Flowering Cherry", "zip_code": "84043", "ownership": "public", "ownership_raw": "City of Lehi", "city": "Lehi", "source_dataset": "Utah Urban Tree Inventory", "source_department": "City of Lehi", "source_last_edit_at": "2026-03-28T17:19:55.001000+00:00"}}, {"type": "Feature", "geometry": {"type": "Point", "coordinates": [-111.8668956904093, 40.39640778027586]}, "properties": {"id": "lehi-37967", "species_group": "crabapple", "scientific_name": "Malus species", "common_name": "Crabapple", "subtype_name": null, "zip_code": "84043", "ownership": "public", "ownership_raw": "City of Lehi", "city": "Lehi", "source_dataset": "Utah Urban Tree Inventory", "source_department": "City of Lehi", "source_last_edit_at": "2026-03-28T17:19:55.001000+00:00"}}, {"type": "Feature", "geometry": {"type": "Point", "coordinates": [-111.86335939985379, 40.387769830142226]}, "properties": {"id": "lehi-37968", "species_group": "cherry", "scientific_name": "Prunus species", "common_name": "Chokecherry", "subtype_name": "Chokecherry", "zip_code": "84043", "ownership": "public", "ownership_raw": "City of Lehi", "city": "Lehi", "source_dataset": "Utah Urban Tree Inventory", "source_department": "City of Lehi", "source_last_edit_at": "2026-03-28T17:19:55.001000+00:00"}}, {"type": "Feature", "geometry": {"type": "Point", "coordinates": [-111.86691759994936, 40.39589659026239]}, "properties": {"id": "lehi-37969", "species_group": "crabapple", "scientific_name": "Malus species", "common_name": "Crabapple", "subtype_name": null, "zip_code": "84043", "ownership": "public", "ownership_raw": "City of Lehi", "city": "Lehi", "source_dataset": "Utah Urban Tree Inventory", "source_department": "City of Lehi", "source_last_edit_at": "2026-03-28T17:19:55.001000+00:00"}}, {"type": "Feature", "geometry": {"type": "Point", "coordinates": [-111.86689895972512, 40.39599790039387]}, "properties": {"id": "lehi-37970", "species_group": "crabapple", "scientific_name": "Malus species", "common_name": "Crabapple", "subtype_name": null, "zip_code": "84043", "ownership": "public", "ownership_raw": "City of Lehi", "city": "Lehi", "source_dataset": "Utah Urban Tree Inventory", "source_department": "City of Lehi", "source_last_edit_at": "2026-03-28T17:19:55.001000+00:00"}}, {"type": "Feature", "geometry": {"type": "Point", "coordinates": [-111.86692126974596, 40.396091850340085]}, "properties": {"id": "lehi-37971", "species_group": "cherry", "scientific_name": "Prunus species", "common_name": "Cherry-Flowering", "subtype_name": "Flowering Cherry", "zip_code": "84043", "ownership": "public", "ownership_raw": "City of Lehi", "city": "Lehi", "source_dataset": "Utah Urban Tree Inventory", "source_department": "City of Lehi", "source_last_edit_at": "2026-03-28T17:19:55.001000+00:00"}}, {"type": "Feature", "geometry": {"type": "Point", "coordinates": [-111.86692985972641, 40.396166720246825]}, "properties": {"id": "lehi-37972", "species_group": "cherry", "scientific_name": "Prunus species", "common_name": "Cherry-Flowering", "subtype_name": "Flowering Cherry", "zip_code": "84043", "ownership": "public", "ownership_raw": "City of Lehi", "city": "Lehi", "source_dataset": "Utah Urban Tree Inventory", "source_department": "City of Lehi", "source_last_edit_at": "2026-03-28T17:19:55.001000+00:00"}}, {"type": "Feature", "geometry": {"type": "Point", "coordinates": [-111.86690836031364, 40.3963096996019]}, "properties": {"id": "lehi-37973", "species_group": "crabapple", "scientific_name": "Malus species", "common_name": "Crabapple", "subtype_name": null, "zip_code": "84043", "ownership": "public", "ownership_raw": "City of Lehi", "city": "Lehi", "source_dataset": "Utah Urban Tree Inventory", "source_department": "City of Lehi", "source_last_edit_at": "2026-03-28T17:19:55.001000+00:00"}}, {"type": "Feature", "geometry": {"type": "Point", "coordinates": [-111.86690982039703, 40.39648371044729]}, "properties": {"id": "lehi-37974", "species_group": "crabapple", "scientific_name": "Malus species", "common_name": "Crabapple", "subtype_name": null, "zip_code": "84043", "ownership": "public", "ownership_raw": "City of Lehi", "city": "Lehi", "source_dataset": "Utah Urban Tree Inventory", "source_department": "City of Lehi", "source_last_edit_at": "2026-03-28T17:19:55.001000+00:00"}}, {"type": "Feature", "geometry": {"type": "Point", "coordinates": [-111.84243599993081, 40.405078149899175]}, "properties": {"id": "lehi-38004", "species_group": "cherry", "scientific_name": "Prunus species", "common_name": "Chokecherry", "subtype_name": "Chokecherry", "zip_code": "84043", "ownership": "public", "ownership_raw": "City of Lehi", "city": "Lehi", "source_dataset": "Utah Urban Tree Inventory", "source_department": "City of Lehi", "source_last_edit_at": "2026-03-28T17:19:55.001000+00:00"}}, {"type": "Feature", "geometry": {"type": "Point", "coordinates": [-111.84211101006268, 40.405049310140846]}, "properties": {"id": "lehi-38006", "species_group": "cherry", "scientific_name": "Prunus species", "common_name": "Chokecherry", "subtype_name": "Chokecherry", "zip_code": "84043", "ownership": "public", "ownership_raw": "City of Lehi", "city": "Lehi", "source_dataset": "Utah Urban Tree Inventory", "source_department": "City of Lehi", "source_last_edit_at": "2026-03-28T17:19:55.001000+00:00"}}, {"type": "Feature", "geometry": {"type": "Point", "coordinates": [-111.84159723004844, 40.404764100404485]}, "properties": {"id": "lehi-38010", "species_group": "cherry", "scientific_name": "Prunus species", "common_name": "Chokecherry", "subtype_name": "Chokecherry", "zip_code": "84043", "ownership": "public", "ownership_raw": "City of Lehi", "city": "Lehi", "source_dataset": "Utah Urban Tree Inventory", "source_department": "City of Lehi", "source_last_edit_at": "2026-03-28T17:19:55.001000+00:00"}}, {"type": "Feature", "geometry": {"type": "Point", "coordinates": [-111.84102771006953, 40.40443590009691]}, "properties": {"id": "lehi-38014", "species_group": "cherry", "scientific_name": "Prunus species", "common_name": "Chokecherry", "subtype_name": "Chokecherry", "zip_code": "84043", "ownership": "public", "ownership_raw": "City of Lehi", "city": "Lehi", "source_dataset": "Utah Urban Tree Inventory", "source_department": "City of Lehi", "source_last_edit_at": "2026-03-28T17:19:55.001000+00:00"}}, {"type": "Feature", "geometry": {"type": "Point", "coordinates": [-111.84061200042645, 40.404325989778705]}, "properties": {"id": "lehi-38017", "species_group": "cherry", "scientific_name": "Prunus species", "common_name": "Chokecherry", "subtype_name": "Chokecherry", "zip_code": "84043", "ownership": "public", "ownership_raw": "City of Lehi", "city": "Lehi", "source_dataset": "Utah Urban Tree Inventory", "source_department": "City of Lehi", "source_last_edit_at": "2026-03-28T17:19:55.001000+00:00"}}, {"type": "Feature", "geometry": {"type": "Point", "coordinates": [-111.8407113700421, 40.40376627044893]}, "properties": {"id": "lehi-38036", "species_group": "crabapple", "scientific_name": "Malus species", "common_name": "Crabapple", "subtype_name": null, "zip_code": "84043", "ownership": "public", "ownership_raw": "City of Lehi", "city": "Lehi", "source_dataset": "Utah Urban Tree Inventory", "source_department": "City of Lehi", "source_last_edit_at": "2026-03-28T17:19:55.001000+00:00"}}, {"type": "Feature", "geometry": {"type": "Point", "coordinates": [-111.84118310003164, 40.40369219975842]}, "properties": {"id": "lehi-38042", "species_group": "plum", "scientific_name": "Prunus species", "common_name": "Plum-Flowering", "subtype_name": "Plum-Flowering", "zip_code": "84043", "ownership": "public", "ownership_raw": "City of Lehi", "city": "Lehi", "source_dataset": "Utah Urban Tree Inventory", "source_department": "City of Lehi", "source_last_edit_at": "2026-03-28T17:19:55.001000+00:00"}}, {"type": "Feature", "geometry": {"type": "Point", "coordinates": [-111.84121245014803, 40.40340390039444]}, "properties": {"id": "lehi-38048", "species_group": "cherry", "scientific_name": "Prunus species", "common_name": "Cherry-Flowering", "subtype_name": "Flowering Cherry", "zip_code": "84043", "ownership": "public", "ownership_raw": "City of Lehi", "city": "Lehi", "source_dataset": "Utah Urban Tree Inventory", "source_department": "City of Lehi", "source_last_edit_at": "2026-03-28T17:19:55.001000+00:00"}}, {"type": "Feature", "geometry": {"type": "Point", "coordinates": [-111.85948155022723, 40.39263917966759]}, "properties": {"id": "lehi-38061", "species_group": "crabapple", "scientific_name": "Malus species", "common_name": "Crabapple", "subtype_name": null, "zip_code": "84043", "ownership": "public", "ownership_raw": "City of Lehi", "city": "Lehi", "source_dataset": "Utah Urban Tree Inventory", "source_department": "City of Lehi", "source_last_edit_at": "2026-03-28T17:19:55.001000+00:00"}}, {"type": "Feature", "geometry": {"type": "Point", "coordinates": [-111.84823890003597, 40.39409528026266]}, "properties": {"id": "lehi-38141", "species_group": "crabapple", "scientific_name": "Malus species", "common_name": "Crabapple", "subtype_name": null, "zip_code": "84043", "ownership": "public", "ownership_raw": "City of Lehi", "city": "Lehi", "source_dataset": "Utah Urban Tree Inventory", "source_department": "City of Lehi", "source_last_edit_at": "2026-03-28T17:19:55.001000+00:00"}}, {"type": "Feature", "geometry": {"type": "Point", "coordinates": [-111.84803951968658, 40.39409724993219]}, "properties": {"id": "lehi-38166", "species_group": "crabapple", "scientific_name": "Malus species", "common_name": "Crabapple", "subtype_name": null, "zip_code": "84043", "ownership": "public", "ownership_raw": "City of Lehi", "city": "Lehi", "source_dataset": "Utah Urban Tree Inventory", "source_department": "City of Lehi", "source_last_edit_at": "2026-03-28T17:19:55.001000+00:00"}}, {"type": "Feature", "geometry": {"type": "Point", "coordinates": [-111.84209933993206, 40.406921589581295]}, "properties": {"id": "lehi-38202", "species_group": "cherry", "scientific_name": "Prunus species", "common_name": "Chokecherry", "subtype_name": "Chokecherry", "zip_code": "84043", "ownership": "public", "ownership_raw": "City of Lehi", "city": "Lehi", "source_dataset": "Utah Urban Tree Inventory", "source_department": "City of Lehi", "source_last_edit_at": "2026-03-28T17:19:55.001000+00:00"}}, {"type": "Feature", "geometry": {"type": "Point", "coordinates": [-111.85002253053763, 40.402045559908856]}, "properties": {"id": "lehi-38259", "species_group": "crabapple", "scientific_name": "Malus species", "common_name": "Crabapple", "subtype_name": null, "zip_code": "84043", "ownership": "public", "ownership_raw": "City of Lehi", "city": "Lehi", "source_dataset": "Utah Urban Tree Inventory", "source_department": "City of Lehi", "source_last_edit_at": "2026-03-28T17:19:55.001000+00:00"}}, {"type": "Feature", "geometry": {"type": "Point", "coordinates": [-111.85005005014118, 40.40207953959829]}, "properties": {"id": "lehi-38260", "species_group": "crabapple", "scientific_name": "Malus species", "common_name": "Crabapple", "subtype_name": null, "zip_code": "84043", "ownership": "public", "ownership_raw": "City of Lehi", "city": "Lehi", "source_dataset": "Utah Urban Tree Inventory", "source_department": "City of Lehi", "source_last_edit_at": "2026-03-28T17:19:55.001000+00:00"}}, {"type": "Feature", "geometry": {"type": "Point", "coordinates": [-111.85000848029269, 40.40207237042732]}, "properties": {"id": "lehi-38261", "species_group": "crabapple", "scientific_name": "Malus species", "common_name": "Crabapple", "subtype_name": null, "zip_code": "84043", "ownership": "public", "ownership_raw": "City of Lehi", "city": "Lehi", "source_dataset": "Utah Urban Tree Inventory", "source_department": "City of Lehi", "source_last_edit_at": "2026-03-28T17:19:55.001000+00:00"}}, {"type": "Feature", "geometry": {"type": "Point", "coordinates": [-111.85016573988797, 40.40220528999424]}, "properties": {"id": "lehi-38263", "species_group": "cherry", "scientific_name": "Prunus species", "common_name": "Chokecherry", "subtype_name": "Chokecherry", "zip_code": "84043", "ownership": "public", "ownership_raw": "City of Lehi", "city": "Lehi", "source_dataset": "Utah Urban Tree Inventory", "source_department": "City of Lehi", "source_last_edit_at": "2026-03-28T17:19:55.001000+00:00"}}, {"type": "Feature", "geometry": {"type": "Point", "coordinates": [-111.85005364945978, 40.40236136018276]}, "properties": {"id": "lehi-38265", "species_group": "crabapple", "scientific_name": "Malus species", "common_name": "Crabapple", "subtype_name": null, "zip_code": "84043", "ownership": "public", "ownership_raw": "City of Lehi", "city": "Lehi", "source_dataset": "Utah Urban Tree Inventory", "source_department": "City of Lehi", "source_last_edit_at": "2026-03-28T17:19:55.001000+00:00"}}, {"type": "Feature", "geometry": {"type": "Point", "coordinates": [-111.85039845036366, 40.402335649926876]}, "properties": {"id": "lehi-38270", "species_group": "cherry", "scientific_name": "Prunus species", "common_name": "Chokecherry", "subtype_name": "Chokecherry", "zip_code": "84043", "ownership": "public", "ownership_raw": "City of Lehi", "city": "Lehi", "source_dataset": "Utah Urban Tree Inventory", "source_department": "City of Lehi", "source_last_edit_at": "2026-03-28T17:19:55.001000+00:00"}}, {"type": "Feature", "geometry": {"type": "Point", "coordinates": [-111.85055648960257, 40.402493980351615]}, "properties": {"id": "lehi-38272", "species_group": "crabapple", "scientific_name": "Malus species", "common_name": "Crabapple", "subtype_name": null, "zip_code": "84043", "ownership": "public", "ownership_raw": "City of Lehi", "city": "Lehi", "source_dataset": "Utah Urban Tree Inventory", "source_department": "City of Lehi", "source_last_edit_at": "2026-03-28T17:19:55.001000+00:00"}}, {"type": "Feature", "geometry": {"type": "Point", "coordinates": [-111.86640832958675, 40.420684620108894]}, "properties": {"id": "lehi-62770", "species_group": "plum", "scientific_name": "Prunus species", "common_name": "Plum-Flowering", "subtype_name": "Plum-Flowering", "zip_code": "84043", "ownership": "public", "ownership_raw": "City of Lehi", "city": "Lehi", "source_dataset": "Utah Urban Tree Inventory", "source_department": "City of Lehi", "source_last_edit_at": "2026-03-28T17:19:55.001000+00:00"}}, {"type": "Feature", "geometry": {"type": "Point", "coordinates": [-111.89172281027881, 40.44515695968563]}, "properties": {"id": "lehi-62780", "species_group": "cherry", "scientific_name": "Prunus species", "common_name": "Chokecherry", "subtype_name": "Chokecherry", "zip_code": "84043", "ownership": "public", "ownership_raw": "City of Lehi", "city": "Lehi", "source_dataset": "Utah Urban Tree Inventory", "source_department": "City of Lehi", "source_last_edit_at": "2026-03-28T17:19:55.001000+00:00"}}, {"type": "Feature", "geometry": {"type": "Point", "coordinates": [-111.89168717001186, 40.44514674010905]}, "properties": {"id": "lehi-62802", "species_group": "cherry", "scientific_name": "Prunus species", "common_name": "Chokecherry", "subtype_name": "Chokecherry", "zip_code": "84043", "ownership": "public", "ownership_raw": "City of Lehi", "city": "Lehi", "source_dataset": "Utah Urban Tree Inventory", "source_department": "City of Lehi", "source_last_edit_at": "2026-03-28T17:19:55.001000+00:00"}}, {"type": "Feature", "geometry": {"type": "Point", "coordinates": [-111.8916664597638, 40.44508783008624]}, "properties": {"id": "lehi-62803", "species_group": "cherry", "scientific_name": "Prunus species", "common_name": "Chokecherry", "subtype_name": "Chokecherry", "zip_code": "84043", "ownership": "public", "ownership_raw": "City of Lehi", "city": "Lehi", "source_dataset": "Utah Urban Tree Inventory", "source_department": "City of Lehi", "source_last_edit_at": "2026-03-28T17:19:55.001000+00:00"}}, {"type": "Feature", "geometry": {"type": "Point", "coordinates": [-111.89165242014744, 40.4450553296456]}, "properties": {"id": "lehi-62804", "species_group": "cherry", "scientific_name": "Prunus species", "common_name": "Chokecherry", "subtype_name": "Chokecherry", "zip_code": "84043", "ownership": "public", "ownership_raw": "City of Lehi", "city": "Lehi", "source_dataset": "Utah Urban Tree Inventory", "source_department": "City of Lehi", "source_last_edit_at": "2026-03-28T17:19:55.001000+00:00"}}, {"type": "Feature", "geometry": {"type": "Point", "coordinates": [-111.88105324015098, 40.41409509960242]}, "properties": {"id": "lehi-62842", "species_group": "cherry", "scientific_name": "Prunus species", "common_name": "Chokecherry", "subtype_name": "Chokecherry", "zip_code": "84043", "ownership": "public", "ownership_raw": "City of Lehi", "city": "Lehi", "source_dataset": "Utah Urban Tree Inventory", "source_department": "City of Lehi", "source_last_edit_at": "2026-03-28T17:19:55.001000+00:00"}}, {"type": "Feature", "geometry": {"type": "Point", "coordinates": [-111.88102895049713, 40.41343967017062]}, "properties": {"id": "lehi-62843", "species_group": "cherry", "scientific_name": "Prunus species", "common_name": "Chokecherry", "subtype_name": "Chokecherry", "zip_code": "84043", "ownership": "public", "ownership_raw": "City of Lehi", "city": "Lehi", "source_dataset": "Utah Urban Tree Inventory", "source_department": "City of Lehi", "source_last_edit_at": "2026-03-28T17:19:55.001000+00:00"}}, {"type": "Feature", "geometry": {"type": "Point", "coordinates": [-111.85933126018531, 40.36287928993861]}, "properties": {"id": "lehi-64128", "species_group": "cherry", "scientific_name": "Prunus species", "common_name": "Cherry-Flowering", "subtype_name": "Flowering Cherry", "zip_code": "84043", "ownership": "public", "ownership_raw": "City of Lehi", "city": "Lehi", "source_dataset": "Utah Urban Tree Inventory", "source_department": "City of Lehi", "source_last_edit_at": "2026-03-28T17:19:55.001000+00:00"}}, {"type": "Feature", "geometry": {"type": "Point", "coordinates": [-111.860055369722, 40.36280456972032]}, "properties": {"id": "lehi-64178", "species_group": "cherry", "scientific_name": "Prunus species", "common_name": "Cherry-Flowering", "subtype_name": "Flowering Cherry", "zip_code": "84043", "ownership": "public", "ownership_raw": "City of Lehi", "city": "Lehi", "source_dataset": "Utah Urban Tree Inventory", "source_department": "City of Lehi", "source_last_edit_at": "2026-03-28T17:19:55.001000+00:00"}}, {"type": "Feature", "geometry": {"type": "Point", "coordinates": [-111.86156563000465, 40.39324104023119]}, "properties": {"id": "lehi-64187", "species_group": "crabapple", "scientific_name": "Malus species", "common_name": "Crabapple", "subtype_name": null, "zip_code": "84043", "ownership": "public", "ownership_raw": "City of Lehi", "city": "Lehi", "source_dataset": "Utah Urban Tree Inventory", "source_department": "City of Lehi", "source_last_edit_at": "2026-03-28T17:19:55.001000+00:00"}}, {"type": "Feature", "geometry": {"type": "Point", "coordinates": [-111.85894249012578, 40.392056090415636]}, "properties": {"id": "lehi-64257", "species_group": "plum", "scientific_name": "Prunus species", "common_name": "Plum-Flowering", "subtype_name": "Plum-Flowering", "zip_code": "84043", "ownership": "public", "ownership_raw": "City of Lehi", "city": "Lehi", "source_dataset": "Utah Urban Tree Inventory", "source_department": "City of Lehi", "source_last_edit_at": "2026-03-28T17:19:55.001000+00:00"}}, {"type": "Feature", "geometry": {"type": "Point", "coordinates": [-111.8591298103193, 40.39212289981614]}, "properties": {"id": "lehi-64258", "species_group": "crabapple", "scientific_name": "Malus species", "common_name": "Crabapple", "subtype_name": null, "zip_code": "84043", "ownership": "public", "ownership_raw": "City of Lehi", "city": "Lehi", "source_dataset": "Utah Urban Tree Inventory", "source_department": "City of Lehi", "source_last_edit_at": "2026-03-28T17:19:55.001000+00:00"}}, {"type": "Feature", "geometry": {"type": "Point", "coordinates": [-111.89390912051425, 40.3858542999872]}, "properties": {"id": "lehi-64266", "species_group": "cherry", "scientific_name": "Prunus species", "common_name": "Chokecherry", "subtype_name": "Chokecherry", "zip_code": "84043", "ownership": "public", "ownership_raw": "City of Lehi", "city": "Lehi", "source_dataset": "Utah Urban Tree Inventory", "source_department": "City of Lehi", "source_last_edit_at": "2026-03-28T17:19:55.001000+00:00"}}, {"type": "Feature", "geometry": {"type": "Point", "coordinates": [-111.88401670014608, 40.37208573022577]}, "properties": {"id": "lehi-64276", "species_group": "cherry", "scientific_name": "Prunus species", "common_name": "Chokecherry", "subtype_name": "Chokecherry", "zip_code": "84043", "ownership": "public", "ownership_raw": "City of Lehi", "city": "Lehi", "source_dataset": "Utah Urban Tree Inventory", "source_department": "City of Lehi", "source_last_edit_at": "2026-03-28T17:19:55.001000+00:00"}}, {"type": "Feature", "geometry": {"type": "Point", "coordinates": [-111.88421857027161, 40.37208528957536]}, "properties": {"id": "lehi-64280", "species_group": "cherry", "scientific_name": "Prunus species", "common_name": "Chokecherry", "subtype_name": "Chokecherry", "zip_code": "84043", "ownership": "public", "ownership_raw": "City of Lehi", "city": "Lehi", "source_dataset": "Utah Urban Tree Inventory", "source_department": "City of Lehi", "source_last_edit_at": "2026-03-28T17:19:55.001000+00:00"}}, {"type": "Feature", "geometry": {"type": "Point", "coordinates": [-111.88434746040421, 40.37208870040262]}, "properties": {"id": "lehi-64281", "species_group": "cherry", "scientific_name": "Prunus species", "common_name": "Chokecherry", "subtype_name": "Chokecherry", "zip_code": "84043", "ownership": "public", "ownership_raw": "City of Lehi", "city": "Lehi", "source_dataset": "Utah Urban Tree Inventory", "source_department": "City of Lehi", "source_last_edit_at": "2026-03-28T17:19:55.001000+00:00"}}, {"type": "Feature", "geometry": {"type": "Point", "coordinates": [-111.88452151988201, 40.37225553027559]}, "properties": {"id": "lehi-64286", "species_group": "crabapple", "scientific_name": "Malus species", "common_name": "Crabapple", "subtype_name": null, "zip_code": "84043", "ownership": "public", "ownership_raw": "City of Lehi", "city": "Lehi", "source_dataset": "Utah Urban Tree Inventory", "source_department": "City of Lehi", "source_last_edit_at": "2026-03-28T17:19:55.001000+00:00"}}, {"type": "Feature", "geometry": {"type": "Point", "coordinates": [-111.8845576696219, 40.372286940390595]}, "properties": {"id": "lehi-64287", "species_group": "crabapple", "scientific_name": "Malus species", "common_name": "Crabapple", "subtype_name": null, "zip_code": "84043", "ownership": "public", "ownership_raw": "City of Lehi", "city": "Lehi", "source_dataset": "Utah Urban Tree Inventory", "source_department": "City of Lehi", "source_last_edit_at": "2026-03-28T17:19:55.001000+00:00"}}, {"type": "Feature", "geometry": {"type": "Point", "coordinates": [-111.88456059050542, 40.37230402983366]}, "properties": {"id": "lehi-64289", "species_group": "crabapple", "scientific_name": "Malus species", "common_name": "Crabapple", "subtype_name": null, "zip_code": "84043", "ownership": "public", "ownership_raw": "City of Lehi", "city": "Lehi", "source_dataset": "Utah Urban Tree Inventory", "source_department": "City of Lehi", "source_last_edit_at": "2026-03-28T17:19:55.001000+00:00"}}, {"type": "Feature", "geometry": {"type": "Point", "coordinates": [-111.88452181046793, 40.37232694007184]}, "properties": {"id": "lehi-64290", "species_group": "crabapple", "scientific_name": "Malus species", "common_name": "Crabapple", "subtype_name": null, "zip_code": "84043", "ownership": "public", "ownership_raw": "City of Lehi", "city": "Lehi", "source_dataset": "Utah Urban Tree Inventory", "source_department": "City of Lehi", "source_last_edit_at": "2026-03-28T17:19:55.001000+00:00"}}, {"type": "Feature", "geometry": {"type": "Point", "coordinates": [-111.88448061006454, 40.37232833988778]}, "properties": {"id": "lehi-64291", "species_group": "crabapple", "scientific_name": "Malus species", "common_name": "Crabapple", "subtype_name": null, "zip_code": "84043", "ownership": "public", "ownership_raw": "City of Lehi", "city": "Lehi", "source_dataset": "Utah Urban Tree Inventory", "source_department": "City of Lehi", "source_last_edit_at": "2026-03-28T17:19:55.001000+00:00"}}, {"type": "Feature", "geometry": {"type": "Point", "coordinates": [-111.8844304195561, 40.37229214972531]}, "properties": {"id": "lehi-64292", "species_group": "crabapple", "scientific_name": "Malus species", "common_name": "Crabapple", "subtype_name": null, "zip_code": "84043", "ownership": "public", "ownership_raw": "City of Lehi", "city": "Lehi", "source_dataset": "Utah Urban Tree Inventory", "source_department": "City of Lehi", "source_last_edit_at": "2026-03-28T17:19:55.001000+00:00"}}, {"type": "Feature", "geometry": {"type": "Point", "coordinates": [-111.88446855983874, 40.37225220019308]}, "properties": {"id": "lehi-64293", "species_group": "crabapple", "scientific_name": "Malus species", "common_name": "Crabapple", "subtype_name": null, "zip_code": "84043", "ownership": "public", "ownership_raw": "City of Lehi", "city": "Lehi", "source_dataset": "Utah Urban Tree Inventory", "source_department": "City of Lehi", "source_last_edit_at": "2026-03-28T17:19:55.001000+00:00"}}, {"type": "Feature", "geometry": {"type": "Point", "coordinates": [-111.88438746049535, 40.372196779657706]}, "properties": {"id": "lehi-64294", "species_group": "crabapple", "scientific_name": "Malus species", "common_name": "Crabapple", "subtype_name": null, "zip_code": "84043", "ownership": "public", "ownership_raw": "City of Lehi", "city": "Lehi", "source_dataset": "Utah Urban Tree Inventory", "source_department": "City of Lehi", "source_last_edit_at": "2026-03-28T17:19:55.001000+00:00"}}, {"type": "Feature", "geometry": {"type": "Point", "coordinates": [-111.8843315104505, 40.37225350957503]}, "properties": {"id": "lehi-64295", "species_group": "crabapple", "scientific_name": "Malus species", "common_name": "Crabapple", "subtype_name": null, "zip_code": "84043", "ownership": "public", "ownership_raw": "City of Lehi", "city": "Lehi", "source_dataset": "Utah Urban Tree Inventory", "source_department": "City of Lehi", "source_last_edit_at": "2026-03-28T17:19:55.001000+00:00"}}, {"type": "Feature", "geometry": {"type": "Point", "coordinates": [-111.87457942040906, 40.386589060355774]}, "properties": {"id": "lehi-64310", "species_group": "cherry", "scientific_name": "Prunus species", "common_name": "Chokecherry", "subtype_name": "Chokecherry", "zip_code": "84043", "ownership": "public", "ownership_raw": "City of Lehi", "city": "Lehi", "source_dataset": "Utah Urban Tree Inventory", "source_department": "City of Lehi", "source_last_edit_at": "2026-03-28T17:19:55.001000+00:00"}}]}