{"type": "FeatureCollection", "features": [{"type": "Feature", "geometry": {"type": "Point", "coordinates": [-122.52111310254152, 45.45287157735706]}, "properties": {"id": "happy-valley-531195", "species_group": "cherry", "scientific_name": "Prunus avium", "common_name": "cherry (edible)", "subtype_name": "cherry (edible)", "zip_code": "97086", "ownership": "public", "ownership_raw": "Oregon Department of Forestry", "city": "Happy Valley", "source_dataset": "Tree Inventory", "source_department": "Oregon Department of Forestry", "source_last_edit_at": ""}}, {"type": "Feature", "geometry": {"type": "Point", "coordinates": [-122.52211151170785, 45.44915067146587]}, "properties": {"id": "happy-valley-531252", "species_group": "magnolia", "scientific_name": "Magnolia acuminata", "common_name": "cucumbertree magnolia", "subtype_name": "cucumbertree magnolia", "zip_code": "97086", "ownership": "public", "ownership_raw": "Oregon Department of Forestry", "city": "Happy Valley", "source_dataset": "Tree Inventory", "source_department": "Oregon Department of Forestry", "source_last_edit_at": ""}}, {"type": "Feature", "geometry": {"type": "Point", "coordinates": [-122.52299082403044, 45.45216346357055]}, "properties": {"id": "happy-valley-531253", "species_group": "crabapple", "scientific_name": "Malus", "common_name": "crabapple spp", "subtype_name": "crabapple spp", "zip_code": "97086", "ownership": "public", "ownership_raw": "Oregon Department of Forestry", "city": "Happy Valley", "source_dataset": "Tree Inventory", "source_department": "Oregon Department of Forestry", "source_last_edit_at": ""}}, {"type": "Feature", "geometry": {"type": "Point", "coordinates": [-122.52296569815194, 45.45196522931398]}, "properties": {"id": "happy-valley-531273", "species_group": "crabapple", "scientific_name": "Malus", "common_name": "crabapple spp", "subtype_name": "crabapple spp", "zip_code": "97086", "ownership": "public", "ownership_raw": "Oregon Department of Forestry", "city": "Happy Valley", "source_dataset": "Tree Inventory", "source_department": "Oregon Department of Forestry", "source_last_edit_at": ""}}, {"type": "Feature", "geometry": {"type": "Point", "coordinates": [-122.52297236185474, 45.45400484087462]}, "properties": {"id": "happy-valley-531286", "species_group": "crabapple", "scientific_name": "Malus domestica", "common_name": "apple (edible)", "subtype_name": "Apple", "zip_code": "97086", "ownership": "public", "ownership_raw": "Oregon Department of Forestry", "city": "Happy Valley", "source_dataset": "Tree Inventory", "source_department": "Oregon Department of Forestry", "source_last_edit_at": ""}}, {"type": "Feature", "geometry": {"type": "Point", "coordinates": [-122.52302516482715, 45.45276658873331]}, "properties": {"id": "happy-valley-531287", "species_group": "plum", "scientific_name": "Prunus cerasifera", "common_name": "purple-leaf plum", "subtype_name": "Purpleleaf Plum", "zip_code": "97086", "ownership": "public", "ownership_raw": "Oregon Department of Forestry", "city": "Happy Valley", "source_dataset": "Tree Inventory", "source_department": "Oregon Department of Forestry", "source_last_edit_at": ""}}, {"type": "Feature", "geometry": {"type": "Point", "coordinates": [-122.52153087484419, 45.44921147117672]}, "properties": {"id": "happy-valley-531341", "species_group": "cherry", "scientific_name": "Prunus avium", "common_name": "cherry (edible)", "subtype_name": "cherry (edible)", "zip_code": "97086", "ownership": "public", "ownership_raw": "Oregon Department of Forestry", "city": "Happy Valley", "source_dataset": "Tree Inventory", "source_department": "Oregon Department of Forestry", "source_last_edit_at": ""}}, {"type": "Feature", "geometry": {"type": "Point", "coordinates": [-122.5210307108603, 45.449253568869196]}, "properties": {"id": "happy-valley-531416", "species_group": "crabapple", "scientific_name": "Malus domestica", "common_name": "apple (edible)", "subtype_name": "Apple", "zip_code": "97086", "ownership": "public", "ownership_raw": "Oregon Department of Forestry", "city": "Happy Valley", "source_dataset": "Tree Inventory", "source_department": "Oregon Department of Forestry", "source_last_edit_at": ""}}, {"type": "Feature", "geometry": {"type": "Point", "coordinates": [-122.52295978364413, 45.453771259556746]}, "properties": {"id": "happy-valley-531439", "species_group": "crabapple", "scientific_name": "Malus domestica", "common_name": "apple (edible)", "subtype_name": "Apple", "zip_code": "97086", "ownership": "public", "ownership_raw": "Oregon Department of Forestry", "city": "Happy Valley", "source_dataset": "Tree Inventory", "source_department": "Oregon Department of Forestry", "source_last_edit_at": ""}}, {"type": "Feature", "geometry": {"type": "Point", "coordinates": [-122.52012609389445, 45.45384600399492]}, "properties": {"id": "happy-valley-531494", "species_group": "crabapple", "scientific_name": "Malus domestica", "common_name": "apple (edible)", "subtype_name": "Apple", "zip_code": "97086", "ownership": "public", "ownership_raw": "Oregon Department of Forestry", "city": "Happy Valley", "source_dataset": "Tree Inventory", "source_department": "Oregon Department of Forestry", "source_last_edit_at": ""}}, {"type": "Feature", "geometry": {"type": "Point", "coordinates": [-122.52145933930315, 45.449672466926465]}, "properties": {"id": "happy-valley-531595", "species_group": "crabapple", "scientific_name": "Malus domestica", "common_name": "apple (edible)", "subtype_name": "Apple", "zip_code": "97086", "ownership": "public", "ownership_raw": "Oregon Department of Forestry", "city": "Happy Valley", "source_dataset": "Tree Inventory", "source_department": "Oregon Department of Forestry", "source_last_edit_at": ""}}, {"type": "Feature", "geometry": {"type": "Point", "coordinates": [-122.49165084284384, 45.43582753325868]}, "properties": {"id": "happy-valley-659566", "species_group": "plum", "scientific_name": "Prunus cerasifera 'Thundercloud'", "common_name": "Thundercloud purple-leaf plum", "subtype_name": "Thundercloud", "zip_code": "97086", "ownership": "public", "ownership_raw": "Oregon Department of Forestry", "city": "Happy Valley", "source_dataset": "Tree Inventory", "source_department": "Oregon Department of Forestry", "source_last_edit_at": ""}}]}