{"type": "FeatureCollection", "features": [{"type": "Feature", "geometry": {"type": "Point", "coordinates": [-97.11408989990029, 31.55235190029954]}, "properties": {"id": "waco-10", "species_group": "peach", "scientific_name": "Prunus persica", "common_name": "Peach", "subtype_name": "Peach", "zip_code": "76706", "ownership": "public", "ownership_raw": "Baylor University", "city": "Waco", "source_dataset": "Baylor University Tree Inventory", "source_department": "Baylor University", "source_last_edit_at": "2026-03-28T15:26:30.320000+00:00"}}, {"type": "Feature", "geometry": {"type": "Point", "coordinates": [-97.12363791061802, 31.543889199791362]}, "properties": {"id": "waco-1832", "species_group": "magnolia", "scientific_name": "Magnolia grandiflora \"little gem'", "common_name": "Little Gem Magnolia", "subtype_name": "Little Gem Magnolia", "zip_code": "76706", "ownership": "public", "ownership_raw": "Baylor University", "city": "Waco", "source_dataset": "Baylor University Tree Inventory", "source_department": "Baylor University", "source_last_edit_at": "2026-03-28T15:26:30.320000+00:00"}}, {"type": "Feature", "geometry": {"type": "Point", "coordinates": [-97.1233535894945, 31.544228660057108]}, "properties": {"id": "waco-1833", "species_group": "magnolia", "scientific_name": "Magnolia grandiflora \"little gem'", "common_name": "Little Gem Magnolia", "subtype_name": "Little Gem Magnolia", "zip_code": "76706", "ownership": "public", "ownership_raw": "Baylor University", "city": "Waco", "source_dataset": "Baylor University Tree Inventory", "source_department": "Baylor University", "source_last_edit_at": "2026-03-28T15:26:30.320000+00:00"}}, {"type": "Feature", "geometry": {"type": "Point", "coordinates": [-97.11812249036676, 31.54746588033064]}, "properties": {"id": "waco-1971", "species_group": "magnolia", "scientific_name": "Magnolia grandiflora", "common_name": "Southern magnolia", "subtype_name": "Southern Magnolia", "zip_code": "76706", "ownership": "public", "ownership_raw": "Baylor University", "city": "Waco", "source_dataset": "Baylor University Tree Inventory", "source_department": "Baylor University", "source_last_edit_at": "2026-03-28T15:26:30.320000+00:00"}}, {"type": "Feature", "geometry": {"type": "Point", "coordinates": [-97.1180540894912, 31.547447020003155]}, "properties": {"id": "waco-1972", "species_group": "magnolia", "scientific_name": "Magnolia grandiflora", "common_name": "Southern magnolia", "subtype_name": "Southern Magnolia", "zip_code": "76706", "ownership": "public", "ownership_raw": "Baylor University", "city": "Waco", "source_dataset": "Baylor University Tree Inventory", "source_department": "Baylor University", "source_last_edit_at": "2026-03-28T15:26:30.320000+00:00"}}, {"type": "Feature", "geometry": {"type": "Point", "coordinates": [-97.11803665955507, 31.547484170390426]}, "properties": {"id": "waco-1973", "species_group": "magnolia", "scientific_name": "Magnolia grandiflora", "common_name": "Southern magnolia", "subtype_name": "Southern Magnolia", "zip_code": "76706", "ownership": "public", "ownership_raw": "Baylor University", "city": "Waco", "source_dataset": "Baylor University Tree Inventory", "source_department": "Baylor University", "source_last_edit_at": "2026-03-28T15:26:30.320000+00:00"}}, {"type": "Feature", "geometry": {"type": "Point", "coordinates": [-97.11799373973658, 31.54750645994679]}, "properties": {"id": "waco-1974", "species_group": "magnolia", "scientific_name": "Magnolia grandiflora", "common_name": "Southern magnolia", "subtype_name": "Southern Magnolia", "zip_code": "76706", "ownership": "public", "ownership_raw": "Baylor University", "city": "Waco", "source_dataset": "Baylor University Tree Inventory", "source_department": "Baylor University", "source_last_edit_at": "2026-03-28T15:26:30.320000+00:00"}}, {"type": "Feature", "geometry": {"type": "Point", "coordinates": [-97.11800312973726, 31.547558459875344]}, "properties": {"id": "waco-1975", "species_group": "magnolia", "scientific_name": "Magnolia grandiflora", "common_name": "Southern magnolia", "subtype_name": "Southern Magnolia", "zip_code": "76706", "ownership": "public", "ownership_raw": "Baylor University", "city": "Waco", "source_dataset": "Baylor University Tree Inventory", "source_department": "Baylor University", "source_last_edit_at": "2026-03-28T15:26:30.320000+00:00"}}, {"type": "Feature", "geometry": {"type": "Point", "coordinates": [-97.12326888988581, 31.548175489967598]}, "properties": {"id": "waco-199", "species_group": "magnolia", "scientific_name": "Magnolia x soulangiana", "common_name": "Saucer Magnolia", "subtype_name": "Saucer Magnolia", "zip_code": "76798", "ownership": "public", "ownership_raw": "Baylor University", "city": "Waco", "source_dataset": "Baylor University Tree Inventory", "source_department": "Baylor University", "source_last_edit_at": "2026-03-28T15:26:30.320000+00:00"}}, {"type": "Feature", "geometry": {"type": "Point", "coordinates": [-97.1233024201228, 31.548151490371524]}, "properties": {"id": "waco-201", "species_group": "magnolia", "scientific_name": "Magnolia x soulangiana", "common_name": "Saucer Magnolia", "subtype_name": "Saucer Magnolia", "zip_code": "76798", "ownership": "public", "ownership_raw": "Baylor University", "city": "Waco", "source_dataset": "Baylor University Tree Inventory", "source_department": "Baylor University", "source_last_edit_at": "2026-03-28T15:26:30.320000+00:00"}}, {"type": "Feature", "geometry": {"type": "Point", "coordinates": [-97.1233319197562, 31.548130349884335]}, "properties": {"id": "waco-203", "species_group": "magnolia", "scientific_name": "Magnolia x soulangiana", "common_name": "Saucer Magnolia", "subtype_name": "Saucer Magnolia", "zip_code": "76798", "ownership": "public", "ownership_raw": "Baylor University", "city": "Waco", "source_dataset": "Baylor University Tree Inventory", "source_department": "Baylor University", "source_last_edit_at": "2026-03-28T15:26:30.320000+00:00"}}, {"type": "Feature", "geometry": {"type": "Point", "coordinates": [-97.11347165008236, 31.55249132959932]}, "properties": {"id": "waco-21", "species_group": "peach", "scientific_name": "Prunus persica", "common_name": "Peach", "subtype_name": "Peach", "zip_code": "76706", "ownership": "public", "ownership_raw": "Baylor University", "city": "Waco", "source_dataset": "Baylor University Tree Inventory", "source_department": "Baylor University", "source_last_edit_at": "2026-03-28T15:26:30.320000+00:00"}}, {"type": "Feature", "geometry": {"type": "Point", "coordinates": [-97.12058142989522, 31.543172149757844]}, "properties": {"id": "waco-2164", "species_group": "magnolia", "scientific_name": "Magnolia grandiflora", "common_name": "Removed", "subtype_name": "Southern Magnolia", "zip_code": "76798", "ownership": "public", "ownership_raw": "Baylor University", "city": "Waco", "source_dataset": "Baylor University Tree Inventory", "source_department": "Baylor University", "source_last_edit_at": "2026-03-28T15:26:30.320000+00:00"}}, {"type": "Feature", "geometry": {"type": "Point", "coordinates": [-97.12008177035838, 31.54359458980746]}, "properties": {"id": "waco-2176", "species_group": "magnolia", "scientific_name": "Magnolia grandiflora", "common_name": "Southern magnolia", "subtype_name": "Southern Magnolia", "zip_code": "76798", "ownership": "public", "ownership_raw": "Baylor University", "city": "Waco", "source_dataset": "Baylor University Tree Inventory", "source_department": "Baylor University", "source_last_edit_at": "2026-03-28T15:26:30.320000+00:00"}}, {"type": "Feature", "geometry": {"type": "Point", "coordinates": [-97.11841423005612, 31.54489139970057]}, "properties": {"id": "waco-2217", "species_group": "magnolia", "scientific_name": "Magnolia grandiflora", "common_name": "Southern magnolia", "subtype_name": "Southern Magnolia", "zip_code": "76798", "ownership": "public", "ownership_raw": "Baylor University", "city": "Waco", "source_dataset": "Baylor University Tree Inventory", "source_department": "Baylor University", "source_last_edit_at": "2026-03-28T15:26:30.320000+00:00"}}, {"type": "Feature", "geometry": {"type": "Point", "coordinates": [-97.11836595048813, 31.544969689610724]}, "properties": {"id": "waco-2218", "species_group": "magnolia", "scientific_name": "Magnolia grandiflora \"little gem'", "common_name": "Little Gem Magnolia", "subtype_name": "Little Gem Magnolia", "zip_code": "76798", "ownership": "public", "ownership_raw": "Baylor University", "city": "Waco", "source_dataset": "Baylor University Tree Inventory", "source_department": "Baylor University", "source_last_edit_at": "2026-03-28T15:26:30.320000+00:00"}}, {"type": "Feature", "geometry": {"type": "Point", "coordinates": [-97.117805940426, 31.544804900425003]}, "properties": {"id": "waco-2335", "species_group": "magnolia", "scientific_name": "Magnolia grandiflora", "common_name": "Southern magnolia", "subtype_name": "Southern Magnolia", "zip_code": "76706", "ownership": "public", "ownership_raw": "Baylor University", "city": "Waco", "source_dataset": "Baylor University Tree Inventory", "source_department": "Baylor University", "source_last_edit_at": "2026-03-28T15:26:30.320000+00:00"}}, {"type": "Feature", "geometry": {"type": "Point", "coordinates": [-97.11787969988984, 31.544928910216875]}, "properties": {"id": "waco-2347", "species_group": "magnolia", "scientific_name": "Magnolia grandiflora", "common_name": "Southern magnolia", "subtype_name": "Southern Magnolia", "zip_code": "76706", "ownership": "public", "ownership_raw": "Baylor University", "city": "Waco", "source_dataset": "Baylor University Tree Inventory", "source_department": "Baylor University", "source_last_edit_at": "2026-03-28T15:26:30.320000+00:00"}}, {"type": "Feature", "geometry": {"type": "Point", "coordinates": [-97.10806164038931, 31.55054641031005]}, "properties": {"id": "waco-2462", "species_group": "magnolia", "scientific_name": "Magnolia grandiflora", "common_name": "Southern magnolia", "subtype_name": "Southern Magnolia", "zip_code": "76706", "ownership": "public", "ownership_raw": "Baylor University", "city": "Waco", "source_dataset": "Baylor University Tree Inventory", "source_department": "Baylor University", "source_last_edit_at": "2026-03-28T15:26:30.320000+00:00"}}, {"type": "Feature", "geometry": {"type": "Point", "coordinates": [-97.10694524993731, 31.550073599973956]}, "properties": {"id": "waco-2479", "species_group": "magnolia", "scientific_name": "Magnolia grandiflora \"little gem'", "common_name": "Little Gem Magnolia", "subtype_name": "Little Gem Magnolia", "zip_code": "76706", "ownership": "public", "ownership_raw": "Baylor University", "city": "Waco", "source_dataset": "Baylor University Tree Inventory", "source_department": "Baylor University", "source_last_edit_at": "2026-03-28T15:26:30.320000+00:00"}}, {"type": "Feature", "geometry": {"type": "Point", "coordinates": [-97.10703376965064, 31.550083880413897]}, "properties": {"id": "waco-2480", "species_group": "magnolia", "scientific_name": "Magnolia grandiflora \"little gem'", "common_name": "Little Gem Magnolia", "subtype_name": "Little Gem Magnolia", "zip_code": "76706", "ownership": "public", "ownership_raw": "Baylor University", "city": "Waco", "source_dataset": "Baylor University Tree Inventory", "source_department": "Baylor University", "source_last_edit_at": "2026-03-28T15:26:30.320000+00:00"}}, {"type": "Feature", "geometry": {"type": "Point", "coordinates": [-97.10712495955279, 31.550099880221687]}, "properties": {"id": "waco-2481", "species_group": "magnolia", "scientific_name": "Magnolia grandiflora \"little gem'", "common_name": "Little Gem Magnolia", "subtype_name": "Little Gem Magnolia", "zip_code": "76706", "ownership": "public", "ownership_raw": "Baylor University", "city": "Waco", "source_dataset": "Baylor University Tree Inventory", "source_department": "Baylor University", "source_last_edit_at": "2026-03-28T15:26:30.320000+00:00"}}, {"type": "Feature", "geometry": {"type": "Point", "coordinates": [-97.10685000966795, 31.55087566034744]}, "properties": {"id": "waco-2508", "species_group": "magnolia", "scientific_name": "Magnolia grandiflora", "common_name": "Southern magnolia", "subtype_name": "Southern Magnolia", "zip_code": "76706", "ownership": "public", "ownership_raw": "Baylor University", "city": "Waco", "source_dataset": "Baylor University Tree Inventory", "source_department": "Baylor University", "source_last_edit_at": "2026-03-28T15:26:30.320000+00:00"}}, {"type": "Feature", "geometry": {"type": "Point", "coordinates": [-97.10683659028432, 31.55090879974875]}, "properties": {"id": "waco-2510", "species_group": "magnolia", "scientific_name": "Magnolia grandiflora", "common_name": "Southern magnolia", "subtype_name": "Southern Magnolia", "zip_code": "76706", "ownership": "public", "ownership_raw": "Baylor University", "city": "Waco", "source_dataset": "Baylor University Tree Inventory", "source_department": "Baylor University", "source_last_edit_at": "2026-03-28T15:26:30.320000+00:00"}}, {"type": "Feature", "geometry": {"type": "Point", "coordinates": [-97.10660055952215, 31.55112480008348]}, "properties": {"id": "waco-2514", "species_group": "magnolia", "scientific_name": "Magnolia grandiflora", "common_name": "Southern magnolia", "subtype_name": "Southern Magnolia", "zip_code": "76706", "ownership": "public", "ownership_raw": "Baylor University", "city": "Waco", "source_dataset": "Baylor University Tree Inventory", "source_department": "Baylor University", "source_last_edit_at": "2026-03-28T15:26:30.320000+00:00"}}, {"type": "Feature", "geometry": {"type": "Point", "coordinates": [-97.10657642014606, 31.551169369995193]}, "properties": {"id": "waco-2516", "species_group": "magnolia", "scientific_name": "Magnolia grandiflora", "common_name": "Southern magnolia", "subtype_name": "Southern Magnolia", "zip_code": "76706", "ownership": "public", "ownership_raw": "Baylor University", "city": "Waco", "source_dataset": "Baylor University Tree Inventory", "source_department": "Baylor University", "source_last_edit_at": "2026-03-28T15:26:30.320000+00:00"}}, {"type": "Feature", "geometry": {"type": "Point", "coordinates": [-97.10680785007068, 31.550377210194767]}, "properties": {"id": "waco-2623", "species_group": "magnolia", "scientific_name": "Magnolia grandiflora", "common_name": "Southern magnolia", "subtype_name": "Southern Magnolia", "zip_code": "76706", "ownership": "public", "ownership_raw": "Baylor University", "city": "Waco", "source_dataset": "Baylor University Tree Inventory", "source_department": "Baylor University", "source_last_edit_at": "2026-03-28T15:26:30.320000+00:00"}}, {"type": "Feature", "geometry": {"type": "Point", "coordinates": [-97.1067846294844, 31.550347489837602]}, "properties": {"id": "waco-2625", "species_group": "magnolia", "scientific_name": "Magnolia grandiflora", "common_name": "Southern magnolia", "subtype_name": "Southern Magnolia", "zip_code": "76706", "ownership": "public", "ownership_raw": "Baylor University", "city": "Waco", "source_dataset": "Baylor University Tree Inventory", "source_department": "Baylor University", "source_last_edit_at": "2026-03-28T15:26:30.320000+00:00"}}, {"type": "Feature", "geometry": {"type": "Point", "coordinates": [-97.10683290975895, 31.550312060215216]}, "properties": {"id": "waco-2628", "species_group": "magnolia", "scientific_name": "Magnolia grandiflora", "common_name": "Southern magnolia", "subtype_name": "Southern Magnolia", "zip_code": "76706", "ownership": "public", "ownership_raw": "Baylor University", "city": "Waco", "source_dataset": "Baylor University Tree Inventory", "source_department": "Baylor University", "source_last_edit_at": "2026-03-28T15:26:30.320000+00:00"}}, {"type": "Feature", "geometry": {"type": "Point", "coordinates": [-97.12322001042733, 31.54792744043409]}, "properties": {"id": "waco-264", "species_group": "magnolia", "scientific_name": "Magnolia grandiflora \"little gem'", "common_name": "Little Gem Magnolia", "subtype_name": "Little Gem Magnolia", "zip_code": "76798", "ownership": "public", "ownership_raw": "Baylor University", "city": "Waco", "source_dataset": "Baylor University Tree Inventory", "source_department": "Baylor University", "source_last_edit_at": "2026-03-28T15:26:30.320000+00:00"}}, {"type": "Feature", "geometry": {"type": "Point", "coordinates": [-97.12326561037194, 31.54789371979386]}, "properties": {"id": "waco-265", "species_group": "magnolia", "scientific_name": "Magnolia grandiflora \"little gem'", "common_name": "Little Gem Magnolia", "subtype_name": "Little Gem Magnolia", "zip_code": "76798", "ownership": "public", "ownership_raw": "Baylor University", "city": "Waco", "source_dataset": "Baylor University Tree Inventory", "source_department": "Baylor University", "source_last_edit_at": "2026-03-28T15:26:30.320000+00:00"}}, {"type": "Feature", "geometry": {"type": "Point", "coordinates": [-97.1228075798346, 31.546948750005534]}, "properties": {"id": "waco-281", "species_group": "magnolia", "scientific_name": "Magnolia x soulangiana", "common_name": "Saucer Magnolia", "subtype_name": "Saucer Magnolia", "zip_code": "76798", "ownership": "public", "ownership_raw": "Baylor University", "city": "Waco", "source_dataset": "Baylor University Tree Inventory", "source_department": "Baylor University", "source_last_edit_at": "2026-03-28T15:26:30.320000+00:00"}}, {"type": "Feature", "geometry": {"type": "Point", "coordinates": [-97.11496599996069, 31.543993320263]}, "properties": {"id": "waco-3147", "species_group": "magnolia", "scientific_name": "Magnolia grandiflora", "common_name": "Southern magnolia", "subtype_name": "Southern Magnolia", "zip_code": "76706", "ownership": "public", "ownership_raw": "Baylor University", "city": "Waco", "source_dataset": "Baylor University Tree Inventory", "source_department": "Baylor University", "source_last_edit_at": "2026-03-28T15:26:30.320000+00:00"}}, {"type": "Feature", "geometry": {"type": "Point", "coordinates": [-97.10885524047397, 31.548649720162366]}, "properties": {"id": "waco-3326", "species_group": "magnolia", "scientific_name": "Magnolia grandiflora", "common_name": "Southern magnolia", "subtype_name": "Southern Magnolia", "zip_code": "76706", "ownership": "public", "ownership_raw": "Baylor University", "city": "Waco", "source_dataset": "Baylor University Tree Inventory", "source_department": "Baylor University", "source_last_edit_at": "2026-03-28T15:26:30.320000+00:00"}}, {"type": "Feature", "geometry": {"type": "Point", "coordinates": [-97.11913684271926, 31.550667395062245]}, "properties": {"id": "waco-3467", "species_group": "magnolia", "scientific_name": "Magnolia grandiflora", "common_name": "Southern magnolia", "subtype_name": "Southern Magnolia", "zip_code": "76706", "ownership": "public", "ownership_raw": "Baylor University", "city": "Waco", "source_dataset": "Baylor University Tree Inventory", "source_department": "Baylor University", "source_last_edit_at": "2026-03-28T15:26:30.320000+00:00"}}, {"type": "Feature", "geometry": {"type": "Point", "coordinates": [-97.11908915902166, 31.550664855366787]}, "properties": {"id": "waco-3468", "species_group": "magnolia", "scientific_name": "Magnolia grandiflora", "common_name": "Southern magnolia", "subtype_name": "Southern Magnolia", "zip_code": "76706", "ownership": "public", "ownership_raw": "Baylor University", "city": "Waco", "source_dataset": "Baylor University Tree Inventory", "source_department": "Baylor University", "source_last_edit_at": "2026-03-28T15:26:30.320000+00:00"}}, {"type": "Feature", "geometry": {"type": "Point", "coordinates": [-97.11903402467975, 31.5506661252145]}, "properties": {"id": "waco-3469", "species_group": "magnolia", "scientific_name": "Magnolia grandiflora", "common_name": "Southern magnolia", "subtype_name": "Southern Magnolia", "zip_code": "76706", "ownership": "public", "ownership_raw": "Baylor University", "city": "Waco", "source_dataset": "Baylor University Tree Inventory", "source_department": "Baylor University", "source_last_edit_at": "2026-03-28T15:26:30.320000+00:00"}}, {"type": "Feature", "geometry": {"type": "Point", "coordinates": [-97.1190995898254, 31.550600093318057]}, "properties": {"id": "waco-3470", "species_group": "magnolia", "scientific_name": "Magnolia grandiflora", "common_name": "Southern magnolia", "subtype_name": "Southern Magnolia", "zip_code": "76706", "ownership": "public", "ownership_raw": "Baylor University", "city": "Waco", "source_dataset": "Baylor University Tree Inventory", "source_department": "Baylor University", "source_last_edit_at": "2026-03-28T15:26:30.320000+00:00"}}, {"type": "Feature", "geometry": {"type": "Point", "coordinates": [-97.11903402467976, 31.550597553620786]}, "properties": {"id": "waco-3471", "species_group": "magnolia", "scientific_name": "Magnolia grandiflora", "common_name": "Southern magnolia", "subtype_name": "Southern Magnolia", "zip_code": "76706", "ownership": "public", "ownership_raw": "Baylor University", "city": "Waco", "source_dataset": "Baylor University Tree Inventory", "source_department": "Baylor University", "source_last_edit_at": "2026-03-28T15:26:30.320000+00:00"}}, {"type": "Feature", "geometry": {"type": "Point", "coordinates": [-97.11895504857094, 31.550608982223242]}, "properties": {"id": "waco-3472", "species_group": "magnolia", "scientific_name": "Magnolia grandiflora", "common_name": "Southern magnolia", "subtype_name": "Southern Magnolia", "zip_code": "76706", "ownership": "public", "ownership_raw": "Baylor University", "city": "Waco", "source_dataset": "Baylor University Tree Inventory", "source_department": "Baylor University", "source_last_edit_at": "2026-03-28T15:26:30.320000+00:00"}}, {"type": "Feature", "geometry": {"type": "Point", "coordinates": [-97.12156872997643, 31.547514780388365]}, "properties": {"id": "waco-359", "species_group": "magnolia", "scientific_name": "Magnolia grandiflora \"little gem'", "common_name": "Little Gem Magnolia", "subtype_name": "Little Gem Magnolia", "zip_code": "76798", "ownership": "public", "ownership_raw": "Baylor University", "city": "Waco", "source_dataset": "Baylor University Tree Inventory", "source_department": "Baylor University", "source_last_edit_at": "2026-03-28T15:26:30.320000+00:00"}}, {"type": "Feature", "geometry": {"type": "Point", "coordinates": [-97.12152179052156, 31.547578209811032]}, "properties": {"id": "waco-361", "species_group": "magnolia", "scientific_name": "Magnolia grandiflora \"little gem'", "common_name": "Little Gem Magnolia", "subtype_name": "Little Gem Magnolia", "zip_code": "76798", "ownership": "public", "ownership_raw": "Baylor University", "city": "Waco", "source_dataset": "Baylor University Tree Inventory", "source_department": "Baylor University", "source_last_edit_at": "2026-03-28T15:26:30.320000+00:00"}}, {"type": "Feature", "geometry": {"type": "Point", "coordinates": [-97.12150852360769, 31.547537638281234]}, "properties": {"id": "waco-362", "species_group": "magnolia", "scientific_name": "Magnolia grandiflora \"little gem'", "common_name": "Little Gem Magnolia", "subtype_name": "Little Gem Magnolia", "zip_code": "76798", "ownership": "public", "ownership_raw": "Baylor University", "city": "Waco", "source_dataset": "Baylor University Tree Inventory", "source_department": "Baylor University", "source_last_edit_at": "2026-03-28T15:26:30.320000+00:00"}}, {"type": "Feature", "geometry": {"type": "Point", "coordinates": [-97.12163548985716, 31.547318649596935]}, "properties": {"id": "waco-372", "species_group": "magnolia", "scientific_name": "Magnolia grandiflora \"little gem'", "common_name": "Little Gem Magnolia", "subtype_name": "Little Gem Magnolia", "zip_code": "76798", "ownership": "public", "ownership_raw": "Baylor University", "city": "Waco", "source_dataset": "Baylor University Tree Inventory", "source_department": "Baylor University", "source_last_edit_at": "2026-03-28T15:26:30.320000+00:00"}}, {"type": "Feature", "geometry": {"type": "Point", "coordinates": [-97.11420995961394, 31.552855960175865]}, "properties": {"id": "waco-39", "species_group": "peach", "scientific_name": "Prunus persica", "common_name": "Peach", "subtype_name": "Peach", "zip_code": "76706", "ownership": "public", "ownership_raw": "Baylor University", "city": "Waco", "source_dataset": "Baylor University Tree Inventory", "source_department": "Baylor University", "source_last_edit_at": "2026-03-28T15:26:30.320000+00:00"}}, {"type": "Feature", "geometry": {"type": "Point", "coordinates": [-97.12265643023589, 31.54488585042414]}, "properties": {"id": "waco-407", "species_group": "magnolia", "scientific_name": "Magnolia grandiflora", "common_name": "Southern magnolia", "subtype_name": "Southern Magnolia", "zip_code": "76798", "ownership": "public", "ownership_raw": "Baylor University", "city": "Waco", "source_dataset": "Baylor University Tree Inventory", "source_department": "Baylor University", "source_last_edit_at": "2026-03-28T15:26:30.320000+00:00"}}, {"type": "Feature", "geometry": {"type": "Point", "coordinates": [-97.12257462030628, 31.544937859936926]}, "properties": {"id": "waco-408", "species_group": "magnolia", "scientific_name": "Magnolia grandiflora", "common_name": "Southern magnolia", "subtype_name": "Southern Magnolia", "zip_code": "76798", "ownership": "public", "ownership_raw": "Baylor University", "city": "Waco", "source_dataset": "Baylor University Tree Inventory", "source_department": "Baylor University", "source_last_edit_at": "2026-03-28T15:26:30.320000+00:00"}}, {"type": "Feature", "geometry": {"type": "Point", "coordinates": [-97.11412144970217, 31.552969670090526]}, "properties": {"id": "waco-41", "species_group": "cherry", "scientific_name": "Prunus species", "common_name": "Cherry", "subtype_name": null, "zip_code": "76706", "ownership": "public", "ownership_raw": "Baylor University", "city": "Waco", "source_dataset": "Baylor University Tree Inventory", "source_department": "Baylor University", "source_last_edit_at": "2026-03-28T15:26:30.320000+00:00"}}, {"type": "Feature", "geometry": {"type": "Point", "coordinates": [-97.12108000991147, 31.544573149680026]}, "properties": {"id": "waco-423", "species_group": "magnolia", "scientific_name": "Magnolia grandiflora", "common_name": "Southern magnolia", "subtype_name": "Southern Magnolia", "zip_code": "76798", "ownership": "public", "ownership_raw": "Baylor University", "city": "Waco", "source_dataset": "Baylor University Tree Inventory", "source_department": "Baylor University", "source_last_edit_at": "2026-03-28T15:26:30.320000+00:00"}}, {"type": "Feature", "geometry": {"type": "Point", "coordinates": [-97.12074674045286, 31.544114049894645]}, "properties": {"id": "waco-425", "species_group": "magnolia", "scientific_name": "Magnolia grandiflora", "common_name": "Southern magnolia", "subtype_name": "Southern Magnolia", "zip_code": "76798", "ownership": "public", "ownership_raw": "Baylor University", "city": "Waco", "source_dataset": "Baylor University Tree Inventory", "source_department": "Baylor University", "source_last_edit_at": "2026-03-28T15:26:30.320000+00:00"}}, {"type": "Feature", "geometry": {"type": "Point", "coordinates": [-97.12201507965295, 31.544926009980184]}, "properties": {"id": "waco-432", "species_group": "magnolia", "scientific_name": "Magnolia grandiflora", "common_name": "Southern magnolia", "subtype_name": "Southern Magnolia", "zip_code": "76798", "ownership": "public", "ownership_raw": "Baylor University", "city": "Waco", "source_dataset": "Baylor University Tree Inventory", "source_department": "Baylor University", "source_last_edit_at": "2026-03-28T15:26:30.320000+00:00"}}, {"type": "Feature", "geometry": {"type": "Point", "coordinates": [-97.12219209952508, 31.54474485002763]}, "properties": {"id": "waco-434", "species_group": "magnolia", "scientific_name": "Magnolia grandiflora", "common_name": "Southern magnolia", "subtype_name": "Southern Magnolia", "zip_code": "76798", "ownership": "public", "ownership_raw": "Baylor University", "city": "Waco", "source_dataset": "Baylor University Tree Inventory", "source_department": "Baylor University", "source_last_edit_at": "2026-03-28T15:26:30.320000+00:00"}}, {"type": "Feature", "geometry": {"type": "Point", "coordinates": [-97.12237851982647, 31.54455570027605]}, "properties": {"id": "waco-436", "species_group": "magnolia", "scientific_name": "Magnolia grandiflora", "common_name": "Southern magnolia", "subtype_name": "Southern Magnolia", "zip_code": "76798", "ownership": "public", "ownership_raw": "Baylor University", "city": "Waco", "source_dataset": "Baylor University Tree Inventory", "source_department": "Baylor University", "source_last_edit_at": "2026-03-28T15:26:30.320000+00:00"}}, {"type": "Feature", "geometry": {"type": "Point", "coordinates": [-97.12095461052499, 31.54337685009734]}, "properties": {"id": "waco-454", "species_group": "magnolia", "scientific_name": "Magnolia grandiflora", "common_name": "Southern magnolia", "subtype_name": "Southern Magnolia", "zip_code": "76798", "ownership": "public", "ownership_raw": "Baylor University", "city": "Waco", "source_dataset": "Baylor University Tree Inventory", "source_department": "Baylor University", "source_last_edit_at": "2026-03-28T15:26:30.320000+00:00"}}, {"type": "Feature", "geometry": {"type": "Point", "coordinates": [-97.12086208045747, 31.54345629013494]}, "properties": {"id": "waco-459", "species_group": "magnolia", "scientific_name": "Magnolia grandiflora", "common_name": "Southern magnolia", "subtype_name": "Southern Magnolia", "zip_code": "76798", "ownership": "public", "ownership_raw": "Baylor University", "city": "Waco", "source_dataset": "Baylor University Tree Inventory", "source_department": "Baylor University", "source_last_edit_at": "2026-03-28T15:26:30.320000+00:00"}}, {"type": "Feature", "geometry": {"type": "Point", "coordinates": [-97.12059356978614, 31.54498070990645]}, "properties": {"id": "waco-487", "species_group": "magnolia", "scientific_name": "Magnolia grandiflora", "common_name": "Southern magnolia", "subtype_name": "Southern Magnolia", "zip_code": "76798", "ownership": "public", "ownership_raw": "Baylor University", "city": "Waco", "source_dataset": "Baylor University Tree Inventory", "source_department": "Baylor University", "source_last_edit_at": "2026-03-28T15:26:30.320000+00:00"}}, {"type": "Feature", "geometry": {"type": "Point", "coordinates": [-97.1211340296527, 31.545188149916434]}, "properties": {"id": "waco-495", "species_group": "magnolia", "scientific_name": "Magnolia grandiflora", "common_name": "Southern magnolia", "subtype_name": "Southern Magnolia", "zip_code": "76798", "ownership": "public", "ownership_raw": "Baylor University", "city": "Waco", "source_dataset": "Baylor University Tree Inventory", "source_department": "Baylor University", "source_last_edit_at": "2026-03-28T15:26:30.320000+00:00"}}, {"type": "Feature", "geometry": {"type": "Point", "coordinates": [-97.12096009002971, 31.546158749678323]}, "properties": {"id": "waco-561", "species_group": "magnolia", "scientific_name": "Magnolia grandiflora", "common_name": "Southern magnolia", "subtype_name": "Southern Magnolia", "zip_code": "76798", "ownership": "public", "ownership_raw": "Baylor University", "city": "Waco", "source_dataset": "Baylor University Tree Inventory", "source_department": "Baylor University", "source_last_edit_at": "2026-03-28T15:26:30.320000+00:00"}}, {"type": "Feature", "geometry": {"type": "Point", "coordinates": [-97.12093862950081, 31.54614159973645]}, "properties": {"id": "waco-562", "species_group": "magnolia", "scientific_name": "Magnolia grandiflora", "common_name": "Southern magnolia", "subtype_name": "Southern Magnolia", "zip_code": "76798", "ownership": "public", "ownership_raw": "Baylor University", "city": "Waco", "source_dataset": "Baylor University Tree Inventory", "source_department": "Baylor University", "source_last_edit_at": "2026-03-28T15:26:30.320000+00:00"}}, {"type": "Feature", "geometry": {"type": "Point", "coordinates": [-97.12084207034388, 31.54607817042972]}, "properties": {"id": "waco-563", "species_group": "magnolia", "scientific_name": "Magnolia grandiflora", "common_name": "Southern magnolia", "subtype_name": "Southern Magnolia", "zip_code": "76798", "ownership": "public", "ownership_raw": "Baylor University", "city": "Waco", "source_dataset": "Baylor University Tree Inventory", "source_department": "Baylor University", "source_last_edit_at": "2026-03-28T15:26:30.320000+00:00"}}, {"type": "Feature", "geometry": {"type": "Point", "coordinates": [-97.12083268040075, 31.546054740205463]}, "properties": {"id": "waco-564", "species_group": "magnolia", "scientific_name": "Magnolia grandiflora", "common_name": "Southern magnolia", "subtype_name": "Southern Magnolia", "zip_code": "76798", "ownership": "public", "ownership_raw": "Baylor University", "city": "Waco", "source_dataset": "Baylor University Tree Inventory", "source_department": "Baylor University", "source_last_edit_at": "2026-03-28T15:26:30.320000+00:00"}}, {"type": "Feature", "geometry": {"type": "Point", "coordinates": [-97.12081792964203, 31.54604273978429]}, "properties": {"id": "waco-566", "species_group": "magnolia", "scientific_name": "Magnolia grandiflora", "common_name": "Southern magnolia", "subtype_name": "Southern Magnolia", "zip_code": "76798", "ownership": "public", "ownership_raw": "Baylor University", "city": "Waco", "source_dataset": "Baylor University Tree Inventory", "source_department": "Baylor University", "source_last_edit_at": "2026-03-28T15:26:30.320000+00:00"}}, {"type": "Feature", "geometry": {"type": "Point", "coordinates": [-97.12043156015685, 31.545111410111836]}, "properties": {"id": "waco-609", "species_group": "magnolia", "scientific_name": "Magnolia grandiflora", "common_name": "Southern magnolia", "subtype_name": "Southern Magnolia", "zip_code": "76798", "ownership": "public", "ownership_raw": "Baylor University", "city": "Waco", "source_dataset": "Baylor University Tree Inventory", "source_department": "Baylor University", "source_last_edit_at": "2026-03-28T15:26:30.320000+00:00"}}, {"type": "Feature", "geometry": {"type": "Point", "coordinates": [-97.1206380804783, 31.547708910339484]}, "properties": {"id": "waco-680", "species_group": "magnolia", "scientific_name": "Magnolia x soulangiana", "common_name": "Saucer Magnolia", "subtype_name": "Saucer Magnolia", "zip_code": "76798", "ownership": "public", "ownership_raw": "Baylor University", "city": "Waco", "source_dataset": "Baylor University Tree Inventory", "source_department": "Baylor University", "source_last_edit_at": "2026-03-28T15:26:30.320000+00:00"}}, {"type": "Feature", "geometry": {"type": "Point", "coordinates": [-97.12057237018509, 31.54768548031843]}, "properties": {"id": "waco-681", "species_group": "magnolia", "scientific_name": "Magnolia x soulangiana", "common_name": "Saucer Magnolia", "subtype_name": "Saucer Magnolia", "zip_code": "76798", "ownership": "public", "ownership_raw": "Baylor University", "city": "Waco", "source_dataset": "Baylor University Tree Inventory", "source_department": "Baylor University", "source_last_edit_at": "2026-03-28T15:26:30.320000+00:00"}}, {"type": "Feature", "geometry": {"type": "Point", "coordinates": [-97.12060456041498, 31.547646049954327]}, "properties": {"id": "waco-683", "species_group": "magnolia", "scientific_name": "Magnolia x soulangiana", "common_name": "Saucer Magnolia", "subtype_name": "Saucer Magnolia", "zip_code": "76798", "ownership": "public", "ownership_raw": "Baylor University", "city": "Waco", "source_dataset": "Baylor University Tree Inventory", "source_department": "Baylor University", "source_last_edit_at": "2026-03-28T15:26:30.320000+00:00"}}, {"type": "Feature", "geometry": {"type": "Point", "coordinates": [-97.12199447065349, 31.548775930058817]}, "properties": {"id": "waco-861", "species_group": "magnolia", "scientific_name": "Magnolia grandiflora", "common_name": "Southern magnolia", "subtype_name": "Southern Magnolia", "zip_code": "76798", "ownership": "public", "ownership_raw": "Baylor University", "city": "Waco", "source_dataset": "Baylor University Tree Inventory", "source_department": "Baylor University", "source_last_edit_at": "2026-03-28T15:26:30.320000+00:00"}}, {"type": "Feature", "geometry": {"type": "Point", "coordinates": [-97.1212850297864, 31.549763089711597]}, "properties": {"id": "waco-886", "species_group": "magnolia", "scientific_name": "Magnolia grandiflora", "common_name": "Southern magnolia", "subtype_name": "Southern Magnolia", "zip_code": "76706", "ownership": "public", "ownership_raw": "Baylor University", "city": "Waco", "source_dataset": "Baylor University Tree Inventory", "source_department": "Baylor University", "source_last_edit_at": "2026-03-28T15:26:30.320000+00:00"}}]}