{"type": "FeatureCollection", "features": [{"type": "Feature", "geometry": {"type": "Point", "coordinates": [-116.51124042467417, 33.81939739348912]}, "properties": {"id": "palm-springs-13006", "species_group": "magnolia", "scientific_name": "Magnolia grandiflora", "common_name": "Southern Magnolia", "subtype_name": "Southern Magnolia", "zip_code": "92262", "ownership": "public", "ownership_raw": "City of Palm Springs", "city": "Palm Springs", "source_dataset": "Tree Inventory 2015", "source_department": "City of Palm Springs", "source_last_edit_at": "2025-12-02T01:35:30.275000+00:00"}}, {"type": "Feature", "geometry": {"type": "Point", "coordinates": [-116.55184912115658, 33.86790548483029]}, "properties": {"id": "palm-springs-15051", "species_group": "peach", "scientific_name": "Prunus persica", "common_name": "Peach", "subtype_name": "Peach", "zip_code": "92262", "ownership": "public", "ownership_raw": "City of Palm Springs", "city": "Palm Springs", "source_dataset": "Tree Inventory 2015", "source_department": "City of Palm Springs", "source_last_edit_at": "2025-12-02T01:35:30.275000+00:00"}}, {"type": "Feature", "geometry": {"type": "Point", "coordinates": [-116.55186973152843, 33.86787883276552]}, "properties": {"id": "palm-springs-15055", "species_group": "peach", "scientific_name": "Prunus persica", "common_name": "Peach", "subtype_name": "Peach", "zip_code": "92262", "ownership": "public", "ownership_raw": "City of Palm Springs", "city": "Palm Springs", "source_dataset": "Tree Inventory 2015", "source_department": "City of Palm Springs", "source_last_edit_at": "2025-12-02T01:35:30.275000+00:00"}}, {"type": "Feature", "geometry": {"type": "Point", "coordinates": [-116.53130288370346, 33.82026364296908]}, "properties": {"id": "palm-springs-3916", "species_group": "peach", "scientific_name": "Prunus persica", "common_name": "Peach", "subtype_name": "Peach", "zip_code": "92262", "ownership": "public", "ownership_raw": "City of Palm Springs", "city": "Palm Springs", "source_dataset": "Tree Inventory 2015", "source_department": "City of Palm Springs", "source_last_edit_at": "2025-12-02T01:35:30.275000+00:00"}}, {"type": "Feature", "geometry": {"type": "Point", "coordinates": [-116.50474685951725, 33.83269791506881]}, "properties": {"id": "palm-springs-4223", "species_group": "plum", "scientific_name": "Prunus cerasifera", "common_name": "Purple-Leafed Plum", "subtype_name": "Cherry Plum", "zip_code": "92262", "ownership": "public", "ownership_raw": "City of Palm Springs", "city": "Palm Springs", "source_dataset": "Tree Inventory 2015", "source_department": "City of Palm Springs", "source_last_edit_at": "2025-12-02T01:35:30.275000+00:00"}}, {"type": "Feature", "geometry": {"type": "Point", "coordinates": [-116.5044060512686, 33.83239333963341]}, "properties": {"id": "palm-springs-4547", "species_group": "plum", "scientific_name": "Prunus cerasifera", "common_name": "Purple-Leafed Plum", "subtype_name": "Cherry Plum", "zip_code": "92262", "ownership": "public", "ownership_raw": "City of Palm Springs", "city": "Palm Springs", "source_dataset": "Tree Inventory 2015", "source_department": "City of Palm Springs", "source_last_edit_at": "2025-12-02T01:35:30.275000+00:00"}}]}