{"type": "FeatureCollection", "features": [{"type": "Feature", "geometry": {"type": "Point", "coordinates": [-97.12007872706933, 37.690518889430955]}, "properties": {"id": "andover-1839", "species_group": "plum", "scientific_name": "Prunus Americana", "common_name": "American Plum", "subtype_name": "American Plum", "zip_code": "67002", "ownership": "public", "ownership_raw": "City of Andover", "city": "Andover", "source_dataset": "Street Trees (Public)", "source_department": "City of Andover", "source_last_edit_at": "2026-03-30T01:39:10.637000+00:00"}}, {"type": "Feature", "geometry": {"type": "Point", "coordinates": [-97.12133972636964, 37.693166423330396]}, "properties": {"id": "andover-577", "species_group": "magnolia", "scientific_name": "Magnolia Grandiflora", "common_name": "Southern Magnolia", "subtype_name": "Southern Magnolia", "zip_code": "67002", "ownership": "public", "ownership_raw": "City of Andover", "city": "Andover", "source_dataset": "Street Trees (Public)", "source_department": "City of Andover", "source_last_edit_at": "2026-03-30T01:39:10.637000+00:00"}}, {"type": "Feature", "geometry": {"type": "Point", "coordinates": [-97.12134009288226, 37.6929371321903]}, "properties": {"id": "andover-578", "species_group": "magnolia", "scientific_name": "Magnolia Grandiflora", "common_name": "Southern Magnolia", "subtype_name": "Southern Magnolia", "zip_code": "67002", "ownership": "public", "ownership_raw": "City of Andover", "city": "Andover", "source_dataset": "Street Trees (Public)", "source_department": "City of Andover", "source_last_edit_at": "2026-03-30T01:39:10.637000+00:00"}}]}