{"type": "FeatureCollection", "features": [{"type": "Feature", "geometry": {"type": "Point", "coordinates": [-105.52779941922081, 50.3949162416326]}, "properties": {"id": "moose-jaw-12571", "species_group": "crabapple", "scientific_name": "Malus Unknown", "common_name": "Common apple", "subtype_name": "Common apple", "zip_code": null, "ownership": "public", "ownership_raw": "City of Moose Jaw", "city": "Moose Jaw", "source_dataset": "Trees", "source_department": "City of Moose Jaw", "source_last_edit_at": ""}}, {"type": "Feature", "geometry": {"type": "Point", "coordinates": [-105.52765456780388, 50.39489746915338]}, "properties": {"id": "moose-jaw-12572", "species_group": "crabapple", "scientific_name": "Malus Unknown", "common_name": "Common apple", "subtype_name": "Common apple", "zip_code": null, "ownership": "public", "ownership_raw": "City of Moose Jaw", "city": "Moose Jaw", "source_dataset": "Trees", "source_department": "City of Moose Jaw", "source_last_edit_at": ""}}, {"type": "Feature", "geometry": {"type": "Point", "coordinates": [-105.52774348748149, 50.39479711641811]}, "properties": {"id": "moose-jaw-12573", "species_group": "crabapple", "scientific_name": "Malus Unknown", "common_name": "Common apple", "subtype_name": "Common apple", "zip_code": null, "ownership": "public", "ownership_raw": "City of Moose Jaw", "city": "Moose Jaw", "source_dataset": "Trees", "source_department": "City of Moose Jaw", "source_last_edit_at": ""}}, {"type": "Feature", "geometry": {"type": "Point", "coordinates": [-105.56503699172866, 50.37744129894335]}, "properties": {"id": "moose-jaw-12816", "species_group": "crabapple", "scientific_name": "Malus Unknown", "common_name": "Common apple", "subtype_name": "Common apple", "zip_code": null, "ownership": "public", "ownership_raw": "City of Moose Jaw", "city": "Moose Jaw", "source_dataset": "Trees", "source_department": "City of Moose Jaw", "source_last_edit_at": ""}}, {"type": "Feature", "geometry": {"type": "Point", "coordinates": [-105.5747182932261, 50.377332277562886]}, "properties": {"id": "moose-jaw-12999", "species_group": "crabapple", "scientific_name": "Malus Unknown", "common_name": "Common apple", "subtype_name": "Common apple", "zip_code": null, "ownership": "public", "ownership_raw": "City of Moose Jaw", "city": "Moose Jaw", "source_dataset": "Trees", "source_department": "City of Moose Jaw", "source_last_edit_at": ""}}, {"type": "Feature", "geometry": {"type": "Point", "coordinates": [-105.57446980937488, 50.37944674720434]}, "properties": {"id": "moose-jaw-13002", "species_group": "crabapple", "scientific_name": "Malus Unknown", "common_name": "Common apple", "subtype_name": "Common apple", "zip_code": null, "ownership": "public", "ownership_raw": "City of Moose Jaw", "city": "Moose Jaw", "source_dataset": "Trees", "source_department": "City of Moose Jaw", "source_last_edit_at": ""}}, {"type": "Feature", "geometry": {"type": "Point", "coordinates": [-105.57448602252218, 50.37942318767585]}, "properties": {"id": "moose-jaw-13003", "species_group": "crabapple", "scientific_name": "Malus Unknown", "common_name": "Common apple", "subtype_name": "Common apple", "zip_code": null, "ownership": "public", "ownership_raw": "City of Moose Jaw", "city": "Moose Jaw", "source_dataset": "Trees", "source_department": "City of Moose Jaw", "source_last_edit_at": ""}}, {"type": "Feature", "geometry": {"type": "Point", "coordinates": [-105.5721315512869, 50.37542953091622]}, "properties": {"id": "moose-jaw-13014", "species_group": "crabapple", "scientific_name": "Malus Unknown", "common_name": "Common apple", "subtype_name": "Common apple", "zip_code": null, "ownership": "public", "ownership_raw": "City of Moose Jaw", "city": "Moose Jaw", "source_dataset": "Trees", "source_department": "City of Moose Jaw", "source_last_edit_at": ""}}, {"type": "Feature", "geometry": {"type": "Point", "coordinates": [-105.57394266276904, 50.37559666260141]}, "properties": {"id": "moose-jaw-13034", "species_group": "crabapple", "scientific_name": "Malus Unknown", "common_name": "Common apple", "subtype_name": "Common apple", "zip_code": null, "ownership": "public", "ownership_raw": "City of Moose Jaw", "city": "Moose Jaw", "source_dataset": "Trees", "source_department": "City of Moose Jaw", "source_last_edit_at": ""}}, {"type": "Feature", "geometry": {"type": "Point", "coordinates": [-105.54967591051074, 50.395989197072666]}, "properties": {"id": "moose-jaw-5866", "species_group": "crabapple", "scientific_name": "Malus Unknown", "common_name": "Common apple", "subtype_name": "Common apple", "zip_code": null, "ownership": "public", "ownership_raw": "City of Moose Jaw", "city": "Moose Jaw", "source_dataset": "Trees", "source_department": "City of Moose Jaw", "source_last_edit_at": ""}}, {"type": "Feature", "geometry": {"type": "Point", "coordinates": [-105.5538972311594, 50.396174320296325]}, "properties": {"id": "moose-jaw-5987", "species_group": "crabapple", "scientific_name": "Malus Unknown", "common_name": "Common apple", "subtype_name": "Common apple", "zip_code": null, "ownership": "public", "ownership_raw": "City of Moose Jaw", "city": "Moose Jaw", "source_dataset": "Trees", "source_department": "City of Moose Jaw", "source_last_edit_at": ""}}, {"type": "Feature", "geometry": {"type": "Point", "coordinates": [-105.5542472633389, 50.39615805038342]}, "properties": {"id": "moose-jaw-5991", "species_group": "crabapple", "scientific_name": "Malus Unknown", "common_name": "Common apple", "subtype_name": "Common apple", "zip_code": null, "ownership": "public", "ownership_raw": "City of Moose Jaw", "city": "Moose Jaw", "source_dataset": "Trees", "source_department": "City of Moose Jaw", "source_last_edit_at": ""}}, {"type": "Feature", "geometry": {"type": "Point", "coordinates": [-105.5322184970761, 50.3927057344614]}, "properties": {"id": "moose-jaw-6067", "species_group": "cherry", "scientific_name": "Prunus Maackii", "common_name": "Amur choke cherry", "subtype_name": "Amur choke cherry", "zip_code": null, "ownership": "public", "ownership_raw": "City of Moose Jaw", "city": "Moose Jaw", "source_dataset": "Trees", "source_department": "City of Moose Jaw", "source_last_edit_at": ""}}, {"type": "Feature", "geometry": {"type": "Point", "coordinates": [-105.55803856207187, 50.38438560527299]}, "properties": {"id": "moose-jaw-6137", "species_group": "cherry", "scientific_name": "Prunus Maackii", "common_name": "Amur choke cherry", "subtype_name": "Amur choke cherry", "zip_code": null, "ownership": "public", "ownership_raw": "City of Moose Jaw", "city": "Moose Jaw", "source_dataset": "Trees", "source_department": "City of Moose Jaw", "source_last_edit_at": ""}}, {"type": "Feature", "geometry": {"type": "Point", "coordinates": [-105.55803225252141, 50.38443359087067]}, "properties": {"id": "moose-jaw-6138", "species_group": "cherry", "scientific_name": "Prunus Maackii", "common_name": "Amur choke cherry", "subtype_name": "Amur choke cherry", "zip_code": null, "ownership": "public", "ownership_raw": "City of Moose Jaw", "city": "Moose Jaw", "source_dataset": "Trees", "source_department": "City of Moose Jaw", "source_last_edit_at": ""}}, {"type": "Feature", "geometry": {"type": "Point", "coordinates": [-105.55795542622398, 50.384444334342085]}, "properties": {"id": "moose-jaw-6139", "species_group": "cherry", "scientific_name": "Prunus Maackii", "common_name": "Amur choke cherry", "subtype_name": "Amur choke cherry", "zip_code": null, "ownership": "public", "ownership_raw": "City of Moose Jaw", "city": "Moose Jaw", "source_dataset": "Trees", "source_department": "City of Moose Jaw", "source_last_edit_at": ""}}, {"type": "Feature", "geometry": {"type": "Point", "coordinates": [-105.55787233816812, 50.38439157026561]}, "properties": {"id": "moose-jaw-6144", "species_group": "cherry", "scientific_name": "Prunus Maackii", "common_name": "Amur choke cherry", "subtype_name": "Amur choke cherry", "zip_code": null, "ownership": "public", "ownership_raw": "City of Moose Jaw", "city": "Moose Jaw", "source_dataset": "Trees", "source_department": "City of Moose Jaw", "source_last_edit_at": ""}}, {"type": "Feature", "geometry": {"type": "Point", "coordinates": [-105.53306680848958, 50.39985118088674]}, "properties": {"id": "moose-jaw-7043", "species_group": "crabapple", "scientific_name": "Malus Unknown", "common_name": "Common apple", "subtype_name": "Common apple", "zip_code": null, "ownership": "public", "ownership_raw": "City of Moose Jaw", "city": "Moose Jaw", "source_dataset": "Trees", "source_department": "City of Moose Jaw", "source_last_edit_at": ""}}, {"type": "Feature", "geometry": {"type": "Point", "coordinates": [-105.51244301448148, 50.39768962731017]}, "properties": {"id": "moose-jaw-8015", "species_group": "crabapple", "scientific_name": "Malus Unknown", "common_name": "Common apple", "subtype_name": "Common apple", "zip_code": null, "ownership": "public", "ownership_raw": "City of Moose Jaw", "city": "Moose Jaw", "source_dataset": "Trees", "source_department": "City of Moose Jaw", "source_last_edit_at": ""}}, {"type": "Feature", "geometry": {"type": "Point", "coordinates": [-105.53587630631687, 50.38321288722639]}, "properties": {"id": "moose-jaw-8452", "species_group": "crabapple", "scientific_name": "Malus Unknown", "common_name": "Common apple", "subtype_name": "Common apple", "zip_code": null, "ownership": "public", "ownership_raw": "City of Moose Jaw", "city": "Moose Jaw", "source_dataset": "Trees", "source_department": "City of Moose Jaw", "source_last_edit_at": ""}}, {"type": "Feature", "geometry": {"type": "Point", "coordinates": [-105.5411596535378, 50.3814119081726]}, "properties": {"id": "moose-jaw-8533", "species_group": "crabapple", "scientific_name": "Malus Unknown", "common_name": "Common apple", "subtype_name": "Common apple", "zip_code": null, "ownership": "public", "ownership_raw": "City of Moose Jaw", "city": "Moose Jaw", "source_dataset": "Trees", "source_department": "City of Moose Jaw", "source_last_edit_at": ""}}, {"type": "Feature", "geometry": {"type": "Point", "coordinates": [-105.5411674530264, 50.38138759114048]}, "properties": {"id": "moose-jaw-8534", "species_group": "crabapple", "scientific_name": "Malus Unknown", "common_name": "Common apple", "subtype_name": "Common apple", "zip_code": null, "ownership": "public", "ownership_raw": "City of Moose Jaw", "city": "Moose Jaw", "source_dataset": "Trees", "source_department": "City of Moose Jaw", "source_last_edit_at": ""}}, {"type": "Feature", "geometry": {"type": "Point", "coordinates": [-105.54693794565968, 50.38071219458276]}, "properties": {"id": "moose-jaw-8743", "species_group": "crabapple", "scientific_name": "Malus Unknown", "common_name": "Common apple", "subtype_name": "Common apple", "zip_code": null, "ownership": "public", "ownership_raw": "City of Moose Jaw", "city": "Moose Jaw", "source_dataset": "Trees", "source_department": "City of Moose Jaw", "source_last_edit_at": ""}}, {"type": "Feature", "geometry": {"type": "Point", "coordinates": [-105.55597762548597, 50.380482017826125]}, "properties": {"id": "moose-jaw-9073", "species_group": "crabapple", "scientific_name": "Malus Unknown", "common_name": "Common apple", "subtype_name": "Common apple", "zip_code": null, "ownership": "public", "ownership_raw": "City of Moose Jaw", "city": "Moose Jaw", "source_dataset": "Trees", "source_department": "City of Moose Jaw", "source_last_edit_at": ""}}, {"type": "Feature", "geometry": {"type": "Point", "coordinates": [-105.53074507292885, 50.395224446957734]}, "properties": {"id": "moose-jaw-9534", "species_group": "crabapple", "scientific_name": "Malus Unknown", "common_name": "Common apple", "subtype_name": "Common apple", "zip_code": null, "ownership": "public", "ownership_raw": "City of Moose Jaw", "city": "Moose Jaw", "source_dataset": "Trees", "source_department": "City of Moose Jaw", "source_last_edit_at": ""}}, {"type": "Feature", "geometry": {"type": "Point", "coordinates": [-105.53181292206978, 50.39465828781471]}, "properties": {"id": "moose-jaw-9714", "species_group": "cherry", "scientific_name": "Prunus Maackii", "common_name": "Amur choke cherry", "subtype_name": "Amur choke cherry", "zip_code": null, "ownership": "public", "ownership_raw": "City of Moose Jaw", "city": "Moose Jaw", "source_dataset": "Trees", "source_department": "City of Moose Jaw", "source_last_edit_at": ""}}, {"type": "Feature", "geometry": {"type": "Point", "coordinates": [-105.5318736430339, 50.39454905650797]}, "properties": {"id": "moose-jaw-9715", "species_group": "crabapple", "scientific_name": "Malus Unknown", "common_name": "Common apple", "subtype_name": "Common apple", "zip_code": null, "ownership": "public", "ownership_raw": "City of Moose Jaw", "city": "Moose Jaw", "source_dataset": "Trees", "source_department": "City of Moose Jaw", "source_last_edit_at": ""}}, {"type": "Feature", "geometry": {"type": "Point", "coordinates": [-105.5318682863081, 50.39454987782421]}, "properties": {"id": "moose-jaw-9716", "species_group": "crabapple", "scientific_name": "Malus Unknown", "common_name": "Common apple", "subtype_name": "Common apple", "zip_code": null, "ownership": "public", "ownership_raw": "City of Moose Jaw", "city": "Moose Jaw", "source_dataset": "Trees", "source_department": "City of Moose Jaw", "source_last_edit_at": ""}}, {"type": "Feature", "geometry": {"type": "Point", "coordinates": [-105.53192298255759, 50.39461628315755]}, "properties": {"id": "moose-jaw-9717", "species_group": "crabapple", "scientific_name": "Malus Unknown", "common_name": "Common apple", "subtype_name": "Common apple", "zip_code": null, "ownership": "public", "ownership_raw": "City of Moose Jaw", "city": "Moose Jaw", "source_dataset": "Trees", "source_department": "City of Moose Jaw", "source_last_edit_at": ""}}, {"type": "Feature", "geometry": {"type": "Point", "coordinates": [-105.53135858427133, 50.394269773896134]}, "properties": {"id": "moose-jaw-9759", "species_group": "crabapple", "scientific_name": "Malus Unknown", "common_name": "Common apple", "subtype_name": "Common apple", "zip_code": null, "ownership": "public", "ownership_raw": "City of Moose Jaw", "city": "Moose Jaw", "source_dataset": "Trees", "source_department": "City of Moose Jaw", "source_last_edit_at": ""}}, {"type": "Feature", "geometry": {"type": "Point", "coordinates": [-105.5297407504144, 50.39420813518499]}, "properties": {"id": "moose-jaw-9814", "species_group": "crabapple", "scientific_name": "Malus Unknown", "common_name": "Common apple", "subtype_name": "Common apple", "zip_code": null, "ownership": "public", "ownership_raw": "City of Moose Jaw", "city": "Moose Jaw", "source_dataset": "Trees", "source_department": "City of Moose Jaw", "source_last_edit_at": ""}}, {"type": "Feature", "geometry": {"type": "Point", "coordinates": [-105.53015953487336, 50.393750323755704]}, "properties": {"id": "moose-jaw-9823", "species_group": "crabapple", "scientific_name": "Malus Unknown", "common_name": "Common apple", "subtype_name": "Common apple", "zip_code": null, "ownership": "public", "ownership_raw": "City of Moose Jaw", "city": "Moose Jaw", "source_dataset": "Trees", "source_department": "City of Moose Jaw", "source_last_edit_at": ""}}, {"type": "Feature", "geometry": {"type": "Point", "coordinates": [-105.5298824641153, 50.39384063989475]}, "properties": {"id": "moose-jaw-9829", "species_group": "crabapple", "scientific_name": "Malus Unknown", "common_name": "Common apple", "subtype_name": "Common apple", "zip_code": null, "ownership": "public", "ownership_raw": "City of Moose Jaw", "city": "Moose Jaw", "source_dataset": "Trees", "source_department": "City of Moose Jaw", "source_last_edit_at": ""}}]}