{"type": "FeatureCollection", "features": [{"type": "Feature", "geometry": {"type": "Point", "coordinates": [139.37934573709845, 35.64357721951489]}, "properties": {"id": "hino-d5cb241eba065213", "species_group": "cherry", "scientific_name": "Prunus species", "common_name": "サクラ", "subtype_name": "サクラ", "zip_code": null, "ownership": "unknown", "ownership_raw": "", "city": "Hino", "source_dataset": "Protected Trees and Hedges / 保存樹木・生垣", "source_department": "Tokyo Metropolitan Government", "source_last_edit_at": ""}}]}