{"type": "FeatureCollection", "features": [{"type": "Feature", "geometry": {"type": "Point", "coordinates": [-114.8369435253691, 35.97085227447514]}, "properties": {"id": "boulder-city-17599", "species_group": "plum", "scientific_name": "Prunus cerasifera", "common_name": "Purple-leaf plum", "subtype_name": "Purpleleaf Plum", "zip_code": "89005", "ownership": "public", "ownership_raw": "Nevada Division of Forestry", "city": "Boulder City", "source_dataset": "Clark County Schools Tree Inventory", "source_department": "Nevada Division of Forestry", "source_last_edit_at": "2024-11-18T19:16:08.490000+00:00"}}, {"type": "Feature", "geometry": {"type": "Point", "coordinates": [-114.8365474509738, 35.97176876254612]}, "properties": {"id": "boulder-city-20532", "species_group": "plum", "scientific_name": "Prunus cerasifera", "common_name": "Purple-leaf plum", "subtype_name": "Purpleleaf Plum", "zip_code": "89005", "ownership": "public", "ownership_raw": "Nevada Division of Forestry", "city": "Boulder City", "source_dataset": "Clark County Schools Tree Inventory", "source_department": "Nevada Division of Forestry", "source_last_edit_at": "2024-11-18T19:16:08.490000+00:00"}}, {"type": "Feature", "geometry": {"type": "Point", "coordinates": [-114.83674525640608, 35.97177103082486]}, "properties": {"id": "boulder-city-29997", "species_group": "plum", "scientific_name": "Prunus cerasifera", "common_name": "Purple-leaf plum", "subtype_name": "Purpleleaf Plum", "zip_code": "89005", "ownership": "public", "ownership_raw": "Nevada Division of Forestry", "city": "Boulder City", "source_dataset": "Clark County Schools Tree Inventory", "source_department": "Nevada Division of Forestry", "source_last_edit_at": "2024-11-18T19:16:08.490000+00:00"}}]}