{"type": "FeatureCollection", "features": [{"type": "Feature", "geometry": {"type": "Point", "coordinates": [-122.72724007846752, 45.42921044509321]}, "properties": {"id": "lake-oswego-660890", "species_group": "cherry", "scientific_name": "Prunus avium", "common_name": "cherry (edible)", "subtype_name": "cherry (edible)", "zip_code": "97035", "ownership": "public", "ownership_raw": "Oregon Department of Forestry", "city": "Lake Oswego", "source_dataset": "Tree Inventory", "source_department": "Oregon Department of Forestry", "source_last_edit_at": ""}}, {"type": "Feature", "geometry": {"type": "Point", "coordinates": [-122.7269289422217, 45.429420326432634]}, "properties": {"id": "lake-oswego-660904", "species_group": "cherry", "scientific_name": "Prunus avium", "common_name": "cherry (edible)", "subtype_name": "cherry (edible)", "zip_code": "97035", "ownership": "public", "ownership_raw": "Oregon Department of Forestry", "city": "Lake Oswego", "source_dataset": "Tree Inventory", "source_department": "Oregon Department of Forestry", "source_last_edit_at": ""}}, {"type": "Feature", "geometry": {"type": "Point", "coordinates": [-122.72777223971293, 45.42841299023919]}, "properties": {"id": "lake-oswego-660960", "species_group": "cherry", "scientific_name": "Prunus avium", "common_name": "cherry (edible)", "subtype_name": "cherry (edible)", "zip_code": "97035", "ownership": "public", "ownership_raw": "Oregon Department of Forestry", "city": "Lake Oswego", "source_dataset": "Tree Inventory", "source_department": "Oregon Department of Forestry", "source_last_edit_at": ""}}, {"type": "Feature", "geometry": {"type": "Point", "coordinates": [-122.7248613925433, 45.40205742787085]}, "properties": {"id": "lake-oswego-660983", "species_group": "cherry", "scientific_name": "Prunus avium", "common_name": "cherry (edible)", "subtype_name": "cherry (edible)", "zip_code": "97035", "ownership": "public", "ownership_raw": "Oregon Department of Forestry", "city": "Lake Oswego", "source_dataset": "Tree Inventory", "source_department": "Oregon Department of Forestry", "source_last_edit_at": ""}}, {"type": "Feature", "geometry": {"type": "Point", "coordinates": [-122.72531737907727, 45.40242311552068]}, "properties": {"id": "lake-oswego-661045", "species_group": "cherry", "scientific_name": "Prunus avium", "common_name": "cherry (edible)", "subtype_name": "cherry (edible)", "zip_code": "97035", "ownership": "public", "ownership_raw": "Oregon Department of Forestry", "city": "Lake Oswego", "source_dataset": "Tree Inventory", "source_department": "Oregon Department of Forestry", "source_last_edit_at": ""}}, {"type": "Feature", "geometry": {"type": "Point", "coordinates": [-122.72360867289206, 45.403629110291355]}, "properties": {"id": "lake-oswego-661074", "species_group": "cherry", "scientific_name": "Prunus avium", "common_name": "cherry (edible)", "subtype_name": "cherry (edible)", "zip_code": "97035", "ownership": "public", "ownership_raw": "Oregon Department of Forestry", "city": "Lake Oswego", "source_dataset": "Tree Inventory", "source_department": "Oregon Department of Forestry", "source_last_edit_at": ""}}, {"type": "Feature", "geometry": {"type": "Point", "coordinates": [-122.72360867289203, 45.403618752688885]}, "properties": {"id": "lake-oswego-661075", "species_group": "cherry", "scientific_name": "Prunus avium", "common_name": "cherry (edible)", "subtype_name": "cherry (edible)", "zip_code": "97035", "ownership": "public", "ownership_raw": "Oregon Department of Forestry", "city": "Lake Oswego", "source_dataset": "Tree Inventory", "source_department": "Oregon Department of Forestry", "source_last_edit_at": ""}}]}