{"type": "FeatureCollection", "features": [{"type": "Feature", "geometry": {"type": "Point", "coordinates": [-73.21095960199995, 44.431834621000064]}, "properties": {"id": "south-burlington-12687", "species_group": "crabapple", "scientific_name": "Malus species", "common_name": "Crabapple", "subtype_name": null, "zip_code": "05403", "ownership": "public", "ownership_raw": "City of South Burlington", "city": "South Burlington", "source_dataset": "Municipal Tree Inventory", "source_department": "City of South Burlington", "source_last_edit_at": ""}}, {"type": "Feature", "geometry": {"type": "Point", "coordinates": [-73.21148514699996, 44.42720462600005]}, "properties": {"id": "south-burlington-12978", "species_group": "crabapple", "scientific_name": "Malus species", "common_name": "Crabapple", "subtype_name": null, "zip_code": "05403", "ownership": "public", "ownership_raw": "City of South Burlington", "city": "South Burlington", "source_dataset": "Municipal Tree Inventory", "source_department": "City of South Burlington", "source_last_edit_at": ""}}, {"type": "Feature", "geometry": {"type": "Point", "coordinates": [-73.21085776199999, 44.433947741000054]}, "properties": {"id": "south-burlington-13266", "species_group": "crabapple", "scientific_name": "Malus species", "common_name": "Crabapple", "subtype_name": null, "zip_code": "05403", "ownership": "public", "ownership_raw": "City of South Burlington", "city": "South Burlington", "source_dataset": "Municipal Tree Inventory", "source_department": "City of South Burlington", "source_last_edit_at": ""}}, {"type": "Feature", "geometry": {"type": "Point", "coordinates": [-73.21086555799997, 44.43221113700008]}, "properties": {"id": "south-burlington-13430", "species_group": "crabapple", "scientific_name": "Malus species", "common_name": "Crabapple", "subtype_name": null, "zip_code": "05403", "ownership": "public", "ownership_raw": "City of South Burlington", "city": "South Burlington", "source_dataset": "Municipal Tree Inventory", "source_department": "City of South Burlington", "source_last_edit_at": ""}}, {"type": "Feature", "geometry": {"type": "Point", "coordinates": [-73.21098793299996, 44.43168102300007]}, "properties": {"id": "south-burlington-1563", "species_group": "crabapple", "scientific_name": "Malus species", "common_name": "Crabapple", "subtype_name": null, "zip_code": "05403", "ownership": "public", "ownership_raw": "City of South Burlington", "city": "South Burlington", "source_dataset": "Municipal Tree Inventory", "source_department": "City of South Burlington", "source_last_edit_at": ""}}, {"type": "Feature", "geometry": {"type": "Point", "coordinates": [-73.21103051299997, 44.432288250000056]}, "properties": {"id": "south-burlington-16450", "species_group": "crabapple", "scientific_name": "Malus species", "common_name": "Crabapple", "subtype_name": null, "zip_code": "05403", "ownership": "public", "ownership_raw": "City of South Burlington", "city": "South Burlington", "source_dataset": "Municipal Tree Inventory", "source_department": "City of South Burlington", "source_last_edit_at": ""}}, {"type": "Feature", "geometry": {"type": "Point", "coordinates": [-73.21087293399995, 44.43409002400006]}, "properties": {"id": "south-burlington-16537", "species_group": "crabapple", "scientific_name": "Malus species", "common_name": "Crabapple", "subtype_name": null, "zip_code": "05403", "ownership": "public", "ownership_raw": "City of South Burlington", "city": "South Burlington", "source_dataset": "Municipal Tree Inventory", "source_department": "City of South Burlington", "source_last_edit_at": ""}}, {"type": "Feature", "geometry": {"type": "Point", "coordinates": [-73.21101559299996, 44.42849854000008]}, "properties": {"id": "south-burlington-16570", "species_group": "crabapple", "scientific_name": "Malus species", "common_name": "Crabapple", "subtype_name": null, "zip_code": "05403", "ownership": "public", "ownership_raw": "City of South Burlington", "city": "South Burlington", "source_dataset": "Municipal Tree Inventory", "source_department": "City of South Burlington", "source_last_edit_at": ""}}, {"type": "Feature", "geometry": {"type": "Point", "coordinates": [-73.21097913199998, 44.43272901200004]}, "properties": {"id": "south-burlington-17040", "species_group": "crabapple", "scientific_name": "Malus species", "common_name": "Crabapple", "subtype_name": null, "zip_code": "05403", "ownership": "public", "ownership_raw": "City of South Burlington", "city": "South Burlington", "source_dataset": "Municipal Tree Inventory", "source_department": "City of South Burlington", "source_last_edit_at": ""}}, {"type": "Feature", "geometry": {"type": "Point", "coordinates": [-73.21091618399998, 44.43388697200004]}, "properties": {"id": "south-burlington-17041", "species_group": "crabapple", "scientific_name": "Malus species", "common_name": "Crabapple", "subtype_name": null, "zip_code": "05403", "ownership": "public", "ownership_raw": "City of South Burlington", "city": "South Burlington", "source_dataset": "Municipal Tree Inventory", "source_department": "City of South Burlington", "source_last_edit_at": ""}}, {"type": "Feature", "geometry": {"type": "Point", "coordinates": [-73.21054603899995, 44.43425493800004]}, "properties": {"id": "south-burlington-17707", "species_group": "crabapple", "scientific_name": "Malus species", "common_name": "Crabapple", "subtype_name": null, "zip_code": "05403", "ownership": "public", "ownership_raw": "City of South Burlington", "city": "South Burlington", "source_dataset": "Municipal Tree Inventory", "source_department": "City of South Burlington", "source_last_edit_at": ""}}, {"type": "Feature", "geometry": {"type": "Point", "coordinates": [-73.21094543699996, 44.432038386000045]}, "properties": {"id": "south-burlington-17797", "species_group": "crabapple", "scientific_name": "Malus species", "common_name": "Crabapple", "subtype_name": null, "zip_code": "05403", "ownership": "public", "ownership_raw": "City of South Burlington", "city": "South Burlington", "source_dataset": "Municipal Tree Inventory", "source_department": "City of South Burlington", "source_last_edit_at": ""}}, {"type": "Feature", "geometry": {"type": "Point", "coordinates": [-73.21160500799994, 44.42700446600003]}, "properties": {"id": "south-burlington-17918", "species_group": "crabapple", "scientific_name": "Malus species", "common_name": "Crabapple", "subtype_name": null, "zip_code": "05403", "ownership": "public", "ownership_raw": "City of South Burlington", "city": "South Burlington", "source_dataset": "Municipal Tree Inventory", "source_department": "City of South Burlington", "source_last_edit_at": ""}}, {"type": "Feature", "geometry": {"type": "Point", "coordinates": [-73.21168044599995, 44.42564546600005]}, "properties": {"id": "south-burlington-18044", "species_group": "crabapple", "scientific_name": "Malus species", "common_name": "Crabapple", "subtype_name": null, "zip_code": "05403", "ownership": "public", "ownership_raw": "City of South Burlington", "city": "South Burlington", "source_dataset": "Municipal Tree Inventory", "source_department": "City of South Burlington", "source_last_edit_at": ""}}, {"type": "Feature", "geometry": {"type": "Point", "coordinates": [-73.20887099899994, 44.44284328700007]}, "properties": {"id": "south-burlington-18625", "species_group": "cherry", "scientific_name": "Prunus species", "common_name": "Common Chokecherry", "subtype_name": "Common Chokecherry", "zip_code": "05403", "ownership": "public", "ownership_raw": "City of South Burlington", "city": "South Burlington", "source_dataset": "Municipal Tree Inventory", "source_department": "City of South Burlington", "source_last_edit_at": ""}}, {"type": "Feature", "geometry": {"type": "Point", "coordinates": [-73.21065936299993, 44.43291245000006]}, "properties": {"id": "south-burlington-1871", "species_group": "crabapple", "scientific_name": "Malus species", "common_name": "Crabapple", "subtype_name": null, "zip_code": "05403", "ownership": "public", "ownership_raw": "City of South Burlington", "city": "South Burlington", "source_dataset": "Municipal Tree Inventory", "source_department": "City of South Burlington", "source_last_edit_at": ""}}, {"type": "Feature", "geometry": {"type": "Point", "coordinates": [-73.21141758899995, 44.42903552700005]}, "properties": {"id": "south-burlington-20", "species_group": "crabapple", "scientific_name": "Malus species", "common_name": "Crabapple", "subtype_name": null, "zip_code": "05403", "ownership": "public", "ownership_raw": "City of South Burlington", "city": "South Burlington", "source_dataset": "Municipal Tree Inventory", "source_department": "City of South Burlington", "source_last_edit_at": ""}}, {"type": "Feature", "geometry": {"type": "Point", "coordinates": [-73.21146704299997, 44.42710320500004]}, "properties": {"id": "south-burlington-21425", "species_group": "crabapple", "scientific_name": "Malus species", "common_name": "Crabapple", "subtype_name": null, "zip_code": "05403", "ownership": "public", "ownership_raw": "City of South Burlington", "city": "South Burlington", "source_dataset": "Municipal Tree Inventory", "source_department": "City of South Burlington", "source_last_edit_at": ""}}, {"type": "Feature", "geometry": {"type": "Point", "coordinates": [-73.21145815799997, 44.427092350000066]}, "properties": {"id": "south-burlington-2144", "species_group": "crabapple", "scientific_name": "Malus species", "common_name": "Crabapple", "subtype_name": null, "zip_code": "05403", "ownership": "public", "ownership_raw": "City of South Burlington", "city": "South Burlington", "source_dataset": "Municipal Tree Inventory", "source_department": "City of South Burlington", "source_last_edit_at": ""}}, {"type": "Feature", "geometry": {"type": "Point", "coordinates": [-73.21106018499995, 44.43187037000007]}, "properties": {"id": "south-burlington-22544", "species_group": "crabapple", "scientific_name": "Malus species", "common_name": "Crabapple", "subtype_name": null, "zip_code": "05403", "ownership": "public", "ownership_raw": "City of South Burlington", "city": "South Burlington", "source_dataset": "Municipal Tree Inventory", "source_department": "City of South Burlington", "source_last_edit_at": ""}}, {"type": "Feature", "geometry": {"type": "Point", "coordinates": [-73.21089078699998, 44.43223992800006]}, "properties": {"id": "south-burlington-22641", "species_group": "crabapple", "scientific_name": "Malus species", "common_name": "Crabapple", "subtype_name": null, "zip_code": "05403", "ownership": "public", "ownership_raw": "City of South Burlington", "city": "South Burlington", "source_dataset": "Municipal Tree Inventory", "source_department": "City of South Burlington", "source_last_edit_at": ""}}, {"type": "Feature", "geometry": {"type": "Point", "coordinates": [-73.21105272499994, 44.43207677400005]}, "properties": {"id": "south-burlington-2303", "species_group": "crabapple", "scientific_name": "Malus species", "common_name": "Crabapple", "subtype_name": null, "zip_code": "05403", "ownership": "public", "ownership_raw": "City of South Burlington", "city": "South Burlington", "source_dataset": "Municipal Tree Inventory", "source_department": "City of South Burlington", "source_last_edit_at": ""}}, {"type": "Feature", "geometry": {"type": "Point", "coordinates": [-73.20813337699997, 44.442747792000034]}, "properties": {"id": "south-burlington-23034", "species_group": "cherry", "scientific_name": "Prunus species", "common_name": "Common Chokecherry", "subtype_name": "Common Chokecherry", "zip_code": "05403", "ownership": "public", "ownership_raw": "City of South Burlington", "city": "South Burlington", "source_dataset": "Municipal Tree Inventory", "source_department": "City of South Burlington", "source_last_edit_at": ""}}, {"type": "Feature", "geometry": {"type": "Point", "coordinates": [-73.20177467199994, 44.44172566900005]}, "properties": {"id": "south-burlington-23302", "species_group": "cherry", "scientific_name": "Prunus species", "common_name": "Common Chokecherry", "subtype_name": "Common Chokecherry", "zip_code": "05403", "ownership": "public", "ownership_raw": "City of South Burlington", "city": "South Burlington", "source_dataset": "Municipal Tree Inventory", "source_department": "City of South Burlington", "source_last_edit_at": ""}}, {"type": "Feature", "geometry": {"type": "Point", "coordinates": [-73.21097401899993, 44.43177003900007]}, "properties": {"id": "south-burlington-2336", "species_group": "crabapple", "scientific_name": "Malus species", "common_name": "Crabapple", "subtype_name": null, "zip_code": "05403", "ownership": "public", "ownership_raw": "City of South Burlington", "city": "South Burlington", "source_dataset": "Municipal Tree Inventory", "source_department": "City of South Burlington", "source_last_edit_at": ""}}, {"type": "Feature", "geometry": {"type": "Point", "coordinates": [-73.21133988999998, 44.42881919000007]}, "properties": {"id": "south-burlington-23886", "species_group": "crabapple", "scientific_name": "Malus species", "common_name": "Crabapple", "subtype_name": null, "zip_code": "05403", "ownership": "public", "ownership_raw": "City of South Burlington", "city": "South Burlington", "source_dataset": "Municipal Tree Inventory", "source_department": "City of South Burlington", "source_last_edit_at": ""}}, {"type": "Feature", "geometry": {"type": "Point", "coordinates": [-73.21067025899998, 44.43307585600007]}, "properties": {"id": "south-burlington-24105", "species_group": "crabapple", "scientific_name": "Malus species", "common_name": "Crabapple", "subtype_name": null, "zip_code": "05403", "ownership": "public", "ownership_raw": "City of South Burlington", "city": "South Burlington", "source_dataset": "Municipal Tree Inventory", "source_department": "City of South Burlington", "source_last_edit_at": ""}}, {"type": "Feature", "geometry": {"type": "Point", "coordinates": [-73.21083982399995, 44.434423749000075]}, "properties": {"id": "south-burlington-24746", "species_group": "crabapple", "scientific_name": "Malus species", "common_name": "Crabapple", "subtype_name": null, "zip_code": "05403", "ownership": "public", "ownership_raw": "City of South Burlington", "city": "South Burlington", "source_dataset": "Municipal Tree Inventory", "source_department": "City of South Burlington", "source_last_edit_at": ""}}, {"type": "Feature", "geometry": {"type": "Point", "coordinates": [-73.21167835099999, 44.426918845000046]}, "properties": {"id": "south-burlington-25720", "species_group": "crabapple", "scientific_name": "Malus species", "common_name": "Crabapple", "subtype_name": null, "zip_code": "05403", "ownership": "public", "ownership_raw": "City of South Burlington", "city": "South Burlington", "source_dataset": "Municipal Tree Inventory", "source_department": "City of South Burlington", "source_last_edit_at": ""}}, {"type": "Feature", "geometry": {"type": "Point", "coordinates": [-73.21100938999996, 44.43213461000005]}, "properties": {"id": "south-burlington-26623", "species_group": "crabapple", "scientific_name": "Malus species", "common_name": "Crabapple", "subtype_name": null, "zip_code": "05403", "ownership": "public", "ownership_raw": "City of South Burlington", "city": "South Burlington", "source_dataset": "Municipal Tree Inventory", "source_department": "City of South Burlington", "source_last_edit_at": ""}}, {"type": "Feature", "geometry": {"type": "Point", "coordinates": [-73.21147492199998, 44.42860285300003]}, "properties": {"id": "south-burlington-26853", "species_group": "crabapple", "scientific_name": "Malus species", "common_name": "Crabapple", "subtype_name": null, "zip_code": "05403", "ownership": "public", "ownership_raw": "City of South Burlington", "city": "South Burlington", "source_dataset": "Municipal Tree Inventory", "source_department": "City of South Burlington", "source_last_edit_at": ""}}, {"type": "Feature", "geometry": {"type": "Point", "coordinates": [-73.17045187599996, 44.43284619100007]}, "properties": {"id": "south-burlington-27310", "species_group": "cherry", "scientific_name": "Prunus species", "common_name": "Common Chokecherry", "subtype_name": "Common Chokecherry", "zip_code": "05403", "ownership": "public", "ownership_raw": "City of South Burlington", "city": "South Burlington", "source_dataset": "Municipal Tree Inventory", "source_department": "City of South Burlington", "source_last_edit_at": ""}}, {"type": "Feature", "geometry": {"type": "Point", "coordinates": [-73.21150425799993, 44.42786386200004]}, "properties": {"id": "south-burlington-27318", "species_group": "crabapple", "scientific_name": "Malus species", "common_name": "Crabapple", "subtype_name": null, "zip_code": "05403", "ownership": "public", "ownership_raw": "City of South Burlington", "city": "South Burlington", "source_dataset": "Municipal Tree Inventory", "source_department": "City of South Burlington", "source_last_edit_at": ""}}, {"type": "Feature", "geometry": {"type": "Point", "coordinates": [-73.21092640999996, 44.43362893600005]}, "properties": {"id": "south-burlington-28089", "species_group": "crabapple", "scientific_name": "Malus species", "common_name": "Crabapple", "subtype_name": null, "zip_code": "05403", "ownership": "public", "ownership_raw": "City of South Burlington", "city": "South Burlington", "source_dataset": "Municipal Tree Inventory", "source_department": "City of South Burlington", "source_last_edit_at": ""}}, {"type": "Feature", "geometry": {"type": "Point", "coordinates": [-73.20771734999994, 44.44272023900004]}, "properties": {"id": "south-burlington-2823", "species_group": "cherry", "scientific_name": "Prunus species", "common_name": "Common Chokecherry", "subtype_name": "Common Chokecherry", "zip_code": "05403", "ownership": "public", "ownership_raw": "City of South Burlington", "city": "South Burlington", "source_dataset": "Municipal Tree Inventory", "source_department": "City of South Burlington", "source_last_edit_at": ""}}, {"type": "Feature", "geometry": {"type": "Point", "coordinates": [-73.21129320199998, 44.427073868000036]}, "properties": {"id": "south-burlington-28727", "species_group": "crabapple", "scientific_name": "Malus species", "common_name": "Crabapple", "subtype_name": null, "zip_code": "05403", "ownership": "public", "ownership_raw": "City of South Burlington", "city": "South Burlington", "source_dataset": "Municipal Tree Inventory", "source_department": "City of South Burlington", "source_last_edit_at": ""}}, {"type": "Feature", "geometry": {"type": "Point", "coordinates": [-73.21098030599995, 44.43264594800007]}, "properties": {"id": "south-burlington-28765", "species_group": "crabapple", "scientific_name": "Malus species", "common_name": "Crabapple", "subtype_name": null, "zip_code": "05403", "ownership": "public", "ownership_raw": "City of South Burlington", "city": "South Burlington", "source_dataset": "Municipal Tree Inventory", "source_department": "City of South Burlington", "source_last_edit_at": ""}}, {"type": "Feature", "geometry": {"type": "Point", "coordinates": [-73.20809156599995, 44.43306764100004]}, "properties": {"id": "south-burlington-29288", "species_group": "cherry", "scientific_name": "Prunus species", "common_name": "Common Chokecherry", "subtype_name": "Common Chokecherry", "zip_code": "05403", "ownership": "public", "ownership_raw": "City of South Burlington", "city": "South Burlington", "source_dataset": "Municipal Tree Inventory", "source_department": "City of South Burlington", "source_last_edit_at": ""}}, {"type": "Feature", "geometry": {"type": "Point", "coordinates": [-73.21154314999995, 44.42795589600007]}, "properties": {"id": "south-burlington-29522", "species_group": "crabapple", "scientific_name": "Malus species", "common_name": "Crabapple", "subtype_name": null, "zip_code": "05403", "ownership": "public", "ownership_raw": "City of South Burlington", "city": "South Burlington", "source_dataset": "Municipal Tree Inventory", "source_department": "City of South Burlington", "source_last_edit_at": ""}}, {"type": "Feature", "geometry": {"type": "Point", "coordinates": [-73.21106730899999, 44.43178114500006]}, "properties": {"id": "south-burlington-29700", "species_group": "crabapple", "scientific_name": "Malus species", "common_name": "Crabapple", "subtype_name": null, "zip_code": "05403", "ownership": "public", "ownership_raw": "City of South Burlington", "city": "South Burlington", "source_dataset": "Municipal Tree Inventory", "source_department": "City of South Burlington", "source_last_edit_at": ""}}, {"type": "Feature", "geometry": {"type": "Point", "coordinates": [-73.21085927099995, 44.42845302600006]}, "properties": {"id": "south-burlington-3119", "species_group": "crabapple", "scientific_name": "Malus species", "common_name": "Crabapple", "subtype_name": null, "zip_code": "05403", "ownership": "public", "ownership_raw": "City of South Burlington", "city": "South Burlington", "source_dataset": "Municipal Tree Inventory", "source_department": "City of South Burlington", "source_last_edit_at": ""}}, {"type": "Feature", "geometry": {"type": "Point", "coordinates": [-73.21086664699999, 44.43217882500005]}, "properties": {"id": "south-burlington-3238", "species_group": "crabapple", "scientific_name": "Malus species", "common_name": "Crabapple", "subtype_name": null, "zip_code": "05403", "ownership": "public", "ownership_raw": "City of South Burlington", "city": "South Burlington", "source_dataset": "Municipal Tree Inventory", "source_department": "City of South Burlington", "source_last_edit_at": ""}}, {"type": "Feature", "geometry": {"type": "Point", "coordinates": [-73.21136151499996, 44.42871056100006]}, "properties": {"id": "south-burlington-3499", "species_group": "crabapple", "scientific_name": "Malus species", "common_name": "Crabapple", "subtype_name": null, "zip_code": "05403", "ownership": "public", "ownership_raw": "City of South Burlington", "city": "South Burlington", "source_dataset": "Municipal Tree Inventory", "source_department": "City of South Burlington", "source_last_edit_at": ""}}, {"type": "Feature", "geometry": {"type": "Point", "coordinates": [-73.21475086299995, 44.42740069600006]}, "properties": {"id": "south-burlington-3971", "species_group": "crabapple", "scientific_name": "Malus species", "common_name": "Crabapple", "subtype_name": null, "zip_code": "05403", "ownership": "public", "ownership_raw": "City of South Burlington", "city": "South Burlington", "source_dataset": "Municipal Tree Inventory", "source_department": "City of South Burlington", "source_last_edit_at": ""}}, {"type": "Feature", "geometry": {"type": "Point", "coordinates": [-73.21091182499998, 44.43373404500005]}, "properties": {"id": "south-burlington-4908", "species_group": "crabapple", "scientific_name": "Malus species", "common_name": "Crabapple", "subtype_name": null, "zip_code": "05403", "ownership": "public", "ownership_raw": "City of South Burlington", "city": "South Burlington", "source_dataset": "Municipal Tree Inventory", "source_department": "City of South Burlington", "source_last_edit_at": ""}}, {"type": "Feature", "geometry": {"type": "Point", "coordinates": [-73.20677010099996, 44.44265934100008]}, "properties": {"id": "south-burlington-4952", "species_group": "cherry", "scientific_name": "Prunus species", "common_name": "Common Chokecherry", "subtype_name": "Common Chokecherry", "zip_code": "05403", "ownership": "public", "ownership_raw": "City of South Burlington", "city": "South Burlington", "source_dataset": "Municipal Tree Inventory", "source_department": "City of South Burlington", "source_last_edit_at": ""}}, {"type": "Feature", "geometry": {"type": "Point", "coordinates": [-73.21130661299998, 44.426928693000036]}, "properties": {"id": "south-burlington-533", "species_group": "crabapple", "scientific_name": "Malus species", "common_name": "Crabapple", "subtype_name": null, "zip_code": "05403", "ownership": "public", "ownership_raw": "City of South Burlington", "city": "South Burlington", "source_dataset": "Municipal Tree Inventory", "source_department": "City of South Burlington", "source_last_edit_at": ""}}, {"type": "Feature", "geometry": {"type": "Point", "coordinates": [-73.21050639299995, 44.434366082000054]}, "properties": {"id": "south-burlington-6143", "species_group": "crabapple", "scientific_name": "Malus species", "common_name": "Crabapple", "subtype_name": null, "zip_code": "05403", "ownership": "public", "ownership_raw": "City of South Burlington", "city": "South Burlington", "source_dataset": "Municipal Tree Inventory", "source_department": "City of South Burlington", "source_last_edit_at": ""}}, {"type": "Feature", "geometry": {"type": "Point", "coordinates": [-73.21100536799997, 44.432396167000036]}, "properties": {"id": "south-burlington-6213", "species_group": "crabapple", "scientific_name": "Malus species", "common_name": "Crabapple", "subtype_name": null, "zip_code": "05403", "ownership": "public", "ownership_raw": "City of South Burlington", "city": "South Burlington", "source_dataset": "Municipal Tree Inventory", "source_department": "City of South Burlington", "source_last_edit_at": ""}}, {"type": "Feature", "geometry": {"type": "Point", "coordinates": [-73.21098625699994, 44.43283743200004]}, "properties": {"id": "south-burlington-7398", "species_group": "crabapple", "scientific_name": "Malus species", "common_name": "Crabapple", "subtype_name": null, "zip_code": "05403", "ownership": "public", "ownership_raw": "City of South Burlington", "city": "South Burlington", "source_dataset": "Municipal Tree Inventory", "source_department": "City of South Burlington", "source_last_edit_at": ""}}, {"type": "Feature", "geometry": {"type": "Point", "coordinates": [-73.21138674399998, 44.42657363600006]}, "properties": {"id": "south-burlington-7745", "species_group": "crabapple", "scientific_name": "Malus species", "common_name": "Crabapple", "subtype_name": null, "zip_code": "05403", "ownership": "public", "ownership_raw": "City of South Burlington", "city": "South Burlington", "source_dataset": "Municipal Tree Inventory", "source_department": "City of South Burlington", "source_last_edit_at": ""}}, {"type": "Feature", "geometry": {"type": "Point", "coordinates": [-73.20786257299994, 44.442742579000026]}, "properties": {"id": "south-burlington-8052", "species_group": "cherry", "scientific_name": "Prunus species", "common_name": "Common Chokecherry", "subtype_name": "Common Chokecherry", "zip_code": "05403", "ownership": "public", "ownership_raw": "City of South Burlington", "city": "South Burlington", "source_dataset": "Municipal Tree Inventory", "source_department": "City of South Burlington", "source_last_edit_at": ""}}, {"type": "Feature", "geometry": {"type": "Point", "coordinates": [-73.21156058499997, 44.42776072300006]}, "properties": {"id": "south-burlington-8157", "species_group": "crabapple", "scientific_name": "Malus species", "common_name": "Crabapple", "subtype_name": null, "zip_code": "05403", "ownership": "public", "ownership_raw": "City of South Burlington", "city": "South Burlington", "source_dataset": "Municipal Tree Inventory", "source_department": "City of South Burlington", "source_last_edit_at": ""}}, {"type": "Feature", "geometry": {"type": "Point", "coordinates": [-73.21089154099997, 44.432278695000036]}, "properties": {"id": "south-burlington-8864", "species_group": "crabapple", "scientific_name": "Malus species", "common_name": "Crabapple", "subtype_name": null, "zip_code": "05403", "ownership": "public", "ownership_raw": "City of South Burlington", "city": "South Burlington", "source_dataset": "Municipal Tree Inventory", "source_department": "City of South Burlington", "source_last_edit_at": ""}}, {"type": "Feature", "geometry": {"type": "Point", "coordinates": [-73.21113210199997, 44.43168466900005]}, "properties": {"id": "south-burlington-9576", "species_group": "crabapple", "scientific_name": "Malus species", "common_name": "Crabapple", "subtype_name": null, "zip_code": "05403", "ownership": "public", "ownership_raw": "City of South Burlington", "city": "South Burlington", "source_dataset": "Municipal Tree Inventory", "source_department": "City of South Burlington", "source_last_edit_at": ""}}, {"type": "Feature", "geometry": {"type": "Point", "coordinates": [-73.21141529599998, 44.42902435500008]}, "properties": {"id": "south-burlington-961", "species_group": "crabapple", "scientific_name": "Malus species", "common_name": "Crabapple", "subtype_name": null, "zip_code": "05403", "ownership": "public", "ownership_raw": "City of South Burlington", "city": "South Burlington", "source_dataset": "Municipal Tree Inventory", "source_department": "City of South Burlington", "source_last_edit_at": ""}}]}