{"type": "FeatureCollection", "features": [{"type": "Feature", "geometry": {"type": "Point", "coordinates": [-75.74469528552814, 39.70210924725687]}, "properties": {"id": "newark-1115", "species_group": "crabapple", "scientific_name": "Malus spp.", "common_name": "Flowering Crabapple", "subtype_name": "Flowering Crabapple", "zip_code": "19711", "ownership": "public", "ownership_raw": "City of Newark", "city": "Newark DE", "source_dataset": "Park Trees", "source_department": "City of Newark", "source_last_edit_at": ""}}, {"type": "Feature", "geometry": {"type": "Point", "coordinates": [-75.74455159763215, 39.70224280878458]}, "properties": {"id": "newark-1117", "species_group": "plum", "scientific_name": "Prunus spp.", "common_name": "Spp. Cherry/Plum", "subtype_name": "Cherry Plum", "zip_code": "19711", "ownership": "public", "ownership_raw": "City of Newark", "city": "Newark DE", "source_dataset": "Park Trees", "source_department": "City of Newark", "source_last_edit_at": ""}}, {"type": "Feature", "geometry": {"type": "Point", "coordinates": [-75.76734238039262, 39.67649381606316]}, "properties": {"id": "newark-1161", "species_group": "crabapple", "scientific_name": "Malus spp.", "common_name": "Flowering Crabapple", "subtype_name": "Flowering Crabapple", "zip_code": "19711", "ownership": "public", "ownership_raw": "City of Newark", "city": "Newark DE", "source_dataset": "Park Trees", "source_department": "City of Newark", "source_last_edit_at": ""}}, {"type": "Feature", "geometry": {"type": "Point", "coordinates": [-75.76726714612911, 39.67622236276469]}, "properties": {"id": "newark-1166", "species_group": "crabapple", "scientific_name": "Malus spp.", "common_name": "Flowering Crabapple", "subtype_name": "Flowering Crabapple", "zip_code": "19711", "ownership": "public", "ownership_raw": "City of Newark", "city": "Newark DE", "source_dataset": "Park Trees", "source_department": "City of Newark", "source_last_edit_at": ""}}, {"type": "Feature", "geometry": {"type": "Point", "coordinates": [-75.76750097333176, 39.6763061288272]}, "properties": {"id": "newark-1168", "species_group": "crabapple", "scientific_name": "Malus spp.", "common_name": "Flowering Crabapple", "subtype_name": "Flowering Crabapple", "zip_code": "19711", "ownership": "public", "ownership_raw": "City of Newark", "city": "Newark DE", "source_dataset": "Park Trees", "source_department": "City of Newark", "source_last_edit_at": ""}}, {"type": "Feature", "geometry": {"type": "Point", "coordinates": [-75.76764976858273, 39.695204867914285]}, "properties": {"id": "newark-1194", "species_group": "plum", "scientific_name": "Prunus spp.", "common_name": "Spp. Cherry/Plum", "subtype_name": "Cherry Plum", "zip_code": "19711", "ownership": "public", "ownership_raw": "City of Newark", "city": "Newark DE", "source_dataset": "Park Trees", "source_department": "City of Newark", "source_last_edit_at": ""}}, {"type": "Feature", "geometry": {"type": "Point", "coordinates": [-75.76878166103185, 39.69529979956904]}, "properties": {"id": "newark-1214", "species_group": "magnolia", "scientific_name": "Magnolia x soulangiana", "common_name": "Saucer Magnolia", "subtype_name": "Saucer Magnolia", "zip_code": "19711", "ownership": "public", "ownership_raw": "City of Newark", "city": "Newark DE", "source_dataset": "Park Trees", "source_department": "City of Newark", "source_last_edit_at": ""}}, {"type": "Feature", "geometry": {"type": "Point", "coordinates": [-75.7688845507482, 39.695416470898664]}, "properties": {"id": "newark-1215", "species_group": "plum", "scientific_name": "Prunus spp.", "common_name": "Spp. Cherry/Plum", "subtype_name": "Cherry Plum", "zip_code": "19711", "ownership": "public", "ownership_raw": "City of Newark", "city": "Newark DE", "source_dataset": "Park Trees", "source_department": "City of Newark", "source_last_edit_at": ""}}, {"type": "Feature", "geometry": {"type": "Point", "coordinates": [-75.76899208949511, 39.69531145271078]}, "properties": {"id": "newark-1216", "species_group": "plum", "scientific_name": "Prunus spp.", "common_name": "Spp. Cherry/Plum", "subtype_name": "Cherry Plum", "zip_code": "19711", "ownership": "public", "ownership_raw": "City of Newark", "city": "Newark DE", "source_dataset": "Park Trees", "source_department": "City of Newark", "source_last_edit_at": ""}}, {"type": "Feature", "geometry": {"type": "Point", "coordinates": [-75.76877747397266, 39.6963359380336]}, "properties": {"id": "newark-1231", "species_group": "crabapple", "scientific_name": "Malus spp.", "common_name": "Flowering Crabapple", "subtype_name": "Flowering Crabapple", "zip_code": "19711", "ownership": "public", "ownership_raw": "City of Newark", "city": "Newark DE", "source_dataset": "Park Trees", "source_department": "City of Newark", "source_last_edit_at": ""}}, {"type": "Feature", "geometry": {"type": "Point", "coordinates": [-75.76299000720817, 39.69488869363165]}, "properties": {"id": "newark-1362", "species_group": "plum", "scientific_name": "Prunus spp.", "common_name": "Spp. Cherry/Plum", "subtype_name": "Cherry Plum", "zip_code": "19711", "ownership": "public", "ownership_raw": "City of Newark", "city": "Newark DE", "source_dataset": "Park Trees", "source_department": "City of Newark", "source_last_edit_at": ""}}, {"type": "Feature", "geometry": {"type": "Point", "coordinates": [-75.7638330984419, 39.69573322369663]}, "properties": {"id": "newark-1373", "species_group": "plum", "scientific_name": "Prunus spp.", "common_name": "Spp. Cherry/Plum", "subtype_name": "Cherry Plum", "zip_code": "19711", "ownership": "public", "ownership_raw": "City of Newark", "city": "Newark DE", "source_dataset": "Park Trees", "source_department": "City of Newark", "source_last_edit_at": ""}}, {"type": "Feature", "geometry": {"type": "Point", "coordinates": [-75.76384417320068, 39.69561290715489]}, "properties": {"id": "newark-1374", "species_group": "magnolia", "scientific_name": "Magnolia x soulangiana", "common_name": "Saucer Magnolia", "subtype_name": "Saucer Magnolia", "zip_code": "19711", "ownership": "public", "ownership_raw": "City of Newark", "city": "Newark DE", "source_dataset": "Park Trees", "source_department": "City of Newark", "source_last_edit_at": ""}}, {"type": "Feature", "geometry": {"type": "Point", "coordinates": [-75.73736433587437, 39.69180635097045]}, "properties": {"id": "newark-1495", "species_group": "crabapple", "scientific_name": "Malus spp.", "common_name": "Flowering Crabapple", "subtype_name": "Flowering Crabapple", "zip_code": "19711", "ownership": "public", "ownership_raw": "City of Newark", "city": "Newark DE", "source_dataset": "Park Trees", "source_department": "City of Newark", "source_last_edit_at": ""}}, {"type": "Feature", "geometry": {"type": "Point", "coordinates": [-75.73734639320193, 39.69169861914956]}, "properties": {"id": "newark-1501", "species_group": "crabapple", "scientific_name": "Malus spp.", "common_name": "Flowering Crabapple", "subtype_name": "Flowering Crabapple", "zip_code": "19711", "ownership": "public", "ownership_raw": "City of Newark", "city": "Newark DE", "source_dataset": "Park Trees", "source_department": "City of Newark", "source_last_edit_at": ""}}, {"type": "Feature", "geometry": {"type": "Point", "coordinates": [-75.73746821324569, 39.69160817784485]}, "properties": {"id": "newark-1504", "species_group": "plum", "scientific_name": "Prunus spp.", "common_name": "Spp. Cherry/Plum", "subtype_name": "Cherry Plum", "zip_code": "19711", "ownership": "public", "ownership_raw": "City of Newark", "city": "Newark DE", "source_dataset": "Park Trees", "source_department": "City of Newark", "source_last_edit_at": ""}}, {"type": "Feature", "geometry": {"type": "Point", "coordinates": [-75.73729809926694, 39.69152402343176]}, "properties": {"id": "newark-1505", "species_group": "crabapple", "scientific_name": "Malus spp.", "common_name": "Flowering Crabapple", "subtype_name": "Flowering Crabapple", "zip_code": "19711", "ownership": "public", "ownership_raw": "City of Newark", "city": "Newark DE", "source_dataset": "Park Trees", "source_department": "City of Newark", "source_last_edit_at": ""}}, {"type": "Feature", "geometry": {"type": "Point", "coordinates": [-75.73725272824633, 39.691367568119716]}, "properties": {"id": "newark-1511", "species_group": "magnolia", "scientific_name": "Magnolia x soulangiana", "common_name": "Saucer Magnolia", "subtype_name": "Saucer Magnolia", "zip_code": "19711", "ownership": "public", "ownership_raw": "City of Newark", "city": "Newark DE", "source_dataset": "Park Trees", "source_department": "City of Newark", "source_last_edit_at": ""}}, {"type": "Feature", "geometry": {"type": "Point", "coordinates": [-75.73720114225289, 39.69122038972966]}, "properties": {"id": "newark-1519", "species_group": "crabapple", "scientific_name": "Malus spp.", "common_name": "Flowering Crabapple", "subtype_name": "Flowering Crabapple", "zip_code": "19711", "ownership": "public", "ownership_raw": "City of Newark", "city": "Newark DE", "source_dataset": "Park Trees", "source_department": "City of Newark", "source_last_edit_at": ""}}, {"type": "Feature", "geometry": {"type": "Point", "coordinates": [-75.73720447468975, 39.69121344897439]}, "properties": {"id": "newark-1520", "species_group": "crabapple", "scientific_name": "Malus spp.", "common_name": "Flowering Crabapple", "subtype_name": "Flowering Crabapple", "zip_code": "19711", "ownership": "public", "ownership_raw": "City of Newark", "city": "Newark DE", "source_dataset": "Park Trees", "source_department": "City of Newark", "source_last_edit_at": ""}}, {"type": "Feature", "geometry": {"type": "Point", "coordinates": [-75.73720332514279, 39.69120738703546]}, "properties": {"id": "newark-1521", "species_group": "crabapple", "scientific_name": "Malus spp.", "common_name": "Flowering Crabapple", "subtype_name": "Flowering Crabapple", "zip_code": "19711", "ownership": "public", "ownership_raw": "City of Newark", "city": "Newark DE", "source_dataset": "Park Trees", "source_department": "City of Newark", "source_last_edit_at": ""}}, {"type": "Feature", "geometry": {"type": "Point", "coordinates": [-75.73721674588691, 39.6911995528883]}, "properties": {"id": "newark-1522", "species_group": "crabapple", "scientific_name": "Malus spp.", "common_name": "Flowering Crabapple", "subtype_name": "Flowering Crabapple", "zip_code": "19711", "ownership": "public", "ownership_raw": "City of Newark", "city": "Newark DE", "source_dataset": "Park Trees", "source_department": "City of Newark", "source_last_edit_at": ""}}, {"type": "Feature", "geometry": {"type": "Point", "coordinates": [-75.73709931203183, 39.69077457338282]}, "properties": {"id": "newark-1540", "species_group": "crabapple", "scientific_name": "Malus spp.", "common_name": "Flowering Crabapple", "subtype_name": "Flowering Crabapple", "zip_code": "19711", "ownership": "public", "ownership_raw": "City of Newark", "city": "Newark DE", "source_dataset": "Park Trees", "source_department": "City of Newark", "source_last_edit_at": ""}}, {"type": "Feature", "geometry": {"type": "Point", "coordinates": [-75.73261570968324, 39.687175740598896]}, "properties": {"id": "newark-1579", "species_group": "plum", "scientific_name": "Prunus spp.", "common_name": "Spp. Cherry/Plum", "subtype_name": "Cherry Plum", "zip_code": "19711", "ownership": "public", "ownership_raw": "City of Newark", "city": "Newark DE", "source_dataset": "Park Trees", "source_department": "City of Newark", "source_last_edit_at": ""}}, {"type": "Feature", "geometry": {"type": "Point", "coordinates": [-75.76113524856483, 39.69004223226397]}, "properties": {"id": "newark-160", "species_group": "plum", "scientific_name": "Prunus spp.", "common_name": "Spp. Cherry/Plum", "subtype_name": "Cherry Plum", "zip_code": "19711", "ownership": "public", "ownership_raw": "City of Newark", "city": "Newark DE", "source_dataset": "Park Trees", "source_department": "City of Newark", "source_last_edit_at": ""}}, {"type": "Feature", "geometry": {"type": "Point", "coordinates": [-75.72512372291281, 39.687196061154324]}, "properties": {"id": "newark-1643", "species_group": "plum", "scientific_name": "Prunus spp.", "common_name": "Spp. Cherry/Plum", "subtype_name": "Cherry Plum", "zip_code": "19711", "ownership": "public", "ownership_raw": "City of Newark", "city": "Newark DE", "source_dataset": "Park Trees", "source_department": "City of Newark", "source_last_edit_at": ""}}, {"type": "Feature", "geometry": {"type": "Point", "coordinates": [-75.7425435941213, 39.65131676509258]}, "properties": {"id": "newark-1667", "species_group": "plum", "scientific_name": "Prunus spp.", "common_name": "Spp. Cherry/Plum", "subtype_name": "Cherry Plum", "zip_code": "19713", "ownership": "public", "ownership_raw": "City of Newark", "city": "Newark DE", "source_dataset": "Park Trees", "source_department": "City of Newark", "source_last_edit_at": ""}}, {"type": "Feature", "geometry": {"type": "Point", "coordinates": [-75.74596701334812, 39.69178827695375]}, "properties": {"id": "newark-1682", "species_group": "magnolia", "scientific_name": "Magnolia x soulangiana", "common_name": "Saucer Magnolia", "subtype_name": "Saucer Magnolia", "zip_code": "19711", "ownership": "public", "ownership_raw": "City of Newark", "city": "Newark DE", "source_dataset": "Park Trees", "source_department": "City of Newark", "source_last_edit_at": ""}}, {"type": "Feature", "geometry": {"type": "Point", "coordinates": [-75.74534977041623, 39.69180289537391]}, "properties": {"id": "newark-1688", "species_group": "magnolia", "scientific_name": "Magnolia x soulangiana", "common_name": "Saucer Magnolia", "subtype_name": "Saucer Magnolia", "zip_code": "19711", "ownership": "public", "ownership_raw": "City of Newark", "city": "Newark DE", "source_dataset": "Park Trees", "source_department": "City of Newark", "source_last_edit_at": ""}}, {"type": "Feature", "geometry": {"type": "Point", "coordinates": [-75.74482948071959, 39.70187824656258]}, "properties": {"id": "newark-1990", "species_group": "crabapple", "scientific_name": "Malus spp.", "common_name": "Flowering Crabapple", "subtype_name": "Flowering Crabapple", "zip_code": "19711", "ownership": "public", "ownership_raw": "City of Newark", "city": "Newark DE", "source_dataset": "Park Trees", "source_department": "City of Newark", "source_last_edit_at": ""}}, {"type": "Feature", "geometry": {"type": "Point", "coordinates": [-75.74441283376441, 39.70225226397007]}, "properties": {"id": "newark-1996", "species_group": "plum", "scientific_name": "Prunus spp.", "common_name": "Spp. Cherry/Plum", "subtype_name": "Cherry Plum", "zip_code": "19711", "ownership": "public", "ownership_raw": "City of Newark", "city": "Newark DE", "source_dataset": "Park Trees", "source_department": "City of Newark", "source_last_edit_at": ""}}, {"type": "Feature", "geometry": {"type": "Point", "coordinates": [-75.74442888813705, 39.70223002708939]}, "properties": {"id": "newark-1997", "species_group": "plum", "scientific_name": "Prunus spp.", "common_name": "Spp. Cherry/Plum", "subtype_name": "Cherry Plum", "zip_code": "19711", "ownership": "public", "ownership_raw": "City of Newark", "city": "Newark DE", "source_dataset": "Park Trees", "source_department": "City of Newark", "source_last_edit_at": ""}}, {"type": "Feature", "geometry": {"type": "Point", "coordinates": [-75.7443608551427, 39.70227182818055]}, "properties": {"id": "newark-1998", "species_group": "plum", "scientific_name": "Prunus spp.", "common_name": "Spp. Cherry/Plum", "subtype_name": "Cherry Plum", "zip_code": "19711", "ownership": "public", "ownership_raw": "City of Newark", "city": "Newark DE", "source_dataset": "Park Trees", "source_department": "City of Newark", "source_last_edit_at": ""}}, {"type": "Feature", "geometry": {"type": "Point", "coordinates": [-75.74817030502525, 39.68810390557632]}, "properties": {"id": "newark-239", "species_group": "plum", "scientific_name": "Prunus spp.", "common_name": "Spp. Cherry/Plum", "subtype_name": "Cherry Plum", "zip_code": "19711", "ownership": "public", "ownership_raw": "City of Newark", "city": "Newark DE", "source_dataset": "Park Trees", "source_department": "City of Newark", "source_last_edit_at": ""}}, {"type": "Feature", "geometry": {"type": "Point", "coordinates": [-75.7798300390995, 39.68320060389967]}, "properties": {"id": "newark-2392", "species_group": "cherry", "scientific_name": "Prunus serrulata", "common_name": "Japanese flowering cherry", "subtype_name": "Japanese Flowering Cherry", "zip_code": "19711", "ownership": "public", "ownership_raw": "City of Newark", "city": "Newark DE", "source_dataset": "Park Trees", "source_department": "City of Newark", "source_last_edit_at": ""}}, {"type": "Feature", "geometry": {"type": "Point", "coordinates": [-75.7481306110325, 39.688057860430476]}, "properties": {"id": "newark-240", "species_group": "plum", "scientific_name": "Prunus spp.", "common_name": "Spp. Cherry/Plum", "subtype_name": "Cherry Plum", "zip_code": "19711", "ownership": "public", "ownership_raw": "City of Newark", "city": "Newark DE", "source_dataset": "Park Trees", "source_department": "City of Newark", "source_last_edit_at": ""}}, {"type": "Feature", "geometry": {"type": "Point", "coordinates": [-75.74806784398218, 39.687983444254485]}, "properties": {"id": "newark-241", "species_group": "plum", "scientific_name": "Prunus spp.", "common_name": "Spp. Cherry/Plum", "subtype_name": "Cherry Plum", "zip_code": "19711", "ownership": "public", "ownership_raw": "City of Newark", "city": "Newark DE", "source_dataset": "Park Trees", "source_department": "City of Newark", "source_last_edit_at": ""}}, {"type": "Feature", "geometry": {"type": "Point", "coordinates": [-75.74801093949677, 39.687907774695226]}, "properties": {"id": "newark-242", "species_group": "plum", "scientific_name": "Prunus spp.", "common_name": "Spp. Cherry/Plum", "subtype_name": "Cherry Plum", "zip_code": "19711", "ownership": "public", "ownership_raw": "City of Newark", "city": "Newark DE", "source_dataset": "Park Trees", "source_department": "City of Newark", "source_last_edit_at": ""}}, {"type": "Feature", "geometry": {"type": "Point", "coordinates": [-75.74779721739313, 39.687678305367854]}, "properties": {"id": "newark-243", "species_group": "plum", "scientific_name": "Prunus spp.", "common_name": "Spp. Cherry/Plum", "subtype_name": "Cherry Plum", "zip_code": "19711", "ownership": "public", "ownership_raw": "City of Newark", "city": "Newark DE", "source_dataset": "Park Trees", "source_department": "City of Newark", "source_last_edit_at": ""}}, {"type": "Feature", "geometry": {"type": "Point", "coordinates": [-75.74775344901549, 39.68761627580039]}, "properties": {"id": "newark-244", "species_group": "plum", "scientific_name": "Prunus spp.", "common_name": "Spp. Cherry/Plum", "subtype_name": "Cherry Plum", "zip_code": "19711", "ownership": "public", "ownership_raw": "City of Newark", "city": "Newark DE", "source_dataset": "Park Trees", "source_department": "City of Newark", "source_last_edit_at": ""}}, {"type": "Feature", "geometry": {"type": "Point", "coordinates": [-75.74768799785858, 39.68753815810423]}, "properties": {"id": "newark-245", "species_group": "plum", "scientific_name": "Prunus spp.", "common_name": "Spp. Cherry/Plum", "subtype_name": "Cherry Plum", "zip_code": "19711", "ownership": "public", "ownership_raw": "City of Newark", "city": "Newark DE", "source_dataset": "Park Trees", "source_department": "City of Newark", "source_last_edit_at": ""}}, {"type": "Feature", "geometry": {"type": "Point", "coordinates": [-75.74742043528722, 39.687197212428735]}, "properties": {"id": "newark-246", "species_group": "plum", "scientific_name": "Prunus spp.", "common_name": "Spp. Cherry/Plum", "subtype_name": "Cherry Plum", "zip_code": "19711", "ownership": "public", "ownership_raw": "City of Newark", "city": "Newark DE", "source_dataset": "Park Trees", "source_department": "City of Newark", "source_last_edit_at": ""}}, {"type": "Feature", "geometry": {"type": "Point", "coordinates": [-75.74744531426391, 39.687172464093535]}, "properties": {"id": "newark-247", "species_group": "plum", "scientific_name": "Prunus spp.", "common_name": "Spp. Cherry/Plum", "subtype_name": "Cherry Plum", "zip_code": "19711", "ownership": "public", "ownership_raw": "City of Newark", "city": "Newark DE", "source_dataset": "Park Trees", "source_department": "City of Newark", "source_last_edit_at": ""}}, {"type": "Feature", "geometry": {"type": "Point", "coordinates": [-75.74781814088799, 39.68745465606935]}, "properties": {"id": "newark-248", "species_group": "magnolia", "scientific_name": "Magnolia stellata", "common_name": "Star Magnolia", "subtype_name": "Star Magnolia", "zip_code": "19711", "ownership": "public", "ownership_raw": "City of Newark", "city": "Newark DE", "source_dataset": "Park Trees", "source_department": "City of Newark", "source_last_edit_at": ""}}, {"type": "Feature", "geometry": {"type": "Point", "coordinates": [-75.7573918682183, 39.669635476676795]}, "properties": {"id": "newark-2508", "species_group": "plum", "scientific_name": "Prunus spp.", "common_name": "Spp. Cherry/Plum", "subtype_name": "Cherry Plum", "zip_code": "19711", "ownership": "public", "ownership_raw": "City of Newark", "city": "Newark DE", "source_dataset": "Park Trees", "source_department": "City of Newark", "source_last_edit_at": ""}}, {"type": "Feature", "geometry": {"type": "Point", "coordinates": [-75.75745128387487, 39.669148451619854]}, "properties": {"id": "newark-2511", "species_group": "magnolia", "scientific_name": "Magnolia grandiflora", "common_name": "Southern Magnolia", "subtype_name": "Southern Magnolia", "zip_code": "19711", "ownership": "public", "ownership_raw": "City of Newark", "city": "Newark DE", "source_dataset": "Park Trees", "source_department": "City of Newark", "source_last_edit_at": ""}}, {"type": "Feature", "geometry": {"type": "Point", "coordinates": [-75.75747972989929, 39.66913183359027]}, "properties": {"id": "newark-2512", "species_group": "magnolia", "scientific_name": "Magnolia grandiflora", "common_name": "Southern Magnolia", "subtype_name": "Southern Magnolia", "zip_code": "19711", "ownership": "public", "ownership_raw": "City of Newark", "city": "Newark DE", "source_dataset": "Park Trees", "source_department": "City of Newark", "source_last_edit_at": ""}}, {"type": "Feature", "geometry": {"type": "Point", "coordinates": [-75.75752249253424, 39.66912619597438]}, "properties": {"id": "newark-2513", "species_group": "magnolia", "scientific_name": "Magnolia grandiflora", "common_name": "Southern Magnolia", "subtype_name": "Southern Magnolia", "zip_code": "19711", "ownership": "public", "ownership_raw": "City of Newark", "city": "Newark DE", "source_dataset": "Park Trees", "source_department": "City of Newark", "source_last_edit_at": ""}}, {"type": "Feature", "geometry": {"type": "Point", "coordinates": [-75.75758650554864, 39.66909110159706]}, "properties": {"id": "newark-2514", "species_group": "plum", "scientific_name": "Prunus spp.", "common_name": "Spp. Cherry/Plum", "subtype_name": "Cherry Plum", "zip_code": "19711", "ownership": "public", "ownership_raw": "City of Newark", "city": "Newark DE", "source_dataset": "Park Trees", "source_department": "City of Newark", "source_last_edit_at": ""}}, {"type": "Feature", "geometry": {"type": "Point", "coordinates": [-75.7577004394003, 39.66905586150643]}, "properties": {"id": "newark-2515", "species_group": "plum", "scientific_name": "Prunus spp.", "common_name": "Spp. Cherry/Plum", "subtype_name": "Cherry Plum", "zip_code": "19711", "ownership": "public", "ownership_raw": "City of Newark", "city": "Newark DE", "source_dataset": "Park Trees", "source_department": "City of Newark", "source_last_edit_at": ""}}, {"type": "Feature", "geometry": {"type": "Point", "coordinates": [-75.76111882675401, 39.66900601851559]}, "properties": {"id": "newark-2573", "species_group": "magnolia", "scientific_name": "Magnolia virginiana", "common_name": "Sweetbay Magnolia", "subtype_name": "Sweetbay Magnolia", "zip_code": "19711", "ownership": "public", "ownership_raw": "City of Newark", "city": "Newark DE", "source_dataset": "Park Trees", "source_department": "City of Newark", "source_last_edit_at": ""}}, {"type": "Feature", "geometry": {"type": "Point", "coordinates": [-75.76116555628441, 39.6689715417514]}, "properties": {"id": "newark-2574", "species_group": "magnolia", "scientific_name": "Magnolia virginiana", "common_name": "Sweetbay Magnolia", "subtype_name": "Sweetbay Magnolia", "zip_code": "19711", "ownership": "public", "ownership_raw": "City of Newark", "city": "Newark DE", "source_dataset": "Park Trees", "source_department": "City of Newark", "source_last_edit_at": ""}}, {"type": "Feature", "geometry": {"type": "Point", "coordinates": [-75.761217203539, 39.668933235127675]}, "properties": {"id": "newark-2575", "species_group": "magnolia", "scientific_name": "Magnolia virginiana", "common_name": "Sweetbay Magnolia", "subtype_name": "Sweetbay Magnolia", "zip_code": "19711", "ownership": "public", "ownership_raw": "City of Newark", "city": "Newark DE", "source_dataset": "Park Trees", "source_department": "City of Newark", "source_last_edit_at": ""}}, {"type": "Feature", "geometry": {"type": "Point", "coordinates": [-75.76112662972923, 39.66908611834851]}, "properties": {"id": "newark-2577", "species_group": "plum", "scientific_name": "Prunus spp.", "common_name": "Spp. Cherry/Plum", "subtype_name": "Cherry Plum", "zip_code": "19711", "ownership": "public", "ownership_raw": "City of Newark", "city": "Newark DE", "source_dataset": "Park Trees", "source_department": "City of Newark", "source_last_edit_at": ""}}, {"type": "Feature", "geometry": {"type": "Point", "coordinates": [-75.74845710496525, 39.687760660621315]}, "properties": {"id": "newark-260", "species_group": "plum", "scientific_name": "Prunus spp.", "common_name": "Spp. Cherry/Plum", "subtype_name": "Cherry Plum", "zip_code": "19711", "ownership": "public", "ownership_raw": "City of Newark", "city": "Newark DE", "source_dataset": "Park Trees", "source_department": "City of Newark", "source_last_edit_at": ""}}, {"type": "Feature", "geometry": {"type": "Point", "coordinates": [-75.74844152614003, 39.68769740151319]}, "properties": {"id": "newark-261", "species_group": "plum", "scientific_name": "Prunus spp.", "common_name": "Spp. Cherry/Plum", "subtype_name": "Cherry Plum", "zip_code": "19711", "ownership": "public", "ownership_raw": "City of Newark", "city": "Newark DE", "source_dataset": "Park Trees", "source_department": "City of Newark", "source_last_edit_at": ""}}, {"type": "Feature", "geometry": {"type": "Point", "coordinates": [-75.77241495109759, 39.6789960748649]}, "properties": {"id": "newark-2629", "species_group": "magnolia", "scientific_name": "Magnolia x soulangiana", "common_name": "Saucer Magnolia", "subtype_name": "Saucer Magnolia", "zip_code": "19711", "ownership": "public", "ownership_raw": "City of Newark", "city": "Newark DE", "source_dataset": "Park Trees", "source_department": "City of Newark", "source_last_edit_at": ""}}, {"type": "Feature", "geometry": {"type": "Point", "coordinates": [-75.7734153481877, 39.67885132050172]}, "properties": {"id": "newark-2658", "species_group": "plum", "scientific_name": "Prunus spp.", "common_name": "Spp. Cherry/Plum", "subtype_name": "Cherry Plum", "zip_code": "19711", "ownership": "public", "ownership_raw": "City of Newark", "city": "Newark DE", "source_dataset": "Park Trees", "source_department": "City of Newark", "source_last_edit_at": ""}}, {"type": "Feature", "geometry": {"type": "Point", "coordinates": [-75.77099572641278, 39.68045894183861]}, "properties": {"id": "newark-2695", "species_group": "plum", "scientific_name": "Prunus spp.", "common_name": "Spp. Cherry/Plum", "subtype_name": "Cherry Plum", "zip_code": "19711", "ownership": "public", "ownership_raw": "City of Newark", "city": "Newark DE", "source_dataset": "Park Trees", "source_department": "City of Newark", "source_last_edit_at": ""}}, {"type": "Feature", "geometry": {"type": "Point", "coordinates": [-75.77103510302467, 39.680489129271656]}, "properties": {"id": "newark-2696", "species_group": "magnolia", "scientific_name": "Magnolia x soulangiana", "common_name": "Saucer Magnolia", "subtype_name": "Saucer Magnolia", "zip_code": "19711", "ownership": "public", "ownership_raw": "City of Newark", "city": "Newark DE", "source_dataset": "Park Trees", "source_department": "City of Newark", "source_last_edit_at": ""}}, {"type": "Feature", "geometry": {"type": "Point", "coordinates": [-75.77108638713436, 39.68054655627499]}, "properties": {"id": "newark-2697", "species_group": "plum", "scientific_name": "Prunus spp.", "common_name": "Spp. Cherry/Plum", "subtype_name": "Cherry Plum", "zip_code": "19711", "ownership": "public", "ownership_raw": "City of Newark", "city": "Newark DE", "source_dataset": "Park Trees", "source_department": "City of Newark", "source_last_edit_at": ""}}, {"type": "Feature", "geometry": {"type": "Point", "coordinates": [-75.7711352823489, 39.6805206460452]}, "properties": {"id": "newark-2698", "species_group": "magnolia", "scientific_name": "Magnolia x soulangiana", "common_name": "Saucer Magnolia", "subtype_name": "Saucer Magnolia", "zip_code": "19711", "ownership": "public", "ownership_raw": "City of Newark", "city": "Newark DE", "source_dataset": "Park Trees", "source_department": "City of Newark", "source_last_edit_at": ""}}, {"type": "Feature", "geometry": {"type": "Point", "coordinates": [-75.77254064711421, 39.679987489111056]}, "properties": {"id": "newark-2707", "species_group": "magnolia", "scientific_name": "Magnolia x soulangiana", "common_name": "Saucer Magnolia", "subtype_name": "Saucer Magnolia", "zip_code": "19711", "ownership": "public", "ownership_raw": "City of Newark", "city": "Newark DE", "source_dataset": "Park Trees", "source_department": "City of Newark", "source_last_edit_at": ""}}, {"type": "Feature", "geometry": {"type": "Point", "coordinates": [-75.74616477090157, 39.67323928070389]}, "properties": {"id": "newark-2802", "species_group": "plum", "scientific_name": "Prunus spp.", "common_name": "Spp. Cherry/Plum", "subtype_name": "Cherry Plum", "zip_code": "19711", "ownership": "public", "ownership_raw": "City of Newark", "city": "Newark DE", "source_dataset": "Park Trees", "source_department": "City of Newark", "source_last_edit_at": ""}}, {"type": "Feature", "geometry": {"type": "Point", "coordinates": [-75.75010723690886, 39.671721474807796]}, "properties": {"id": "newark-2906", "species_group": "plum", "scientific_name": "Prunus spp.", "common_name": "Spp. Cherry/Plum", "subtype_name": "Cherry Plum", "zip_code": "19711", "ownership": "public", "ownership_raw": "City of Newark", "city": "Newark DE", "source_dataset": "Park Trees", "source_department": "City of Newark", "source_last_edit_at": ""}}, {"type": "Feature", "geometry": {"type": "Point", "coordinates": [-75.74954143143361, 39.67172465968216]}, "properties": {"id": "newark-2908", "species_group": "plum", "scientific_name": "Prunus spp.", "common_name": "Spp. Cherry/Plum", "subtype_name": "Cherry Plum", "zip_code": "19711", "ownership": "public", "ownership_raw": "City of Newark", "city": "Newark DE", "source_dataset": "Park Trees", "source_department": "City of Newark", "source_last_edit_at": ""}}, {"type": "Feature", "geometry": {"type": "Point", "coordinates": [-75.74952526637998, 39.67172470601383]}, "properties": {"id": "newark-2909", "species_group": "plum", "scientific_name": "Prunus spp.", "common_name": "Spp. Cherry/Plum", "subtype_name": "Cherry Plum", "zip_code": "19711", "ownership": "public", "ownership_raw": "City of Newark", "city": "Newark DE", "source_dataset": "Park Trees", "source_department": "City of Newark", "source_last_edit_at": ""}}, {"type": "Feature", "geometry": {"type": "Point", "coordinates": [-75.74941813564358, 39.67171876594404]}, "properties": {"id": "newark-2910", "species_group": "plum", "scientific_name": "Prunus spp.", "common_name": "Spp. Cherry/Plum", "subtype_name": "Cherry Plum", "zip_code": "19711", "ownership": "public", "ownership_raw": "City of Newark", "city": "Newark DE", "source_dataset": "Park Trees", "source_department": "City of Newark", "source_last_edit_at": ""}}, {"type": "Feature", "geometry": {"type": "Point", "coordinates": [-75.74948213664601, 39.67154428704024]}, "properties": {"id": "newark-2917", "species_group": "plum", "scientific_name": "Prunus spp.", "common_name": "Spp. Cherry/Plum", "subtype_name": "Cherry Plum", "zip_code": "19711", "ownership": "public", "ownership_raw": "City of Newark", "city": "Newark DE", "source_dataset": "Park Trees", "source_department": "City of Newark", "source_last_edit_at": ""}}, {"type": "Feature", "geometry": {"type": "Point", "coordinates": [-75.7496294634029, 39.67150482328228]}, "properties": {"id": "newark-2918", "species_group": "plum", "scientific_name": "Prunus spp.", "common_name": "Spp. Cherry/Plum", "subtype_name": "Cherry Plum", "zip_code": "19711", "ownership": "public", "ownership_raw": "City of Newark", "city": "Newark DE", "source_dataset": "Park Trees", "source_department": "City of Newark", "source_last_edit_at": ""}}, {"type": "Feature", "geometry": {"type": "Point", "coordinates": [-75.74968796784859, 39.67148435436918]}, "properties": {"id": "newark-2919", "species_group": "plum", "scientific_name": "Prunus spp.", "common_name": "Spp. Cherry/Plum", "subtype_name": "Cherry Plum", "zip_code": "19711", "ownership": "public", "ownership_raw": "City of Newark", "city": "Newark DE", "source_dataset": "Park Trees", "source_department": "City of Newark", "source_last_edit_at": ""}}, {"type": "Feature", "geometry": {"type": "Point", "coordinates": [-75.74975455592129, 39.67146386224255]}, "properties": {"id": "newark-2920", "species_group": "plum", "scientific_name": "Prunus spp.", "common_name": "Spp. Cherry/Plum", "subtype_name": "Cherry Plum", "zip_code": "19711", "ownership": "public", "ownership_raw": "City of Newark", "city": "Newark DE", "source_dataset": "Park Trees", "source_department": "City of Newark", "source_last_edit_at": ""}}, {"type": "Feature", "geometry": {"type": "Point", "coordinates": [-75.74996441346859, 39.67140079490053]}, "properties": {"id": "newark-2924", "species_group": "plum", "scientific_name": "Prunus spp.", "common_name": "Spp. Cherry/Plum", "subtype_name": "Cherry Plum", "zip_code": "19711", "ownership": "public", "ownership_raw": "City of Newark", "city": "Newark DE", "source_dataset": "Park Trees", "source_department": "City of Newark", "source_last_edit_at": ""}}, {"type": "Feature", "geometry": {"type": "Point", "coordinates": [-75.75003477932823, 39.67132563353528]}, "properties": {"id": "newark-2928", "species_group": "plum", "scientific_name": "Prunus spp.", "common_name": "Spp. Cherry/Plum", "subtype_name": "Cherry Plum", "zip_code": "19711", "ownership": "public", "ownership_raw": "City of Newark", "city": "Newark DE", "source_dataset": "Park Trees", "source_department": "City of Newark", "source_last_edit_at": ""}}, {"type": "Feature", "geometry": {"type": "Point", "coordinates": [-75.75004498029833, 39.671345905420615]}, "properties": {"id": "newark-2929", "species_group": "plum", "scientific_name": "Prunus spp.", "common_name": "Spp. Cherry/Plum", "subtype_name": "Cherry Plum", "zip_code": "19711", "ownership": "public", "ownership_raw": "City of Newark", "city": "Newark DE", "source_dataset": "Park Trees", "source_department": "City of Newark", "source_last_edit_at": ""}}, {"type": "Feature", "geometry": {"type": "Point", "coordinates": [-75.75051878985275, 39.67154287342512]}, "properties": {"id": "newark-2932", "species_group": "plum", "scientific_name": "Prunus spp.", "common_name": "Spp. Cherry/Plum", "subtype_name": "Cherry Plum", "zip_code": "19711", "ownership": "public", "ownership_raw": "City of Newark", "city": "Newark DE", "source_dataset": "Park Trees", "source_department": "City of Newark", "source_last_edit_at": ""}}, {"type": "Feature", "geometry": {"type": "Point", "coordinates": [-75.75298930627002, 39.66811110518266]}, "properties": {"id": "newark-2959", "species_group": "cherry", "scientific_name": "Prunus sargentii", "common_name": "Sargent cherry", "subtype_name": "Sargent", "zip_code": "19713", "ownership": "public", "ownership_raw": "City of Newark", "city": "Newark DE", "source_dataset": "Park Trees", "source_department": "City of Newark", "source_last_edit_at": ""}}, {"type": "Feature", "geometry": {"type": "Point", "coordinates": [-75.75762723905811, 39.67039844941899]}, "properties": {"id": "newark-2961", "species_group": "plum", "scientific_name": "Prunus spp.", "common_name": "Spp. Cherry/Plum", "subtype_name": "Cherry Plum", "zip_code": "19711", "ownership": "public", "ownership_raw": "City of Newark", "city": "Newark DE", "source_dataset": "Park Trees", "source_department": "City of Newark", "source_last_edit_at": ""}}, {"type": "Feature", "geometry": {"type": "Point", "coordinates": [-75.75023287537529, 39.6714094226618]}, "properties": {"id": "newark-2968", "species_group": "plum", "scientific_name": "Prunus spp.", "common_name": "Spp. Cherry/Plum", "subtype_name": "Cherry Plum", "zip_code": "19711", "ownership": "public", "ownership_raw": "City of Newark", "city": "Newark DE", "source_dataset": "Park Trees", "source_department": "City of Newark", "source_last_edit_at": ""}}, {"type": "Feature", "geometry": {"type": "Point", "coordinates": [-75.75865777249304, 39.64794684869295]}, "properties": {"id": "newark-2988", "species_group": "plum", "scientific_name": "Prunus spp.", "common_name": "Spp. Cherry/Plum", "subtype_name": "Cherry Plum", "zip_code": "19713", "ownership": "public", "ownership_raw": "City of Newark", "city": "Newark DE", "source_dataset": "Park Trees", "source_department": "City of Newark", "source_last_edit_at": ""}}, {"type": "Feature", "geometry": {"type": "Point", "coordinates": [-75.75104812414419, 39.68832259822165]}, "properties": {"id": "newark-299", "species_group": "magnolia", "scientific_name": "Magnolia spp.", "common_name": "Spp. Magnolia", "subtype_name": "Spp. Magnolia", "zip_code": "19711", "ownership": "public", "ownership_raw": "City of Newark", "city": "Newark DE", "source_dataset": "Park Trees", "source_department": "City of Newark", "source_last_edit_at": ""}}, {"type": "Feature", "geometry": {"type": "Point", "coordinates": [-75.75112387019944, 39.68847902825695]}, "properties": {"id": "newark-300", "species_group": "plum", "scientific_name": "Prunus spp.", "common_name": "Spp. Cherry/Plum", "subtype_name": "Cherry Plum", "zip_code": "19711", "ownership": "public", "ownership_raw": "City of Newark", "city": "Newark DE", "source_dataset": "Park Trees", "source_department": "City of Newark", "source_last_edit_at": ""}}, {"type": "Feature", "geometry": {"type": "Point", "coordinates": [-75.75824611509213, 39.64901558839386]}, "properties": {"id": "newark-3017", "species_group": "cherry", "scientific_name": "Prunus sargentii", "common_name": "Sargent cherry", "subtype_name": "Sargent", "zip_code": "19713", "ownership": "public", "ownership_raw": "City of Newark", "city": "Newark DE", "source_dataset": "Park Trees", "source_department": "City of Newark", "source_last_edit_at": ""}}, {"type": "Feature", "geometry": {"type": "Point", "coordinates": [-75.75819695848433, 39.64899385731663]}, "properties": {"id": "newark-3018", "species_group": "cherry", "scientific_name": "Prunus sargentii", "common_name": "Sargent cherry", "subtype_name": "Sargent", "zip_code": "19713", "ownership": "public", "ownership_raw": "City of Newark", "city": "Newark DE", "source_dataset": "Park Trees", "source_department": "City of Newark", "source_last_edit_at": ""}}, {"type": "Feature", "geometry": {"type": "Point", "coordinates": [-75.75819296233455, 39.64894865962296]}, "properties": {"id": "newark-3019", "species_group": "cherry", "scientific_name": "Prunus sargentii", "common_name": "Sargent cherry", "subtype_name": "Sargent", "zip_code": "19713", "ownership": "public", "ownership_raw": "City of Newark", "city": "Newark DE", "source_dataset": "Park Trees", "source_department": "City of Newark", "source_last_edit_at": ""}}, {"type": "Feature", "geometry": {"type": "Point", "coordinates": [-75.7579733402264, 39.64878888391985]}, "properties": {"id": "newark-3023", "species_group": "cherry", "scientific_name": "Prunus sargentii", "common_name": "Sargent cherry", "subtype_name": "Sargent", "zip_code": "19713", "ownership": "public", "ownership_raw": "City of Newark", "city": "Newark DE", "source_dataset": "Park Trees", "source_department": "City of Newark", "source_last_edit_at": ""}}, {"type": "Feature", "geometry": {"type": "Point", "coordinates": [-75.7579596034065, 39.648681005252]}, "properties": {"id": "newark-3024", "species_group": "cherry", "scientific_name": "Prunus sargentii", "common_name": "Sargent cherry", "subtype_name": "Sargent", "zip_code": "19713", "ownership": "public", "ownership_raw": "City of Newark", "city": "Newark DE", "source_dataset": "Park Trees", "source_department": "City of Newark", "source_last_edit_at": ""}}, {"type": "Feature", "geometry": {"type": "Point", "coordinates": [-75.75800842265885, 39.64863419325533]}, "properties": {"id": "newark-3025", "species_group": "cherry", "scientific_name": "Prunus sargentii", "common_name": "Sargent cherry", "subtype_name": "Sargent", "zip_code": "19713", "ownership": "public", "ownership_raw": "City of Newark", "city": "Newark DE", "source_dataset": "Park Trees", "source_department": "City of Newark", "source_last_edit_at": ""}}, {"type": "Feature", "geometry": {"type": "Point", "coordinates": [-75.75827286120632, 39.64831694971732]}, "properties": {"id": "newark-3035", "species_group": "magnolia", "scientific_name": "Magnolia x soulangiana", "common_name": "Saucer Magnolia", "subtype_name": "Saucer Magnolia", "zip_code": "19713", "ownership": "public", "ownership_raw": "City of Newark", "city": "Newark DE", "source_dataset": "Park Trees", "source_department": "City of Newark", "source_last_edit_at": ""}}, {"type": "Feature", "geometry": {"type": "Point", "coordinates": [-75.75850631809413, 39.64822146850989]}, "properties": {"id": "newark-3037", "species_group": "cherry", "scientific_name": "Prunus sargentii", "common_name": "Sargent cherry", "subtype_name": "Sargent", "zip_code": "19713", "ownership": "public", "ownership_raw": "City of Newark", "city": "Newark DE", "source_dataset": "Park Trees", "source_department": "City of Newark", "source_last_edit_at": ""}}, {"type": "Feature", "geometry": {"type": "Point", "coordinates": [-75.75856672227259, 39.648228582601725]}, "properties": {"id": "newark-3038", "species_group": "cherry", "scientific_name": "Prunus sargentii", "common_name": "Sargent cherry", "subtype_name": "Sargent", "zip_code": "19713", "ownership": "public", "ownership_raw": "City of Newark", "city": "Newark DE", "source_dataset": "Park Trees", "source_department": "City of Newark", "source_last_edit_at": ""}}, {"type": "Feature", "geometry": {"type": "Point", "coordinates": [-75.75876068470471, 39.64815800914485]}, "properties": {"id": "newark-3039", "species_group": "magnolia", "scientific_name": "Magnolia x soulangiana", "common_name": "Saucer Magnolia", "subtype_name": "Saucer Magnolia", "zip_code": "19713", "ownership": "public", "ownership_raw": "City of Newark", "city": "Newark DE", "source_dataset": "Park Trees", "source_department": "City of Newark", "source_last_edit_at": ""}}, {"type": "Feature", "geometry": {"type": "Point", "coordinates": [-75.75886635636752, 39.648163531556854]}, "properties": {"id": "newark-3041", "species_group": "cherry", "scientific_name": "Prunus sargentii", "common_name": "Sargent cherry", "subtype_name": "Sargent", "zip_code": "19713", "ownership": "public", "ownership_raw": "City of Newark", "city": "Newark DE", "source_dataset": "Park Trees", "source_department": "City of Newark", "source_last_edit_at": ""}}, {"type": "Feature", "geometry": {"type": "Point", "coordinates": [-75.75900813041395, 39.64822144879842]}, "properties": {"id": "newark-3043", "species_group": "cherry", "scientific_name": "Prunus sargentii", "common_name": "Sargent cherry", "subtype_name": "Sargent", "zip_code": "19713", "ownership": "public", "ownership_raw": "City of Newark", "city": "Newark DE", "source_dataset": "Park Trees", "source_department": "City of Newark", "source_last_edit_at": ""}}, {"type": "Feature", "geometry": {"type": "Point", "coordinates": [-75.75909113484451, 39.64970345869424]}, "properties": {"id": "newark-3091", "species_group": "plum", "scientific_name": "Prunus spp.", "common_name": "Spp. Cherry/Plum", "subtype_name": "Cherry Plum", "zip_code": "19713", "ownership": "public", "ownership_raw": "City of Newark", "city": "Newark DE", "source_dataset": "Park Trees", "source_department": "City of Newark", "source_last_edit_at": ""}}, {"type": "Feature", "geometry": {"type": "Point", "coordinates": [-75.7629688930128, 39.677335785847994]}, "properties": {"id": "newark-3219", "species_group": "magnolia", "scientific_name": "Magnolia grandiflora", "common_name": "Southern Magnolia", "subtype_name": "Southern Magnolia", "zip_code": "19711", "ownership": "public", "ownership_raw": "City of Newark", "city": "Newark DE", "source_dataset": "Park Trees", "source_department": "City of Newark", "source_last_edit_at": ""}}, {"type": "Feature", "geometry": {"type": "Point", "coordinates": [-75.75911894640836, 39.64951269906341]}, "properties": {"id": "newark-3354", "species_group": "plum", "scientific_name": "Prunus spp.", "common_name": "Spp. Cherry/Plum", "subtype_name": "Cherry Plum", "zip_code": "19713", "ownership": "public", "ownership_raw": "City of Newark", "city": "Newark DE", "source_dataset": "Park Trees", "source_department": "City of Newark", "source_last_edit_at": ""}}, {"type": "Feature", "geometry": {"type": "Point", "coordinates": [-75.75914128548669, 39.649516084590395]}, "properties": {"id": "newark-3355", "species_group": "plum", "scientific_name": "Prunus spp.", "common_name": "Spp. Cherry/Plum", "subtype_name": "Cherry Plum", "zip_code": "19713", "ownership": "public", "ownership_raw": "City of Newark", "city": "Newark DE", "source_dataset": "Park Trees", "source_department": "City of Newark", "source_last_edit_at": ""}}, {"type": "Feature", "geometry": {"type": "Point", "coordinates": [-75.75912648319222, 39.64953223412416]}, "properties": {"id": "newark-3356", "species_group": "plum", "scientific_name": "Prunus spp.", "common_name": "Spp. Cherry/Plum", "subtype_name": "Cherry Plum", "zip_code": "19713", "ownership": "public", "ownership_raw": "City of Newark", "city": "Newark DE", "source_dataset": "Park Trees", "source_department": "City of Newark", "source_last_edit_at": ""}}, {"type": "Feature", "geometry": {"type": "Point", "coordinates": [-75.76469673188134, 39.67802339748372]}, "properties": {"id": "newark-3366", "species_group": "plum", "scientific_name": "Prunus spp.", "common_name": "Spp. Cherry/Plum", "subtype_name": "Cherry Plum", "zip_code": "19711", "ownership": "public", "ownership_raw": "City of Newark", "city": "Newark DE", "source_dataset": "Park Trees", "source_department": "City of Newark", "source_last_edit_at": ""}}, {"type": "Feature", "geometry": {"type": "Point", "coordinates": [-75.74452075828917, 39.67400541162741]}, "properties": {"id": "newark-3390", "species_group": "magnolia", "scientific_name": "Magnolia virginiana", "common_name": "Sweetbay Magnolia", "subtype_name": "Sweetbay Magnolia", "zip_code": "19711", "ownership": "public", "ownership_raw": "City of Newark", "city": "Newark DE", "source_dataset": "Park Trees", "source_department": "City of Newark", "source_last_edit_at": ""}}, {"type": "Feature", "geometry": {"type": "Point", "coordinates": [-75.74435220935831, 39.67387215275567]}, "properties": {"id": "newark-3396", "species_group": "magnolia", "scientific_name": "Magnolia virginiana", "common_name": "Sweetbay Magnolia", "subtype_name": "Sweetbay Magnolia", "zip_code": "19711", "ownership": "public", "ownership_raw": "City of Newark", "city": "Newark DE", "source_dataset": "Park Trees", "source_department": "City of Newark", "source_last_edit_at": ""}}, {"type": "Feature", "geometry": {"type": "Point", "coordinates": [-75.74041444415342, 39.70028796305531]}, "properties": {"id": "newark-3477", "species_group": "plum", "scientific_name": "Prunus spp.", "common_name": "Spp. Cherry/Plum", "subtype_name": "Cherry Plum", "zip_code": "19711", "ownership": "public", "ownership_raw": "City of Newark", "city": "Newark DE", "source_dataset": "Park Trees", "source_department": "City of Newark", "source_last_edit_at": ""}}, {"type": "Feature", "geometry": {"type": "Point", "coordinates": [-75.73650657483023, 39.6755775981584]}, "properties": {"id": "newark-3768", "species_group": "magnolia", "scientific_name": "Magnolia virginiana", "common_name": "Sweetbay Magnolia", "subtype_name": "Sweetbay Magnolia", "zip_code": "19716", "ownership": "public", "ownership_raw": "City of Newark", "city": "Newark DE", "source_dataset": "Park Trees", "source_department": "City of Newark", "source_last_edit_at": ""}}, {"type": "Feature", "geometry": {"type": "Point", "coordinates": [-75.74931862221077, 39.687410406534596]}, "properties": {"id": "newark-3794", "species_group": "crabapple", "scientific_name": "Malus spp.", "common_name": "Flowering Crabapple", "subtype_name": "Flowering Crabapple", "zip_code": "19711", "ownership": "public", "ownership_raw": "City of Newark", "city": "Newark DE", "source_dataset": "Park Trees", "source_department": "City of Newark", "source_last_edit_at": ""}}, {"type": "Feature", "geometry": {"type": "Point", "coordinates": [-75.76497384925841, 39.679248009531264]}, "properties": {"id": "newark-3845", "species_group": "magnolia", "scientific_name": "Magnolia virginiana", "common_name": "Sweetbay Magnolia", "subtype_name": "Sweetbay Magnolia", "zip_code": "19711", "ownership": "public", "ownership_raw": "City of Newark", "city": "Newark DE", "source_dataset": "Park Trees", "source_department": "City of Newark", "source_last_edit_at": ""}}, {"type": "Feature", "geometry": {"type": "Point", "coordinates": [-75.75070500442517, 39.65636427447967]}, "properties": {"id": "newark-3851", "species_group": "magnolia", "scientific_name": "Magnolia stellata", "common_name": "Star Magnolia", "subtype_name": "Star Magnolia", "zip_code": "19713", "ownership": "public", "ownership_raw": "City of Newark", "city": "Newark DE", "source_dataset": "Park Trees", "source_department": "City of Newark", "source_last_edit_at": ""}}, {"type": "Feature", "geometry": {"type": "Point", "coordinates": [-75.7509630034294, 39.656501241833006]}, "properties": {"id": "newark-3852", "species_group": "cherry", "scientific_name": "Prunus serrulata", "common_name": "Japanese flowering cherry", "subtype_name": "Japanese Flowering Cherry", "zip_code": "19713", "ownership": "public", "ownership_raw": "City of Newark", "city": "Newark DE", "source_dataset": "Park Trees", "source_department": "City of Newark", "source_last_edit_at": ""}}, {"type": "Feature", "geometry": {"type": "Point", "coordinates": [-75.74916050931105, 39.69113742891085]}, "properties": {"id": "newark-3872", "species_group": "magnolia", "scientific_name": "Magnolia stellata", "common_name": "Star Magnolia", "subtype_name": "Star Magnolia", "zip_code": "19711", "ownership": "public", "ownership_raw": "City of Newark", "city": "Newark DE", "source_dataset": "Park Trees", "source_department": "City of Newark", "source_last_edit_at": ""}}, {"type": "Feature", "geometry": {"type": "Point", "coordinates": [-75.737301644063, 39.68481641140378]}, "properties": {"id": "newark-3888", "species_group": "magnolia", "scientific_name": "Magnolia x soulangiana", "common_name": "Saucer Magnolia", "subtype_name": "Saucer Magnolia", "zip_code": "19711", "ownership": "public", "ownership_raw": "City of Newark", "city": "Newark DE", "source_dataset": "Park Trees", "source_department": "City of Newark", "source_last_edit_at": ""}}, {"type": "Feature", "geometry": {"type": "Point", "coordinates": [-75.73726547243062, 39.68462438012255]}, "properties": {"id": "newark-3893", "species_group": "magnolia", "scientific_name": "Magnolia stellata", "common_name": "Star Magnolia", "subtype_name": "Star Magnolia", "zip_code": "19711", "ownership": "public", "ownership_raw": "City of Newark", "city": "Newark DE", "source_dataset": "Park Trees", "source_department": "City of Newark", "source_last_edit_at": ""}}, {"type": "Feature", "geometry": {"type": "Point", "coordinates": [-75.74994027221108, 39.683359946123204]}, "properties": {"id": "newark-3908", "species_group": "plum", "scientific_name": "Prunus spp.", "common_name": "Spp. Cherry/Plum", "subtype_name": "Cherry Plum", "zip_code": "19711", "ownership": "public", "ownership_raw": "City of Newark", "city": "Newark DE", "source_dataset": "Park Trees", "source_department": "City of Newark", "source_last_edit_at": ""}}, {"type": "Feature", "geometry": {"type": "Point", "coordinates": [-75.75008372681002, 39.683345672108935]}, "properties": {"id": "newark-3909", "species_group": "plum", "scientific_name": "Prunus spp.", "common_name": "Spp. Cherry/Plum", "subtype_name": "Cherry Plum", "zip_code": "19711", "ownership": "public", "ownership_raw": "City of Newark", "city": "Newark DE", "source_dataset": "Park Trees", "source_department": "City of Newark", "source_last_edit_at": ""}}, {"type": "Feature", "geometry": {"type": "Point", "coordinates": [-75.75013454564949, 39.68334321596982]}, "properties": {"id": "newark-3910", "species_group": "plum", "scientific_name": "Prunus spp.", "common_name": "Spp. Cherry/Plum", "subtype_name": "Cherry Plum", "zip_code": "19711", "ownership": "public", "ownership_raw": "City of Newark", "city": "Newark DE", "source_dataset": "Park Trees", "source_department": "City of Newark", "source_last_edit_at": ""}}, {"type": "Feature", "geometry": {"type": "Point", "coordinates": [-75.75020328299239, 39.683336087902816]}, "properties": {"id": "newark-3911", "species_group": "plum", "scientific_name": "Prunus spp.", "common_name": "Spp. Cherry/Plum", "subtype_name": "Cherry Plum", "zip_code": "19711", "ownership": "public", "ownership_raw": "City of Newark", "city": "Newark DE", "source_dataset": "Park Trees", "source_department": "City of Newark", "source_last_edit_at": ""}}, {"type": "Feature", "geometry": {"type": "Point", "coordinates": [-75.75030494404527, 39.683335795873]}, "properties": {"id": "newark-3912", "species_group": "plum", "scientific_name": "Prunus spp.", "common_name": "Spp. Cherry/Plum", "subtype_name": "Cherry Plum", "zip_code": "19711", "ownership": "public", "ownership_raw": "City of Newark", "city": "Newark DE", "source_dataset": "Park Trees", "source_department": "City of Newark", "source_last_edit_at": ""}}, {"type": "Feature", "geometry": {"type": "Point", "coordinates": [-75.75161405978999, 39.68322575359973]}, "properties": {"id": "newark-3918", "species_group": "plum", "scientific_name": "Prunus spp.", "common_name": "Spp. Cherry/Plum", "subtype_name": "Cherry Plum", "zip_code": "19711", "ownership": "public", "ownership_raw": "City of Newark", "city": "Newark DE", "source_dataset": "Park Trees", "source_department": "City of Newark", "source_last_edit_at": ""}}, {"type": "Feature", "geometry": {"type": "Point", "coordinates": [-75.751709696163, 39.6832162368323]}, "properties": {"id": "newark-3919", "species_group": "plum", "scientific_name": "Prunus spp.", "common_name": "Spp. Cherry/Plum", "subtype_name": "Cherry Plum", "zip_code": "19711", "ownership": "public", "ownership_raw": "City of Newark", "city": "Newark DE", "source_dataset": "Park Trees", "source_department": "City of Newark", "source_last_edit_at": ""}}, {"type": "Feature", "geometry": {"type": "Point", "coordinates": [-75.75147755669038, 39.683118372936484]}, "properties": {"id": "newark-3923", "species_group": "plum", "scientific_name": "Prunus spp.", "common_name": "Spp. Cherry/Plum", "subtype_name": "Cherry Plum", "zip_code": "19711", "ownership": "public", "ownership_raw": "City of Newark", "city": "Newark DE", "source_dataset": "Park Trees", "source_department": "City of Newark", "source_last_edit_at": ""}}, {"type": "Feature", "geometry": {"type": "Point", "coordinates": [-75.7506525361217, 39.68316695486168]}, "properties": {"id": "newark-3925", "species_group": "plum", "scientific_name": "Prunus spp.", "common_name": "Spp. Cherry/Plum", "subtype_name": "Cherry Plum", "zip_code": "19711", "ownership": "public", "ownership_raw": "City of Newark", "city": "Newark DE", "source_dataset": "Park Trees", "source_department": "City of Newark", "source_last_edit_at": ""}}, {"type": "Feature", "geometry": {"type": "Point", "coordinates": [-75.74726250528964, 39.68343707338627]}, "properties": {"id": "newark-3931", "species_group": "plum", "scientific_name": "Prunus spp.", "common_name": "Spp. Cherry/Plum", "subtype_name": "Cherry Plum", "zip_code": "19711", "ownership": "public", "ownership_raw": "City of Newark", "city": "Newark DE", "source_dataset": "Park Trees", "source_department": "City of Newark", "source_last_edit_at": ""}}, {"type": "Feature", "geometry": {"type": "Point", "coordinates": [-75.74711304800155, 39.68344673965388]}, "properties": {"id": "newark-3932", "species_group": "plum", "scientific_name": "Prunus spp.", "common_name": "Spp. Cherry/Plum", "subtype_name": "Cherry Plum", "zip_code": "19711", "ownership": "public", "ownership_raw": "City of Newark", "city": "Newark DE", "source_dataset": "Park Trees", "source_department": "City of Newark", "source_last_edit_at": ""}}, {"type": "Feature", "geometry": {"type": "Point", "coordinates": [-75.74702636945213, 39.68345391783313]}, "properties": {"id": "newark-3933", "species_group": "plum", "scientific_name": "Prunus spp.", "common_name": "Spp. Cherry/Plum", "subtype_name": "Cherry Plum", "zip_code": "19711", "ownership": "public", "ownership_raw": "City of Newark", "city": "Newark DE", "source_dataset": "Park Trees", "source_department": "City of Newark", "source_last_edit_at": ""}}, {"type": "Feature", "geometry": {"type": "Point", "coordinates": [-75.74024864145103, 39.65171768540978]}, "properties": {"id": "newark-3956", "species_group": "magnolia", "scientific_name": "Magnolia grandiflora", "common_name": "Southern Magnolia", "subtype_name": "Southern Magnolia", "zip_code": "19713", "ownership": "public", "ownership_raw": "City of Newark", "city": "Newark DE", "source_dataset": "Park Trees", "source_department": "City of Newark", "source_last_edit_at": ""}}, {"type": "Feature", "geometry": {"type": "Point", "coordinates": [-75.73970003343614, 39.65176026707493]}, "properties": {"id": "newark-3962", "species_group": "magnolia", "scientific_name": "Magnolia grandiflora", "common_name": "Southern Magnolia", "subtype_name": "Southern Magnolia", "zip_code": "19713", "ownership": "public", "ownership_raw": "City of Newark", "city": "Newark DE", "source_dataset": "Park Trees", "source_department": "City of Newark", "source_last_edit_at": ""}}, {"type": "Feature", "geometry": {"type": "Point", "coordinates": [-75.73953287904085, 39.65176985568209]}, "properties": {"id": "newark-3968", "species_group": "magnolia", "scientific_name": "Magnolia grandiflora", "common_name": "Southern Magnolia", "subtype_name": "Southern Magnolia", "zip_code": "19713", "ownership": "public", "ownership_raw": "City of Newark", "city": "Newark DE", "source_dataset": "Park Trees", "source_department": "City of Newark", "source_last_edit_at": ""}}, {"type": "Feature", "geometry": {"type": "Point", "coordinates": [-75.74802275052198, 39.68437904128917]}, "properties": {"id": "newark-4012", "species_group": "plum", "scientific_name": "Prunus spp.", "common_name": "Spp. Cherry/Plum", "subtype_name": "Cherry Plum", "zip_code": "19711", "ownership": "public", "ownership_raw": "City of Newark", "city": "Newark DE", "source_dataset": "Park Trees", "source_department": "City of Newark", "source_last_edit_at": ""}}, {"type": "Feature", "geometry": {"type": "Point", "coordinates": [-75.74808387718255, 39.684230989297355]}, "properties": {"id": "newark-4019", "species_group": "plum", "scientific_name": "Prunus spp.", "common_name": "Spp. Cherry/Plum", "subtype_name": "Cherry Plum", "zip_code": "19711", "ownership": "public", "ownership_raw": "City of Newark", "city": "Newark DE", "source_dataset": "Park Trees", "source_department": "City of Newark", "source_last_edit_at": ""}}, {"type": "Feature", "geometry": {"type": "Point", "coordinates": [-75.7377494626748, 39.69181204443992]}, "properties": {"id": "newark-440", "species_group": "plum", "scientific_name": "Prunus spp.", "common_name": "Spp. Cherry/Plum", "subtype_name": "Cherry Plum", "zip_code": "19711", "ownership": "public", "ownership_raw": "City of Newark", "city": "Newark DE", "source_dataset": "Park Trees", "source_department": "City of Newark", "source_last_edit_at": ""}}, {"type": "Feature", "geometry": {"type": "Point", "coordinates": [-75.737865452938, 39.691786682336485]}, "properties": {"id": "newark-441", "species_group": "plum", "scientific_name": "Prunus spp.", "common_name": "Spp. Cherry/Plum", "subtype_name": "Cherry Plum", "zip_code": "19711", "ownership": "public", "ownership_raw": "City of Newark", "city": "Newark DE", "source_dataset": "Park Trees", "source_department": "City of Newark", "source_last_edit_at": ""}}, {"type": "Feature", "geometry": {"type": "Point", "coordinates": [-75.73383823956559, 39.68725681340815]}, "properties": {"id": "newark-507", "species_group": "crabapple", "scientific_name": "Malus spp.", "common_name": "Flowering Crabapple", "subtype_name": "Flowering Crabapple", "zip_code": "19711", "ownership": "public", "ownership_raw": "City of Newark", "city": "Newark DE", "source_dataset": "Park Trees", "source_department": "City of Newark", "source_last_edit_at": ""}}, {"type": "Feature", "geometry": {"type": "Point", "coordinates": [-75.73370437885123, 39.687154519593925]}, "properties": {"id": "newark-510", "species_group": "crabapple", "scientific_name": "Malus spp.", "common_name": "Flowering Crabapple", "subtype_name": "Flowering Crabapple", "zip_code": "19711", "ownership": "public", "ownership_raw": "City of Newark", "city": "Newark DE", "source_dataset": "Park Trees", "source_department": "City of Newark", "source_last_edit_at": ""}}, {"type": "Feature", "geometry": {"type": "Point", "coordinates": [-75.72542581699395, 39.687430662159294]}, "properties": {"id": "newark-570", "species_group": "plum", "scientific_name": "Prunus spp.", "common_name": "Spp. Cherry/Plum", "subtype_name": "Cherry Plum", "zip_code": "19711", "ownership": "public", "ownership_raw": "City of Newark", "city": "Newark DE", "source_dataset": "Park Trees", "source_department": "City of Newark", "source_last_edit_at": ""}}, {"type": "Feature", "geometry": {"type": "Point", "coordinates": [-75.73352574083164, 39.69728460337365]}, "properties": {"id": "newark-582", "species_group": "plum", "scientific_name": "Prunus spp.", "common_name": "Spp. Cherry/Plum", "subtype_name": "Cherry Plum", "zip_code": "19711", "ownership": "public", "ownership_raw": "City of Newark", "city": "Newark DE", "source_dataset": "Park Trees", "source_department": "City of Newark", "source_last_edit_at": ""}}, {"type": "Feature", "geometry": {"type": "Point", "coordinates": [-75.77629161676363, 39.678061450009004]}, "properties": {"id": "newark-597", "species_group": "magnolia", "scientific_name": "Magnolia virginiana", "common_name": "Sweetbay Magnolia", "subtype_name": "Sweetbay Magnolia", "zip_code": "19711", "ownership": "public", "ownership_raw": "City of Newark", "city": "Newark DE", "source_dataset": "Park Trees", "source_department": "City of Newark", "source_last_edit_at": ""}}, {"type": "Feature", "geometry": {"type": "Point", "coordinates": [-75.77526009545035, 39.677029780792694]}, "properties": {"id": "newark-605", "species_group": "crabapple", "scientific_name": "Malus spp.", "common_name": "Flowering Crabapple", "subtype_name": "Flowering Crabapple", "zip_code": "19711", "ownership": "public", "ownership_raw": "City of Newark", "city": "Newark DE", "source_dataset": "Park Trees", "source_department": "City of Newark", "source_last_edit_at": ""}}, {"type": "Feature", "geometry": {"type": "Point", "coordinates": [-75.77529869056593, 39.677010974478634]}, "properties": {"id": "newark-606", "species_group": "crabapple", "scientific_name": "Malus spp.", "common_name": "Flowering Crabapple", "subtype_name": "Flowering Crabapple", "zip_code": "19711", "ownership": "public", "ownership_raw": "City of Newark", "city": "Newark DE", "source_dataset": "Park Trees", "source_department": "City of Newark", "source_last_edit_at": ""}}, {"type": "Feature", "geometry": {"type": "Point", "coordinates": [-75.78590867451865, 39.68153898416545]}, "properties": {"id": "newark-620", "species_group": "crabapple", "scientific_name": "Malus spp.", "common_name": "Flowering Crabapple", "subtype_name": "Flowering Crabapple", "zip_code": "19711", "ownership": "public", "ownership_raw": "City of Newark", "city": "Newark DE", "source_dataset": "Park Trees", "source_department": "City of Newark", "source_last_edit_at": ""}}, {"type": "Feature", "geometry": {"type": "Point", "coordinates": [-75.78771501469528, 39.68181500692278]}, "properties": {"id": "newark-637", "species_group": "crabapple", "scientific_name": "Malus spp.", "common_name": "Flowering Crabapple", "subtype_name": "Flowering Crabapple", "zip_code": "19711", "ownership": "public", "ownership_raw": "City of Newark", "city": "Newark DE", "source_dataset": "Park Trees", "source_department": "City of Newark", "source_last_edit_at": ""}}, {"type": "Feature", "geometry": {"type": "Point", "coordinates": [-75.73205617875395, 39.67462145821044]}, "properties": {"id": "newark-657", "species_group": "crabapple", "scientific_name": "Malus spp.", "common_name": "Flowering Crabapple", "subtype_name": "Flowering Crabapple", "zip_code": "19713", "ownership": "public", "ownership_raw": "City of Newark", "city": "Newark DE", "source_dataset": "Park Trees", "source_department": "City of Newark", "source_last_edit_at": ""}}, {"type": "Feature", "geometry": {"type": "Point", "coordinates": [-75.74698429208199, 39.691449903483345]}, "properties": {"id": "newark-703", "species_group": "magnolia", "scientific_name": "Magnolia virginiana", "common_name": "Sweetbay Magnolia", "subtype_name": "Sweetbay Magnolia", "zip_code": "19711", "ownership": "public", "ownership_raw": "City of Newark", "city": "Newark DE", "source_dataset": "Park Trees", "source_department": "City of Newark", "source_last_edit_at": ""}}, {"type": "Feature", "geometry": {"type": "Point", "coordinates": [-75.74724057469125, 39.691398080086174]}, "properties": {"id": "newark-708", "species_group": "magnolia", "scientific_name": "Magnolia virginiana", "common_name": "Sweetbay Magnolia", "subtype_name": "Sweetbay Magnolia", "zip_code": "19711", "ownership": "public", "ownership_raw": "City of Newark", "city": "Newark DE", "source_dataset": "Park Trees", "source_department": "City of Newark", "source_last_edit_at": ""}}, {"type": "Feature", "geometry": {"type": "Point", "coordinates": [-75.74759318588035, 39.69137385017103]}, "properties": {"id": "newark-719", "species_group": "magnolia", "scientific_name": "Magnolia tripetala", "common_name": "Umbrella Magnolia", "subtype_name": "Umbrella Magnolia", "zip_code": "19711", "ownership": "public", "ownership_raw": "City of Newark", "city": "Newark DE", "source_dataset": "Park Trees", "source_department": "City of Newark", "source_last_edit_at": ""}}]}