{"type": "FeatureCollection", "features": [{"type": "Feature", "geometry": {"type": "Point", "coordinates": [-76.49320922771756, 37.065118431610664]}, "properties": {"id": "newport-news-1053", "species_group": "magnolia", "scientific_name": "Magnolia grandiflora", "common_name": "Southern Magnolia", "subtype_name": "Southern Magnolia", "zip_code": "23606", "ownership": "public", "ownership_raw": "City of Newport News", "city": "Newport News", "source_dataset": "Newport News Tree Inventory", "source_department": "City of Newport News", "source_last_edit_at": "2026-03-26T17:21:32.409000+00:00"}}, {"type": "Feature", "geometry": {"type": "Point", "coordinates": [-76.49330957284911, 37.06492038950651]}, "properties": {"id": "newport-news-1054", "species_group": "magnolia", "scientific_name": "Magnolia grandiflora", "common_name": "Southern Magnolia", "subtype_name": "Southern Magnolia", "zip_code": "23606", "ownership": "public", "ownership_raw": "City of Newport News", "city": "Newport News", "source_dataset": "Newport News Tree Inventory", "source_department": "City of Newport News", "source_last_edit_at": "2026-03-26T17:21:32.409000+00:00"}}, {"type": "Feature", "geometry": {"type": "Point", "coordinates": [-76.48388779561867, 37.06342660909785]}, "properties": {"id": "newport-news-1062", "species_group": "magnolia", "scientific_name": "Magnolia grandiflora", "common_name": "Southern Magnolia", "subtype_name": "Southern Magnolia", "zip_code": "23601", "ownership": "public", "ownership_raw": "City of Newport News", "city": "Newport News", "source_dataset": "Newport News Tree Inventory", "source_department": "City of Newport News", "source_last_edit_at": "2026-03-26T17:21:32.409000+00:00"}}, {"type": "Feature", "geometry": {"type": "Point", "coordinates": [-76.4804539507395, 37.08556036963962]}, "properties": {"id": "newport-news-1065", "species_group": "magnolia", "scientific_name": "Magnolia virginiana", "common_name": "Sweetbay", "subtype_name": "Sweetbay Magnolia", "zip_code": "23606", "ownership": "public", "ownership_raw": "City of Newport News", "city": "Newport News", "source_dataset": "Newport News Tree Inventory", "source_department": "City of Newport News", "source_last_edit_at": "2026-03-26T17:21:32.409000+00:00"}}, {"type": "Feature", "geometry": {"type": "Point", "coordinates": [-76.4955206931566, 37.06167359387595]}, "properties": {"id": "newport-news-1093", "species_group": "magnolia", "scientific_name": "Magnolia virginiana", "common_name": "Sweetbay", "subtype_name": "Sweetbay Magnolia", "zip_code": "23606", "ownership": "public", "ownership_raw": "City of Newport News", "city": "Newport News", "source_dataset": "Newport News Tree Inventory", "source_department": "City of Newport News", "source_last_edit_at": "2026-03-26T17:21:32.409000+00:00"}}, {"type": "Feature", "geometry": {"type": "Point", "coordinates": [-76.49548096048633, 37.06162484832062]}, "properties": {"id": "newport-news-1094", "species_group": "magnolia", "scientific_name": "Magnolia virginiana", "common_name": "Sweetbay", "subtype_name": "Sweetbay Magnolia", "zip_code": "23606", "ownership": "public", "ownership_raw": "City of Newport News", "city": "Newport News", "source_dataset": "Newport News Tree Inventory", "source_department": "City of Newport News", "source_last_edit_at": "2026-03-26T17:21:32.409000+00:00"}}, {"type": "Feature", "geometry": {"type": "Point", "coordinates": [-76.4283401162653, 36.97838292895523]}, "properties": {"id": "newport-news-1162", "species_group": "cherry", "scientific_name": "Prunus serrulata", "common_name": "Japanese Cherry", "subtype_name": "Japanese Flowering Cherry", "zip_code": "23607", "ownership": "public", "ownership_raw": "City of Newport News", "city": "Newport News", "source_dataset": "Newport News Tree Inventory", "source_department": "City of Newport News", "source_last_edit_at": "2026-03-26T17:21:32.409000+00:00"}}, {"type": "Feature", "geometry": {"type": "Point", "coordinates": [-76.43031186048763, 36.97695561309562]}, "properties": {"id": "newport-news-1244", "species_group": "cherry", "scientific_name": "Prunus serrulata", "common_name": "Japanese Cherry", "subtype_name": "Japanese Flowering Cherry", "zip_code": "23607", "ownership": "public", "ownership_raw": "City of Newport News", "city": "Newport News", "source_dataset": "Newport News Tree Inventory", "source_department": "City of Newport News", "source_last_edit_at": "2026-03-26T17:21:32.409000+00:00"}}, {"type": "Feature", "geometry": {"type": "Point", "coordinates": [-76.43034778322375, 36.97693392692182]}, "properties": {"id": "newport-news-1245", "species_group": "cherry", "scientific_name": "Prunus serrulata", "common_name": "Japanese Cherry", "subtype_name": "Japanese Flowering Cherry", "zip_code": "23607", "ownership": "public", "ownership_raw": "City of Newport News", "city": "Newport News", "source_dataset": "Newport News Tree Inventory", "source_department": "City of Newport News", "source_last_edit_at": "2026-03-26T17:21:32.409000+00:00"}}, {"type": "Feature", "geometry": {"type": "Point", "coordinates": [-76.43042906047987, 36.97691621523423]}, "properties": {"id": "newport-news-1246", "species_group": "cherry", "scientific_name": "Prunus serrulata", "common_name": "Japanese Cherry", "subtype_name": "Japanese Flowering Cherry", "zip_code": "23607", "ownership": "public", "ownership_raw": "City of Newport News", "city": "Newport News", "source_dataset": "Newport News Tree Inventory", "source_department": "City of Newport News", "source_last_edit_at": "2026-03-26T17:21:32.409000+00:00"}}, {"type": "Feature", "geometry": {"type": "Point", "coordinates": [-76.43050291567643, 36.976873004927256]}, "properties": {"id": "newport-news-1247", "species_group": "cherry", "scientific_name": "Prunus serrulata", "common_name": "Japanese Cherry", "subtype_name": "Japanese Flowering Cherry", "zip_code": "23607", "ownership": "public", "ownership_raw": "City of Newport News", "city": "Newport News", "source_dataset": "Newport News Tree Inventory", "source_department": "City of Newport News", "source_last_edit_at": "2026-03-26T17:21:32.409000+00:00"}}, {"type": "Feature", "geometry": {"type": "Point", "coordinates": [-76.43058911000539, 36.97685444638932]}, "properties": {"id": "newport-news-1248", "species_group": "cherry", "scientific_name": "Prunus serrulata", "common_name": "Japanese Cherry", "subtype_name": "Japanese Flowering Cherry", "zip_code": "23607", "ownership": "public", "ownership_raw": "City of Newport News", "city": "Newport News", "source_dataset": "Newport News Tree Inventory", "source_department": "City of Newport News", "source_last_edit_at": "2026-03-26T17:21:32.409000+00:00"}}, {"type": "Feature", "geometry": {"type": "Point", "coordinates": [-76.43046482763339, 36.97686117623857]}, "properties": {"id": "newport-news-1253", "species_group": "cherry", "scientific_name": "Prunus serrulata", "common_name": "Japanese Cherry", "subtype_name": "Japanese Flowering Cherry", "zip_code": "23607", "ownership": "public", "ownership_raw": "City of Newport News", "city": "Newport News", "source_dataset": "Newport News Tree Inventory", "source_department": "City of Newport News", "source_last_edit_at": "2026-03-26T17:21:32.409000+00:00"}}, {"type": "Feature", "geometry": {"type": "Point", "coordinates": [-76.43035978948383, 36.97690380632048]}, "properties": {"id": "newport-news-1254", "species_group": "cherry", "scientific_name": "Prunus serrulata", "common_name": "Japanese Cherry", "subtype_name": "Japanese Flowering Cherry", "zip_code": "23607", "ownership": "public", "ownership_raw": "City of Newport News", "city": "Newport News", "source_dataset": "Newport News Tree Inventory", "source_department": "City of Newport News", "source_last_edit_at": "2026-03-26T17:21:32.409000+00:00"}}, {"type": "Feature", "geometry": {"type": "Point", "coordinates": [-76.43010539947906, 36.976976352776035]}, "properties": {"id": "newport-news-1258", "species_group": "cherry", "scientific_name": "Prunus serrulata", "common_name": "Japanese Cherry", "subtype_name": "Japanese Flowering Cherry", "zip_code": "23607", "ownership": "public", "ownership_raw": "City of Newport News", "city": "Newport News", "source_dataset": "Newport News Tree Inventory", "source_department": "City of Newport News", "source_last_edit_at": "2026-03-26T17:21:32.409000+00:00"}}, {"type": "Feature", "geometry": {"type": "Point", "coordinates": [-76.42974584048376, 36.97710685378619]}, "properties": {"id": "newport-news-1265", "species_group": "cherry", "scientific_name": "Prunus serrulata", "common_name": "Japanese Cherry", "subtype_name": "Japanese Flowering Cherry", "zip_code": "23607", "ownership": "public", "ownership_raw": "City of Newport News", "city": "Newport News", "source_dataset": "Newport News Tree Inventory", "source_department": "City of Newport News", "source_last_edit_at": "2026-03-26T17:21:32.409000+00:00"}}, {"type": "Feature", "geometry": {"type": "Point", "coordinates": [-76.53184679999995, 37.09071860000259]}, "properties": {"id": "newport-news-318", "species_group": "magnolia", "scientific_name": "Magnolia grandiflora", "common_name": "Southern Magnolia", "subtype_name": "Southern Magnolia", "zip_code": "23602", "ownership": "public", "ownership_raw": "City of Newport News", "city": "Newport News", "source_dataset": "Newport News Tree Inventory", "source_department": "City of Newport News", "source_last_edit_at": "2026-03-26T17:21:32.409000+00:00"}}, {"type": "Feature", "geometry": {"type": "Point", "coordinates": [-76.50238258738717, 37.1068214563549]}, "properties": {"id": "newport-news-35", "species_group": "magnolia", "scientific_name": "Magnolia grandiflora", "common_name": "Southern Magnolia", "subtype_name": "Southern Magnolia", "zip_code": "23602", "ownership": "public", "ownership_raw": "City of Newport News", "city": "Newport News", "source_dataset": "Newport News Tree Inventory", "source_department": "City of Newport News", "source_last_edit_at": "2026-03-26T17:21:32.409000+00:00"}}, {"type": "Feature", "geometry": {"type": "Point", "coordinates": [-76.4943518436231, 37.065722825716946]}, "properties": {"id": "newport-news-435", "species_group": "magnolia", "scientific_name": "Magnolia virginiana", "common_name": "Sweetbay", "subtype_name": "Sweetbay Magnolia", "zip_code": "23606", "ownership": "public", "ownership_raw": "City of Newport News", "city": "Newport News", "source_dataset": "Newport News Tree Inventory", "source_department": "City of Newport News", "source_last_edit_at": "2026-03-26T17:21:32.409000+00:00"}}, {"type": "Feature", "geometry": {"type": "Point", "coordinates": [-76.49487175212445, 37.065448674171996]}, "properties": {"id": "newport-news-437", "species_group": "magnolia", "scientific_name": "Magnolia virginiana", "common_name": "Sweetbay", "subtype_name": "Sweetbay Magnolia", "zip_code": "23606", "ownership": "public", "ownership_raw": "City of Newport News", "city": "Newport News", "source_dataset": "Newport News Tree Inventory", "source_department": "City of Newport News", "source_last_edit_at": "2026-03-26T17:21:32.409000+00:00"}}, {"type": "Feature", "geometry": {"type": "Point", "coordinates": [-76.49347276026812, 37.06182016451314]}, "properties": {"id": "newport-news-592", "species_group": "magnolia", "scientific_name": "Magnolia grandiflora", "common_name": "Southern Magnolia", "subtype_name": "Southern Magnolia", "zip_code": "23606", "ownership": "public", "ownership_raw": "City of Newport News", "city": "Newport News", "source_dataset": "Newport News Tree Inventory", "source_department": "City of Newport News", "source_last_edit_at": "2026-03-26T17:21:32.409000+00:00"}}, {"type": "Feature", "geometry": {"type": "Point", "coordinates": [-76.43461006663418, 36.97626271062383]}, "properties": {"id": "newport-news-6", "species_group": "magnolia", "scientific_name": "Magnolia grandiflora", "common_name": "Southern Magnolia", "subtype_name": "Southern Magnolia", "zip_code": "23607", "ownership": "public", "ownership_raw": "City of Newport News", "city": "Newport News", "source_dataset": "Newport News Tree Inventory", "source_department": "City of Newport News", "source_last_edit_at": "2026-03-26T17:21:32.409000+00:00"}}, {"type": "Feature", "geometry": {"type": "Point", "coordinates": [-76.49535423968516, 37.06199179447597]}, "properties": {"id": "newport-news-613", "species_group": "magnolia", "scientific_name": "Magnolia grandiflora", "common_name": "Southern Magnolia", "subtype_name": "Southern Magnolia", "zip_code": "23606", "ownership": "public", "ownership_raw": "City of Newport News", "city": "Newport News", "source_dataset": "Newport News Tree Inventory", "source_department": "City of Newport News", "source_last_edit_at": "2026-03-26T17:21:32.409000+00:00"}}, {"type": "Feature", "geometry": {"type": "Point", "coordinates": [-76.49551421212509, 37.06194851102368]}, "properties": {"id": "newport-news-614", "species_group": "magnolia", "scientific_name": "Magnolia grandiflora", "common_name": "Southern Magnolia", "subtype_name": "Southern Magnolia", "zip_code": "23606", "ownership": "public", "ownership_raw": "City of Newport News", "city": "Newport News", "source_dataset": "Newport News Tree Inventory", "source_department": "City of Newport News", "source_last_edit_at": "2026-03-26T17:21:32.409000+00:00"}}, {"type": "Feature", "geometry": {"type": "Point", "coordinates": [-76.49601217049604, 37.06233150689265]}, "properties": {"id": "newport-news-650", "species_group": "magnolia", "scientific_name": "Magnolia grandiflora", "common_name": "Southern Magnolia", "subtype_name": "Southern Magnolia", "zip_code": "23606", "ownership": "public", "ownership_raw": "City of Newport News", "city": "Newport News", "source_dataset": "Newport News Tree Inventory", "source_department": "City of Newport News", "source_last_edit_at": "2026-03-26T17:21:32.409000+00:00"}}, {"type": "Feature", "geometry": {"type": "Point", "coordinates": [-76.49530885169528, 37.06308413480938]}, "properties": {"id": "newport-news-700", "species_group": "magnolia", "scientific_name": "Magnolia grandiflora", "common_name": "Southern Magnolia", "subtype_name": "Southern Magnolia", "zip_code": "23606", "ownership": "public", "ownership_raw": "City of Newport News", "city": "Newport News", "source_dataset": "Newport News Tree Inventory", "source_department": "City of Newport News", "source_last_edit_at": "2026-03-26T17:21:32.409000+00:00"}}, {"type": "Feature", "geometry": {"type": "Point", "coordinates": [-76.49658287412996, 37.06140066092182]}, "properties": {"id": "newport-news-717", "species_group": "magnolia", "scientific_name": "Magnolia grandiflora", "common_name": "Southern Magnolia", "subtype_name": "Southern Magnolia", "zip_code": "23606", "ownership": "public", "ownership_raw": "City of Newport News", "city": "Newport News", "source_dataset": "Newport News Tree Inventory", "source_department": "City of Newport News", "source_last_edit_at": "2026-03-26T17:21:32.409000+00:00"}}, {"type": "Feature", "geometry": {"type": "Point", "coordinates": [-76.4962762295518, 37.0628238989778]}, "properties": {"id": "newport-news-745", "species_group": "magnolia", "scientific_name": "Magnolia grandiflora", "common_name": "Southern Magnolia", "subtype_name": "Southern Magnolia", "zip_code": "23606", "ownership": "public", "ownership_raw": "City of Newport News", "city": "Newport News", "source_dataset": "Newport News Tree Inventory", "source_department": "City of Newport News", "source_last_edit_at": "2026-03-26T17:21:32.409000+00:00"}}, {"type": "Feature", "geometry": {"type": "Point", "coordinates": [-76.48989969911676, 37.066925536456395]}, "properties": {"id": "newport-news-762", "species_group": "cherry", "scientific_name": "Prunus serrulata", "common_name": "Japanese Cherry", "subtype_name": "Japanese Flowering Cherry", "zip_code": "23606", "ownership": "public", "ownership_raw": "City of Newport News", "city": "Newport News", "source_dataset": "Newport News Tree Inventory", "source_department": "City of Newport News", "source_last_edit_at": "2026-03-26T17:21:32.409000+00:00"}}, {"type": "Feature", "geometry": {"type": "Point", "coordinates": [-76.49280134313584, 37.06298280451857]}, "properties": {"id": "newport-news-836", "species_group": "magnolia", "scientific_name": "Magnolia grandiflora", "common_name": "Southern Magnolia", "subtype_name": "Southern Magnolia", "zip_code": "23606", "ownership": "public", "ownership_raw": "City of Newport News", "city": "Newport News", "source_dataset": "Newport News Tree Inventory", "source_department": "City of Newport News", "source_last_edit_at": "2026-03-26T17:21:32.409000+00:00"}}, {"type": "Feature", "geometry": {"type": "Point", "coordinates": [-76.4895008374204, 37.06670712465773]}, "properties": {"id": "newport-news-906", "species_group": "magnolia", "scientific_name": "Magnolia virginiana", "common_name": "Sweetbay", "subtype_name": "Sweetbay Magnolia", "zip_code": "23606", "ownership": "public", "ownership_raw": "City of Newport News", "city": "Newport News", "source_dataset": "Newport News Tree Inventory", "source_department": "City of Newport News", "source_last_edit_at": "2026-03-26T17:21:32.409000+00:00"}}, {"type": "Feature", "geometry": {"type": "Point", "coordinates": [-76.494469144837, 37.06285479405891]}, "properties": {"id": "newport-news-943", "species_group": "magnolia", "scientific_name": "Magnolia grandiflora", "common_name": "Southern Magnolia", "subtype_name": "Southern Magnolia", "zip_code": "23606", "ownership": "public", "ownership_raw": "City of Newport News", "city": "Newport News", "source_dataset": "Newport News Tree Inventory", "source_department": "City of Newport News", "source_last_edit_at": "2026-03-26T17:21:32.409000+00:00"}}, {"type": "Feature", "geometry": {"type": "Point", "coordinates": [-76.49282492864825, 37.065790313537185]}, "properties": {"id": "newport-news-966", "species_group": "magnolia", "scientific_name": "Magnolia grandiflora", "common_name": "Southern Magnolia", "subtype_name": "Southern Magnolia", "zip_code": "23606", "ownership": "public", "ownership_raw": "City of Newport News", "city": "Newport News", "source_dataset": "Newport News Tree Inventory", "source_department": "City of Newport News", "source_last_edit_at": "2026-03-26T17:21:32.409000+00:00"}}, {"type": "Feature", "geometry": {"type": "Point", "coordinates": [-76.49171928109658, 37.06235630670945]}, "properties": {"id": "newport-news-987", "species_group": "magnolia", "scientific_name": "Magnolia grandiflora", "common_name": "Southern Magnolia", "subtype_name": "Southern Magnolia", "zip_code": "23606", "ownership": "public", "ownership_raw": "City of Newport News", "city": "Newport News", "source_dataset": "Newport News Tree Inventory", "source_department": "City of Newport News", "source_last_edit_at": "2026-03-26T17:21:32.409000+00:00"}}, {"type": "Feature", "geometry": {"type": "Point", "coordinates": [-76.49305699999995, 37.06541500000261]}, "properties": {"id": "newport-news-992", "species_group": "magnolia", "scientific_name": "Magnolia grandiflora", "common_name": "Southern Magnolia", "subtype_name": "Southern Magnolia", "zip_code": "23606", "ownership": "public", "ownership_raw": "City of Newport News", "city": "Newport News", "source_dataset": "Newport News Tree Inventory", "source_department": "City of Newport News", "source_last_edit_at": "2026-03-26T17:21:32.409000+00:00"}}]}