{"type": "FeatureCollection", "features": [{"type": "Feature", "geometry": {"type": "Point", "coordinates": [-86.77303436411042, 36.16069250397861]}, "properties": {"id": "nashville-cherry-1", "species_group": "cherry", "scientific_name": "Prunus", "common_name": "Cherry", "subtype_name": null, "zip_code": null, "ownership": "public", "ownership_raw": "Metro Nashville", "city": "Nashville", "source_dataset": "Nashville Cherry Tree Planting Sites", "source_department": "Metro Nashville", "source_last_edit_at": "2021-03-16T13:51:40+00:00"}}, {"type": "Feature", "geometry": {"type": "Point", "coordinates": [-86.7252978899123, 36.18415868230324]}, "properties": {"id": "nashville-cherry-1", "species_group": "cherry", "scientific_name": "Prunus", "common_name": "Cherry", "subtype_name": null, "zip_code": null, "ownership": "public", "ownership_raw": "Metro Nashville", "city": "Nashville", "source_dataset": "Nashville Cherry Tree Planting Sites", "source_department": "Metro Nashville", "source_last_edit_at": "2021-03-16T13:51:40+00:00"}}, {"type": "Feature", "geometry": {"type": "Point", "coordinates": [-86.77436387073091, 36.16290454197853]}, "properties": {"id": "nashville-cherry-10", "species_group": "cherry", "scientific_name": "Prunus", "common_name": "Cherry", "subtype_name": null, "zip_code": null, "ownership": "public", "ownership_raw": "Metro Nashville", "city": "Nashville", "source_dataset": "Nashville Cherry Tree Planting Sites", "source_department": "Metro Nashville", "source_last_edit_at": "2021-03-16T13:51:40+00:00"}}, {"type": "Feature", "geometry": {"type": "Point", "coordinates": [-86.77303436411042, 36.16069250397861]}, "properties": {"id": "nashville-cherry-11", "species_group": "cherry", "scientific_name": "Prunus", "common_name": "Cherry", "subtype_name": null, "zip_code": null, "ownership": "public", "ownership_raw": "Metro Nashville", "city": "Nashville", "source_dataset": "Nashville Cherry Tree Planting Sites", "source_department": "Metro Nashville", "source_last_edit_at": "2021-03-16T13:51:40+00:00"}}, {"type": "Feature", "geometry": {"type": "Point", "coordinates": [-86.76966568179498, 36.158074240638996]}, "properties": {"id": "nashville-cherry-12", "species_group": "cherry", "scientific_name": "Prunus", "common_name": "Cherry", "subtype_name": null, "zip_code": null, "ownership": "public", "ownership_raw": "Metro Nashville", "city": "Nashville", "source_dataset": "Nashville Cherry Tree Planting Sites", "source_department": "Metro Nashville", "source_last_edit_at": "2021-03-16T13:51:40+00:00"}}, {"type": "Feature", "geometry": {"type": "Point", "coordinates": [-86.81143734250652, 36.14897128746824]}, "properties": {"id": "nashville-cherry-13", "species_group": "cherry", "scientific_name": "Prunus", "common_name": "Cherry", "subtype_name": null, "zip_code": null, "ownership": "public", "ownership_raw": "Metro Nashville", "city": "Nashville", "source_dataset": "Nashville Cherry Tree Planting Sites", "source_department": "Metro Nashville", "source_last_edit_at": "2021-03-16T13:51:40+00:00"}}, {"type": "Feature", "geometry": {"type": "Point", "coordinates": [-86.80537371433871, 36.136602634330885]}, "properties": {"id": "nashville-cherry-14", "species_group": "cherry", "scientific_name": "Prunus", "common_name": "Cherry", "subtype_name": null, "zip_code": null, "ownership": "public", "ownership_raw": "Metro Nashville", "city": "Nashville", "source_dataset": "Nashville Cherry Tree Planting Sites", "source_department": "Metro Nashville", "source_last_edit_at": "2021-03-16T13:51:40+00:00"}}, {"type": "Feature", "geometry": {"type": "Point", "coordinates": [-86.82226204168016, 36.16525431069597]}, "properties": {"id": "nashville-cherry-15", "species_group": "cherry", "scientific_name": "Prunus", "common_name": "Cherry", "subtype_name": null, "zip_code": null, "ownership": "public", "ownership_raw": "Metro Nashville", "city": "Nashville", "source_dataset": "Nashville Cherry Tree Planting Sites", "source_department": "Metro Nashville", "source_last_edit_at": "2021-03-16T13:51:40+00:00"}}, {"type": "Feature", "geometry": {"type": "Point", "coordinates": [-86.85076558564528, 36.156043394459076]}, "properties": {"id": "nashville-cherry-16", "species_group": "cherry", "scientific_name": "Prunus", "common_name": "Cherry", "subtype_name": null, "zip_code": null, "ownership": "public", "ownership_raw": "Metro Nashville", "city": "Nashville", "source_dataset": "Nashville Cherry Tree Planting Sites", "source_department": "Metro Nashville", "source_last_edit_at": "2021-03-16T13:51:40+00:00"}}, {"type": "Feature", "geometry": {"type": "Point", "coordinates": [-86.8434892318439, 36.1521628813824]}, "properties": {"id": "nashville-cherry-17", "species_group": "cherry", "scientific_name": "Prunus", "common_name": "Cherry", "subtype_name": null, "zip_code": null, "ownership": "public", "ownership_raw": "Metro Nashville", "city": "Nashville", "source_dataset": "Nashville Cherry Tree Planting Sites", "source_department": "Metro Nashville", "source_last_edit_at": "2021-03-16T13:51:40+00:00"}}, {"type": "Feature", "geometry": {"type": "Point", "coordinates": [-86.84725317288436, 36.15322913494947]}, "properties": {"id": "nashville-cherry-18", "species_group": "cherry", "scientific_name": "Prunus", "common_name": "Cherry", "subtype_name": null, "zip_code": null, "ownership": "public", "ownership_raw": "Metro Nashville", "city": "Nashville", "source_dataset": "Nashville Cherry Tree Planting Sites", "source_department": "Metro Nashville", "source_last_edit_at": "2021-03-16T13:51:40+00:00"}}, {"type": "Feature", "geometry": {"type": "Point", "coordinates": [-86.84513314881384, 36.149689407423054]}, "properties": {"id": "nashville-cherry-19", "species_group": "cherry", "scientific_name": "Prunus", "common_name": "Cherry", "subtype_name": null, "zip_code": null, "ownership": "public", "ownership_raw": "Metro Nashville", "city": "Nashville", "source_dataset": "Nashville Cherry Tree Planting Sites", "source_department": "Metro Nashville", "source_last_edit_at": "2021-03-16T13:51:40+00:00"}}, {"type": "Feature", "geometry": {"type": "Point", "coordinates": [-86.728370128184, 36.165827237449044]}, "properties": {"id": "nashville-cherry-2", "species_group": "cherry", "scientific_name": "Prunus", "common_name": "Cherry", "subtype_name": null, "zip_code": null, "ownership": "public", "ownership_raw": "Metro Nashville", "city": "Nashville", "source_dataset": "Nashville Cherry Tree Planting Sites", "source_department": "Metro Nashville", "source_last_edit_at": "2021-03-16T13:51:40+00:00"}}, {"type": "Feature", "geometry": {"type": "Point", "coordinates": [-86.74414454457313, 36.1118739928225]}, "properties": {"id": "nashville-cherry-20", "species_group": "cherry", "scientific_name": "Prunus", "common_name": "Cherry", "subtype_name": null, "zip_code": null, "ownership": "public", "ownership_raw": "Metro Nashville", "city": "Nashville", "source_dataset": "Nashville Cherry Tree Planting Sites", "source_department": "Metro Nashville", "source_last_edit_at": "2021-03-16T13:51:40+00:00"}}, {"type": "Feature", "geometry": {"type": "Point", "coordinates": [-86.83934799838411, 36.07608785066237]}, "properties": {"id": "nashville-cherry-21", "species_group": "cherry", "scientific_name": "Prunus", "common_name": "Cherry", "subtype_name": null, "zip_code": null, "ownership": "public", "ownership_raw": "Metro Nashville", "city": "Nashville", "source_dataset": "Nashville Cherry Tree Planting Sites", "source_department": "Metro Nashville", "source_last_edit_at": "2021-03-16T13:51:40+00:00"}}, {"type": "Feature", "geometry": {"type": "Point", "coordinates": [-86.84100089850689, 36.179148416611724]}, "properties": {"id": "nashville-cherry-22", "species_group": "cherry", "scientific_name": "Prunus", "common_name": "Cherry", "subtype_name": null, "zip_code": null, "ownership": "public", "ownership_raw": "Metro Nashville", "city": "Nashville", "source_dataset": "Nashville Cherry Tree Planting Sites", "source_department": "Metro Nashville", "source_last_edit_at": "2021-03-16T13:51:40+00:00"}}, {"type": "Feature", "geometry": {"type": "Point", "coordinates": [-86.76107778767877, 36.20389209608075]}, "properties": {"id": "nashville-cherry-23", "species_group": "cherry", "scientific_name": "Prunus", "common_name": "Cherry", "subtype_name": null, "zip_code": null, "ownership": "public", "ownership_raw": "Metro Nashville", "city": "Nashville", "source_dataset": "Nashville Cherry Tree Planting Sites", "source_department": "Metro Nashville", "source_last_edit_at": "2021-03-16T13:51:40+00:00"}}, {"type": "Feature", "geometry": {"type": "Point", "coordinates": [-86.85459240875562, 36.156369783999814]}, "properties": {"id": "nashville-cherry-24", "species_group": "cherry", "scientific_name": "Prunus", "common_name": "Cherry", "subtype_name": null, "zip_code": null, "ownership": "public", "ownership_raw": "Metro Nashville", "city": "Nashville", "source_dataset": "Nashville Cherry Tree Planting Sites", "source_department": "Metro Nashville", "source_last_edit_at": "2021-03-16T13:51:40+00:00"}}, {"type": "Feature", "geometry": {"type": "Point", "coordinates": [-86.79039879855245, 36.18059859882279]}, "properties": {"id": "nashville-cherry-25", "species_group": "cherry", "scientific_name": "Prunus", "common_name": "Cherry", "subtype_name": null, "zip_code": null, "ownership": "public", "ownership_raw": "Metro Nashville", "city": "Nashville", "source_dataset": "Nashville Cherry Tree Planting Sites", "source_department": "Metro Nashville", "source_last_edit_at": "2021-03-16T13:51:40+00:00"}}, {"type": "Feature", "geometry": {"type": "Point", "coordinates": [-86.80710746283707, 36.192866066091135]}, "properties": {"id": "nashville-cherry-26", "species_group": "cherry", "scientific_name": "Prunus", "common_name": "Cherry", "subtype_name": null, "zip_code": null, "ownership": "public", "ownership_raw": "Metro Nashville", "city": "Nashville", "source_dataset": "Nashville Cherry Tree Planting Sites", "source_department": "Metro Nashville", "source_last_edit_at": "2021-03-16T13:51:40+00:00"}}, {"type": "Feature", "geometry": {"type": "Point", "coordinates": [-86.77634016435597, 36.11352861689558]}, "properties": {"id": "nashville-cherry-27", "species_group": "cherry", "scientific_name": "Prunus", "common_name": "Cherry", "subtype_name": null, "zip_code": null, "ownership": "public", "ownership_raw": "Metro Nashville", "city": "Nashville", "source_dataset": "Nashville Cherry Tree Planting Sites", "source_department": "Metro Nashville", "source_last_edit_at": "2021-03-16T13:51:40+00:00"}}, {"type": "Feature", "geometry": {"type": "Point", "coordinates": [-86.84367787805357, 36.21442373024247]}, "properties": {"id": "nashville-cherry-28", "species_group": "cherry", "scientific_name": "Prunus", "common_name": "Cherry", "subtype_name": null, "zip_code": null, "ownership": "public", "ownership_raw": "Metro Nashville", "city": "Nashville", "source_dataset": "Nashville Cherry Tree Planting Sites", "source_department": "Metro Nashville", "source_last_edit_at": "2021-03-16T13:51:40+00:00"}}, {"type": "Feature", "geometry": {"type": "Point", "coordinates": [-86.73954517031844, 36.066982650446484]}, "properties": {"id": "nashville-cherry-29", "species_group": "cherry", "scientific_name": "Prunus", "common_name": "Cherry", "subtype_name": null, "zip_code": null, "ownership": "public", "ownership_raw": "Metro Nashville", "city": "Nashville", "source_dataset": "Nashville Cherry Tree Planting Sites", "source_department": "Metro Nashville", "source_last_edit_at": "2021-03-16T13:51:40+00:00"}}, {"type": "Feature", "geometry": {"type": "Point", "coordinates": [-86.76068252895377, 36.18671082180254]}, "properties": {"id": "nashville-cherry-3", "species_group": "cherry", "scientific_name": "Prunus", "common_name": "Cherry", "subtype_name": null, "zip_code": null, "ownership": "public", "ownership_raw": "Metro Nashville", "city": "Nashville", "source_dataset": "Nashville Cherry Tree Planting Sites", "source_department": "Metro Nashville", "source_last_edit_at": "2021-03-16T13:51:40+00:00"}}, {"type": "Feature", "geometry": {"type": "Point", "coordinates": [-86.82363646406486, 36.13489771104724]}, "properties": {"id": "nashville-cherry-30", "species_group": "cherry", "scientific_name": "Prunus", "common_name": "Cherry", "subtype_name": null, "zip_code": null, "ownership": "public", "ownership_raw": "Metro Nashville", "city": "Nashville", "source_dataset": "Nashville Cherry Tree Planting Sites", "source_department": "Metro Nashville", "source_last_edit_at": "2021-03-16T13:51:40+00:00"}}, {"type": "Feature", "geometry": {"type": "Point", "coordinates": [-86.71467082010118, 36.094933862583616]}, "properties": {"id": "nashville-cherry-31", "species_group": "cherry", "scientific_name": "Prunus", "common_name": "Cherry", "subtype_name": null, "zip_code": null, "ownership": "public", "ownership_raw": "Metro Nashville", "city": "Nashville", "source_dataset": "Nashville Cherry Tree Planting Sites", "source_department": "Metro Nashville", "source_last_edit_at": "2021-03-16T13:51:40+00:00"}}, {"type": "Feature", "geometry": {"type": "Point", "coordinates": [-86.70629852165317, 36.091130177892964]}, "properties": {"id": "nashville-cherry-32", "species_group": "cherry", "scientific_name": "Prunus", "common_name": "Cherry", "subtype_name": null, "zip_code": null, "ownership": "public", "ownership_raw": "Metro Nashville", "city": "Nashville", "source_dataset": "Nashville Cherry Tree Planting Sites", "source_department": "Metro Nashville", "source_last_edit_at": "2021-03-16T13:51:40+00:00"}}, {"type": "Feature", "geometry": {"type": "Point", "coordinates": [-86.6463808922024, 36.25574651228963]}, "properties": {"id": "nashville-cherry-33", "species_group": "cherry", "scientific_name": "Prunus", "common_name": "Cherry", "subtype_name": null, "zip_code": null, "ownership": "public", "ownership_raw": "Metro Nashville", "city": "Nashville", "source_dataset": "Nashville Cherry Tree Planting Sites", "source_department": "Metro Nashville", "source_last_edit_at": "2021-03-16T13:51:40+00:00"}}, {"type": "Feature", "geometry": {"type": "Point", "coordinates": [-86.72847792601809, 36.07700992938309]}, "properties": {"id": "nashville-cherry-34", "species_group": "cherry", "scientific_name": "Prunus", "common_name": "Cherry", "subtype_name": null, "zip_code": null, "ownership": "public", "ownership_raw": "Metro Nashville", "city": "Nashville", "source_dataset": "Nashville Cherry Tree Planting Sites", "source_department": "Metro Nashville", "source_last_edit_at": "2021-03-16T13:51:40+00:00"}}, {"type": "Feature", "geometry": {"type": "Point", "coordinates": [-86.71522777557732, 36.1163515573149]}, "properties": {"id": "nashville-cherry-35", "species_group": "cherry", "scientific_name": "Prunus", "common_name": "Cherry", "subtype_name": null, "zip_code": null, "ownership": "public", "ownership_raw": "Metro Nashville", "city": "Nashville", "source_dataset": "Nashville Cherry Tree Planting Sites", "source_department": "Metro Nashville", "source_last_edit_at": "2021-03-16T13:51:40+00:00"}}, {"type": "Feature", "geometry": {"type": "Point", "coordinates": [-86.81794114516354, 36.157776870021316]}, "properties": {"id": "nashville-cherry-36", "species_group": "cherry", "scientific_name": "Prunus", "common_name": "Cherry", "subtype_name": null, "zip_code": null, "ownership": "public", "ownership_raw": "Metro Nashville", "city": "Nashville", "source_dataset": "Nashville Cherry Tree Planting Sites", "source_department": "Metro Nashville", "source_last_edit_at": "2021-03-16T13:51:40+00:00"}}, {"type": "Feature", "geometry": {"type": "Point", "coordinates": [-86.8706812354942, 36.1548973937565]}, "properties": {"id": "nashville-cherry-37", "species_group": "cherry", "scientific_name": "Prunus", "common_name": "Cherry", "subtype_name": null, "zip_code": null, "ownership": "public", "ownership_raw": "Metro Nashville", "city": "Nashville", "source_dataset": "Nashville Cherry Tree Planting Sites", "source_department": "Metro Nashville", "source_last_edit_at": "2021-03-16T13:51:40+00:00"}}, {"type": "Feature", "geometry": {"type": "Point", "coordinates": [-86.78097547122204, 36.13769086386666]}, "properties": {"id": "nashville-cherry-38", "species_group": "cherry", "scientific_name": "Prunus", "common_name": "Cherry", "subtype_name": null, "zip_code": null, "ownership": "public", "ownership_raw": "Metro Nashville", "city": "Nashville", "source_dataset": "Nashville Cherry Tree Planting Sites", "source_department": "Metro Nashville", "source_last_edit_at": "2021-03-16T13:51:40+00:00"}}, {"type": "Feature", "geometry": {"type": "Point", "coordinates": [-86.76771633762843, 36.18165721488609]}, "properties": {"id": "nashville-cherry-4", "species_group": "cherry", "scientific_name": "Prunus", "common_name": "Cherry", "subtype_name": null, "zip_code": null, "ownership": "public", "ownership_raw": "Metro Nashville", "city": "Nashville", "source_dataset": "Nashville Cherry Tree Planting Sites", "source_department": "Metro Nashville", "source_last_edit_at": "2021-03-16T13:51:40+00:00"}}, {"type": "Feature", "geometry": {"type": "Point", "coordinates": [-86.79471969506906, 36.17078034096861]}, "properties": {"id": "nashville-cherry-5", "species_group": "cherry", "scientific_name": "Prunus", "common_name": "Cherry", "subtype_name": null, "zip_code": null, "ownership": "public", "ownership_raw": "Metro Nashville", "city": "Nashville", "source_dataset": "Nashville Cherry Tree Planting Sites", "source_department": "Metro Nashville", "source_last_edit_at": "2021-03-16T13:51:40+00:00"}}, {"type": "Feature", "geometry": {"type": "Point", "coordinates": [-86.78556586232388, 36.16837997410761]}, "properties": {"id": "nashville-cherry-6", "species_group": "cherry", "scientific_name": "Prunus", "common_name": "Cherry", "subtype_name": null, "zip_code": null, "ownership": "public", "ownership_raw": "Metro Nashville", "city": "Nashville", "source_dataset": "Nashville Cherry Tree Planting Sites", "source_department": "Metro Nashville", "source_last_edit_at": "2021-03-16T13:51:40+00:00"}}, {"type": "Feature", "geometry": {"type": "Point", "coordinates": [-86.77396861200589, 36.16779256195708]}, "properties": {"id": "nashville-cherry-7", "species_group": "cherry", "scientific_name": "Prunus", "common_name": "Cherry", "subtype_name": null, "zip_code": null, "ownership": "public", "ownership_raw": "Metro Nashville", "city": "Nashville", "source_dataset": "Nashville Cherry Tree Planting Sites", "source_department": "Metro Nashville", "source_last_edit_at": "2021-03-16T13:51:40+00:00"}}, {"type": "Feature", "geometry": {"type": "Point", "coordinates": [-86.77823560960547, 36.166697497923046]}, "properties": {"id": "nashville-cherry-8", "species_group": "cherry", "scientific_name": "Prunus", "common_name": "Cherry", "subtype_name": null, "zip_code": null, "ownership": "public", "ownership_raw": "Metro Nashville", "city": "Nashville", "source_dataset": "Nashville Cherry Tree Planting Sites", "source_department": "Metro Nashville", "source_last_edit_at": "2021-03-16T13:51:40+00:00"}}, {"type": "Feature", "geometry": {"type": "Point", "coordinates": [-86.77639406327302, 36.16647268155957]}, "properties": {"id": "nashville-cherry-9", "species_group": "cherry", "scientific_name": "Prunus", "common_name": "Cherry", "subtype_name": null, "zip_code": null, "ownership": "public", "ownership_raw": "Metro Nashville", "city": "Nashville", "source_dataset": "Nashville Cherry Tree Planting Sites", "source_department": "Metro Nashville", "source_last_edit_at": "2021-03-16T13:51:40+00:00"}}]}