{"type": "FeatureCollection", "features": [{"type": "Feature", "geometry": {"type": "Point", "coordinates": [-73.16175518599994, 44.008424209000054]}, "properties": {"id": "middlebury-10585", "species_group": "crabapple", "scientific_name": "Malus species", "common_name": "Crabapple", "subtype_name": null, "zip_code": "05753", "ownership": "public", "ownership_raw": "Town of Middlebury", "city": "Middlebury", "source_dataset": "Municipal Tree Inventory", "source_department": "Town of Middlebury", "source_last_edit_at": ""}}, {"type": "Feature", "geometry": {"type": "Point", "coordinates": [-73.16168004699995, 44.018991063000044]}, "properties": {"id": "middlebury-10781", "species_group": "crabapple", "scientific_name": "Malus species", "common_name": "Crabapple", "subtype_name": null, "zip_code": "05753", "ownership": "public", "ownership_raw": "Town of Middlebury", "city": "Middlebury", "source_dataset": "Municipal Tree Inventory", "source_department": "Town of Middlebury", "source_last_edit_at": ""}}, {"type": "Feature", "geometry": {"type": "Point", "coordinates": [-73.16531558999998, 44.01310935600003]}, "properties": {"id": "middlebury-109", "species_group": "crabapple", "scientific_name": "Malus species", "common_name": "Crabapple", "subtype_name": null, "zip_code": "05753", "ownership": "public", "ownership_raw": "Town of Middlebury", "city": "Middlebury", "source_dataset": "Municipal Tree Inventory", "source_department": "Town of Middlebury", "source_last_edit_at": ""}}, {"type": "Feature", "geometry": {"type": "Point", "coordinates": [-73.16219115199993, 44.00905327100003]}, "properties": {"id": "middlebury-11203", "species_group": "crabapple", "scientific_name": "Malus species", "common_name": "Crabapple", "subtype_name": null, "zip_code": "05753", "ownership": "public", "ownership_raw": "Town of Middlebury", "city": "Middlebury", "source_dataset": "Municipal Tree Inventory", "source_department": "Town of Middlebury", "source_last_edit_at": ""}}, {"type": "Feature", "geometry": {"type": "Point", "coordinates": [-73.16645776199994, 44.01856560200008]}, "properties": {"id": "middlebury-11310", "species_group": "crabapple", "scientific_name": "Malus species", "common_name": "Crabapple", "subtype_name": null, "zip_code": "05753", "ownership": "public", "ownership_raw": "Town of Middlebury", "city": "Middlebury", "source_dataset": "Municipal Tree Inventory", "source_department": "Town of Middlebury", "source_last_edit_at": ""}}, {"type": "Feature", "geometry": {"type": "Point", "coordinates": [-73.16157857199994, 44.018983701000025]}, "properties": {"id": "middlebury-11325", "species_group": "crabapple", "scientific_name": "Malus species", "common_name": "Crabapple", "subtype_name": null, "zip_code": "05753", "ownership": "public", "ownership_raw": "Town of Middlebury", "city": "Middlebury", "source_dataset": "Municipal Tree Inventory", "source_department": "Town of Middlebury", "source_last_edit_at": ""}}, {"type": "Feature", "geometry": {"type": "Point", "coordinates": [-73.17219145599995, 44.00975906700006]}, "properties": {"id": "middlebury-11671", "species_group": "crabapple", "scientific_name": "Malus species", "common_name": "Crabapple", "subtype_name": null, "zip_code": "05753", "ownership": "public", "ownership_raw": "Town of Middlebury", "city": "Middlebury", "source_dataset": "Municipal Tree Inventory", "source_department": "Town of Middlebury", "source_last_edit_at": ""}}, {"type": "Feature", "geometry": {"type": "Point", "coordinates": [-73.16644509399998, 44.01863558500003]}, "properties": {"id": "middlebury-12246", "species_group": "crabapple", "scientific_name": "Malus species", "common_name": "Crabapple", "subtype_name": null, "zip_code": "05753", "ownership": "public", "ownership_raw": "Town of Middlebury", "city": "Middlebury", "source_dataset": "Municipal Tree Inventory", "source_department": "Town of Middlebury", "source_last_edit_at": ""}}, {"type": "Feature", "geometry": {"type": "Point", "coordinates": [-73.15994397199995, 44.00583180700005]}, "properties": {"id": "middlebury-12464", "species_group": "crabapple", "scientific_name": "Malus species", "common_name": "Crabapple", "subtype_name": null, "zip_code": "05753", "ownership": "public", "ownership_raw": "Town of Middlebury", "city": "Middlebury", "source_dataset": "Municipal Tree Inventory", "source_department": "Town of Middlebury", "source_last_edit_at": ""}}, {"type": "Feature", "geometry": {"type": "Point", "coordinates": [-73.16301928199994, 44.01894424100004]}, "properties": {"id": "middlebury-12545", "species_group": "crabapple", "scientific_name": "Malus species", "common_name": "Crabapple", "subtype_name": null, "zip_code": "05753", "ownership": "public", "ownership_raw": "Town of Middlebury", "city": "Middlebury", "source_dataset": "Municipal Tree Inventory", "source_department": "Town of Middlebury", "source_last_edit_at": ""}}, {"type": "Feature", "geometry": {"type": "Point", "coordinates": [-73.17040862499994, 44.008585476000064]}, "properties": {"id": "middlebury-12799", "species_group": "crabapple", "scientific_name": "Malus species", "common_name": "Crabapple", "subtype_name": null, "zip_code": "05753", "ownership": "public", "ownership_raw": "Town of Middlebury", "city": "Middlebury", "source_dataset": "Municipal Tree Inventory", "source_department": "Town of Middlebury", "source_last_edit_at": ""}}, {"type": "Feature", "geometry": {"type": "Point", "coordinates": [-73.16535634899998, 44.01387366000006]}, "properties": {"id": "middlebury-13031", "species_group": "crabapple", "scientific_name": "Malus species", "common_name": "Crabapple", "subtype_name": null, "zip_code": "05753", "ownership": "public", "ownership_raw": "Town of Middlebury", "city": "Middlebury", "source_dataset": "Municipal Tree Inventory", "source_department": "Town of Middlebury", "source_last_edit_at": ""}}, {"type": "Feature", "geometry": {"type": "Point", "coordinates": [-73.16676209599996, 44.01790355700007]}, "properties": {"id": "middlebury-131", "species_group": "crabapple", "scientific_name": "Malus species", "common_name": "Crabapple", "subtype_name": null, "zip_code": "05753", "ownership": "public", "ownership_raw": "Town of Middlebury", "city": "Middlebury", "source_dataset": "Municipal Tree Inventory", "source_department": "Town of Middlebury", "source_last_edit_at": ""}}, {"type": "Feature", "geometry": {"type": "Point", "coordinates": [-73.16680314999996, 44.01769911900004]}, "properties": {"id": "middlebury-1313", "species_group": "crabapple", "scientific_name": "Malus species", "common_name": "Crabapple", "subtype_name": null, "zip_code": "05753", "ownership": "public", "ownership_raw": "Town of Middlebury", "city": "Middlebury", "source_dataset": "Municipal Tree Inventory", "source_department": "Town of Middlebury", "source_last_edit_at": ""}}, {"type": "Feature", "geometry": {"type": "Point", "coordinates": [-73.16625428099996, 44.012177671000074]}, "properties": {"id": "middlebury-13448", "species_group": "crabapple", "scientific_name": "Malus species", "common_name": "Crabapple", "subtype_name": null, "zip_code": "05753", "ownership": "public", "ownership_raw": "Town of Middlebury", "city": "Middlebury", "source_dataset": "Municipal Tree Inventory", "source_department": "Town of Middlebury", "source_last_edit_at": ""}}, {"type": "Feature", "geometry": {"type": "Point", "coordinates": [-73.10536731999997, 43.97264500600005]}, "properties": {"id": "middlebury-13608", "species_group": "crabapple", "scientific_name": "Malus species", "common_name": "Crabapple", "subtype_name": null, "zip_code": "05753", "ownership": "public", "ownership_raw": "Town of Middlebury", "city": "Middlebury", "source_dataset": "Municipal Tree Inventory", "source_department": "Town of Middlebury", "source_last_edit_at": ""}}, {"type": "Feature", "geometry": {"type": "Point", "coordinates": [-73.17983290199999, 44.01782648200003]}, "properties": {"id": "middlebury-13689", "species_group": "crabapple", "scientific_name": "Malus species", "common_name": "Crabapple", "subtype_name": null, "zip_code": "05753", "ownership": "public", "ownership_raw": "Town of Middlebury", "city": "Middlebury", "source_dataset": "Municipal Tree Inventory", "source_department": "Town of Middlebury", "source_last_edit_at": ""}}, {"type": "Feature", "geometry": {"type": "Point", "coordinates": [-73.17970599999995, 44.01782442800004]}, "properties": {"id": "middlebury-13995", "species_group": "crabapple", "scientific_name": "Malus species", "common_name": "Crabapple", "subtype_name": null, "zip_code": "05753", "ownership": "public", "ownership_raw": "Town of Middlebury", "city": "Middlebury", "source_dataset": "Municipal Tree Inventory", "source_department": "Town of Middlebury", "source_last_edit_at": ""}}, {"type": "Feature", "geometry": {"type": "Point", "coordinates": [-73.16481435499998, 44.01144778100007]}, "properties": {"id": "middlebury-14647", "species_group": "crabapple", "scientific_name": "Malus species", "common_name": "Crabapple", "subtype_name": null, "zip_code": "05753", "ownership": "public", "ownership_raw": "Town of Middlebury", "city": "Middlebury", "source_dataset": "Municipal Tree Inventory", "source_department": "Town of Middlebury", "source_last_edit_at": ""}}, {"type": "Feature", "geometry": {"type": "Point", "coordinates": [-73.17398887199994, 44.01352644000008]}, "properties": {"id": "middlebury-14758", "species_group": "crabapple", "scientific_name": "Malus species", "common_name": "Crabapple", "subtype_name": null, "zip_code": "05753", "ownership": "public", "ownership_raw": "Town of Middlebury", "city": "Middlebury", "source_dataset": "Municipal Tree Inventory", "source_department": "Town of Middlebury", "source_last_edit_at": ""}}, {"type": "Feature", "geometry": {"type": "Point", "coordinates": [-73.17221874899997, 44.01181620400007]}, "properties": {"id": "middlebury-14795", "species_group": "crabapple", "scientific_name": "Malus species", "common_name": "Crabapple", "subtype_name": null, "zip_code": "05753", "ownership": "public", "ownership_raw": "Town of Middlebury", "city": "Middlebury", "source_dataset": "Municipal Tree Inventory", "source_department": "Town of Middlebury", "source_last_edit_at": ""}}, {"type": "Feature", "geometry": {"type": "Point", "coordinates": [-73.16594229199995, 44.011431413000025]}, "properties": {"id": "middlebury-15209", "species_group": "crabapple", "scientific_name": "Malus species", "common_name": "Crabapple", "subtype_name": null, "zip_code": "05753", "ownership": "public", "ownership_raw": "Town of Middlebury", "city": "Middlebury", "source_dataset": "Municipal Tree Inventory", "source_department": "Town of Middlebury", "source_last_edit_at": ""}}, {"type": "Feature", "geometry": {"type": "Point", "coordinates": [-73.16524201999994, 44.012980233000064]}, "properties": {"id": "middlebury-15232", "species_group": "crabapple", "scientific_name": "Malus species", "common_name": "Crabapple", "subtype_name": null, "zip_code": "05753", "ownership": "public", "ownership_raw": "Town of Middlebury", "city": "Middlebury", "source_dataset": "Municipal Tree Inventory", "source_department": "Town of Middlebury", "source_last_edit_at": ""}}, {"type": "Feature", "geometry": {"type": "Point", "coordinates": [-73.16717612199994, 44.01679539700007]}, "properties": {"id": "middlebury-1524", "species_group": "crabapple", "scientific_name": "Malus species", "common_name": "Crabapple", "subtype_name": null, "zip_code": "05753", "ownership": "public", "ownership_raw": "Town of Middlebury", "city": "Middlebury", "source_dataset": "Municipal Tree Inventory", "source_department": "Town of Middlebury", "source_last_edit_at": ""}}, {"type": "Feature", "geometry": {"type": "Point", "coordinates": [-73.16256954199997, 44.009590255000035]}, "properties": {"id": "middlebury-15752", "species_group": "crabapple", "scientific_name": "Malus species", "common_name": "Crabapple", "subtype_name": null, "zip_code": "05753", "ownership": "public", "ownership_raw": "Town of Middlebury", "city": "Middlebury", "source_dataset": "Municipal Tree Inventory", "source_department": "Town of Middlebury", "source_last_edit_at": ""}}, {"type": "Feature", "geometry": {"type": "Point", "coordinates": [-73.10414364599995, 43.97288175300008]}, "properties": {"id": "middlebury-16187", "species_group": "crabapple", "scientific_name": "Malus species", "common_name": "Crabapple", "subtype_name": null, "zip_code": "05753", "ownership": "public", "ownership_raw": "Town of Middlebury", "city": "Middlebury", "source_dataset": "Municipal Tree Inventory", "source_department": "Town of Middlebury", "source_last_edit_at": ""}}, {"type": "Feature", "geometry": {"type": "Point", "coordinates": [-73.15969166999997, 44.00547878800006]}, "properties": {"id": "middlebury-16324", "species_group": "crabapple", "scientific_name": "Malus species", "common_name": "Crabapple", "subtype_name": null, "zip_code": "05753", "ownership": "public", "ownership_raw": "Town of Middlebury", "city": "Middlebury", "source_dataset": "Municipal Tree Inventory", "source_department": "Town of Middlebury", "source_last_edit_at": ""}}, {"type": "Feature", "geometry": {"type": "Point", "coordinates": [-73.10753739399996, 43.972199508000074]}, "properties": {"id": "middlebury-16425", "species_group": "cherry", "scientific_name": "Prunus species", "common_name": "Cherry Plum", "subtype_name": "Cherry Plum", "zip_code": "05753", "ownership": "public", "ownership_raw": "Town of Middlebury", "city": "Middlebury", "source_dataset": "Municipal Tree Inventory", "source_department": "Town of Middlebury", "source_last_edit_at": ""}}, {"type": "Feature", "geometry": {"type": "Point", "coordinates": [-73.16191099799994, 44.008673145000046]}, "properties": {"id": "middlebury-16426", "species_group": "crabapple", "scientific_name": "Malus species", "common_name": "Crabapple", "subtype_name": null, "zip_code": "05753", "ownership": "public", "ownership_raw": "Town of Middlebury", "city": "Middlebury", "source_dataset": "Municipal Tree Inventory", "source_department": "Town of Middlebury", "source_last_edit_at": ""}}, {"type": "Feature", "geometry": {"type": "Point", "coordinates": [-73.17013475799996, 44.00718292800008]}, "properties": {"id": "middlebury-16716", "species_group": "crabapple", "scientific_name": "Malus species", "common_name": "Crabapple", "subtype_name": null, "zip_code": "05753", "ownership": "public", "ownership_raw": "Town of Middlebury", "city": "Middlebury", "source_dataset": "Municipal Tree Inventory", "source_department": "Town of Middlebury", "source_last_edit_at": ""}}, {"type": "Feature", "geometry": {"type": "Point", "coordinates": [-73.17256830599996, 44.00943410100007]}, "properties": {"id": "middlebury-1711", "species_group": "crabapple", "scientific_name": "Malus species", "common_name": "Crabapple", "subtype_name": null, "zip_code": "05753", "ownership": "public", "ownership_raw": "Town of Middlebury", "city": "Middlebury", "source_dataset": "Municipal Tree Inventory", "source_department": "Town of Middlebury", "source_last_edit_at": ""}}, {"type": "Feature", "geometry": {"type": "Point", "coordinates": [-73.16152370299994, 44.019002269000055]}, "properties": {"id": "middlebury-17134", "species_group": "crabapple", "scientific_name": "Malus species", "common_name": "Crabapple", "subtype_name": null, "zip_code": "05753", "ownership": "public", "ownership_raw": "Town of Middlebury", "city": "Middlebury", "source_dataset": "Municipal Tree Inventory", "source_department": "Town of Middlebury", "source_last_edit_at": ""}}, {"type": "Feature", "geometry": {"type": "Point", "coordinates": [-73.16695105799994, 44.017381656000055]}, "properties": {"id": "middlebury-17355", "species_group": "crabapple", "scientific_name": "Malus species", "common_name": "Crabapple", "subtype_name": null, "zip_code": "05753", "ownership": "public", "ownership_raw": "Town of Middlebury", "city": "Middlebury", "source_dataset": "Municipal Tree Inventory", "source_department": "Town of Middlebury", "source_last_edit_at": ""}}, {"type": "Feature", "geometry": {"type": "Point", "coordinates": [-73.16710133699996, 44.01701362800003]}, "properties": {"id": "middlebury-17438", "species_group": "crabapple", "scientific_name": "Malus species", "common_name": "Crabapple", "subtype_name": null, "zip_code": "05753", "ownership": "public", "ownership_raw": "Town of Middlebury", "city": "Middlebury", "source_dataset": "Municipal Tree Inventory", "source_department": "Town of Middlebury", "source_last_edit_at": ""}}, {"type": "Feature", "geometry": {"type": "Point", "coordinates": [-73.17013440699998, 44.00715182000005]}, "properties": {"id": "middlebury-17473", "species_group": "crabapple", "scientific_name": "Malus species", "common_name": "Crabapple", "subtype_name": null, "zip_code": "05753", "ownership": "public", "ownership_raw": "Town of Middlebury", "city": "Middlebury", "source_dataset": "Municipal Tree Inventory", "source_department": "Town of Middlebury", "source_last_edit_at": ""}}, {"type": "Feature", "geometry": {"type": "Point", "coordinates": [-73.11388702099998, 43.971190662000026]}, "properties": {"id": "middlebury-17485", "species_group": "cherry", "scientific_name": "Prunus species", "common_name": "Cherry Plum", "subtype_name": "Cherry Plum", "zip_code": "05753", "ownership": "public", "ownership_raw": "Town of Middlebury", "city": "Middlebury", "source_dataset": "Municipal Tree Inventory", "source_department": "Town of Middlebury", "source_last_edit_at": ""}}, {"type": "Feature", "geometry": {"type": "Point", "coordinates": [-73.17055472199996, 44.00970705800006]}, "properties": {"id": "middlebury-17588", "species_group": "crabapple", "scientific_name": "Malus species", "common_name": "Crabapple", "subtype_name": null, "zip_code": "05753", "ownership": "public", "ownership_raw": "Town of Middlebury", "city": "Middlebury", "source_dataset": "Municipal Tree Inventory", "source_department": "Town of Middlebury", "source_last_edit_at": ""}}, {"type": "Feature", "geometry": {"type": "Point", "coordinates": [-73.10711801799994, 43.97353046400008]}, "properties": {"id": "middlebury-17636", "species_group": "crabapple", "scientific_name": "Malus species", "common_name": "Crabapple", "subtype_name": null, "zip_code": "05753", "ownership": "public", "ownership_raw": "Town of Middlebury", "city": "Middlebury", "source_dataset": "Municipal Tree Inventory", "source_department": "Town of Middlebury", "source_last_edit_at": ""}}, {"type": "Feature", "geometry": {"type": "Point", "coordinates": [-73.16158524699995, 44.007833068000025]}, "properties": {"id": "middlebury-17805", "species_group": "crabapple", "scientific_name": "Malus species", "common_name": "Crabapple", "subtype_name": null, "zip_code": "05753", "ownership": "public", "ownership_raw": "Town of Middlebury", "city": "Middlebury", "source_dataset": "Municipal Tree Inventory", "source_department": "Town of Middlebury", "source_last_edit_at": ""}}, {"type": "Feature", "geometry": {"type": "Point", "coordinates": [-73.16701716099993, 44.017223684000044]}, "properties": {"id": "middlebury-17912", "species_group": "crabapple", "scientific_name": "Malus species", "common_name": "Crabapple", "subtype_name": null, "zip_code": "05753", "ownership": "public", "ownership_raw": "Town of Middlebury", "city": "Middlebury", "source_dataset": "Municipal Tree Inventory", "source_department": "Town of Middlebury", "source_last_edit_at": ""}}, {"type": "Feature", "geometry": {"type": "Point", "coordinates": [-73.16705974199994, 44.017143125000075]}, "properties": {"id": "middlebury-18360", "species_group": "crabapple", "scientific_name": "Malus species", "common_name": "Crabapple", "subtype_name": null, "zip_code": "05753", "ownership": "public", "ownership_raw": "Town of Middlebury", "city": "Middlebury", "source_dataset": "Municipal Tree Inventory", "source_department": "Town of Middlebury", "source_last_edit_at": ""}}, {"type": "Feature", "geometry": {"type": "Point", "coordinates": [-73.16696025799996, 44.01733036600007]}, "properties": {"id": "middlebury-18384", "species_group": "crabapple", "scientific_name": "Malus species", "common_name": "Crabapple", "subtype_name": null, "zip_code": "05753", "ownership": "public", "ownership_raw": "Town of Middlebury", "city": "Middlebury", "source_dataset": "Municipal Tree Inventory", "source_department": "Town of Middlebury", "source_last_edit_at": ""}}, {"type": "Feature", "geometry": {"type": "Point", "coordinates": [-73.16475972499995, 44.01276439900005]}, "properties": {"id": "middlebury-18539", "species_group": "crabapple", "scientific_name": "Malus species", "common_name": "Crabapple", "subtype_name": null, "zip_code": "05753", "ownership": "public", "ownership_raw": "Town of Middlebury", "city": "Middlebury", "source_dataset": "Municipal Tree Inventory", "source_department": "Town of Middlebury", "source_last_edit_at": ""}}, {"type": "Feature", "geometry": {"type": "Point", "coordinates": [-73.16516128999996, 44.01665643000007]}, "properties": {"id": "middlebury-19087", "species_group": "cherry", "scientific_name": "Prunus species", "common_name": "Cherry Plum", "subtype_name": "Cherry Plum", "zip_code": "05753", "ownership": "public", "ownership_raw": "Town of Middlebury", "city": "Middlebury", "source_dataset": "Municipal Tree Inventory", "source_department": "Town of Middlebury", "source_last_edit_at": ""}}, {"type": "Feature", "geometry": {"type": "Point", "coordinates": [-73.17044994799994, 44.00822974700003]}, "properties": {"id": "middlebury-1919", "species_group": "crabapple", "scientific_name": "Malus species", "common_name": "Crabapple", "subtype_name": null, "zip_code": "05753", "ownership": "public", "ownership_raw": "Town of Middlebury", "city": "Middlebury", "source_dataset": "Municipal Tree Inventory", "source_department": "Town of Middlebury", "source_last_edit_at": ""}}, {"type": "Feature", "geometry": {"type": "Point", "coordinates": [-73.17085529699995, 44.01093416800006]}, "properties": {"id": "middlebury-19410", "species_group": "crabapple", "scientific_name": "Malus species", "common_name": "Crabapple", "subtype_name": null, "zip_code": "05753", "ownership": "public", "ownership_raw": "Town of Middlebury", "city": "Middlebury", "source_dataset": "Municipal Tree Inventory", "source_department": "Town of Middlebury", "source_last_edit_at": ""}}, {"type": "Feature", "geometry": {"type": "Point", "coordinates": [-73.16402059499995, 44.01582442400007]}, "properties": {"id": "middlebury-19486", "species_group": "plum", "scientific_name": "Prunus species", "common_name": "Plum", "subtype_name": null, "zip_code": "05753", "ownership": "public", "ownership_raw": "Town of Middlebury", "city": "Middlebury", "source_dataset": "Municipal Tree Inventory", "source_department": "Town of Middlebury", "source_last_edit_at": ""}}, {"type": "Feature", "geometry": {"type": "Point", "coordinates": [-73.16712044699995, 44.01696287200008]}, "properties": {"id": "middlebury-19751", "species_group": "crabapple", "scientific_name": "Malus species", "common_name": "Crabapple", "subtype_name": null, "zip_code": "05753", "ownership": "public", "ownership_raw": "Town of Middlebury", "city": "Middlebury", "source_dataset": "Municipal Tree Inventory", "source_department": "Town of Middlebury", "source_last_edit_at": ""}}, {"type": "Feature", "geometry": {"type": "Point", "coordinates": [-73.17023503599995, 44.005815717000075]}, "properties": {"id": "middlebury-20026", "species_group": "crabapple", "scientific_name": "Malus species", "common_name": "Crabapple", "subtype_name": null, "zip_code": "05753", "ownership": "public", "ownership_raw": "Town of Middlebury", "city": "Middlebury", "source_dataset": "Municipal Tree Inventory", "source_department": "Town of Middlebury", "source_last_edit_at": ""}}, {"type": "Feature", "geometry": {"type": "Point", "coordinates": [-73.09734265299994, 43.97205974000008]}, "properties": {"id": "middlebury-20134", "species_group": "crabapple", "scientific_name": "Malus species", "common_name": "Crabapple", "subtype_name": null, "zip_code": "05753", "ownership": "public", "ownership_raw": "Town of Middlebury", "city": "Middlebury", "source_dataset": "Municipal Tree Inventory", "source_department": "Town of Middlebury", "source_last_edit_at": ""}}, {"type": "Feature", "geometry": {"type": "Point", "coordinates": [-73.16112241399998, 44.00752455600008]}, "properties": {"id": "middlebury-20162", "species_group": "crabapple", "scientific_name": "Malus species", "common_name": "Crabapple", "subtype_name": null, "zip_code": "05753", "ownership": "public", "ownership_raw": "Town of Middlebury", "city": "Middlebury", "source_dataset": "Municipal Tree Inventory", "source_department": "Town of Middlebury", "source_last_edit_at": ""}}, {"type": "Feature", "geometry": {"type": "Point", "coordinates": [-73.16482183499994, 44.01281485800007]}, "properties": {"id": "middlebury-20270", "species_group": "crabapple", "scientific_name": "Malus species", "common_name": "Crabapple", "subtype_name": null, "zip_code": "05753", "ownership": "public", "ownership_raw": "Town of Middlebury", "city": "Middlebury", "source_dataset": "Municipal Tree Inventory", "source_department": "Town of Middlebury", "source_last_edit_at": ""}}, {"type": "Feature", "geometry": {"type": "Point", "coordinates": [-73.16683560899997, 44.01766309100003]}, "properties": {"id": "middlebury-20289", "species_group": "crabapple", "scientific_name": "Malus species", "common_name": "Crabapple", "subtype_name": null, "zip_code": "05753", "ownership": "public", "ownership_raw": "Town of Middlebury", "city": "Middlebury", "source_dataset": "Municipal Tree Inventory", "source_department": "Town of Middlebury", "source_last_edit_at": ""}}, {"type": "Feature", "geometry": {"type": "Point", "coordinates": [-73.16471899299995, 44.011582700000076]}, "properties": {"id": "middlebury-20468", "species_group": "crabapple", "scientific_name": "Malus species", "common_name": "Crabapple", "subtype_name": null, "zip_code": "05753", "ownership": "public", "ownership_raw": "Town of Middlebury", "city": "Middlebury", "source_dataset": "Municipal Tree Inventory", "source_department": "Town of Middlebury", "source_last_edit_at": ""}}, {"type": "Feature", "geometry": {"type": "Point", "coordinates": [-73.16674875099994, 44.01489130700003]}, "properties": {"id": "middlebury-21120", "species_group": "crabapple", "scientific_name": "Malus species", "common_name": "Crabapple", "subtype_name": null, "zip_code": "05753", "ownership": "public", "ownership_raw": "Town of Middlebury", "city": "Middlebury", "source_dataset": "Municipal Tree Inventory", "source_department": "Town of Middlebury", "source_last_edit_at": ""}}, {"type": "Feature", "geometry": {"type": "Point", "coordinates": [-73.16275558499996, 44.00950300300008]}, "properties": {"id": "middlebury-21223", "species_group": "crabapple", "scientific_name": "Malus species", "common_name": "Crabapple", "subtype_name": null, "zip_code": "05753", "ownership": "public", "ownership_raw": "Town of Middlebury", "city": "Middlebury", "source_dataset": "Municipal Tree Inventory", "source_department": "Town of Middlebury", "source_last_edit_at": ""}}, {"type": "Feature", "geometry": {"type": "Point", "coordinates": [-73.16639176399997, 44.01840302900007]}, "properties": {"id": "middlebury-21441", "species_group": "crabapple", "scientific_name": "Malus species", "common_name": "Crabapple", "subtype_name": null, "zip_code": "05753", "ownership": "public", "ownership_raw": "Town of Middlebury", "city": "Middlebury", "source_dataset": "Municipal Tree Inventory", "source_department": "Town of Middlebury", "source_last_edit_at": ""}}, {"type": "Feature", "geometry": {"type": "Point", "coordinates": [-73.16306523999998, 44.010295635000034]}, "properties": {"id": "middlebury-21459", "species_group": "crabapple", "scientific_name": "Malus species", "common_name": "Crabapple", "subtype_name": null, "zip_code": "05753", "ownership": "public", "ownership_raw": "Town of Middlebury", "city": "Middlebury", "source_dataset": "Municipal Tree Inventory", "source_department": "Town of Middlebury", "source_last_edit_at": ""}}, {"type": "Feature", "geometry": {"type": "Point", "coordinates": [-73.17348386199996, 44.00847822900005]}, "properties": {"id": "middlebury-21466", "species_group": "crabapple", "scientific_name": "Malus species", "common_name": "Crabapple", "subtype_name": null, "zip_code": "05753", "ownership": "public", "ownership_raw": "Town of Middlebury", "city": "Middlebury", "source_dataset": "Municipal Tree Inventory", "source_department": "Town of Middlebury", "source_last_edit_at": ""}}, {"type": "Feature", "geometry": {"type": "Point", "coordinates": [-73.17027084699998, 44.00689855600007]}, "properties": {"id": "middlebury-2157", "species_group": "crabapple", "scientific_name": "Malus species", "common_name": "Crabapple", "subtype_name": null, "zip_code": "05753", "ownership": "public", "ownership_raw": "Town of Middlebury", "city": "Middlebury", "source_dataset": "Municipal Tree Inventory", "source_department": "Town of Middlebury", "source_last_edit_at": ""}}, {"type": "Feature", "geometry": {"type": "Point", "coordinates": [-73.17234006699994, 44.011991462000026]}, "properties": {"id": "middlebury-21982", "species_group": "crabapple", "scientific_name": "Malus species", "common_name": "Crabapple", "subtype_name": null, "zip_code": "05753", "ownership": "public", "ownership_raw": "Town of Middlebury", "city": "Middlebury", "source_dataset": "Municipal Tree Inventory", "source_department": "Town of Middlebury", "source_last_edit_at": ""}}, {"type": "Feature", "geometry": {"type": "Point", "coordinates": [-73.17015549199994, 44.00762226900008]}, "properties": {"id": "middlebury-22063", "species_group": "crabapple", "scientific_name": "Malus species", "common_name": "Crabapple", "subtype_name": null, "zip_code": "05753", "ownership": "public", "ownership_raw": "Town of Middlebury", "city": "Middlebury", "source_dataset": "Municipal Tree Inventory", "source_department": "Town of Middlebury", "source_last_edit_at": ""}}, {"type": "Feature", "geometry": {"type": "Point", "coordinates": [-73.16302478899996, 44.01673507700008]}, "properties": {"id": "middlebury-22103", "species_group": "crabapple", "scientific_name": "Malus species", "common_name": "Crabapple", "subtype_name": null, "zip_code": "05753", "ownership": "public", "ownership_raw": "Town of Middlebury", "city": "Middlebury", "source_dataset": "Municipal Tree Inventory", "source_department": "Town of Middlebury", "source_last_edit_at": ""}}, {"type": "Feature", "geometry": {"type": "Point", "coordinates": [-73.17308716699995, 44.02101567400007]}, "properties": {"id": "middlebury-22108", "species_group": "crabapple", "scientific_name": "Malus species", "common_name": "Crabapple", "subtype_name": null, "zip_code": "05753", "ownership": "public", "ownership_raw": "Town of Middlebury", "city": "Middlebury", "source_dataset": "Municipal Tree Inventory", "source_department": "Town of Middlebury", "source_last_edit_at": ""}}, {"type": "Feature", "geometry": {"type": "Point", "coordinates": [-73.16547696499998, 44.009785470000054]}, "properties": {"id": "middlebury-22112", "species_group": "crabapple", "scientific_name": "Malus species", "common_name": "Crabapple", "subtype_name": null, "zip_code": "05753", "ownership": "public", "ownership_raw": "Town of Middlebury", "city": "Middlebury", "source_dataset": "Municipal Tree Inventory", "source_department": "Town of Middlebury", "source_last_edit_at": ""}}, {"type": "Feature", "geometry": {"type": "Point", "coordinates": [-73.16330932099999, 44.010697589000074]}, "properties": {"id": "middlebury-22348", "species_group": "crabapple", "scientific_name": "Malus species", "common_name": "Crabapple", "subtype_name": null, "zip_code": "05753", "ownership": "public", "ownership_raw": "Town of Middlebury", "city": "Middlebury", "source_dataset": "Municipal Tree Inventory", "source_department": "Town of Middlebury", "source_last_edit_at": ""}}, {"type": "Feature", "geometry": {"type": "Point", "coordinates": [-73.16820859999996, 44.015788960000066]}, "properties": {"id": "middlebury-22683", "species_group": "crabapple", "scientific_name": "Malus species", "common_name": "Crabapple", "subtype_name": null, "zip_code": "05753", "ownership": "public", "ownership_raw": "Town of Middlebury", "city": "Middlebury", "source_dataset": "Municipal Tree Inventory", "source_department": "Town of Middlebury", "source_last_edit_at": ""}}, {"type": "Feature", "geometry": {"type": "Point", "coordinates": [-73.16211045799997, 44.00892263800006]}, "properties": {"id": "middlebury-2297", "species_group": "crabapple", "scientific_name": "Malus species", "common_name": "Crabapple", "subtype_name": null, "zip_code": "05753", "ownership": "public", "ownership_raw": "Town of Middlebury", "city": "Middlebury", "source_dataset": "Municipal Tree Inventory", "source_department": "Town of Middlebury", "source_last_edit_at": ""}}, {"type": "Feature", "geometry": {"type": "Point", "coordinates": [-73.09306663299998, 43.97148717400006]}, "properties": {"id": "middlebury-22981", "species_group": "crabapple", "scientific_name": "Malus species", "common_name": "Crabapple", "subtype_name": null, "zip_code": "05753", "ownership": "public", "ownership_raw": "Town of Middlebury", "city": "Middlebury", "source_dataset": "Municipal Tree Inventory", "source_department": "Town of Middlebury", "source_last_edit_at": ""}}, {"type": "Feature", "geometry": {"type": "Point", "coordinates": [-73.16123812999996, 44.00769535400008]}, "properties": {"id": "middlebury-22985", "species_group": "crabapple", "scientific_name": "Malus species", "common_name": "Crabapple", "subtype_name": null, "zip_code": "05753", "ownership": "public", "ownership_raw": "Town of Middlebury", "city": "Middlebury", "source_dataset": "Municipal Tree Inventory", "source_department": "Town of Middlebury", "source_last_edit_at": ""}}, {"type": "Feature", "geometry": {"type": "Point", "coordinates": [-73.15382675999996, 44.019995393000045]}, "properties": {"id": "middlebury-23064", "species_group": "cherry", "scientific_name": "Prunus species", "common_name": "Cherry Plum", "subtype_name": "Cherry Plum", "zip_code": "05753", "ownership": "public", "ownership_raw": "Town of Middlebury", "city": "Middlebury", "source_dataset": "Municipal Tree Inventory", "source_department": "Town of Middlebury", "source_last_edit_at": ""}}, {"type": "Feature", "geometry": {"type": "Point", "coordinates": [-73.17221961899997, 44.009795445000066]}, "properties": {"id": "middlebury-23068", "species_group": "crabapple", "scientific_name": "Malus species", "common_name": "Crabapple", "subtype_name": null, "zip_code": "05753", "ownership": "public", "ownership_raw": "Town of Middlebury", "city": "Middlebury", "source_dataset": "Municipal Tree Inventory", "source_department": "Town of Middlebury", "source_last_edit_at": ""}}, {"type": "Feature", "geometry": {"type": "Point", "coordinates": [-73.17052882199994, 44.010425345000044]}, "properties": {"id": "middlebury-23163", "species_group": "crabapple", "scientific_name": "Malus species", "common_name": "Crabapple", "subtype_name": null, "zip_code": "05753", "ownership": "public", "ownership_raw": "Town of Middlebury", "city": "Middlebury", "source_dataset": "Municipal Tree Inventory", "source_department": "Town of Middlebury", "source_last_edit_at": ""}}, {"type": "Feature", "geometry": {"type": "Point", "coordinates": [-73.09360658799994, 43.971583019000036]}, "properties": {"id": "middlebury-23224", "species_group": "crabapple", "scientific_name": "Malus species", "common_name": "Crabapple", "subtype_name": null, "zip_code": "05753", "ownership": "public", "ownership_raw": "Town of Middlebury", "city": "Middlebury", "source_dataset": "Municipal Tree Inventory", "source_department": "Town of Middlebury", "source_last_edit_at": ""}}, {"type": "Feature", "geometry": {"type": "Point", "coordinates": [-73.16651990999998, 44.01840631400006]}, "properties": {"id": "middlebury-2346", "species_group": "crabapple", "scientific_name": "Malus species", "common_name": "Crabapple", "subtype_name": null, "zip_code": "05753", "ownership": "public", "ownership_raw": "Town of Middlebury", "city": "Middlebury", "source_dataset": "Municipal Tree Inventory", "source_department": "Town of Middlebury", "source_last_edit_at": ""}}, {"type": "Feature", "geometry": {"type": "Point", "coordinates": [-73.16515898199998, 44.01155310100006]}, "properties": {"id": "middlebury-23583", "species_group": "crabapple", "scientific_name": "Malus species", "common_name": "Crabapple", "subtype_name": null, "zip_code": "05753", "ownership": "public", "ownership_raw": "Town of Middlebury", "city": "Middlebury", "source_dataset": "Municipal Tree Inventory", "source_department": "Town of Middlebury", "source_last_edit_at": ""}}, {"type": "Feature", "geometry": {"type": "Point", "coordinates": [-73.17169072099995, 44.010172924000074]}, "properties": {"id": "middlebury-23751", "species_group": "crabapple", "scientific_name": "Malus species", "common_name": "Crabapple", "subtype_name": null, "zip_code": "05753", "ownership": "public", "ownership_raw": "Town of Middlebury", "city": "Middlebury", "source_dataset": "Municipal Tree Inventory", "source_department": "Town of Middlebury", "source_last_edit_at": ""}}, {"type": "Feature", "geometry": {"type": "Point", "coordinates": [-73.17051230999994, 44.009036464000076]}, "properties": {"id": "middlebury-23942", "species_group": "crabapple", "scientific_name": "Malus species", "common_name": "Crabapple", "subtype_name": null, "zip_code": "05753", "ownership": "public", "ownership_raw": "Town of Middlebury", "city": "Middlebury", "source_dataset": "Municipal Tree Inventory", "source_department": "Town of Middlebury", "source_last_edit_at": ""}}, {"type": "Feature", "geometry": {"type": "Point", "coordinates": [-73.16656619299994, 44.01858743300005]}, "properties": {"id": "middlebury-24284", "species_group": "crabapple", "scientific_name": "Malus species", "common_name": "Crabapple", "subtype_name": null, "zip_code": "05753", "ownership": "public", "ownership_raw": "Town of Middlebury", "city": "Middlebury", "source_dataset": "Municipal Tree Inventory", "source_department": "Town of Middlebury", "source_last_edit_at": ""}}, {"type": "Feature", "geometry": {"type": "Point", "coordinates": [-73.16466333299996, 44.01223977600006]}, "properties": {"id": "middlebury-25048", "species_group": "crabapple", "scientific_name": "Malus species", "common_name": "Crabapple", "subtype_name": null, "zip_code": "05753", "ownership": "public", "ownership_raw": "Town of Middlebury", "city": "Middlebury", "source_dataset": "Municipal Tree Inventory", "source_department": "Town of Middlebury", "source_last_edit_at": ""}}, {"type": "Feature", "geometry": {"type": "Point", "coordinates": [-73.17031423099996, 44.00730384000008]}, "properties": {"id": "middlebury-25594", "species_group": "crabapple", "scientific_name": "Malus species", "common_name": "Crabapple", "subtype_name": null, "zip_code": "05753", "ownership": "public", "ownership_raw": "Town of Middlebury", "city": "Middlebury", "source_dataset": "Municipal Tree Inventory", "source_department": "Town of Middlebury", "source_last_edit_at": ""}}, {"type": "Feature", "geometry": {"type": "Point", "coordinates": [-73.17314925499994, 44.02103095700005]}, "properties": {"id": "middlebury-25944", "species_group": "crabapple", "scientific_name": "Malus species", "common_name": "Crabapple", "subtype_name": null, "zip_code": "05753", "ownership": "public", "ownership_raw": "Town of Middlebury", "city": "Middlebury", "source_dataset": "Municipal Tree Inventory", "source_department": "Town of Middlebury", "source_last_edit_at": ""}}, {"type": "Feature", "geometry": {"type": "Point", "coordinates": [-73.16136672399995, 44.007514995000065]}, "properties": {"id": "middlebury-26171", "species_group": "crabapple", "scientific_name": "Malus species", "common_name": "Crabapple", "subtype_name": null, "zip_code": "05753", "ownership": "public", "ownership_raw": "Town of Middlebury", "city": "Middlebury", "source_dataset": "Municipal Tree Inventory", "source_department": "Town of Middlebury", "source_last_edit_at": ""}}, {"type": "Feature", "geometry": {"type": "Point", "coordinates": [-73.16378750799998, 44.010993932000076]}, "properties": {"id": "middlebury-26339", "species_group": "crabapple", "scientific_name": "Malus species", "common_name": "Crabapple", "subtype_name": null, "zip_code": "05753", "ownership": "public", "ownership_raw": "Town of Middlebury", "city": "Middlebury", "source_dataset": "Municipal Tree Inventory", "source_department": "Town of Middlebury", "source_last_edit_at": ""}}, {"type": "Feature", "geometry": {"type": "Point", "coordinates": [-73.16536377099999, 44.01005215500004]}, "properties": {"id": "middlebury-26373", "species_group": "crabapple", "scientific_name": "Malus species", "common_name": "Crabapple", "subtype_name": null, "zip_code": "05753", "ownership": "public", "ownership_raw": "Town of Middlebury", "city": "Middlebury", "source_dataset": "Municipal Tree Inventory", "source_department": "Town of Middlebury", "source_last_edit_at": ""}}, {"type": "Feature", "geometry": {"type": "Point", "coordinates": [-73.17961815699994, 44.017798654000046]}, "properties": {"id": "middlebury-26939", "species_group": "crabapple", "scientific_name": "Malus species", "common_name": "Crabapple", "subtype_name": null, "zip_code": "05753", "ownership": "public", "ownership_raw": "Town of Middlebury", "city": "Middlebury", "source_dataset": "Municipal Tree Inventory", "source_department": "Town of Middlebury", "source_last_edit_at": ""}}, {"type": "Feature", "geometry": {"type": "Point", "coordinates": [-73.09417848499999, 43.97165694700004]}, "properties": {"id": "middlebury-27010", "species_group": "cherry", "scientific_name": "Prunus species", "common_name": "Cherry Plum", "subtype_name": "Cherry Plum", "zip_code": "05753", "ownership": "public", "ownership_raw": "Town of Middlebury", "city": "Middlebury", "source_dataset": "Municipal Tree Inventory", "source_department": "Town of Middlebury", "source_last_edit_at": ""}}, {"type": "Feature", "geometry": {"type": "Point", "coordinates": [-73.17057793999999, 44.00954298200003]}, "properties": {"id": "middlebury-27564", "species_group": "crabapple", "scientific_name": "Malus species", "common_name": "Crabapple", "subtype_name": null, "zip_code": "05753", "ownership": "public", "ownership_raw": "Town of Middlebury", "city": "Middlebury", "source_dataset": "Municipal Tree Inventory", "source_department": "Town of Middlebury", "source_last_edit_at": ""}}, {"type": "Feature", "geometry": {"type": "Point", "coordinates": [-73.16321845899995, 44.016721776000054]}, "properties": {"id": "middlebury-27901", "species_group": "crabapple", "scientific_name": "Malus species", "common_name": "Crabapple", "subtype_name": null, "zip_code": "05753", "ownership": "public", "ownership_raw": "Town of Middlebury", "city": "Middlebury", "source_dataset": "Municipal Tree Inventory", "source_department": "Town of Middlebury", "source_last_edit_at": ""}}, {"type": "Feature", "geometry": {"type": "Point", "coordinates": [-73.10665570199995, 43.97334305100003]}, "properties": {"id": "middlebury-27935", "species_group": "cherry", "scientific_name": "Prunus species", "common_name": "Cherry Plum", "subtype_name": "Cherry Plum", "zip_code": "05753", "ownership": "public", "ownership_raw": "Town of Middlebury", "city": "Middlebury", "source_dataset": "Municipal Tree Inventory", "source_department": "Town of Middlebury", "source_last_edit_at": ""}}, {"type": "Feature", "geometry": {"type": "Point", "coordinates": [-73.10769589599994, 43.97218396000005]}, "properties": {"id": "middlebury-27971", "species_group": "crabapple", "scientific_name": "Malus species", "common_name": "Crabapple", "subtype_name": null, "zip_code": "05753", "ownership": "public", "ownership_raw": "Town of Middlebury", "city": "Middlebury", "source_dataset": "Municipal Tree Inventory", "source_department": "Town of Middlebury", "source_last_edit_at": ""}}, {"type": "Feature", "geometry": {"type": "Point", "coordinates": [-73.16388406799996, 44.01106165700003]}, "properties": {"id": "middlebury-27996", "species_group": "crabapple", "scientific_name": "Malus species", "common_name": "Crabapple", "subtype_name": null, "zip_code": "05753", "ownership": "public", "ownership_raw": "Town of Middlebury", "city": "Middlebury", "source_dataset": "Municipal Tree Inventory", "source_department": "Town of Middlebury", "source_last_edit_at": ""}}, {"type": "Feature", "geometry": {"type": "Point", "coordinates": [-73.10737439699994, 43.97355831500005]}, "properties": {"id": "middlebury-2805", "species_group": "crabapple", "scientific_name": "Malus species", "common_name": "Crabapple", "subtype_name": null, "zip_code": "05753", "ownership": "public", "ownership_raw": "Town of Middlebury", "city": "Middlebury", "source_dataset": "Municipal Tree Inventory", "source_department": "Town of Middlebury", "source_last_edit_at": ""}}, {"type": "Feature", "geometry": {"type": "Point", "coordinates": [-73.16451501399996, 44.01160521500003]}, "properties": {"id": "middlebury-28934", "species_group": "crabapple", "scientific_name": "Malus species", "common_name": "Crabapple", "subtype_name": null, "zip_code": "05753", "ownership": "public", "ownership_raw": "Town of Middlebury", "city": "Middlebury", "source_dataset": "Municipal Tree Inventory", "source_department": "Town of Middlebury", "source_last_edit_at": ""}}, {"type": "Feature", "geometry": {"type": "Point", "coordinates": [-73.17055664999998, 44.00975303300004]}, "properties": {"id": "middlebury-29028", "species_group": "crabapple", "scientific_name": "Malus species", "common_name": "Crabapple", "subtype_name": null, "zip_code": "05753", "ownership": "public", "ownership_raw": "Town of Middlebury", "city": "Middlebury", "source_dataset": "Municipal Tree Inventory", "source_department": "Town of Middlebury", "source_last_edit_at": ""}}, {"type": "Feature", "geometry": {"type": "Point", "coordinates": [-73.16185757599999, 44.00858623000005]}, "properties": {"id": "middlebury-29058", "species_group": "crabapple", "scientific_name": "Malus species", "common_name": "Crabapple", "subtype_name": null, "zip_code": "05753", "ownership": "public", "ownership_raw": "Town of Middlebury", "city": "Middlebury", "source_dataset": "Municipal Tree Inventory", "source_department": "Town of Middlebury", "source_last_edit_at": ""}}, {"type": "Feature", "geometry": {"type": "Point", "coordinates": [-73.17210000899996, 44.011755176000065]}, "properties": {"id": "middlebury-2919", "species_group": "crabapple", "scientific_name": "Malus species", "common_name": "Crabapple", "subtype_name": null, "zip_code": "05753", "ownership": "public", "ownership_raw": "Town of Middlebury", "city": "Middlebury", "source_dataset": "Municipal Tree Inventory", "source_department": "Town of Middlebury", "source_last_edit_at": ""}}, {"type": "Feature", "geometry": {"type": "Point", "coordinates": [-73.15987603999997, 44.00574183100008]}, "properties": {"id": "middlebury-29228", "species_group": "crabapple", "scientific_name": "Malus species", "common_name": "Crabapple", "subtype_name": null, "zip_code": "05753", "ownership": "public", "ownership_raw": "Town of Middlebury", "city": "Middlebury", "source_dataset": "Municipal Tree Inventory", "source_department": "Town of Middlebury", "source_last_edit_at": ""}}, {"type": "Feature", "geometry": {"type": "Point", "coordinates": [-73.16329557399996, 44.01065945200003]}, "properties": {"id": "middlebury-29301", "species_group": "crabapple", "scientific_name": "Malus species", "common_name": "Crabapple", "subtype_name": null, "zip_code": "05753", "ownership": "public", "ownership_raw": "Town of Middlebury", "city": "Middlebury", "source_dataset": "Municipal Tree Inventory", "source_department": "Town of Middlebury", "source_last_edit_at": ""}}, {"type": "Feature", "geometry": {"type": "Point", "coordinates": [-73.17280978899998, 44.01275367000005]}, "properties": {"id": "middlebury-29415", "species_group": "crabapple", "scientific_name": "Malus species", "common_name": "Crabapple", "subtype_name": null, "zip_code": "05753", "ownership": "public", "ownership_raw": "Town of Middlebury", "city": "Middlebury", "source_dataset": "Municipal Tree Inventory", "source_department": "Town of Middlebury", "source_last_edit_at": ""}}, {"type": "Feature", "geometry": {"type": "Point", "coordinates": [-73.16087402699998, 44.00719412900003]}, "properties": {"id": "middlebury-29467", "species_group": "crabapple", "scientific_name": "Malus species", "common_name": "Crabapple", "subtype_name": null, "zip_code": "05753", "ownership": "public", "ownership_raw": "Town of Middlebury", "city": "Middlebury", "source_dataset": "Municipal Tree Inventory", "source_department": "Town of Middlebury", "source_last_edit_at": ""}}, {"type": "Feature", "geometry": {"type": "Point", "coordinates": [-73.17023655099996, 44.006474308000065]}, "properties": {"id": "middlebury-29503", "species_group": "crabapple", "scientific_name": "Malus species", "common_name": "Crabapple", "subtype_name": null, "zip_code": "05753", "ownership": "public", "ownership_raw": "Town of Middlebury", "city": "Middlebury", "source_dataset": "Municipal Tree Inventory", "source_department": "Town of Middlebury", "source_last_edit_at": ""}}, {"type": "Feature", "geometry": {"type": "Point", "coordinates": [-73.16652285799995, 44.01849820700005]}, "properties": {"id": "middlebury-29570", "species_group": "crabapple", "scientific_name": "Malus species", "common_name": "Crabapple", "subtype_name": null, "zip_code": "05753", "ownership": "public", "ownership_raw": "Town of Middlebury", "city": "Middlebury", "source_dataset": "Municipal Tree Inventory", "source_department": "Town of Middlebury", "source_last_edit_at": ""}}, {"type": "Feature", "geometry": {"type": "Point", "coordinates": [-73.16014360499997, 44.00612109800005]}, "properties": {"id": "middlebury-29749", "species_group": "crabapple", "scientific_name": "Malus species", "common_name": "Crabapple", "subtype_name": null, "zip_code": "05753", "ownership": "public", "ownership_raw": "Town of Middlebury", "city": "Middlebury", "source_dataset": "Municipal Tree Inventory", "source_department": "Town of Middlebury", "source_last_edit_at": ""}}, {"type": "Feature", "geometry": {"type": "Point", "coordinates": [-73.16277388499998, 44.00988546700006]}, "properties": {"id": "middlebury-29767", "species_group": "crabapple", "scientific_name": "Malus species", "common_name": "Crabapple", "subtype_name": null, "zip_code": "05753", "ownership": "public", "ownership_raw": "Town of Middlebury", "city": "Middlebury", "source_dataset": "Municipal Tree Inventory", "source_department": "Town of Middlebury", "source_last_edit_at": ""}}, {"type": "Feature", "geometry": {"type": "Point", "coordinates": [-73.16837828999996, 44.018373250000025]}, "properties": {"id": "middlebury-29779", "species_group": "crabapple", "scientific_name": "Malus species", "common_name": "Crabapple", "subtype_name": null, "zip_code": "05753", "ownership": "public", "ownership_raw": "Town of Middlebury", "city": "Middlebury", "source_dataset": "Municipal Tree Inventory", "source_department": "Town of Middlebury", "source_last_edit_at": ""}}, {"type": "Feature", "geometry": {"type": "Point", "coordinates": [-73.16713620399997, 44.016909499000064]}, "properties": {"id": "middlebury-30007", "species_group": "crabapple", "scientific_name": "Malus species", "common_name": "Crabapple", "subtype_name": null, "zip_code": "05753", "ownership": "public", "ownership_raw": "Town of Middlebury", "city": "Middlebury", "source_dataset": "Municipal Tree Inventory", "source_department": "Town of Middlebury", "source_last_edit_at": ""}}, {"type": "Feature", "geometry": {"type": "Point", "coordinates": [-73.17045784899994, 44.00861456200005]}, "properties": {"id": "middlebury-30033", "species_group": "crabapple", "scientific_name": "Malus species", "common_name": "Crabapple", "subtype_name": null, "zip_code": "05753", "ownership": "public", "ownership_raw": "Town of Middlebury", "city": "Middlebury", "source_dataset": "Municipal Tree Inventory", "source_department": "Town of Middlebury", "source_last_edit_at": ""}}, {"type": "Feature", "geometry": {"type": "Point", "coordinates": [-73.16685667899998, 44.01761359500006]}, "properties": {"id": "middlebury-30095", "species_group": "crabapple", "scientific_name": "Malus species", "common_name": "Crabapple", "subtype_name": null, "zip_code": "05753", "ownership": "public", "ownership_raw": "Town of Middlebury", "city": "Middlebury", "source_dataset": "Municipal Tree Inventory", "source_department": "Town of Middlebury", "source_last_edit_at": ""}}, {"type": "Feature", "geometry": {"type": "Point", "coordinates": [-73.16691813799997, 44.01744806000005]}, "properties": {"id": "middlebury-30135", "species_group": "crabapple", "scientific_name": "Malus species", "common_name": "Crabapple", "subtype_name": null, "zip_code": "05753", "ownership": "public", "ownership_raw": "Town of Middlebury", "city": "Middlebury", "source_dataset": "Municipal Tree Inventory", "source_department": "Town of Middlebury", "source_last_edit_at": ""}}, {"type": "Feature", "geometry": {"type": "Point", "coordinates": [-73.16607073999995, 44.01660218000006]}, "properties": {"id": "middlebury-30204", "species_group": "crabapple", "scientific_name": "Malus species", "common_name": "Crabapple", "subtype_name": null, "zip_code": "05753", "ownership": "public", "ownership_raw": "Town of Middlebury", "city": "Middlebury", "source_dataset": "Municipal Tree Inventory", "source_department": "Town of Middlebury", "source_last_edit_at": ""}}, {"type": "Feature", "geometry": {"type": "Point", "coordinates": [-73.16311343399997, 44.01673036500006]}, "properties": {"id": "middlebury-30313", "species_group": "crabapple", "scientific_name": "Malus species", "common_name": "Crabapple", "subtype_name": null, "zip_code": "05753", "ownership": "public", "ownership_raw": "Town of Middlebury", "city": "Middlebury", "source_dataset": "Municipal Tree Inventory", "source_department": "Town of Middlebury", "source_last_edit_at": ""}}, {"type": "Feature", "geometry": {"type": "Point", "coordinates": [-73.17089923399993, 44.010908405000066]}, "properties": {"id": "middlebury-30389", "species_group": "crabapple", "scientific_name": "Malus species", "common_name": "Crabapple", "subtype_name": null, "zip_code": "05753", "ownership": "public", "ownership_raw": "Town of Middlebury", "city": "Middlebury", "source_dataset": "Municipal Tree Inventory", "source_department": "Town of Middlebury", "source_last_edit_at": ""}}, {"type": "Feature", "geometry": {"type": "Point", "coordinates": [-73.10558197999995, 43.97334108100006]}, "properties": {"id": "middlebury-31275", "species_group": "crabapple", "scientific_name": "Malus species", "common_name": "Crabapple", "subtype_name": null, "zip_code": "05753", "ownership": "public", "ownership_raw": "Town of Middlebury", "city": "Middlebury", "source_dataset": "Municipal Tree Inventory", "source_department": "Town of Middlebury", "source_last_edit_at": ""}}, {"type": "Feature", "geometry": {"type": "Point", "coordinates": [-73.16259912899994, 44.00928178800007]}, "properties": {"id": "middlebury-31280", "species_group": "crabapple", "scientific_name": "Malus species", "common_name": "Crabapple", "subtype_name": null, "zip_code": "05753", "ownership": "public", "ownership_raw": "Town of Middlebury", "city": "Middlebury", "source_dataset": "Municipal Tree Inventory", "source_department": "Town of Middlebury", "source_last_edit_at": ""}}, {"type": "Feature", "geometry": {"type": "Point", "coordinates": [-73.16463248899998, 44.012618847000056]}, "properties": {"id": "middlebury-31541", "species_group": "crabapple", "scientific_name": "Malus species", "common_name": "Crabapple", "subtype_name": null, "zip_code": "05753", "ownership": "public", "ownership_raw": "Town of Middlebury", "city": "Middlebury", "source_dataset": "Municipal Tree Inventory", "source_department": "Town of Middlebury", "source_last_edit_at": ""}}, {"type": "Feature", "geometry": {"type": "Point", "coordinates": [-73.17035988799995, 44.007748442000036]}, "properties": {"id": "middlebury-31656", "species_group": "crabapple", "scientific_name": "Malus species", "common_name": "Crabapple", "subtype_name": null, "zip_code": "05753", "ownership": "public", "ownership_raw": "Town of Middlebury", "city": "Middlebury", "source_dataset": "Municipal Tree Inventory", "source_department": "Town of Middlebury", "source_last_edit_at": ""}}, {"type": "Feature", "geometry": {"type": "Point", "coordinates": [-73.16688495699998, 44.017542836000075]}, "properties": {"id": "middlebury-31705", "species_group": "crabapple", "scientific_name": "Malus species", "common_name": "Crabapple", "subtype_name": null, "zip_code": "05753", "ownership": "public", "ownership_raw": "Town of Middlebury", "city": "Middlebury", "source_dataset": "Municipal Tree Inventory", "source_department": "Town of Middlebury", "source_last_edit_at": ""}}, {"type": "Feature", "geometry": {"type": "Point", "coordinates": [-73.16621792999996, 44.011894046000066]}, "properties": {"id": "middlebury-3216", "species_group": "crabapple", "scientific_name": "Malus species", "common_name": "Crabapple", "subtype_name": null, "zip_code": "05753", "ownership": "public", "ownership_raw": "Town of Middlebury", "city": "Middlebury", "source_dataset": "Municipal Tree Inventory", "source_department": "Town of Middlebury", "source_last_edit_at": ""}}, {"type": "Feature", "geometry": {"type": "Point", "coordinates": [-73.17054218399994, 44.00952608700004]}, "properties": {"id": "middlebury-3356", "species_group": "crabapple", "scientific_name": "Malus species", "common_name": "Crabapple", "subtype_name": null, "zip_code": "05753", "ownership": "public", "ownership_raw": "Town of Middlebury", "city": "Middlebury", "source_dataset": "Municipal Tree Inventory", "source_department": "Town of Middlebury", "source_last_edit_at": ""}}, {"type": "Feature", "geometry": {"type": "Point", "coordinates": [-73.16756858499997, 44.014323475000026]}, "properties": {"id": "middlebury-3585", "species_group": "crabapple", "scientific_name": "Malus species", "common_name": "Crabapple", "subtype_name": null, "zip_code": "05753", "ownership": "public", "ownership_raw": "Town of Middlebury", "city": "Middlebury", "source_dataset": "Municipal Tree Inventory", "source_department": "Town of Middlebury", "source_last_edit_at": ""}}, {"type": "Feature", "geometry": {"type": "Point", "coordinates": [-73.16009930299998, 44.006055021000066]}, "properties": {"id": "middlebury-3729", "species_group": "crabapple", "scientific_name": "Malus species", "common_name": "Crabapple", "subtype_name": null, "zip_code": "05753", "ownership": "public", "ownership_raw": "Town of Middlebury", "city": "Middlebury", "source_dataset": "Municipal Tree Inventory", "source_department": "Town of Middlebury", "source_last_edit_at": ""}}, {"type": "Feature", "geometry": {"type": "Point", "coordinates": [-73.16265220999998, 44.009706279000056]}, "properties": {"id": "middlebury-385", "species_group": "crabapple", "scientific_name": "Malus species", "common_name": "Crabapple", "subtype_name": null, "zip_code": "05753", "ownership": "public", "ownership_raw": "Town of Middlebury", "city": "Middlebury", "source_dataset": "Municipal Tree Inventory", "source_department": "Town of Middlebury", "source_last_edit_at": ""}}, {"type": "Feature", "geometry": {"type": "Point", "coordinates": [-73.16280569099996, 44.00993425400003]}, "properties": {"id": "middlebury-3896", "species_group": "crabapple", "scientific_name": "Malus species", "common_name": "Crabapple", "subtype_name": null, "zip_code": "05753", "ownership": "public", "ownership_raw": "Town of Middlebury", "city": "Middlebury", "source_dataset": "Municipal Tree Inventory", "source_department": "Town of Middlebury", "source_last_edit_at": ""}}, {"type": "Feature", "geometry": {"type": "Point", "coordinates": [-73.17012003599996, 44.00722056600006]}, "properties": {"id": "middlebury-3960", "species_group": "crabapple", "scientific_name": "Malus species", "common_name": "Crabapple", "subtype_name": null, "zip_code": "05753", "ownership": "public", "ownership_raw": "Town of Middlebury", "city": "Middlebury", "source_dataset": "Municipal Tree Inventory", "source_department": "Town of Middlebury", "source_last_edit_at": ""}}, {"type": "Feature", "geometry": {"type": "Point", "coordinates": [-73.10733893399998, 43.97355226900004]}, "properties": {"id": "middlebury-4086", "species_group": "crabapple", "scientific_name": "Malus species", "common_name": "Crabapple", "subtype_name": null, "zip_code": "05753", "ownership": "public", "ownership_raw": "Town of Middlebury", "city": "Middlebury", "source_dataset": "Municipal Tree Inventory", "source_department": "Town of Middlebury", "source_last_edit_at": ""}}, {"type": "Feature", "geometry": {"type": "Point", "coordinates": [-73.10722145799997, 43.97352784100008]}, "properties": {"id": "middlebury-4211", "species_group": "crabapple", "scientific_name": "Malus species", "common_name": "Crabapple", "subtype_name": null, "zip_code": "05753", "ownership": "public", "ownership_raw": "Town of Middlebury", "city": "Middlebury", "source_dataset": "Municipal Tree Inventory", "source_department": "Town of Middlebury", "source_last_edit_at": ""}}, {"type": "Feature", "geometry": {"type": "Point", "coordinates": [-73.17032116199994, 44.00751788300005]}, "properties": {"id": "middlebury-4227", "species_group": "crabapple", "scientific_name": "Malus species", "common_name": "Crabapple", "subtype_name": null, "zip_code": "05753", "ownership": "public", "ownership_raw": "Town of Middlebury", "city": "Middlebury", "source_dataset": "Municipal Tree Inventory", "source_department": "Town of Middlebury", "source_last_edit_at": ""}}, {"type": "Feature", "geometry": {"type": "Point", "coordinates": [-73.16623568799997, 44.01656549200004]}, "properties": {"id": "middlebury-4919", "species_group": "crabapple", "scientific_name": "Malus species", "common_name": "Crabapple", "subtype_name": null, "zip_code": "05753", "ownership": "public", "ownership_raw": "Town of Middlebury", "city": "Middlebury", "source_dataset": "Municipal Tree Inventory", "source_department": "Town of Middlebury", "source_last_edit_at": ""}}, {"type": "Feature", "geometry": {"type": "Point", "coordinates": [-73.17039906999997, 44.007696114000055]}, "properties": {"id": "middlebury-4927", "species_group": "crabapple", "scientific_name": "Malus species", "common_name": "Crabapple", "subtype_name": null, "zip_code": "05753", "ownership": "public", "ownership_raw": "Town of Middlebury", "city": "Middlebury", "source_dataset": "Municipal Tree Inventory", "source_department": "Town of Middlebury", "source_last_edit_at": ""}}, {"type": "Feature", "geometry": {"type": "Point", "coordinates": [-73.17051725499994, 44.01024655900005]}, "properties": {"id": "middlebury-5279", "species_group": "crabapple", "scientific_name": "Malus species", "common_name": "Crabapple", "subtype_name": null, "zip_code": "05753", "ownership": "public", "ownership_raw": "Town of Middlebury", "city": "Middlebury", "source_dataset": "Municipal Tree Inventory", "source_department": "Town of Middlebury", "source_last_edit_at": ""}}, {"type": "Feature", "geometry": {"type": "Point", "coordinates": [-73.17015213899998, 44.00541384700006]}, "properties": {"id": "middlebury-5409", "species_group": "crabapple", "scientific_name": "Malus species", "common_name": "Crabapple", "subtype_name": null, "zip_code": "05753", "ownership": "public", "ownership_raw": "Town of Middlebury", "city": "Middlebury", "source_dataset": "Municipal Tree Inventory", "source_department": "Town of Middlebury", "source_last_edit_at": ""}}, {"type": "Feature", "geometry": {"type": "Point", "coordinates": [-73.10725733199996, 43.97352073500008]}, "properties": {"id": "middlebury-5587", "species_group": "crabapple", "scientific_name": "Malus species", "common_name": "Crabapple", "subtype_name": null, "zip_code": "05753", "ownership": "public", "ownership_raw": "Town of Middlebury", "city": "Middlebury", "source_dataset": "Municipal Tree Inventory", "source_department": "Town of Middlebury", "source_last_edit_at": ""}}, {"type": "Feature", "geometry": {"type": "Point", "coordinates": [-73.16173268499995, 44.00839450500007]}, "properties": {"id": "middlebury-5654", "species_group": "crabapple", "scientific_name": "Malus species", "common_name": "Crabapple", "subtype_name": null, "zip_code": "05753", "ownership": "public", "ownership_raw": "Town of Middlebury", "city": "Middlebury", "source_dataset": "Municipal Tree Inventory", "source_department": "Town of Middlebury", "source_last_edit_at": ""}}, {"type": "Feature", "geometry": {"type": "Point", "coordinates": [-73.10719122099994, 43.973518736000074]}, "properties": {"id": "middlebury-5785", "species_group": "crabapple", "scientific_name": "Malus species", "common_name": "Crabapple", "subtype_name": null, "zip_code": "05753", "ownership": "public", "ownership_raw": "Town of Middlebury", "city": "Middlebury", "source_dataset": "Municipal Tree Inventory", "source_department": "Town of Middlebury", "source_last_edit_at": ""}}, {"type": "Feature", "geometry": {"type": "Point", "coordinates": [-73.16391021399994, 44.016116502000045]}, "properties": {"id": "middlebury-6403", "species_group": "crabapple", "scientific_name": "Malus species", "common_name": "Crabapple", "subtype_name": null, "zip_code": "05753", "ownership": "public", "ownership_raw": "Town of Middlebury", "city": "Middlebury", "source_dataset": "Municipal Tree Inventory", "source_department": "Town of Middlebury", "source_last_edit_at": ""}}, {"type": "Feature", "geometry": {"type": "Point", "coordinates": [-73.16431129299997, 44.01233591600004]}, "properties": {"id": "middlebury-6415", "species_group": "crabapple", "scientific_name": "Malus species", "common_name": "Crabapple", "subtype_name": null, "zip_code": "05753", "ownership": "public", "ownership_raw": "Town of Middlebury", "city": "Middlebury", "source_dataset": "Municipal Tree Inventory", "source_department": "Town of Middlebury", "source_last_edit_at": ""}}, {"type": "Feature", "geometry": {"type": "Point", "coordinates": [-73.15756297399997, 44.019058502000064]}, "properties": {"id": "middlebury-6634", "species_group": "crabapple", "scientific_name": "Malus species", "common_name": "Crabapple", "subtype_name": null, "zip_code": "05753", "ownership": "public", "ownership_raw": "Town of Middlebury", "city": "Middlebury", "source_dataset": "Municipal Tree Inventory", "source_department": "Town of Middlebury", "source_last_edit_at": ""}}, {"type": "Feature", "geometry": {"type": "Point", "coordinates": [-73.16565799099999, 44.01153933100005]}, "properties": {"id": "middlebury-6739", "species_group": "crabapple", "scientific_name": "Malus species", "common_name": "Crabapple", "subtype_name": null, "zip_code": "05753", "ownership": "public", "ownership_raw": "Town of Middlebury", "city": "Middlebury", "source_dataset": "Municipal Tree Inventory", "source_department": "Town of Middlebury", "source_last_edit_at": ""}}, {"type": "Feature", "geometry": {"type": "Point", "coordinates": [-73.16317367399995, 44.01950363900005]}, "properties": {"id": "middlebury-6777", "species_group": "cherry", "scientific_name": "Prunus species", "common_name": "Cherry Plum", "subtype_name": "Cherry Plum", "zip_code": "05753", "ownership": "public", "ownership_raw": "Town of Middlebury", "city": "Middlebury", "source_dataset": "Municipal Tree Inventory", "source_department": "Town of Middlebury", "source_last_edit_at": ""}}, {"type": "Feature", "geometry": {"type": "Point", "coordinates": [-73.16715546099994, 44.01684662500003]}, "properties": {"id": "middlebury-6990", "species_group": "crabapple", "scientific_name": "Malus species", "common_name": "Crabapple", "subtype_name": null, "zip_code": "05753", "ownership": "public", "ownership_raw": "Town of Middlebury", "city": "Middlebury", "source_dataset": "Municipal Tree Inventory", "source_department": "Town of Middlebury", "source_last_edit_at": ""}}, {"type": "Feature", "geometry": {"type": "Point", "coordinates": [-73.16679857999998, 44.01777702100003]}, "properties": {"id": "middlebury-7421", "species_group": "crabapple", "scientific_name": "Malus species", "common_name": "Crabapple", "subtype_name": null, "zip_code": "05753", "ownership": "public", "ownership_raw": "Town of Middlebury", "city": "Middlebury", "source_dataset": "Municipal Tree Inventory", "source_department": "Town of Middlebury", "source_last_edit_at": ""}}, {"type": "Feature", "geometry": {"type": "Point", "coordinates": [-73.15457147699993, 44.020214132000035]}, "properties": {"id": "middlebury-7428", "species_group": "crabapple", "scientific_name": "Malus species", "common_name": "Crabapple", "subtype_name": null, "zip_code": "05753", "ownership": "public", "ownership_raw": "Town of Middlebury", "city": "Middlebury", "source_dataset": "Municipal Tree Inventory", "source_department": "Town of Middlebury", "source_last_edit_at": ""}}, {"type": "Feature", "geometry": {"type": "Point", "coordinates": [-73.15652230999996, 44.00465167100003]}, "properties": {"id": "middlebury-7665", "species_group": "crabapple", "scientific_name": "Malus species", "common_name": "Crabapple", "subtype_name": null, "zip_code": "05753", "ownership": "public", "ownership_raw": "Town of Middlebury", "city": "Middlebury", "source_dataset": "Municipal Tree Inventory", "source_department": "Town of Middlebury", "source_last_edit_at": ""}}, {"type": "Feature", "geometry": {"type": "Point", "coordinates": [-73.16467548699995, 44.01265199800008]}, "properties": {"id": "middlebury-7729", "species_group": "crabapple", "scientific_name": "Malus species", "common_name": "Crabapple", "subtype_name": null, "zip_code": "05753", "ownership": "public", "ownership_raw": "Town of Middlebury", "city": "Middlebury", "source_dataset": "Municipal Tree Inventory", "source_department": "Town of Middlebury", "source_last_edit_at": ""}}, {"type": "Feature", "geometry": {"type": "Point", "coordinates": [-73.15976830999995, 44.005598715000076]}, "properties": {"id": "middlebury-8113", "species_group": "crabapple", "scientific_name": "Malus species", "common_name": "Crabapple", "subtype_name": null, "zip_code": "05753", "ownership": "public", "ownership_raw": "Town of Middlebury", "city": "Middlebury", "source_dataset": "Municipal Tree Inventory", "source_department": "Town of Middlebury", "source_last_edit_at": ""}}, {"type": "Feature", "geometry": {"type": "Point", "coordinates": [-73.16152610199998, 44.00811095200004]}, "properties": {"id": "middlebury-8418", "species_group": "crabapple", "scientific_name": "Malus species", "common_name": "Crabapple", "subtype_name": null, "zip_code": "05753", "ownership": "public", "ownership_raw": "Town of Middlebury", "city": "Middlebury", "source_dataset": "Municipal Tree Inventory", "source_department": "Town of Middlebury", "source_last_edit_at": ""}}, {"type": "Feature", "geometry": {"type": "Point", "coordinates": [-73.16579509399998, 44.011435694000056]}, "properties": {"id": "middlebury-8496", "species_group": "crabapple", "scientific_name": "Malus species", "common_name": "Crabapple", "subtype_name": null, "zip_code": "05753", "ownership": "public", "ownership_raw": "Town of Middlebury", "city": "Middlebury", "source_dataset": "Municipal Tree Inventory", "source_department": "Town of Middlebury", "source_last_edit_at": ""}}, {"type": "Feature", "geometry": {"type": "Point", "coordinates": [-73.16303965299994, 44.01896551200008]}, "properties": {"id": "middlebury-8662", "species_group": "crabapple", "scientific_name": "Malus species", "common_name": "Crabapple", "subtype_name": null, "zip_code": "05753", "ownership": "public", "ownership_raw": "Town of Middlebury", "city": "Middlebury", "source_dataset": "Municipal Tree Inventory", "source_department": "Town of Middlebury", "source_last_edit_at": ""}}, {"type": "Feature", "geometry": {"type": "Point", "coordinates": [-73.17049730599996, 44.010917447000054]}, "properties": {"id": "middlebury-8840", "species_group": "crabapple", "scientific_name": "Malus species", "common_name": "Crabapple", "subtype_name": null, "zip_code": "05753", "ownership": "public", "ownership_raw": "Town of Middlebury", "city": "Middlebury", "source_dataset": "Municipal Tree Inventory", "source_department": "Town of Middlebury", "source_last_edit_at": ""}}, {"type": "Feature", "geometry": {"type": "Point", "coordinates": [-73.10714656399995, 43.97351127700006]}, "properties": {"id": "middlebury-893", "species_group": "crabapple", "scientific_name": "Malus species", "common_name": "Crabapple", "subtype_name": null, "zip_code": "05753", "ownership": "public", "ownership_raw": "Town of Middlebury", "city": "Middlebury", "source_dataset": "Municipal Tree Inventory", "source_department": "Town of Middlebury", "source_last_edit_at": ""}}, {"type": "Feature", "geometry": {"type": "Point", "coordinates": [-73.16757604499998, 44.01430658500004]}, "properties": {"id": "middlebury-9039", "species_group": "crabapple", "scientific_name": "Malus species", "common_name": "Crabapple", "subtype_name": null, "zip_code": "05753", "ownership": "public", "ownership_raw": "Town of Middlebury", "city": "Middlebury", "source_dataset": "Municipal Tree Inventory", "source_department": "Town of Middlebury", "source_last_edit_at": ""}}, {"type": "Feature", "geometry": {"type": "Point", "coordinates": [-73.15594246599994, 44.020180356000026]}, "properties": {"id": "middlebury-909", "species_group": "crabapple", "scientific_name": "Malus species", "common_name": "Crabapple", "subtype_name": null, "zip_code": "05753", "ownership": "public", "ownership_raw": "Town of Middlebury", "city": "Middlebury", "source_dataset": "Municipal Tree Inventory", "source_department": "Town of Middlebury", "source_last_edit_at": ""}}, {"type": "Feature", "geometry": {"type": "Point", "coordinates": [-73.10738366999993, 43.97221178800004]}, "properties": {"id": "middlebury-9180", "species_group": "crabapple", "scientific_name": "Malus species", "common_name": "Crabapple", "subtype_name": null, "zip_code": "05753", "ownership": "public", "ownership_raw": "Town of Middlebury", "city": "Middlebury", "source_dataset": "Municipal Tree Inventory", "source_department": "Town of Middlebury", "source_last_edit_at": ""}}, {"type": "Feature", "geometry": {"type": "Point", "coordinates": [-73.16624040199997, 44.01197868200006]}, "properties": {"id": "middlebury-9783", "species_group": "crabapple", "scientific_name": "Malus species", "common_name": "Crabapple", "subtype_name": null, "zip_code": "05753", "ownership": "public", "ownership_raw": "Town of Middlebury", "city": "Middlebury", "source_dataset": "Municipal Tree Inventory", "source_department": "Town of Middlebury", "source_last_edit_at": ""}}]}