{"type": "FeatureCollection", "features": [{"type": "Feature", "geometry": {"type": "Point", "coordinates": [-113.97446929753929, 51.26592542644086]}, "properties": {"id": "airdrie-1020", "species_group": "crabapple", "scientific_name": "Malus species", "common_name": "Dolga Crabapple", "subtype_name": "Dolga Crabapple", "zip_code": null, "ownership": "public", "ownership_raw": "City of Airdrie", "city": "Airdrie", "source_dataset": "Edible Trees", "source_department": "City of Airdrie", "source_last_edit_at": ""}}, {"type": "Feature", "geometry": {"type": "Point", "coordinates": [-113.97443898334176, 51.26594834637152]}, "properties": {"id": "airdrie-1021", "species_group": "crabapple", "scientific_name": "Malus species", "common_name": "Dolga Crabapple", "subtype_name": "Dolga Crabapple", "zip_code": null, "ownership": "public", "ownership_raw": "City of Airdrie", "city": "Airdrie", "source_dataset": "Edible Trees", "source_department": "City of Airdrie", "source_last_edit_at": ""}}, {"type": "Feature", "geometry": {"type": "Point", "coordinates": [-113.97441224950246, 51.26598751540265]}, "properties": {"id": "airdrie-1022", "species_group": "crabapple", "scientific_name": "Malus species", "common_name": "Dolga Crabapple", "subtype_name": "Dolga Crabapple", "zip_code": null, "ownership": "public", "ownership_raw": "City of Airdrie", "city": "Airdrie", "source_dataset": "Edible Trees", "source_department": "City of Airdrie", "source_last_edit_at": ""}}, {"type": "Feature", "geometry": {"type": "Point", "coordinates": [-113.97445932290493, 51.266005988094534]}, "properties": {"id": "airdrie-1023", "species_group": "crabapple", "scientific_name": "Malus species", "common_name": "Dolga Crabapple", "subtype_name": "Dolga Crabapple", "zip_code": null, "ownership": "public", "ownership_raw": "City of Airdrie", "city": "Airdrie", "source_dataset": "Edible Trees", "source_department": "City of Airdrie", "source_last_edit_at": ""}}, {"type": "Feature", "geometry": {"type": "Point", "coordinates": [-113.97447398861725, 51.266037061328014]}, "properties": {"id": "airdrie-1024", "species_group": "crabapple", "scientific_name": "Malus species", "common_name": "Dolga Crabapple", "subtype_name": "Dolga Crabapple", "zip_code": null, "ownership": "public", "ownership_raw": "City of Airdrie", "city": "Airdrie", "source_dataset": "Edible Trees", "source_department": "City of Airdrie", "source_last_edit_at": ""}}, {"type": "Feature", "geometry": {"type": "Point", "coordinates": [-113.9745067411337, 51.26599694880877]}, "properties": {"id": "airdrie-1026", "species_group": "crabapple", "scientific_name": "Malus species", "common_name": "Dolga Crabapple", "subtype_name": "Dolga Crabapple", "zip_code": null, "ownership": "public", "ownership_raw": "City of Airdrie", "city": "Airdrie", "source_dataset": "Edible Trees", "source_department": "City of Airdrie", "source_last_edit_at": ""}}, {"type": "Feature", "geometry": {"type": "Point", "coordinates": [-113.97449403971956, 51.26597140807892]}, "properties": {"id": "airdrie-1027", "species_group": "crabapple", "scientific_name": "Malus species", "common_name": "Dolga Crabapple", "subtype_name": "Dolga Crabapple", "zip_code": null, "ownership": "public", "ownership_raw": "City of Airdrie", "city": "Airdrie", "source_dataset": "Edible Trees", "source_department": "City of Airdrie", "source_last_edit_at": ""}}, {"type": "Feature", "geometry": {"type": "Point", "coordinates": [-113.9744863317594, 51.26595401012816]}, "properties": {"id": "airdrie-1028", "species_group": "crabapple", "scientific_name": "Malus species", "common_name": "Dolga Crabapple", "subtype_name": "Dolga Crabapple", "zip_code": null, "ownership": "public", "ownership_raw": "City of Airdrie", "city": "Airdrie", "source_dataset": "Edible Trees", "source_department": "City of Airdrie", "source_last_edit_at": ""}}, {"type": "Feature", "geometry": {"type": "Point", "coordinates": [-113.97452395444836, 51.26593494732608]}, "properties": {"id": "airdrie-1029", "species_group": "crabapple", "scientific_name": "Malus species", "common_name": "Dolga Crabapple", "subtype_name": "Dolga Crabapple", "zip_code": null, "ownership": "public", "ownership_raw": "City of Airdrie", "city": "Airdrie", "source_dataset": "Edible Trees", "source_department": "City of Airdrie", "source_last_edit_at": ""}}, {"type": "Feature", "geometry": {"type": "Point", "coordinates": [-113.97453125267633, 51.26596518832951]}, "properties": {"id": "airdrie-1030", "species_group": "crabapple", "scientific_name": "Malus species", "common_name": "Dolga Crabapple", "subtype_name": "Dolga Crabapple", "zip_code": null, "ownership": "public", "ownership_raw": "City of Airdrie", "city": "Airdrie", "source_dataset": "Edible Trees", "source_department": "City of Airdrie", "source_last_edit_at": ""}}, {"type": "Feature", "geometry": {"type": "Point", "coordinates": [-113.9745986590036, 51.266009546745096]}, "properties": {"id": "airdrie-1033", "species_group": "crabapple", "scientific_name": "Malus species", "common_name": "Dolga Crabapple", "subtype_name": "Dolga Crabapple", "zip_code": null, "ownership": "public", "ownership_raw": "City of Airdrie", "city": "Airdrie", "source_dataset": "Edible Trees", "source_department": "City of Airdrie", "source_last_edit_at": ""}}, {"type": "Feature", "geometry": {"type": "Point", "coordinates": [-113.97458591013581, 51.26598421187204]}, "properties": {"id": "airdrie-1034", "species_group": "crabapple", "scientific_name": "Malus species", "common_name": "Dolga Crabapple", "subtype_name": "Dolga Crabapple", "zip_code": null, "ownership": "public", "ownership_raw": "City of Airdrie", "city": "Airdrie", "source_dataset": "Edible Trees", "source_department": "City of Airdrie", "source_last_edit_at": ""}}, {"type": "Feature", "geometry": {"type": "Point", "coordinates": [-113.97457346475461, 51.26595682748204]}, "properties": {"id": "airdrie-1035", "species_group": "crabapple", "scientific_name": "Malus species", "common_name": "Dolga Crabapple", "subtype_name": "Dolga Crabapple", "zip_code": null, "ownership": "public", "ownership_raw": "City of Airdrie", "city": "Airdrie", "source_dataset": "Edible Trees", "source_department": "City of Airdrie", "source_last_edit_at": ""}}, {"type": "Feature", "geometry": {"type": "Point", "coordinates": [-113.97455890624762, 51.26593134388781]}, "properties": {"id": "airdrie-1036", "species_group": "crabapple", "scientific_name": "Malus species", "common_name": "Dolga Crabapple", "subtype_name": "Dolga Crabapple", "zip_code": null, "ownership": "public", "ownership_raw": "City of Airdrie", "city": "Airdrie", "source_dataset": "Edible Trees", "source_department": "City of Airdrie", "source_last_edit_at": ""}}, {"type": "Feature", "geometry": {"type": "Point", "coordinates": [-113.9746108000209, 51.265921029937566]}, "properties": {"id": "airdrie-1037", "species_group": "crabapple", "scientific_name": "Malus species", "common_name": "Dolga Crabapple", "subtype_name": "Dolga Crabapple", "zip_code": null, "ownership": "public", "ownership_raw": "City of Airdrie", "city": "Airdrie", "source_dataset": "Edible Trees", "source_department": "City of Airdrie", "source_last_edit_at": ""}}, {"type": "Feature", "geometry": {"type": "Point", "coordinates": [-113.97461849929753, 51.26594646349579]}, "properties": {"id": "airdrie-1038", "species_group": "crabapple", "scientific_name": "Malus species", "common_name": "Dolga Crabapple", "subtype_name": "Dolga Crabapple", "zip_code": null, "ownership": "public", "ownership_raw": "City of Airdrie", "city": "Airdrie", "source_dataset": "Edible Trees", "source_department": "City of Airdrie", "source_last_edit_at": ""}}, {"type": "Feature", "geometry": {"type": "Point", "coordinates": [-113.9746267843688, 51.26597498863225]}, "properties": {"id": "airdrie-1039", "species_group": "crabapple", "scientific_name": "Malus species", "common_name": "Dolga Crabapple", "subtype_name": "Dolga Crabapple", "zip_code": null, "ownership": "public", "ownership_raw": "City of Airdrie", "city": "Airdrie", "source_dataset": "Edible Trees", "source_department": "City of Airdrie", "source_last_edit_at": ""}}, {"type": "Feature", "geometry": {"type": "Point", "coordinates": [-113.9746450658555, 51.266002613398385]}, "properties": {"id": "airdrie-1040", "species_group": "crabapple", "scientific_name": "Malus species", "common_name": "Dolga Crabapple", "subtype_name": "Dolga Crabapple", "zip_code": null, "ownership": "public", "ownership_raw": "City of Airdrie", "city": "Airdrie", "source_dataset": "Edible Trees", "source_department": "City of Airdrie", "source_last_edit_at": ""}}, {"type": "Feature", "geometry": {"type": "Point", "coordinates": [-113.97467585004588, 51.26598999715725]}, "properties": {"id": "airdrie-1041", "species_group": "crabapple", "scientific_name": "Malus species", "common_name": "Dolga Crabapple", "subtype_name": "Dolga Crabapple", "zip_code": null, "ownership": "public", "ownership_raw": "City of Airdrie", "city": "Airdrie", "source_dataset": "Edible Trees", "source_department": "City of Airdrie", "source_last_edit_at": ""}}, {"type": "Feature", "geometry": {"type": "Point", "coordinates": [-113.9746670836952, 51.26596891333883]}, "properties": {"id": "airdrie-1042", "species_group": "crabapple", "scientific_name": "Malus species", "common_name": "Dolga Crabapple", "subtype_name": "Dolga Crabapple", "zip_code": null, "ownership": "public", "ownership_raw": "City of Airdrie", "city": "Airdrie", "source_dataset": "Edible Trees", "source_department": "City of Airdrie", "source_last_edit_at": ""}}, {"type": "Feature", "geometry": {"type": "Point", "coordinates": [-113.97465333303126, 51.26593608020432]}, "properties": {"id": "airdrie-1043", "species_group": "crabapple", "scientific_name": "Malus species", "common_name": "Dolga Crabapple", "subtype_name": "Dolga Crabapple", "zip_code": null, "ownership": "public", "ownership_raw": "City of Airdrie", "city": "Airdrie", "source_dataset": "Edible Trees", "source_department": "City of Airdrie", "source_last_edit_at": ""}}, {"type": "Feature", "geometry": {"type": "Point", "coordinates": [-113.9746953717147, 51.26592765634957]}, "properties": {"id": "airdrie-1044", "species_group": "crabapple", "scientific_name": "Malus species", "common_name": "Dolga Crabapple", "subtype_name": "Dolga Crabapple", "zip_code": null, "ownership": "public", "ownership_raw": "City of Airdrie", "city": "Airdrie", "source_dataset": "Edible Trees", "source_department": "City of Airdrie", "source_last_edit_at": ""}}, {"type": "Feature", "geometry": {"type": "Point", "coordinates": [-113.97471106746377, 51.26595675930169]}, "properties": {"id": "airdrie-1045", "species_group": "crabapple", "scientific_name": "Malus species", "common_name": "Dolga Crabapple", "subtype_name": "Dolga Crabapple", "zip_code": null, "ownership": "public", "ownership_raw": "City of Airdrie", "city": "Airdrie", "source_dataset": "Edible Trees", "source_department": "City of Airdrie", "source_last_edit_at": ""}}, {"type": "Feature", "geometry": {"type": "Point", "coordinates": [-113.9747216941736, 51.26598226809723]}, "properties": {"id": "airdrie-1046", "species_group": "crabapple", "scientific_name": "Malus species", "common_name": "Dolga Crabapple", "subtype_name": "Dolga Crabapple", "zip_code": null, "ownership": "public", "ownership_raw": "City of Airdrie", "city": "Airdrie", "source_dataset": "Edible Trees", "source_department": "City of Airdrie", "source_last_edit_at": ""}}, {"type": "Feature", "geometry": {"type": "Point", "coordinates": [-113.97475884210904, 51.26597437983035]}, "properties": {"id": "airdrie-1047", "species_group": "crabapple", "scientific_name": "Malus species", "common_name": "Dolga Crabapple", "subtype_name": "Dolga Crabapple", "zip_code": null, "ownership": "public", "ownership_raw": "City of Airdrie", "city": "Airdrie", "source_dataset": "Edible Trees", "source_department": "City of Airdrie", "source_last_edit_at": ""}}, {"type": "Feature", "geometry": {"type": "Point", "coordinates": [-113.97474883035991, 51.2659457707295]}, "properties": {"id": "airdrie-1048", "species_group": "crabapple", "scientific_name": "Malus species", "common_name": "Dolga Crabapple", "subtype_name": "Dolga Crabapple", "zip_code": null, "ownership": "public", "ownership_raw": "City of Airdrie", "city": "Airdrie", "source_dataset": "Edible Trees", "source_department": "City of Airdrie", "source_last_edit_at": ""}}, {"type": "Feature", "geometry": {"type": "Point", "coordinates": [-114.00687462250744, 51.29251485794709]}, "properties": {"id": "airdrie-10485", "species_group": "plum", "scientific_name": "Prunus species", "common_name": "Plum", "subtype_name": null, "zip_code": null, "ownership": "public", "ownership_raw": "City of Airdrie", "city": "Airdrie", "source_dataset": "Edible Trees", "source_department": "City of Airdrie", "source_last_edit_at": ""}}, {"type": "Feature", "geometry": {"type": "Point", "coordinates": [-113.97473455840641, 51.265925390496704]}, "properties": {"id": "airdrie-1049", "species_group": "crabapple", "scientific_name": "Malus species", "common_name": "Dolga Crabapple", "subtype_name": "Dolga Crabapple", "zip_code": null, "ownership": "public", "ownership_raw": "City of Airdrie", "city": "Airdrie", "source_dataset": "Edible Trees", "source_department": "City of Airdrie", "source_last_edit_at": ""}}, {"type": "Feature", "geometry": {"type": "Point", "coordinates": [-113.97478363858707, 51.26592433763317]}, "properties": {"id": "airdrie-1050", "species_group": "crabapple", "scientific_name": "Malus species", "common_name": "Dolga Crabapple", "subtype_name": "Dolga Crabapple", "zip_code": null, "ownership": "public", "ownership_raw": "City of Airdrie", "city": "Airdrie", "source_dataset": "Edible Trees", "source_department": "City of Airdrie", "source_last_edit_at": ""}}, {"type": "Feature", "geometry": {"type": "Point", "coordinates": [-113.97479020920758, 51.2659412346104]}, "properties": {"id": "airdrie-1051", "species_group": "crabapple", "scientific_name": "Malus species", "common_name": "Dolga Crabapple", "subtype_name": "Dolga Crabapple", "zip_code": null, "ownership": "public", "ownership_raw": "City of Airdrie", "city": "Airdrie", "source_dataset": "Edible Trees", "source_department": "City of Airdrie", "source_last_edit_at": ""}}, {"type": "Feature", "geometry": {"type": "Point", "coordinates": [-113.9748024347186, 51.265964770571436]}, "properties": {"id": "airdrie-1052", "species_group": "crabapple", "scientific_name": "Malus species", "common_name": "Dolga Crabapple", "subtype_name": "Dolga Crabapple", "zip_code": null, "ownership": "public", "ownership_raw": "City of Airdrie", "city": "Airdrie", "source_dataset": "Edible Trees", "source_department": "City of Airdrie", "source_last_edit_at": ""}}, {"type": "Feature", "geometry": {"type": "Point", "coordinates": [-113.97463457290331, 51.26619491578859]}, "properties": {"id": "airdrie-1053", "species_group": "crabapple", "scientific_name": "Malus species", "common_name": "Dolga Crabapple", "subtype_name": "Dolga Crabapple", "zip_code": null, "ownership": "public", "ownership_raw": "City of Airdrie", "city": "Airdrie", "source_dataset": "Edible Trees", "source_department": "City of Airdrie", "source_last_edit_at": ""}}, {"type": "Feature", "geometry": {"type": "Point", "coordinates": [-113.9748036423926, 51.26615653523326]}, "properties": {"id": "airdrie-1057", "species_group": "crabapple", "scientific_name": "Malus species", "common_name": "Dolga Crabapple", "subtype_name": "Dolga Crabapple", "zip_code": null, "ownership": "public", "ownership_raw": "City of Airdrie", "city": "Airdrie", "source_dataset": "Edible Trees", "source_department": "City of Airdrie", "source_last_edit_at": ""}}, {"type": "Feature", "geometry": {"type": "Point", "coordinates": [-114.01703346576393, 51.29604226329594]}, "properties": {"id": "airdrie-36305", "species_group": "cherry", "scientific_name": "Prunus species", "common_name": "Previously Evans Cherry", "subtype_name": "Previously Evans Cherry", "zip_code": null, "ownership": "public", "ownership_raw": "City of Airdrie", "city": "Airdrie", "source_dataset": "Edible Trees", "source_department": "City of Airdrie", "source_last_edit_at": ""}}, {"type": "Feature", "geometry": {"type": "Point", "coordinates": [-114.01700242160165, 51.29597571339029]}, "properties": {"id": "airdrie-36317", "species_group": "cherry", "scientific_name": "Prunus species", "common_name": "Previously Evans Cherry", "subtype_name": "Previously Evans Cherry", "zip_code": null, "ownership": "public", "ownership_raw": "City of Airdrie", "city": "Airdrie", "source_dataset": "Edible Trees", "source_department": "City of Airdrie", "source_last_edit_at": ""}}, {"type": "Feature", "geometry": {"type": "Point", "coordinates": [-114.02228639537549, 51.25833413932271]}, "properties": {"id": "airdrie-36339", "species_group": "cherry", "scientific_name": "Prunus species", "common_name": "Previously Evan’s cherry", "subtype_name": "Previously Evan’s cherry", "zip_code": null, "ownership": "public", "ownership_raw": "City of Airdrie", "city": "Airdrie", "source_dataset": "Edible Trees", "source_department": "City of Airdrie", "source_last_edit_at": ""}}, {"type": "Feature", "geometry": {"type": "Point", "coordinates": [-113.97453566279154, 51.266072122599375]}, "properties": {"id": "airdrie-818", "species_group": "crabapple", "scientific_name": "Malus species", "common_name": "Dolga Crabapple", "subtype_name": "Dolga Crabapple", "zip_code": null, "ownership": "public", "ownership_raw": "City of Airdrie", "city": "Airdrie", "source_dataset": "Edible Trees", "source_department": "City of Airdrie", "source_last_edit_at": ""}}, {"type": "Feature", "geometry": {"type": "Point", "coordinates": [-113.97465694516231, 51.266045872025]}, "properties": {"id": "airdrie-821", "species_group": "crabapple", "scientific_name": "Malus species", "common_name": "Dolga Crabapple", "subtype_name": "Dolga Crabapple", "zip_code": null, "ownership": "public", "ownership_raw": "City of Airdrie", "city": "Airdrie", "source_dataset": "Edible Trees", "source_department": "City of Airdrie", "source_last_edit_at": ""}}, {"type": "Feature", "geometry": {"type": "Point", "coordinates": [-113.97469653504375, 51.26603758248072]}, "properties": {"id": "airdrie-822", "species_group": "crabapple", "scientific_name": "Malus species", "common_name": "Dolga Crabapple", "subtype_name": "Dolga Crabapple", "zip_code": null, "ownership": "public", "ownership_raw": "City of Airdrie", "city": "Airdrie", "source_dataset": "Edible Trees", "source_department": "City of Airdrie", "source_last_edit_at": ""}}, {"type": "Feature", "geometry": {"type": "Point", "coordinates": [-113.97474302864647, 51.266029256657184]}, "properties": {"id": "airdrie-823", "species_group": "crabapple", "scientific_name": "Malus species", "common_name": "Dolga Crabapple", "subtype_name": "Dolga Crabapple", "zip_code": null, "ownership": "public", "ownership_raw": "City of Airdrie", "city": "Airdrie", "source_dataset": "Edible Trees", "source_department": "City of Airdrie", "source_last_edit_at": ""}}, {"type": "Feature", "geometry": {"type": "Point", "coordinates": [-113.97486606902831, 51.26603439360579]}, "properties": {"id": "airdrie-825", "species_group": "crabapple", "scientific_name": "Malus species", "common_name": "Dolga Crabapple", "subtype_name": "Dolga Crabapple", "zip_code": null, "ownership": "public", "ownership_raw": "City of Airdrie", "city": "Airdrie", "source_dataset": "Edible Trees", "source_department": "City of Airdrie", "source_last_edit_at": ""}}, {"type": "Feature", "geometry": {"type": "Point", "coordinates": [-113.97483447703272, 51.26603853722145]}, "properties": {"id": "airdrie-826", "species_group": "crabapple", "scientific_name": "Malus species", "common_name": "Dolga Crabapple", "subtype_name": "Dolga Crabapple", "zip_code": null, "ownership": "public", "ownership_raw": "City of Airdrie", "city": "Airdrie", "source_dataset": "Edible Trees", "source_department": "City of Airdrie", "source_last_edit_at": ""}}, {"type": "Feature", "geometry": {"type": "Point", "coordinates": [-113.97479397753727, 51.26604636186495]}, "properties": {"id": "airdrie-827", "species_group": "crabapple", "scientific_name": "Malus species", "common_name": "Dolga Crabapple", "subtype_name": "Dolga Crabapple", "zip_code": null, "ownership": "public", "ownership_raw": "City of Airdrie", "city": "Airdrie", "source_dataset": "Edible Trees", "source_department": "City of Airdrie", "source_last_edit_at": ""}}, {"type": "Feature", "geometry": {"type": "Point", "coordinates": [-113.97475336355164, 51.26605390240498]}, "properties": {"id": "airdrie-828", "species_group": "crabapple", "scientific_name": "Malus species", "common_name": "Dolga Crabapple", "subtype_name": "Dolga Crabapple", "zip_code": null, "ownership": "public", "ownership_raw": "City of Airdrie", "city": "Airdrie", "source_dataset": "Edible Trees", "source_department": "City of Airdrie", "source_last_edit_at": ""}}, {"type": "Feature", "geometry": {"type": "Point", "coordinates": [-113.97471036475507, 51.26606226134938]}, "properties": {"id": "airdrie-829", "species_group": "crabapple", "scientific_name": "Malus species", "common_name": "Dolga Crabapple", "subtype_name": "Dolga Crabapple", "zip_code": null, "ownership": "public", "ownership_raw": "City of Airdrie", "city": "Airdrie", "source_dataset": "Edible Trees", "source_department": "City of Airdrie", "source_last_edit_at": ""}}, {"type": "Feature", "geometry": {"type": "Point", "coordinates": [-113.97467169573838, 51.26607141048336]}, "properties": {"id": "airdrie-830", "species_group": "crabapple", "scientific_name": "Malus species", "common_name": "Dolga Crabapple", "subtype_name": "Dolga Crabapple", "zip_code": null, "ownership": "public", "ownership_raw": "City of Airdrie", "city": "Airdrie", "source_dataset": "Edible Trees", "source_department": "City of Airdrie", "source_last_edit_at": ""}}, {"type": "Feature", "geometry": {"type": "Point", "coordinates": [-113.97455025619843, 51.26609673962611]}, "properties": {"id": "airdrie-833", "species_group": "crabapple", "scientific_name": "Malus species", "common_name": "Dolga Crabapple", "subtype_name": "Dolga Crabapple", "zip_code": null, "ownership": "public", "ownership_raw": "City of Airdrie", "city": "Airdrie", "source_dataset": "Edible Trees", "source_department": "City of Airdrie", "source_last_edit_at": ""}}, {"type": "Feature", "geometry": {"type": "Point", "coordinates": [-113.9744438140747, 51.26615424674807]}, "properties": {"id": "airdrie-837", "species_group": "crabapple", "scientific_name": "Malus species", "common_name": "Dolga Crabapple", "subtype_name": "Dolga Crabapple", "zip_code": null, "ownership": "public", "ownership_raw": "City of Airdrie", "city": "Airdrie", "source_dataset": "Edible Trees", "source_department": "City of Airdrie", "source_last_edit_at": ""}}, {"type": "Feature", "geometry": {"type": "Point", "coordinates": [-113.97448301661903, 51.26614701254619]}, "properties": {"id": "airdrie-838", "species_group": "crabapple", "scientific_name": "Malus species", "common_name": "Dolga Crabapple", "subtype_name": "Dolga Crabapple", "zip_code": null, "ownership": "public", "ownership_raw": "City of Airdrie", "city": "Airdrie", "source_dataset": "Edible Trees", "source_department": "City of Airdrie", "source_last_edit_at": ""}}, {"type": "Feature", "geometry": {"type": "Point", "coordinates": [-113.97452078074629, 51.26613676926871]}, "properties": {"id": "airdrie-839", "species_group": "crabapple", "scientific_name": "Malus species", "common_name": "Dolga Crabapple", "subtype_name": "Dolga Crabapple", "zip_code": null, "ownership": "public", "ownership_raw": "City of Airdrie", "city": "Airdrie", "source_dataset": "Edible Trees", "source_department": "City of Airdrie", "source_last_edit_at": ""}}, {"type": "Feature", "geometry": {"type": "Point", "coordinates": [-113.97455993380491, 51.266128280111204]}, "properties": {"id": "airdrie-840", "species_group": "crabapple", "scientific_name": "Malus species", "common_name": "Dolga Crabapple", "subtype_name": "Dolga Crabapple", "zip_code": null, "ownership": "public", "ownership_raw": "City of Airdrie", "city": "Airdrie", "source_dataset": "Edible Trees", "source_department": "City of Airdrie", "source_last_edit_at": ""}}, {"type": "Feature", "geometry": {"type": "Point", "coordinates": [-113.97460313404054, 51.266113372494]}, "properties": {"id": "airdrie-841", "species_group": "crabapple", "scientific_name": "Malus species", "common_name": "Dolga Crabapple", "subtype_name": "Dolga Crabapple", "zip_code": null, "ownership": "public", "ownership_raw": "City of Airdrie", "city": "Airdrie", "source_dataset": "Edible Trees", "source_department": "City of Airdrie", "source_last_edit_at": ""}}, {"type": "Feature", "geometry": {"type": "Point", "coordinates": [-113.97468231685113, 51.266099290682334]}, "properties": {"id": "airdrie-843", "species_group": "crabapple", "scientific_name": "Malus species", "common_name": "Dolga Crabapple", "subtype_name": "Dolga Crabapple", "zip_code": null, "ownership": "public", "ownership_raw": "City of Airdrie", "city": "Airdrie", "source_dataset": "Edible Trees", "source_department": "City of Airdrie", "source_last_edit_at": ""}}, {"type": "Feature", "geometry": {"type": "Point", "coordinates": [-113.9747205254587, 51.26608838401937]}, "properties": {"id": "airdrie-844", "species_group": "crabapple", "scientific_name": "Malus species", "common_name": "Dolga Crabapple", "subtype_name": "Dolga Crabapple", "zip_code": null, "ownership": "public", "ownership_raw": "City of Airdrie", "city": "Airdrie", "source_dataset": "Edible Trees", "source_department": "City of Airdrie", "source_last_edit_at": ""}}, {"type": "Feature", "geometry": {"type": "Point", "coordinates": [-113.97476485152251, 51.26607671995803]}, "properties": {"id": "airdrie-845", "species_group": "crabapple", "scientific_name": "Malus species", "common_name": "Dolga Crabapple", "subtype_name": "Dolga Crabapple", "zip_code": null, "ownership": "public", "ownership_raw": "City of Airdrie", "city": "Airdrie", "source_dataset": "Edible Trees", "source_department": "City of Airdrie", "source_last_edit_at": ""}}, {"type": "Feature", "geometry": {"type": "Point", "coordinates": [-113.97480759860032, 51.266072745964784]}, "properties": {"id": "airdrie-846", "species_group": "crabapple", "scientific_name": "Malus species", "common_name": "Dolga Crabapple", "subtype_name": "Dolga Crabapple", "zip_code": null, "ownership": "public", "ownership_raw": "City of Airdrie", "city": "Airdrie", "source_dataset": "Edible Trees", "source_department": "City of Airdrie", "source_last_edit_at": ""}}, {"type": "Feature", "geometry": {"type": "Point", "coordinates": [-113.97484501209944, 51.266064090932694]}, "properties": {"id": "airdrie-847", "species_group": "crabapple", "scientific_name": "Malus species", "common_name": "Dolga Crabapple", "subtype_name": "Dolga Crabapple", "zip_code": null, "ownership": "public", "ownership_raw": "City of Airdrie", "city": "Airdrie", "source_dataset": "Edible Trees", "source_department": "City of Airdrie", "source_last_edit_at": ""}}, {"type": "Feature", "geometry": {"type": "Point", "coordinates": [-113.97488180599338, 51.266056495605014]}, "properties": {"id": "airdrie-848", "species_group": "crabapple", "scientific_name": "Malus species", "common_name": "Dolga Crabapple", "subtype_name": "Dolga Crabapple", "zip_code": null, "ownership": "public", "ownership_raw": "City of Airdrie", "city": "Airdrie", "source_dataset": "Edible Trees", "source_department": "City of Airdrie", "source_last_edit_at": ""}}, {"type": "Feature", "geometry": {"type": "Point", "coordinates": [-113.9748545991365, 51.26609128050856]}, "properties": {"id": "airdrie-849", "species_group": "crabapple", "scientific_name": "Malus species", "common_name": "Dolga Crabapple", "subtype_name": "Dolga Crabapple", "zip_code": null, "ownership": "public", "ownership_raw": "City of Airdrie", "city": "Airdrie", "source_dataset": "Edible Trees", "source_department": "City of Airdrie", "source_last_edit_at": ""}}, {"type": "Feature", "geometry": {"type": "Point", "coordinates": [-113.97481684412911, 51.26609815017701]}, "properties": {"id": "airdrie-850", "species_group": "crabapple", "scientific_name": "Malus species", "common_name": "Dolga Crabapple", "subtype_name": "Dolga Crabapple", "zip_code": null, "ownership": "public", "ownership_raw": "City of Airdrie", "city": "Airdrie", "source_dataset": "Edible Trees", "source_department": "City of Airdrie", "source_last_edit_at": ""}}, {"type": "Feature", "geometry": {"type": "Point", "coordinates": [-113.97477959910809, 51.26610261348299]}, "properties": {"id": "airdrie-851", "species_group": "crabapple", "scientific_name": "Malus species", "common_name": "Dolga Crabapple", "subtype_name": "Dolga Crabapple", "zip_code": null, "ownership": "public", "ownership_raw": "City of Airdrie", "city": "Airdrie", "source_dataset": "Edible Trees", "source_department": "City of Airdrie", "source_last_edit_at": ""}}, {"type": "Feature", "geometry": {"type": "Point", "coordinates": [-113.97473926658567, 51.2661167801593]}, "properties": {"id": "airdrie-852", "species_group": "crabapple", "scientific_name": "Malus species", "common_name": "Dolga Crabapple", "subtype_name": "Dolga Crabapple", "zip_code": null, "ownership": "public", "ownership_raw": "City of Airdrie", "city": "Airdrie", "source_dataset": "Edible Trees", "source_department": "City of Airdrie", "source_last_edit_at": ""}}, {"type": "Feature", "geometry": {"type": "Point", "coordinates": [-113.97469447481754, 51.26612577246301]}, "properties": {"id": "airdrie-853", "species_group": "crabapple", "scientific_name": "Malus species", "common_name": "Dolga Crabapple", "subtype_name": "Dolga Crabapple", "zip_code": null, "ownership": "public", "ownership_raw": "City of Airdrie", "city": "Airdrie", "source_dataset": "Edible Trees", "source_department": "City of Airdrie", "source_last_edit_at": ""}}, {"type": "Feature", "geometry": {"type": "Point", "coordinates": [-113.97465086679094, 51.266134436893104]}, "properties": {"id": "airdrie-854", "species_group": "crabapple", "scientific_name": "Malus species", "common_name": "Dolga Crabapple", "subtype_name": "Dolga Crabapple", "zip_code": null, "ownership": "public", "ownership_raw": "City of Airdrie", "city": "Airdrie", "source_dataset": "Edible Trees", "source_department": "City of Airdrie", "source_last_edit_at": ""}}, {"type": "Feature", "geometry": {"type": "Point", "coordinates": [-113.97461455764379, 51.26614107847879]}, "properties": {"id": "airdrie-855", "species_group": "crabapple", "scientific_name": "Malus species", "common_name": "Dolga Crabapple", "subtype_name": "Dolga Crabapple", "zip_code": null, "ownership": "public", "ownership_raw": "City of Airdrie", "city": "Airdrie", "source_dataset": "Edible Trees", "source_department": "City of Airdrie", "source_last_edit_at": ""}}, {"type": "Feature", "geometry": {"type": "Point", "coordinates": [-113.97448823967859, 51.26617008226121]}, "properties": {"id": "airdrie-858", "species_group": "crabapple", "scientific_name": "Malus species", "common_name": "Dolga Crabapple", "subtype_name": "Dolga Crabapple", "zip_code": null, "ownership": "public", "ownership_raw": "City of Airdrie", "city": "Airdrie", "source_dataset": "Edible Trees", "source_department": "City of Airdrie", "source_last_edit_at": ""}}, {"type": "Feature", "geometry": {"type": "Point", "coordinates": [-113.9745819387857, 51.26617785599195]}, "properties": {"id": "airdrie-860", "species_group": "crabapple", "scientific_name": "Malus species", "common_name": "Dolga Crabapple", "subtype_name": "Dolga Crabapple", "zip_code": null, "ownership": "public", "ownership_raw": "City of Airdrie", "city": "Airdrie", "source_dataset": "Edible Trees", "source_department": "City of Airdrie", "source_last_edit_at": ""}}, {"type": "Feature", "geometry": {"type": "Point", "coordinates": [-113.97462810757673, 51.266168993477024]}, "properties": {"id": "airdrie-861", "species_group": "crabapple", "scientific_name": "Malus species", "common_name": "Dolga Crabapple", "subtype_name": "Dolga Crabapple", "zip_code": null, "ownership": "public", "ownership_raw": "City of Airdrie", "city": "Airdrie", "source_dataset": "Edible Trees", "source_department": "City of Airdrie", "source_last_edit_at": ""}}, {"type": "Feature", "geometry": {"type": "Point", "coordinates": [-113.97466606544329, 51.26615818386307]}, "properties": {"id": "airdrie-862", "species_group": "crabapple", "scientific_name": "Malus species", "common_name": "Dolga Crabapple", "subtype_name": "Dolga Crabapple", "zip_code": null, "ownership": "public", "ownership_raw": "City of Airdrie", "city": "Airdrie", "source_dataset": "Edible Trees", "source_department": "City of Airdrie", "source_last_edit_at": ""}}, {"type": "Feature", "geometry": {"type": "Point", "coordinates": [-113.97470520393449, 51.266147503040166]}, "properties": {"id": "airdrie-863", "species_group": "crabapple", "scientific_name": "Malus species", "common_name": "Dolga Crabapple", "subtype_name": "Dolga Crabapple", "zip_code": null, "ownership": "public", "ownership_raw": "City of Airdrie", "city": "Airdrie", "source_dataset": "Edible Trees", "source_department": "City of Airdrie", "source_last_edit_at": ""}}, {"type": "Feature", "geometry": {"type": "Point", "coordinates": [-113.97478409993072, 51.26613127982468]}, "properties": {"id": "airdrie-864", "species_group": "crabapple", "scientific_name": "Malus species", "common_name": "Dolga Crabapple", "subtype_name": "Dolga Crabapple", "zip_code": null, "ownership": "public", "ownership_raw": "City of Airdrie", "city": "Airdrie", "source_dataset": "Edible Trees", "source_department": "City of Airdrie", "source_last_edit_at": ""}}, {"type": "Feature", "geometry": {"type": "Point", "coordinates": [-113.97483119028826, 51.26612187716565]}, "properties": {"id": "airdrie-865", "species_group": "crabapple", "scientific_name": "Malus species", "common_name": "Dolga Crabapple", "subtype_name": "Dolga Crabapple", "zip_code": null, "ownership": "public", "ownership_raw": "City of Airdrie", "city": "Airdrie", "source_dataset": "Edible Trees", "source_department": "City of Airdrie", "source_last_edit_at": ""}}, {"type": "Feature", "geometry": {"type": "Point", "coordinates": [-113.97489491293408, 51.2660798159996]}, "properties": {"id": "airdrie-9976", "species_group": "crabapple", "scientific_name": "Malus species", "common_name": "Dolga Crabapple", "subtype_name": "Dolga Crabapple", "zip_code": null, "ownership": "public", "ownership_raw": "City of Airdrie", "city": "Airdrie", "source_dataset": "Edible Trees", "source_department": "City of Airdrie", "source_last_edit_at": ""}}]}