{"type": "FeatureCollection", "features": [{"type": "Feature", "geometry": {"type": "Point", "coordinates": [-73.11481409799995, 44.33280450900003]}, "properties": {"id": "hinesburg-10189", "species_group": "crabapple", "scientific_name": "Malus species", "common_name": "Crabapple", "subtype_name": null, "zip_code": "05461", "ownership": "public", "ownership_raw": "Town of Hinesburg", "city": "Hinesburg", "source_dataset": "Municipal Tree Inventory", "source_department": "Town of Hinesburg", "source_last_edit_at": ""}}, {"type": "Feature", "geometry": {"type": "Point", "coordinates": [-73.10871814899997, 44.32812390200007]}, "properties": {"id": "hinesburg-10340", "species_group": "crabapple", "scientific_name": "Malus species", "common_name": "Crabapple", "subtype_name": null, "zip_code": "05461", "ownership": "public", "ownership_raw": "Town of Hinesburg", "city": "Hinesburg", "source_dataset": "Municipal Tree Inventory", "source_department": "Town of Hinesburg", "source_last_edit_at": ""}}, {"type": "Feature", "geometry": {"type": "Point", "coordinates": [-73.10759992299995, 44.32856567700003]}, "properties": {"id": "hinesburg-10602", "species_group": "crabapple", "scientific_name": "Malus species", "common_name": "Crabapple", "subtype_name": null, "zip_code": "05461", "ownership": "public", "ownership_raw": "Town of Hinesburg", "city": "Hinesburg", "source_dataset": "Municipal Tree Inventory", "source_department": "Town of Hinesburg", "source_last_edit_at": ""}}, {"type": "Feature", "geometry": {"type": "Point", "coordinates": [-73.10745880299999, 44.32652774700006]}, "properties": {"id": "hinesburg-10622", "species_group": "crabapple", "scientific_name": "Malus species", "common_name": "Crabapple", "subtype_name": null, "zip_code": "05461", "ownership": "public", "ownership_raw": "Town of Hinesburg", "city": "Hinesburg", "source_dataset": "Municipal Tree Inventory", "source_department": "Town of Hinesburg", "source_last_edit_at": ""}}, {"type": "Feature", "geometry": {"type": "Point", "coordinates": [-73.10869962899994, 44.32629854000004]}, "properties": {"id": "hinesburg-10680", "species_group": "crabapple", "scientific_name": "Malus species", "common_name": "Crabapple", "subtype_name": null, "zip_code": "05461", "ownership": "public", "ownership_raw": "Town of Hinesburg", "city": "Hinesburg", "source_dataset": "Municipal Tree Inventory", "source_department": "Town of Hinesburg", "source_last_edit_at": ""}}, {"type": "Feature", "geometry": {"type": "Point", "coordinates": [-73.10890490199995, 44.32815328700008]}, "properties": {"id": "hinesburg-11096", "species_group": "crabapple", "scientific_name": "Malus species", "common_name": "Crabapple", "subtype_name": null, "zip_code": "05461", "ownership": "public", "ownership_raw": "Town of Hinesburg", "city": "Hinesburg", "source_dataset": "Municipal Tree Inventory", "source_department": "Town of Hinesburg", "source_last_edit_at": ""}}, {"type": "Feature", "geometry": {"type": "Point", "coordinates": [-73.11202573599996, 44.33455794200006]}, "properties": {"id": "hinesburg-11665", "species_group": "crabapple", "scientific_name": "Malus species", "common_name": "Crabapple", "subtype_name": null, "zip_code": "05461", "ownership": "public", "ownership_raw": "Town of Hinesburg", "city": "Hinesburg", "source_dataset": "Municipal Tree Inventory", "source_department": "Town of Hinesburg", "source_last_edit_at": ""}}, {"type": "Feature", "geometry": {"type": "Point", "coordinates": [-73.10893046699994, 44.33327458800005]}, "properties": {"id": "hinesburg-11815", "species_group": "crabapple", "scientific_name": "Malus species", "common_name": "Crabapple", "subtype_name": null, "zip_code": "05461", "ownership": "public", "ownership_raw": "Town of Hinesburg", "city": "Hinesburg", "source_dataset": "Municipal Tree Inventory", "source_department": "Town of Hinesburg", "source_last_edit_at": ""}}, {"type": "Feature", "geometry": {"type": "Point", "coordinates": [-73.10825714899994, 44.33377989100006]}, "properties": {"id": "hinesburg-1255", "species_group": "crabapple", "scientific_name": "Malus species", "common_name": "Crabapple", "subtype_name": null, "zip_code": "05461", "ownership": "public", "ownership_raw": "Town of Hinesburg", "city": "Hinesburg", "source_dataset": "Municipal Tree Inventory", "source_department": "Town of Hinesburg", "source_last_edit_at": ""}}, {"type": "Feature", "geometry": {"type": "Point", "coordinates": [-73.10721188499997, 44.33457378800006]}, "properties": {"id": "hinesburg-1282", "species_group": "crabapple", "scientific_name": "Malus species", "common_name": "Crabapple", "subtype_name": null, "zip_code": "05461", "ownership": "public", "ownership_raw": "Town of Hinesburg", "city": "Hinesburg", "source_dataset": "Municipal Tree Inventory", "source_department": "Town of Hinesburg", "source_last_edit_at": ""}}, {"type": "Feature", "geometry": {"type": "Point", "coordinates": [-73.11088575299993, 44.329298384000026]}, "properties": {"id": "hinesburg-13968", "species_group": "crabapple", "scientific_name": "Malus species", "common_name": "Crabapple", "subtype_name": null, "zip_code": "05461", "ownership": "public", "ownership_raw": "Town of Hinesburg", "city": "Hinesburg", "source_dataset": "Municipal Tree Inventory", "source_department": "Town of Hinesburg", "source_last_edit_at": ""}}, {"type": "Feature", "geometry": {"type": "Point", "coordinates": [-73.11549366399998, 44.33977596900007]}, "properties": {"id": "hinesburg-14268", "species_group": "crabapple", "scientific_name": "Malus species", "common_name": "Crabapple", "subtype_name": null, "zip_code": "05461", "ownership": "public", "ownership_raw": "Town of Hinesburg", "city": "Hinesburg", "source_dataset": "Municipal Tree Inventory", "source_department": "Town of Hinesburg", "source_last_edit_at": ""}}, {"type": "Feature", "geometry": {"type": "Point", "coordinates": [-73.10724028699997, 44.33449141600005]}, "properties": {"id": "hinesburg-14568", "species_group": "crabapple", "scientific_name": "Malus species", "common_name": "Crabapple", "subtype_name": null, "zip_code": "05461", "ownership": "public", "ownership_raw": "Town of Hinesburg", "city": "Hinesburg", "source_dataset": "Municipal Tree Inventory", "source_department": "Town of Hinesburg", "source_last_edit_at": ""}}, {"type": "Feature", "geometry": {"type": "Point", "coordinates": [-73.10830668599993, 44.32630370100003]}, "properties": {"id": "hinesburg-15127", "species_group": "crabapple", "scientific_name": "Malus species", "common_name": "Crabapple", "subtype_name": null, "zip_code": "05461", "ownership": "public", "ownership_raw": "Town of Hinesburg", "city": "Hinesburg", "source_dataset": "Municipal Tree Inventory", "source_department": "Town of Hinesburg", "source_last_edit_at": ""}}, {"type": "Feature", "geometry": {"type": "Point", "coordinates": [-73.10967033699995, 44.33242991900005]}, "properties": {"id": "hinesburg-15780", "species_group": "crabapple", "scientific_name": "Malus species", "common_name": "Crabapple", "subtype_name": null, "zip_code": "05461", "ownership": "public", "ownership_raw": "Town of Hinesburg", "city": "Hinesburg", "source_dataset": "Municipal Tree Inventory", "source_department": "Town of Hinesburg", "source_last_edit_at": ""}}, {"type": "Feature", "geometry": {"type": "Point", "coordinates": [-73.10535012899999, 44.34337138200004]}, "properties": {"id": "hinesburg-15879", "species_group": "crabapple", "scientific_name": "Malus species", "common_name": "Crabapple", "subtype_name": null, "zip_code": "05461", "ownership": "public", "ownership_raw": "Town of Hinesburg", "city": "Hinesburg", "source_dataset": "Municipal Tree Inventory", "source_department": "Town of Hinesburg", "source_last_edit_at": ""}}, {"type": "Feature", "geometry": {"type": "Point", "coordinates": [-73.10720960899994, 44.326540144000035]}, "properties": {"id": "hinesburg-16274", "species_group": "crabapple", "scientific_name": "Malus species", "common_name": "Crabapple", "subtype_name": null, "zip_code": "05461", "ownership": "public", "ownership_raw": "Town of Hinesburg", "city": "Hinesburg", "source_dataset": "Municipal Tree Inventory", "source_department": "Town of Hinesburg", "source_last_edit_at": ""}}, {"type": "Feature", "geometry": {"type": "Point", "coordinates": [-73.10814298699995, 44.33390520000006]}, "properties": {"id": "hinesburg-16654", "species_group": "crabapple", "scientific_name": "Malus species", "common_name": "Crabapple", "subtype_name": null, "zip_code": "05461", "ownership": "public", "ownership_raw": "Town of Hinesburg", "city": "Hinesburg", "source_dataset": "Municipal Tree Inventory", "source_department": "Town of Hinesburg", "source_last_edit_at": ""}}, {"type": "Feature", "geometry": {"type": "Point", "coordinates": [-73.10827600799996, 44.328019512000026]}, "properties": {"id": "hinesburg-16846", "species_group": "crabapple", "scientific_name": "Malus species", "common_name": "Crabapple", "subtype_name": null, "zip_code": "05461", "ownership": "public", "ownership_raw": "Town of Hinesburg", "city": "Hinesburg", "source_dataset": "Municipal Tree Inventory", "source_department": "Town of Hinesburg", "source_last_edit_at": ""}}, {"type": "Feature", "geometry": {"type": "Point", "coordinates": [-73.10419759499996, 44.33506632600006]}, "properties": {"id": "hinesburg-17069", "species_group": "crabapple", "scientific_name": "Malus species", "common_name": "Crabapple", "subtype_name": null, "zip_code": "05461", "ownership": "public", "ownership_raw": "Town of Hinesburg", "city": "Hinesburg", "source_dataset": "Municipal Tree Inventory", "source_department": "Town of Hinesburg", "source_last_edit_at": ""}}, {"type": "Feature", "geometry": {"type": "Point", "coordinates": [-73.11011860299999, 44.33210522600007]}, "properties": {"id": "hinesburg-17445", "species_group": "crabapple", "scientific_name": "Malus species", "common_name": "Crabapple", "subtype_name": null, "zip_code": "05461", "ownership": "public", "ownership_raw": "Town of Hinesburg", "city": "Hinesburg", "source_dataset": "Municipal Tree Inventory", "source_department": "Town of Hinesburg", "source_last_edit_at": ""}}, {"type": "Feature", "geometry": {"type": "Point", "coordinates": [-73.10959221099995, 44.33247903000006]}, "properties": {"id": "hinesburg-17554", "species_group": "crabapple", "scientific_name": "Malus species", "common_name": "Crabapple", "subtype_name": null, "zip_code": "05461", "ownership": "public", "ownership_raw": "Town of Hinesburg", "city": "Hinesburg", "source_dataset": "Municipal Tree Inventory", "source_department": "Town of Hinesburg", "source_last_edit_at": ""}}, {"type": "Feature", "geometry": {"type": "Point", "coordinates": [-73.10833996199995, 44.32798749300008]}, "properties": {"id": "hinesburg-17699", "species_group": "crabapple", "scientific_name": "Malus species", "common_name": "Crabapple", "subtype_name": null, "zip_code": "05461", "ownership": "public", "ownership_raw": "Town of Hinesburg", "city": "Hinesburg", "source_dataset": "Municipal Tree Inventory", "source_department": "Town of Hinesburg", "source_last_edit_at": ""}}, {"type": "Feature", "geometry": {"type": "Point", "coordinates": [-73.11831169099997, 44.34142364500008]}, "properties": {"id": "hinesburg-18210", "species_group": "crabapple", "scientific_name": "Malus species", "common_name": "Crabapple", "subtype_name": null, "zip_code": "05461", "ownership": "public", "ownership_raw": "Town of Hinesburg", "city": "Hinesburg", "source_dataset": "Municipal Tree Inventory", "source_department": "Town of Hinesburg", "source_last_edit_at": ""}}, {"type": "Feature", "geometry": {"type": "Point", "coordinates": [-73.10886904199998, 44.32600516200006]}, "properties": {"id": "hinesburg-19289", "species_group": "crabapple", "scientific_name": "Malus species", "common_name": "Crabapple", "subtype_name": null, "zip_code": "05461", "ownership": "public", "ownership_raw": "Town of Hinesburg", "city": "Hinesburg", "source_dataset": "Municipal Tree Inventory", "source_department": "Town of Hinesburg", "source_last_edit_at": ""}}, {"type": "Feature", "geometry": {"type": "Point", "coordinates": [-73.11023200899996, 44.33201818300006]}, "properties": {"id": "hinesburg-19737", "species_group": "crabapple", "scientific_name": "Malus species", "common_name": "Crabapple", "subtype_name": null, "zip_code": "05461", "ownership": "public", "ownership_raw": "Town of Hinesburg", "city": "Hinesburg", "source_dataset": "Municipal Tree Inventory", "source_department": "Town of Hinesburg", "source_last_edit_at": ""}}, {"type": "Feature", "geometry": {"type": "Point", "coordinates": [-73.10157056899999, 44.342149766000034]}, "properties": {"id": "hinesburg-20106", "species_group": "crabapple", "scientific_name": "Malus species", "common_name": "Crabapple", "subtype_name": null, "zip_code": "05461", "ownership": "public", "ownership_raw": "Town of Hinesburg", "city": "Hinesburg", "source_dataset": "Municipal Tree Inventory", "source_department": "Town of Hinesburg", "source_last_edit_at": ""}}, {"type": "Feature", "geometry": {"type": "Point", "coordinates": [-73.11037044699998, 44.331929761000026]}, "properties": {"id": "hinesburg-20811", "species_group": "crabapple", "scientific_name": "Malus species", "common_name": "Crabapple", "subtype_name": null, "zip_code": "05461", "ownership": "public", "ownership_raw": "Town of Hinesburg", "city": "Hinesburg", "source_dataset": "Municipal Tree Inventory", "source_department": "Town of Hinesburg", "source_last_edit_at": ""}}, {"type": "Feature", "geometry": {"type": "Point", "coordinates": [-73.10986249699994, 44.33229525100006]}, "properties": {"id": "hinesburg-2090", "species_group": "crabapple", "scientific_name": "Malus species", "common_name": "Crabapple", "subtype_name": null, "zip_code": "05461", "ownership": "public", "ownership_raw": "Town of Hinesburg", "city": "Hinesburg", "source_dataset": "Municipal Tree Inventory", "source_department": "Town of Hinesburg", "source_last_edit_at": ""}}, {"type": "Feature", "geometry": {"type": "Point", "coordinates": [-73.10733403299997, 44.32652669600003]}, "properties": {"id": "hinesburg-21334", "species_group": "crabapple", "scientific_name": "Malus species", "common_name": "Crabapple", "subtype_name": null, "zip_code": "05461", "ownership": "public", "ownership_raw": "Town of Hinesburg", "city": "Hinesburg", "source_dataset": "Municipal Tree Inventory", "source_department": "Town of Hinesburg", "source_last_edit_at": ""}}, {"type": "Feature", "geometry": {"type": "Point", "coordinates": [-73.10869087299994, 44.32637741500008]}, "properties": {"id": "hinesburg-21595", "species_group": "crabapple", "scientific_name": "Malus species", "common_name": "Crabapple", "subtype_name": null, "zip_code": "05461", "ownership": "public", "ownership_raw": "Town of Hinesburg", "city": "Hinesburg", "source_dataset": "Municipal Tree Inventory", "source_department": "Town of Hinesburg", "source_last_edit_at": ""}}, {"type": "Feature", "geometry": {"type": "Point", "coordinates": [-73.10146043099996, 44.34207629900004]}, "properties": {"id": "hinesburg-22177", "species_group": "crabapple", "scientific_name": "Malus species", "common_name": "Crabapple", "subtype_name": null, "zip_code": "05461", "ownership": "public", "ownership_raw": "Town of Hinesburg", "city": "Hinesburg", "source_dataset": "Municipal Tree Inventory", "source_department": "Town of Hinesburg", "source_last_edit_at": ""}}, {"type": "Feature", "geometry": {"type": "Point", "coordinates": [-73.10819503799996, 44.32802864800004]}, "properties": {"id": "hinesburg-2218", "species_group": "crabapple", "scientific_name": "Malus species", "common_name": "Crabapple", "subtype_name": null, "zip_code": "05461", "ownership": "public", "ownership_raw": "Town of Hinesburg", "city": "Hinesburg", "source_dataset": "Municipal Tree Inventory", "source_department": "Town of Hinesburg", "source_last_edit_at": ""}}, {"type": "Feature", "geometry": {"type": "Point", "coordinates": [-73.10147736199997, 44.34215161000003]}, "properties": {"id": "hinesburg-22977", "species_group": "crabapple", "scientific_name": "Malus species", "common_name": "Crabapple", "subtype_name": null, "zip_code": "05461", "ownership": "public", "ownership_raw": "Town of Hinesburg", "city": "Hinesburg", "source_dataset": "Municipal Tree Inventory", "source_department": "Town of Hinesburg", "source_last_edit_at": ""}}, {"type": "Feature", "geometry": {"type": "Point", "coordinates": [-73.11487781799997, 44.33294257400007]}, "properties": {"id": "hinesburg-23306", "species_group": "crabapple", "scientific_name": "Malus species", "common_name": "Crabapple", "subtype_name": null, "zip_code": "05461", "ownership": "public", "ownership_raw": "Town of Hinesburg", "city": "Hinesburg", "source_dataset": "Municipal Tree Inventory", "source_department": "Town of Hinesburg", "source_last_edit_at": ""}}, {"type": "Feature", "geometry": {"type": "Point", "coordinates": [-73.10899515299997, 44.32587549400006]}, "properties": {"id": "hinesburg-23330", "species_group": "crabapple", "scientific_name": "Malus species", "common_name": "Crabapple", "subtype_name": null, "zip_code": "05461", "ownership": "public", "ownership_raw": "Town of Hinesburg", "city": "Hinesburg", "source_dataset": "Municipal Tree Inventory", "source_department": "Town of Hinesburg", "source_last_edit_at": ""}}, {"type": "Feature", "geometry": {"type": "Point", "coordinates": [-73.10986258799994, 44.332300504000045]}, "properties": {"id": "hinesburg-24013", "species_group": "crabapple", "scientific_name": "Malus species", "common_name": "Crabapple", "subtype_name": null, "zip_code": "05461", "ownership": "public", "ownership_raw": "Town of Hinesburg", "city": "Hinesburg", "source_dataset": "Municipal Tree Inventory", "source_department": "Town of Hinesburg", "source_last_edit_at": ""}}, {"type": "Feature", "geometry": {"type": "Point", "coordinates": [-73.11863486699997, 44.34131660500003]}, "properties": {"id": "hinesburg-24354", "species_group": "crabapple", "scientific_name": "Malus species", "common_name": "Crabapple", "subtype_name": null, "zip_code": "05461", "ownership": "public", "ownership_raw": "Town of Hinesburg", "city": "Hinesburg", "source_dataset": "Municipal Tree Inventory", "source_department": "Town of Hinesburg", "source_last_edit_at": ""}}, {"type": "Feature", "geometry": {"type": "Point", "coordinates": [-73.10718853999998, 44.334569215000045]}, "properties": {"id": "hinesburg-26079", "species_group": "crabapple", "scientific_name": "Malus species", "common_name": "Crabapple", "subtype_name": null, "zip_code": "05461", "ownership": "public", "ownership_raw": "Town of Hinesburg", "city": "Hinesburg", "source_dataset": "Municipal Tree Inventory", "source_department": "Town of Hinesburg", "source_last_edit_at": ""}}, {"type": "Feature", "geometry": {"type": "Point", "coordinates": [-73.10972848199998, 44.332400525000025]}, "properties": {"id": "hinesburg-26397", "species_group": "crabapple", "scientific_name": "Malus species", "common_name": "Crabapple", "subtype_name": null, "zip_code": "05461", "ownership": "public", "ownership_raw": "Town of Hinesburg", "city": "Hinesburg", "source_dataset": "Municipal Tree Inventory", "source_department": "Town of Hinesburg", "source_last_edit_at": ""}}, {"type": "Feature", "geometry": {"type": "Point", "coordinates": [-73.10143964399998, 44.34211192200007]}, "properties": {"id": "hinesburg-27243", "species_group": "crabapple", "scientific_name": "Malus species", "common_name": "Crabapple", "subtype_name": null, "zip_code": "05461", "ownership": "public", "ownership_raw": "Town of Hinesburg", "city": "Hinesburg", "source_dataset": "Municipal Tree Inventory", "source_department": "Town of Hinesburg", "source_last_edit_at": ""}}, {"type": "Feature", "geometry": {"type": "Point", "coordinates": [-73.11042112299998, 44.33190268300007]}, "properties": {"id": "hinesburg-27560", "species_group": "crabapple", "scientific_name": "Malus species", "common_name": "Crabapple", "subtype_name": null, "zip_code": "05461", "ownership": "public", "ownership_raw": "Town of Hinesburg", "city": "Hinesburg", "source_dataset": "Municipal Tree Inventory", "source_department": "Town of Hinesburg", "source_last_edit_at": ""}}, {"type": "Feature", "geometry": {"type": "Point", "coordinates": [-73.11086759399996, 44.32921090000008]}, "properties": {"id": "hinesburg-27766", "species_group": "crabapple", "scientific_name": "Malus species", "common_name": "Crabapple", "subtype_name": null, "zip_code": "05461", "ownership": "public", "ownership_raw": "Town of Hinesburg", "city": "Hinesburg", "source_dataset": "Municipal Tree Inventory", "source_department": "Town of Hinesburg", "source_last_edit_at": ""}}, {"type": "Feature", "geometry": {"type": "Point", "coordinates": [-73.10527471499995, 44.343418349000046]}, "properties": {"id": "hinesburg-27795", "species_group": "crabapple", "scientific_name": "Malus species", "common_name": "Crabapple", "subtype_name": null, "zip_code": "05461", "ownership": "public", "ownership_raw": "Town of Hinesburg", "city": "Hinesburg", "source_dataset": "Municipal Tree Inventory", "source_department": "Town of Hinesburg", "source_last_edit_at": ""}}, {"type": "Feature", "geometry": {"type": "Point", "coordinates": [-73.10887500699994, 44.32614370400006]}, "properties": {"id": "hinesburg-279", "species_group": "crabapple", "scientific_name": "Malus species", "common_name": "Crabapple", "subtype_name": null, "zip_code": "05461", "ownership": "public", "ownership_raw": "Town of Hinesburg", "city": "Hinesburg", "source_dataset": "Municipal Tree Inventory", "source_department": "Town of Hinesburg", "source_last_edit_at": ""}}, {"type": "Feature", "geometry": {"type": "Point", "coordinates": [-73.11326848199997, 44.334073541000066]}, "properties": {"id": "hinesburg-28949", "species_group": "crabapple", "scientific_name": "Malus species", "common_name": "Crabapple", "subtype_name": null, "zip_code": "05461", "ownership": "public", "ownership_raw": "Town of Hinesburg", "city": "Hinesburg", "source_dataset": "Municipal Tree Inventory", "source_department": "Town of Hinesburg", "source_last_edit_at": ""}}, {"type": "Feature", "geometry": {"type": "Point", "coordinates": [-73.10831844799998, 44.32636393400003]}, "properties": {"id": "hinesburg-29211", "species_group": "crabapple", "scientific_name": "Malus species", "common_name": "Crabapple", "subtype_name": null, "zip_code": "05461", "ownership": "public", "ownership_raw": "Town of Hinesburg", "city": "Hinesburg", "source_dataset": "Municipal Tree Inventory", "source_department": "Town of Hinesburg", "source_last_edit_at": ""}}, {"type": "Feature", "geometry": {"type": "Point", "coordinates": [-73.11846779199993, 44.341373615000066]}, "properties": {"id": "hinesburg-30239", "species_group": "crabapple", "scientific_name": "Malus species", "common_name": "Crabapple", "subtype_name": null, "zip_code": "05461", "ownership": "public", "ownership_raw": "Town of Hinesburg", "city": "Hinesburg", "source_dataset": "Municipal Tree Inventory", "source_department": "Town of Hinesburg", "source_last_edit_at": ""}}, {"type": "Feature", "geometry": {"type": "Point", "coordinates": [-73.10813535999995, 44.32803392900007]}, "properties": {"id": "hinesburg-3116", "species_group": "crabapple", "scientific_name": "Malus species", "common_name": "Crabapple", "subtype_name": null, "zip_code": "05461", "ownership": "public", "ownership_raw": "Town of Hinesburg", "city": "Hinesburg", "source_dataset": "Municipal Tree Inventory", "source_department": "Town of Hinesburg", "source_last_edit_at": ""}}, {"type": "Feature", "geometry": {"type": "Point", "coordinates": [-73.10141022299996, 44.34184940100005]}, "properties": {"id": "hinesburg-31580", "species_group": "crabapple", "scientific_name": "Malus species", "common_name": "Crabapple", "subtype_name": null, "zip_code": "05461", "ownership": "public", "ownership_raw": "Town of Hinesburg", "city": "Hinesburg", "source_dataset": "Municipal Tree Inventory", "source_department": "Town of Hinesburg", "source_last_edit_at": ""}}, {"type": "Feature", "geometry": {"type": "Point", "coordinates": [-73.10755455399999, 44.328528505000065]}, "properties": {"id": "hinesburg-4009", "species_group": "crabapple", "scientific_name": "Malus species", "common_name": "Crabapple", "subtype_name": null, "zip_code": "05461", "ownership": "public", "ownership_raw": "Town of Hinesburg", "city": "Hinesburg", "source_dataset": "Municipal Tree Inventory", "source_department": "Town of Hinesburg", "source_last_edit_at": ""}}, {"type": "Feature", "geometry": {"type": "Point", "coordinates": [-73.10952865999997, 44.332507649000036]}, "properties": {"id": "hinesburg-4921", "species_group": "crabapple", "scientific_name": "Malus species", "common_name": "Crabapple", "subtype_name": null, "zip_code": "05461", "ownership": "public", "ownership_raw": "Town of Hinesburg", "city": "Hinesburg", "source_dataset": "Municipal Tree Inventory", "source_department": "Town of Hinesburg", "source_last_edit_at": ""}}, {"type": "Feature", "geometry": {"type": "Point", "coordinates": [-73.10993995999996, 44.32711415600005]}, "properties": {"id": "hinesburg-5070", "species_group": "crabapple", "scientific_name": "Malus species", "common_name": "Crabapple", "subtype_name": null, "zip_code": "05461", "ownership": "public", "ownership_raw": "Town of Hinesburg", "city": "Hinesburg", "source_dataset": "Municipal Tree Inventory", "source_department": "Town of Hinesburg", "source_last_edit_at": ""}}, {"type": "Feature", "geometry": {"type": "Point", "coordinates": [-73.10990997599998, 44.32717088600003]}, "properties": {"id": "hinesburg-5261", "species_group": "crabapple", "scientific_name": "Malus species", "common_name": "Crabapple", "subtype_name": null, "zip_code": "05461", "ownership": "public", "ownership_raw": "Town of Hinesburg", "city": "Hinesburg", "source_dataset": "Municipal Tree Inventory", "source_department": "Town of Hinesburg", "source_last_edit_at": ""}}, {"type": "Feature", "geometry": {"type": "Point", "coordinates": [-73.10759397199996, 44.32848579700004]}, "properties": {"id": "hinesburg-5356", "species_group": "crabapple", "scientific_name": "Malus species", "common_name": "Crabapple", "subtype_name": null, "zip_code": "05461", "ownership": "public", "ownership_raw": "Town of Hinesburg", "city": "Hinesburg", "source_dataset": "Municipal Tree Inventory", "source_department": "Town of Hinesburg", "source_last_edit_at": ""}}, {"type": "Feature", "geometry": {"type": "Point", "coordinates": [-73.10884759799995, 44.32601832900008]}, "properties": {"id": "hinesburg-7028", "species_group": "crabapple", "scientific_name": "Malus species", "common_name": "Crabapple", "subtype_name": null, "zip_code": "05461", "ownership": "public", "ownership_raw": "Town of Hinesburg", "city": "Hinesburg", "source_dataset": "Municipal Tree Inventory", "source_department": "Town of Hinesburg", "source_last_edit_at": ""}}, {"type": "Feature", "geometry": {"type": "Point", "coordinates": [-73.10757059399998, 44.32653078900006]}, "properties": {"id": "hinesburg-7252", "species_group": "crabapple", "scientific_name": "Malus species", "common_name": "Crabapple", "subtype_name": null, "zip_code": "05461", "ownership": "public", "ownership_raw": "Town of Hinesburg", "city": "Hinesburg", "source_dataset": "Municipal Tree Inventory", "source_department": "Town of Hinesburg", "source_last_edit_at": ""}}, {"type": "Feature", "geometry": {"type": "Point", "coordinates": [-73.10830065099998, 44.33374070600007]}, "properties": {"id": "hinesburg-7585", "species_group": "crabapple", "scientific_name": "Malus species", "common_name": "Crabapple", "subtype_name": null, "zip_code": "05461", "ownership": "public", "ownership_raw": "Town of Hinesburg", "city": "Hinesburg", "source_dataset": "Municipal Tree Inventory", "source_department": "Town of Hinesburg", "source_last_edit_at": ""}}, {"type": "Feature", "geometry": {"type": "Point", "coordinates": [-73.10798398199995, 44.33403029400006]}, "properties": {"id": "hinesburg-8023", "species_group": "crabapple", "scientific_name": "Malus species", "common_name": "Crabapple", "subtype_name": null, "zip_code": "05461", "ownership": "public", "ownership_raw": "Town of Hinesburg", "city": "Hinesburg", "source_dataset": "Municipal Tree Inventory", "source_department": "Town of Hinesburg", "source_last_edit_at": ""}}, {"type": "Feature", "geometry": {"type": "Point", "coordinates": [-73.11030907099996, 44.33197919100007]}, "properties": {"id": "hinesburg-8340", "species_group": "crabapple", "scientific_name": "Malus species", "common_name": "Crabapple", "subtype_name": null, "zip_code": "05461", "ownership": "public", "ownership_raw": "Town of Hinesburg", "city": "Hinesburg", "source_dataset": "Municipal Tree Inventory", "source_department": "Town of Hinesburg", "source_last_edit_at": ""}}, {"type": "Feature", "geometry": {"type": "Point", "coordinates": [-73.10906625299998, 44.32820600900004]}, "properties": {"id": "hinesburg-8439", "species_group": "crabapple", "scientific_name": "Malus species", "common_name": "Crabapple", "subtype_name": null, "zip_code": "05461", "ownership": "public", "ownership_raw": "Town of Hinesburg", "city": "Hinesburg", "source_dataset": "Municipal Tree Inventory", "source_department": "Town of Hinesburg", "source_last_edit_at": ""}}, {"type": "Feature", "geometry": {"type": "Point", "coordinates": [-73.10861724399996, 44.32810648900005]}, "properties": {"id": "hinesburg-8690", "species_group": "crabapple", "scientific_name": "Malus species", "common_name": "Crabapple", "subtype_name": null, "zip_code": "05461", "ownership": "public", "ownership_raw": "Town of Hinesburg", "city": "Hinesburg", "source_dataset": "Municipal Tree Inventory", "source_department": "Town of Hinesburg", "source_last_edit_at": ""}}, {"type": "Feature", "geometry": {"type": "Point", "coordinates": [-73.10995479599995, 44.33223359300007]}, "properties": {"id": "hinesburg-8856", "species_group": "crabapple", "scientific_name": "Malus species", "common_name": "Crabapple", "subtype_name": null, "zip_code": "05461", "ownership": "public", "ownership_raw": "Town of Hinesburg", "city": "Hinesburg", "source_dataset": "Municipal Tree Inventory", "source_department": "Town of Hinesburg", "source_last_edit_at": ""}}, {"type": "Feature", "geometry": {"type": "Point", "coordinates": [-73.10997712299996, 44.32770195900008]}, "properties": {"id": "hinesburg-8946", "species_group": "crabapple", "scientific_name": "Malus species", "common_name": "Crabapple", "subtype_name": null, "zip_code": "05461", "ownership": "public", "ownership_raw": "Town of Hinesburg", "city": "Hinesburg", "source_dataset": "Municipal Tree Inventory", "source_department": "Town of Hinesburg", "source_last_edit_at": ""}}, {"type": "Feature", "geometry": {"type": "Point", "coordinates": [-73.10998650999994, 44.32782823400004]}, "properties": {"id": "hinesburg-9394", "species_group": "crabapple", "scientific_name": "Malus species", "common_name": "Crabapple", "subtype_name": null, "zip_code": "05461", "ownership": "public", "ownership_raw": "Town of Hinesburg", "city": "Hinesburg", "source_dataset": "Municipal Tree Inventory", "source_department": "Town of Hinesburg", "source_last_edit_at": ""}}, {"type": "Feature", "geometry": {"type": "Point", "coordinates": [-73.10981098599996, 44.33233378400007]}, "properties": {"id": "hinesburg-9768", "species_group": "crabapple", "scientific_name": "Malus species", "common_name": "Crabapple", "subtype_name": null, "zip_code": "05461", "ownership": "public", "ownership_raw": "Town of Hinesburg", "city": "Hinesburg", "source_dataset": "Municipal Tree Inventory", "source_department": "Town of Hinesburg", "source_last_edit_at": ""}}, {"type": "Feature", "geometry": {"type": "Point", "coordinates": [-73.10817242399997, 44.33397591000005]}, "properties": {"id": "hinesburg-9792", "species_group": "crabapple", "scientific_name": "Malus species", "common_name": "Crabapple", "subtype_name": null, "zip_code": "05461", "ownership": "public", "ownership_raw": "Town of Hinesburg", "city": "Hinesburg", "source_dataset": "Municipal Tree Inventory", "source_department": "Town of Hinesburg", "source_last_edit_at": ""}}, {"type": "Feature", "geometry": {"type": "Point", "coordinates": [-73.10890796399997, 44.326021954000055]}, "properties": {"id": "hinesburg-9860", "species_group": "crabapple", "scientific_name": "Malus species", "common_name": "Crabapple", "subtype_name": null, "zip_code": "05461", "ownership": "public", "ownership_raw": "Town of Hinesburg", "city": "Hinesburg", "source_dataset": "Municipal Tree Inventory", "source_department": "Town of Hinesburg", "source_last_edit_at": ""}}]}