{"type": "FeatureCollection", "features": [{"type": "Feature", "geometry": {"type": "Point", "coordinates": [-90.3610651705, 38.6203748653]}, "properties": {"id": "brentwood-1570", "species_group": "magnolia", "scientific_name": "Magnolia species", "common_name": "southern (Magnolia grandiflora) magnolia", "subtype_name": "Southern Magnolia", "zip_code": null, "ownership": "public", "ownership_raw": "City of Brentwood", "city": "Brentwood", "source_dataset": "TreeKeeper Inventory", "source_department": "City of Brentwood", "source_last_edit_at": ""}}, {"type": "Feature", "geometry": {"type": "Point", "coordinates": [-90.361704967, 38.6196819454]}, "properties": {"id": "brentwood-1595", "species_group": "magnolia", "scientific_name": "Magnolia species", "common_name": "cucumbertree (Magnolia acuminata) magnolia", "subtype_name": "cucumbertree (Magnolia acuminata) magnolia", "zip_code": null, "ownership": "public", "ownership_raw": "City of Brentwood", "city": "Brentwood", "source_dataset": "TreeKeeper Inventory", "source_department": "City of Brentwood", "source_last_edit_at": ""}}, {"type": "Feature", "geometry": {"type": "Point", "coordinates": [-90.3610380471, 38.6220123006]}, "properties": {"id": "brentwood-1621", "species_group": "cherry", "scientific_name": "Prunus species", "common_name": "spp. (Prunus spp.) cherry/plum", "subtype_name": "spp. (Prunus spp.) cherry/plum", "zip_code": null, "ownership": "public", "ownership_raw": "City of Brentwood", "city": "Brentwood", "source_dataset": "TreeKeeper Inventory", "source_department": "City of Brentwood", "source_last_edit_at": ""}}, {"type": "Feature", "geometry": {"type": "Point", "coordinates": [-90.3487721862, 38.6176920594]}, "properties": {"id": "brentwood-1629", "species_group": "magnolia", "scientific_name": "Magnolia x accuminata ‘Lois’", "common_name": "Magnolia ‘Lois’", "subtype_name": "Magnolia ‘Lois’", "zip_code": null, "ownership": "public", "ownership_raw": "City of Brentwood", "city": "Brentwood", "source_dataset": "TreeKeeper Inventory", "source_department": "City of Brentwood", "source_last_edit_at": ""}}, {"type": "Feature", "geometry": {"type": "Point", "coordinates": [-90.348827905, 38.6176899729]}, "properties": {"id": "brentwood-1630", "species_group": "magnolia", "scientific_name": "Magnolia x accuminata ‘Lois’", "common_name": "Magnolia ‘Lois’", "subtype_name": "Magnolia ‘Lois’", "zip_code": null, "ownership": "public", "ownership_raw": "City of Brentwood", "city": "Brentwood", "source_dataset": "TreeKeeper Inventory", "source_department": "City of Brentwood", "source_last_edit_at": ""}}, {"type": "Feature", "geometry": {"type": "Point", "coordinates": [-90.3557634132, 38.6232728448]}, "properties": {"id": "brentwood-1666", "species_group": "cherry", "scientific_name": "Prunus species", "common_name": "spp. (Prunus spp.) cherry/plum", "subtype_name": "spp. (Prunus spp.) cherry/plum", "zip_code": null, "ownership": "public", "ownership_raw": "City of Brentwood", "city": "Brentwood", "source_dataset": "TreeKeeper Inventory", "source_department": "City of Brentwood", "source_last_edit_at": ""}}, {"type": "Feature", "geometry": {"type": "Point", "coordinates": [-90.3557696757, 38.623080525]}, "properties": {"id": "brentwood-1668", "species_group": "cherry", "scientific_name": "Prunus species", "common_name": "spp. (Prunus spp.) cherry/plum", "subtype_name": "spp. (Prunus spp.) cherry/plum", "zip_code": null, "ownership": "public", "ownership_raw": "City of Brentwood", "city": "Brentwood", "source_dataset": "TreeKeeper Inventory", "source_department": "City of Brentwood", "source_last_edit_at": ""}}, {"type": "Feature", "geometry": {"type": "Point", "coordinates": [-90.3556980284, 38.6197202316]}, "properties": {"id": "brentwood-1723", "species_group": "magnolia", "scientific_name": "Magnolia species", "common_name": "lily (Magnolia liliiflora) magnolia", "subtype_name": "lily (Magnolia liliiflora) magnolia", "zip_code": null, "ownership": "public", "ownership_raw": "City of Brentwood", "city": "Brentwood", "source_dataset": "TreeKeeper Inventory", "source_department": "City of Brentwood", "source_last_edit_at": ""}}, {"type": "Feature", "geometry": {"type": "Point", "coordinates": [-90.3550132176, 38.6236250123]}, "properties": {"id": "brentwood-1766", "species_group": "cherry", "scientific_name": "Prunus species", "common_name": "spp. (Prunus spp.) cherry/plum", "subtype_name": "spp. (Prunus spp.) cherry/plum", "zip_code": null, "ownership": "public", "ownership_raw": "City of Brentwood", "city": "Brentwood", "source_dataset": "TreeKeeper Inventory", "source_department": "City of Brentwood", "source_last_edit_at": ""}}, {"type": "Feature", "geometry": {"type": "Point", "coordinates": [-90.3533231878, 38.6236131195]}, "properties": {"id": "brentwood-1781", "species_group": "cherry", "scientific_name": "Prunus species", "common_name": "spp. (Prunus spp.) cherry/plum", "subtype_name": "spp. (Prunus spp.) cherry/plum", "zip_code": null, "ownership": "public", "ownership_raw": "City of Brentwood", "city": "Brentwood", "source_dataset": "TreeKeeper Inventory", "source_department": "City of Brentwood", "source_last_edit_at": ""}}, {"type": "Feature", "geometry": {"type": "Point", "coordinates": [-90.3547564413, 38.6237155059]}, "properties": {"id": "brentwood-1810", "species_group": "magnolia", "scientific_name": "Magnolia species", "common_name": "saucer (Magnolia x soulangiana) magnolia", "subtype_name": "Saucer Magnolia", "zip_code": null, "ownership": "public", "ownership_raw": "City of Brentwood", "city": "Brentwood", "source_dataset": "TreeKeeper Inventory", "source_department": "City of Brentwood", "source_last_edit_at": ""}}, {"type": "Feature", "geometry": {"type": "Point", "coordinates": [-90.3550257564, 38.6237180255]}, "properties": {"id": "brentwood-1812", "species_group": "cherry", "scientific_name": "Prunus species", "common_name": "cherrybark (Quercus pagoda) oak", "subtype_name": "cherrybark (Quercus pagoda) oak", "zip_code": null, "ownership": "public", "ownership_raw": "City of Brentwood", "city": "Brentwood", "source_dataset": "TreeKeeper Inventory", "source_department": "City of Brentwood", "source_last_edit_at": ""}}, {"type": "Feature", "geometry": {"type": "Point", "coordinates": [-90.3538607299, 38.6219524732]}, "properties": {"id": "brentwood-1857", "species_group": "crabapple", "scientific_name": "Malus species", "common_name": "flowering (Malus spp.) crabapple", "subtype_name": "flowering (Malus spp.) crabapple", "zip_code": null, "ownership": "public", "ownership_raw": "City of Brentwood", "city": "Brentwood", "source_dataset": "TreeKeeper Inventory", "source_department": "City of Brentwood", "source_last_edit_at": ""}}, {"type": "Feature", "geometry": {"type": "Point", "coordinates": [-90.3560322558, 38.6204427256]}, "properties": {"id": "brentwood-1865", "species_group": "magnolia", "scientific_name": "Magnolia species", "common_name": "sweetbay (Magnolia virginiana) magnolia", "subtype_name": "Sweetbay Magnolia", "zip_code": null, "ownership": "public", "ownership_raw": "City of Brentwood", "city": "Brentwood", "source_dataset": "TreeKeeper Inventory", "source_department": "City of Brentwood", "source_last_edit_at": ""}}, {"type": "Feature", "geometry": {"type": "Point", "coordinates": [-90.3509731825, 38.6226738272]}, "properties": {"id": "brentwood-1884", "species_group": "magnolia", "scientific_name": "Magnolia species", "common_name": "sweetbay (Magnolia virginiana) magnolia", "subtype_name": "Sweetbay Magnolia", "zip_code": null, "ownership": "public", "ownership_raw": "City of Brentwood", "city": "Brentwood", "source_dataset": "TreeKeeper Inventory", "source_department": "City of Brentwood", "source_last_edit_at": ""}}, {"type": "Feature", "geometry": {"type": "Point", "coordinates": [-90.3506239324, 38.6227519565]}, "properties": {"id": "brentwood-1889", "species_group": "cherry", "scientific_name": "Prunus species", "common_name": "spp. (Prunus spp.) cherry/plum", "subtype_name": "spp. (Prunus spp.) cherry/plum", "zip_code": null, "ownership": "public", "ownership_raw": "City of Brentwood", "city": "Brentwood", "source_dataset": "TreeKeeper Inventory", "source_department": "City of Brentwood", "source_last_edit_at": ""}}, {"type": "Feature", "geometry": {"type": "Point", "coordinates": [-90.3551615939, 38.6202199621]}, "properties": {"id": "brentwood-1901", "species_group": "magnolia", "scientific_name": "Magnolia species", "common_name": "saucer (Magnolia x soulangiana) magnolia", "subtype_name": "Saucer Magnolia", "zip_code": null, "ownership": "public", "ownership_raw": "City of Brentwood", "city": "Brentwood", "source_dataset": "TreeKeeper Inventory", "source_department": "City of Brentwood", "source_last_edit_at": ""}}, {"type": "Feature", "geometry": {"type": "Point", "coordinates": [-90.3569404169, 38.6204996005]}, "properties": {"id": "brentwood-1975", "species_group": "cherry", "scientific_name": "Prunus species", "common_name": "spp. (Prunus spp.) cherry/plum", "subtype_name": "spp. (Prunus spp.) cherry/plum", "zip_code": null, "ownership": "public", "ownership_raw": "City of Brentwood", "city": "Brentwood", "source_dataset": "TreeKeeper Inventory", "source_department": "City of Brentwood", "source_last_edit_at": ""}}, {"type": "Feature", "geometry": {"type": "Point", "coordinates": [-90.3568227583, 38.6204033191]}, "properties": {"id": "brentwood-2012", "species_group": "cherry", "scientific_name": "Prunus species", "common_name": "spp. (Prunus spp.) cherry/plum", "subtype_name": "spp. (Prunus spp.) cherry/plum", "zip_code": null, "ownership": "public", "ownership_raw": "City of Brentwood", "city": "Brentwood", "source_dataset": "TreeKeeper Inventory", "source_department": "City of Brentwood", "source_last_edit_at": ""}}, {"type": "Feature", "geometry": {"type": "Point", "coordinates": [-90.3568160825, 38.6205717348]}, "properties": {"id": "brentwood-2014", "species_group": "cherry", "scientific_name": "Prunus species", "common_name": "spp. (Prunus spp.) cherry/plum", "subtype_name": "spp. (Prunus spp.) cherry/plum", "zip_code": null, "ownership": "public", "ownership_raw": "City of Brentwood", "city": "Brentwood", "source_dataset": "TreeKeeper Inventory", "source_department": "City of Brentwood", "source_last_edit_at": ""}}, {"type": "Feature", "geometry": {"type": "Point", "coordinates": [-90.3558566096, 38.622846899]}, "properties": {"id": "brentwood-2040", "species_group": "cherry", "scientific_name": "Prunus species", "common_name": "spp. (Prunus spp.) cherry/plum", "subtype_name": "spp. (Prunus spp.) cherry/plum", "zip_code": null, "ownership": "public", "ownership_raw": "City of Brentwood", "city": "Brentwood", "source_dataset": "TreeKeeper Inventory", "source_department": "City of Brentwood", "source_last_edit_at": ""}}, {"type": "Feature", "geometry": {"type": "Point", "coordinates": [-90.3567796923, 38.6239565352]}, "properties": {"id": "brentwood-2058", "species_group": "cherry", "scientific_name": "Prunus species", "common_name": "cherrybark (Quercus pagoda) oak", "subtype_name": "cherrybark (Quercus pagoda) oak", "zip_code": null, "ownership": "public", "ownership_raw": "City of Brentwood", "city": "Brentwood", "source_dataset": "TreeKeeper Inventory", "source_department": "City of Brentwood", "source_last_edit_at": ""}}, {"type": "Feature", "geometry": {"type": "Point", "coordinates": [-90.3569014139, 38.6231062724]}, "properties": {"id": "brentwood-2115", "species_group": "cherry", "scientific_name": "Prunus species", "common_name": "spp. (Prunus spp.) cherry/plum", "subtype_name": "spp. (Prunus spp.) cherry/plum", "zip_code": null, "ownership": "public", "ownership_raw": "City of Brentwood", "city": "Brentwood", "source_dataset": "TreeKeeper Inventory", "source_department": "City of Brentwood", "source_last_edit_at": ""}}, {"type": "Feature", "geometry": {"type": "Point", "coordinates": [-90.356903676, 38.6229514235]}, "properties": {"id": "brentwood-2117", "species_group": "cherry", "scientific_name": "Prunus species", "common_name": "spp. (Prunus spp.) cherry/plum", "subtype_name": "spp. (Prunus spp.) cherry/plum", "zip_code": null, "ownership": "public", "ownership_raw": "City of Brentwood", "city": "Brentwood", "source_dataset": "TreeKeeper Inventory", "source_department": "City of Brentwood", "source_last_edit_at": ""}}, {"type": "Feature", "geometry": {"type": "Point", "coordinates": [-90.3578893785, 38.6223599379]}, "properties": {"id": "brentwood-2148", "species_group": "cherry", "scientific_name": "Prunus species", "common_name": "spp. (Prunus spp.) cherry/plum", "subtype_name": "spp. (Prunus spp.) cherry/plum", "zip_code": null, "ownership": "public", "ownership_raw": "City of Brentwood", "city": "Brentwood", "source_dataset": "TreeKeeper Inventory", "source_department": "City of Brentwood", "source_last_edit_at": ""}}, {"type": "Feature", "geometry": {"type": "Point", "coordinates": [-90.3607739797, 38.6219218156]}, "properties": {"id": "brentwood-2182", "species_group": "magnolia", "scientific_name": "Magnolia species", "common_name": "star (Magnolia stellata) magnolia", "subtype_name": "Star Magnolia", "zip_code": null, "ownership": "public", "ownership_raw": "City of Brentwood", "city": "Brentwood", "source_dataset": "TreeKeeper Inventory", "source_department": "City of Brentwood", "source_last_edit_at": ""}}, {"type": "Feature", "geometry": {"type": "Point", "coordinates": [-90.3607378663, 38.6221716936]}, "properties": {"id": "brentwood-2183", "species_group": "magnolia", "scientific_name": "Magnolia species", "common_name": "sweetbay (Magnolia virginiana) magnolia", "subtype_name": "Sweetbay Magnolia", "zip_code": null, "ownership": "public", "ownership_raw": "City of Brentwood", "city": "Brentwood", "source_dataset": "TreeKeeper Inventory", "source_department": "City of Brentwood", "source_last_edit_at": ""}}, {"type": "Feature", "geometry": {"type": "Point", "coordinates": [-90.3618704121, 38.6213647081]}, "properties": {"id": "brentwood-2202", "species_group": "cherry", "scientific_name": "Prunus species", "common_name": "spp. (Prunus spp.) cherry/plum", "subtype_name": "spp. (Prunus spp.) cherry/plum", "zip_code": null, "ownership": "public", "ownership_raw": "City of Brentwood", "city": "Brentwood", "source_dataset": "TreeKeeper Inventory", "source_department": "City of Brentwood", "source_last_edit_at": ""}}, {"type": "Feature", "geometry": {"type": "Point", "coordinates": [-90.3599328593, 38.6210746342]}, "properties": {"id": "brentwood-2217", "species_group": "cherry", "scientific_name": "Prunus species", "common_name": "spp. (Prunus spp.) cherry/plum", "subtype_name": "spp. (Prunus spp.) cherry/plum", "zip_code": null, "ownership": "public", "ownership_raw": "City of Brentwood", "city": "Brentwood", "source_dataset": "TreeKeeper Inventory", "source_department": "City of Brentwood", "source_last_edit_at": ""}}, {"type": "Feature", "geometry": {"type": "Point", "coordinates": [-90.3585788638, 38.6209328309]}, "properties": {"id": "brentwood-2225", "species_group": "magnolia", "scientific_name": "Magnolia species", "common_name": "star (Magnolia stellata) magnolia", "subtype_name": "Star Magnolia", "zip_code": null, "ownership": "public", "ownership_raw": "City of Brentwood", "city": "Brentwood", "source_dataset": "TreeKeeper Inventory", "source_department": "City of Brentwood", "source_last_edit_at": ""}}, {"type": "Feature", "geometry": {"type": "Point", "coordinates": [-90.3584932248, 38.6209260524]}, "properties": {"id": "brentwood-2226", "species_group": "magnolia", "scientific_name": "Magnolia species", "common_name": "star (Magnolia stellata) magnolia", "subtype_name": "Star Magnolia", "zip_code": null, "ownership": "public", "ownership_raw": "City of Brentwood", "city": "Brentwood", "source_dataset": "TreeKeeper Inventory", "source_department": "City of Brentwood", "source_last_edit_at": ""}}, {"type": "Feature", "geometry": {"type": "Point", "coordinates": [-90.3474955205, 38.6226070667]}, "properties": {"id": "brentwood-2348", "species_group": "cherry", "scientific_name": "Prunus species", "common_name": "spp. (Prunus spp.) cherry/plum", "subtype_name": "spp. (Prunus spp.) cherry/plum", "zip_code": null, "ownership": "public", "ownership_raw": "City of Brentwood", "city": "Brentwood", "source_dataset": "TreeKeeper Inventory", "source_department": "City of Brentwood", "source_last_edit_at": ""}}, {"type": "Feature", "geometry": {"type": "Point", "coordinates": [-90.346810139, 38.6226649281]}, "properties": {"id": "brentwood-2366", "species_group": "cherry", "scientific_name": "Prunus species", "common_name": "spp. (Prunus spp.) cherry/plum", "subtype_name": "spp. (Prunus spp.) cherry/plum", "zip_code": null, "ownership": "public", "ownership_raw": "City of Brentwood", "city": "Brentwood", "source_dataset": "TreeKeeper Inventory", "source_department": "City of Brentwood", "source_last_edit_at": ""}}, {"type": "Feature", "geometry": {"type": "Point", "coordinates": [-90.3531651875, 38.6178056034]}, "properties": {"id": "brentwood-2541", "species_group": "cherry", "scientific_name": "Prunus species", "common_name": "spp. (Prunus spp.) cherry/plum", "subtype_name": "spp. (Prunus spp.) cherry/plum", "zip_code": null, "ownership": "public", "ownership_raw": "City of Brentwood", "city": "Brentwood", "source_dataset": "TreeKeeper Inventory", "source_department": "City of Brentwood", "source_last_edit_at": ""}}, {"type": "Feature", "geometry": {"type": "Point", "coordinates": [-90.3539360297, 38.6145957647]}, "properties": {"id": "brentwood-2572", "species_group": "cherry", "scientific_name": "Prunus species", "common_name": "spp. (Prunus spp.) cherry/plum", "subtype_name": "spp. (Prunus spp.) cherry/plum", "zip_code": null, "ownership": "public", "ownership_raw": "City of Brentwood", "city": "Brentwood", "source_dataset": "TreeKeeper Inventory", "source_department": "City of Brentwood", "source_last_edit_at": ""}}, {"type": "Feature", "geometry": {"type": "Point", "coordinates": [-90.354833595284, 38.614685059545]}, "properties": {"id": "brentwood-2578", "species_group": "cherry", "scientific_name": "Prunus species", "common_name": "spp. (Prunus spp.) cherry/plum", "subtype_name": "spp. (Prunus spp.) cherry/plum", "zip_code": null, "ownership": "public", "ownership_raw": "City of Brentwood", "city": "Brentwood", "source_dataset": "TreeKeeper Inventory", "source_department": "City of Brentwood", "source_last_edit_at": ""}}, {"type": "Feature", "geometry": {"type": "Point", "coordinates": [-90.3550586488, 38.6147059167]}, "properties": {"id": "brentwood-2580", "species_group": "magnolia", "scientific_name": "Magnolia species", "common_name": "Judy Zuk (Magnolia 'Judy Zuk') Magnolia", "subtype_name": "Judy Zuk (Magnolia 'Judy Zuk') Magnolia", "zip_code": null, "ownership": "public", "ownership_raw": "City of Brentwood", "city": "Brentwood", "source_dataset": "TreeKeeper Inventory", "source_department": "City of Brentwood", "source_last_edit_at": ""}}, {"type": "Feature", "geometry": {"type": "Point", "coordinates": [-90.3536293834, 38.6136385396]}, "properties": {"id": "brentwood-2606", "species_group": "cherry", "scientific_name": "Prunus species", "common_name": "spp. (Prunus spp.) cherry/plum", "subtype_name": "spp. (Prunus spp.) cherry/plum", "zip_code": null, "ownership": "public", "ownership_raw": "City of Brentwood", "city": "Brentwood", "source_dataset": "TreeKeeper Inventory", "source_department": "City of Brentwood", "source_last_edit_at": ""}}, {"type": "Feature", "geometry": {"type": "Point", "coordinates": [-90.3518475309, 38.6143948218]}, "properties": {"id": "brentwood-2645", "species_group": "cherry", "scientific_name": "Prunus species", "common_name": "spp. (Prunus spp.) cherry/plum", "subtype_name": "spp. (Prunus spp.) cherry/plum", "zip_code": null, "ownership": "public", "ownership_raw": "City of Brentwood", "city": "Brentwood", "source_dataset": "TreeKeeper Inventory", "source_department": "City of Brentwood", "source_last_edit_at": ""}}, {"type": "Feature", "geometry": {"type": "Point", "coordinates": [-90.3531319521, 38.6172784466]}, "properties": {"id": "brentwood-2674", "species_group": "magnolia", "scientific_name": "Magnolia species", "common_name": "sweetbay (Magnolia virginiana) magnolia", "subtype_name": "Sweetbay Magnolia", "zip_code": null, "ownership": "public", "ownership_raw": "City of Brentwood", "city": "Brentwood", "source_dataset": "TreeKeeper Inventory", "source_department": "City of Brentwood", "source_last_edit_at": ""}}, {"type": "Feature", "geometry": {"type": "Point", "coordinates": [-90.3558071113, 38.6140822477]}, "properties": {"id": "brentwood-2717", "species_group": "magnolia", "scientific_name": "Magnolia species", "common_name": "saucer (Magnolia x soulangiana) magnolia", "subtype_name": "Saucer Magnolia", "zip_code": null, "ownership": "public", "ownership_raw": "City of Brentwood", "city": "Brentwood", "source_dataset": "TreeKeeper Inventory", "source_department": "City of Brentwood", "source_last_edit_at": ""}}, {"type": "Feature", "geometry": {"type": "Point", "coordinates": [-90.3420870562, 38.6138726149]}, "properties": {"id": "brentwood-2770", "species_group": "magnolia", "scientific_name": "Magnolia species", "common_name": "star (Magnolia stellata) magnolia", "subtype_name": "Star Magnolia", "zip_code": null, "ownership": "public", "ownership_raw": "City of Brentwood", "city": "Brentwood", "source_dataset": "TreeKeeper Inventory", "source_department": "City of Brentwood", "source_last_edit_at": ""}}, {"type": "Feature", "geometry": {"type": "Point", "coordinates": [-90.3409847518, 38.6151069175]}, "properties": {"id": "brentwood-2788", "species_group": "cherry", "scientific_name": "Prunus species", "common_name": "spp. (Prunus spp.) cherry/plum", "subtype_name": "spp. (Prunus spp.) cherry/plum", "zip_code": null, "ownership": "public", "ownership_raw": "City of Brentwood", "city": "Brentwood", "source_dataset": "TreeKeeper Inventory", "source_department": "City of Brentwood", "source_last_edit_at": ""}}, {"type": "Feature", "geometry": {"type": "Point", "coordinates": [-90.3399644438, 38.6139900662]}, "properties": {"id": "brentwood-2809", "species_group": "cherry", "scientific_name": "Prunus species", "common_name": "spp. (Prunus spp.) cherry/plum", "subtype_name": "spp. (Prunus spp.) cherry/plum", "zip_code": null, "ownership": "public", "ownership_raw": "City of Brentwood", "city": "Brentwood", "source_dataset": "TreeKeeper Inventory", "source_department": "City of Brentwood", "source_last_edit_at": ""}}, {"type": "Feature", "geometry": {"type": "Point", "coordinates": [-90.339919338, 38.6147139629]}, "properties": {"id": "brentwood-2822", "species_group": "magnolia", "scientific_name": "Magnolia species", "common_name": "southern (Magnolia grandiflora) magnolia", "subtype_name": "Southern Magnolia", "zip_code": null, "ownership": "public", "ownership_raw": "City of Brentwood", "city": "Brentwood", "source_dataset": "TreeKeeper Inventory", "source_department": "City of Brentwood", "source_last_edit_at": ""}}, {"type": "Feature", "geometry": {"type": "Point", "coordinates": [-90.3401349949, 38.6159020111]}, "properties": {"id": "brentwood-2839", "species_group": "crabapple", "scientific_name": "Malus species", "common_name": "flowering (Malus spp.) crabapple", "subtype_name": "flowering (Malus spp.) crabapple", "zip_code": null, "ownership": "public", "ownership_raw": "City of Brentwood", "city": "Brentwood", "source_dataset": "TreeKeeper Inventory", "source_department": "City of Brentwood", "source_last_edit_at": ""}}, {"type": "Feature", "geometry": {"type": "Point", "coordinates": [-90.3403459163, 38.6150247071]}, "properties": {"id": "brentwood-2855", "species_group": "cherry", "scientific_name": "Prunus species", "common_name": "spp. (Prunus spp.) cherry/plum", "subtype_name": "spp. (Prunus spp.) cherry/plum", "zip_code": null, "ownership": "public", "ownership_raw": "City of Brentwood", "city": "Brentwood", "source_dataset": "TreeKeeper Inventory", "source_department": "City of Brentwood", "source_last_edit_at": ""}}, {"type": "Feature", "geometry": {"type": "Point", "coordinates": [-90.3403344194, 38.6149931959]}, "properties": {"id": "brentwood-2856", "species_group": "magnolia", "scientific_name": "Magnolia species", "common_name": "saucer (Magnolia x soulangiana) magnolia", "subtype_name": "Saucer Magnolia", "zip_code": null, "ownership": "public", "ownership_raw": "City of Brentwood", "city": "Brentwood", "source_dataset": "TreeKeeper Inventory", "source_department": "City of Brentwood", "source_last_edit_at": ""}}, {"type": "Feature", "geometry": {"type": "Point", "coordinates": [-90.3401744921, 38.61470151]}, "properties": {"id": "brentwood-2859", "species_group": "cherry", "scientific_name": "Prunus species", "common_name": "spp. (Prunus spp.) cherry/plum", "subtype_name": "spp. (Prunus spp.) cherry/plum", "zip_code": null, "ownership": "public", "ownership_raw": "City of Brentwood", "city": "Brentwood", "source_dataset": "TreeKeeper Inventory", "source_department": "City of Brentwood", "source_last_edit_at": ""}}, {"type": "Feature", "geometry": {"type": "Point", "coordinates": [-90.339991851, 38.6145277678]}, "properties": {"id": "brentwood-2860", "species_group": "cherry", "scientific_name": "Prunus species", "common_name": "spp. (Prunus spp.) cherry/plum", "subtype_name": "spp. (Prunus spp.) cherry/plum", "zip_code": null, "ownership": "public", "ownership_raw": "City of Brentwood", "city": "Brentwood", "source_dataset": "TreeKeeper Inventory", "source_department": "City of Brentwood", "source_last_edit_at": ""}}, {"type": "Feature", "geometry": {"type": "Point", "coordinates": [-90.3402908189, 38.6128539356]}, "properties": {"id": "brentwood-2868", "species_group": "magnolia", "scientific_name": "Magnolia species", "common_name": "sweetbay (Magnolia virginiana) magnolia", "subtype_name": "Sweetbay Magnolia", "zip_code": null, "ownership": "public", "ownership_raw": "City of Brentwood", "city": "Brentwood", "source_dataset": "TreeKeeper Inventory", "source_department": "City of Brentwood", "source_last_edit_at": ""}}, {"type": "Feature", "geometry": {"type": "Point", "coordinates": [-90.3552270876, 38.6103231643]}, "properties": {"id": "brentwood-3068", "species_group": "magnolia", "scientific_name": "Magnolia species", "common_name": "cucumbertree (Magnolia acuminata) magnolia", "subtype_name": "cucumbertree (Magnolia acuminata) magnolia", "zip_code": null, "ownership": "public", "ownership_raw": "City of Brentwood", "city": "Brentwood", "source_dataset": "TreeKeeper Inventory", "source_department": "City of Brentwood", "source_last_edit_at": ""}}, {"type": "Feature", "geometry": {"type": "Point", "coordinates": [-90.3550018026, 38.610923688]}, "properties": {"id": "brentwood-3081", "species_group": "cherry", "scientific_name": "Prunus species", "common_name": "spp. (Prunus spp.) cherry/plum", "subtype_name": "spp. (Prunus spp.) cherry/plum", "zip_code": null, "ownership": "public", "ownership_raw": "City of Brentwood", "city": "Brentwood", "source_dataset": "TreeKeeper Inventory", "source_department": "City of Brentwood", "source_last_edit_at": ""}}, {"type": "Feature", "geometry": {"type": "Point", "coordinates": [-90.354544171, 38.6114565012]}, "properties": {"id": "brentwood-3086", "species_group": "magnolia", "scientific_name": "Magnolia species", "common_name": "sweetbay (Magnolia virginiana) magnolia", "subtype_name": "Sweetbay Magnolia", "zip_code": null, "ownership": "public", "ownership_raw": "City of Brentwood", "city": "Brentwood", "source_dataset": "TreeKeeper Inventory", "source_department": "City of Brentwood", "source_last_edit_at": ""}}, {"type": "Feature", "geometry": {"type": "Point", "coordinates": [-90.3562841957, 38.6105881366]}, "properties": {"id": "brentwood-3116", "species_group": "cherry", "scientific_name": "Prunus species", "common_name": "spp. (Prunus spp.) cherry/plum", "subtype_name": "spp. (Prunus spp.) cherry/plum", "zip_code": null, "ownership": "public", "ownership_raw": "City of Brentwood", "city": "Brentwood", "source_dataset": "TreeKeeper Inventory", "source_department": "City of Brentwood", "source_last_edit_at": ""}}, {"type": "Feature", "geometry": {"type": "Point", "coordinates": [-90.3563730335, 38.61010529]}, "properties": {"id": "brentwood-3127", "species_group": "crabapple", "scientific_name": "Malus species", "common_name": "flowering (Malus spp.) crabapple", "subtype_name": "flowering (Malus spp.) crabapple", "zip_code": null, "ownership": "public", "ownership_raw": "City of Brentwood", "city": "Brentwood", "source_dataset": "TreeKeeper Inventory", "source_department": "City of Brentwood", "source_last_edit_at": ""}}, {"type": "Feature", "geometry": {"type": "Point", "coordinates": [-90.3549056217, 38.6093293853]}, "properties": {"id": "brentwood-3185", "species_group": "cherry", "scientific_name": "Prunus species", "common_name": "spp. (Prunus spp.) cherry/plum", "subtype_name": "spp. (Prunus spp.) cherry/plum", "zip_code": null, "ownership": "public", "ownership_raw": "City of Brentwood", "city": "Brentwood", "source_dataset": "TreeKeeper Inventory", "source_department": "City of Brentwood", "source_last_edit_at": ""}}, {"type": "Feature", "geometry": {"type": "Point", "coordinates": [-90.342023365, 38.6179681685]}, "properties": {"id": "brentwood-3198", "species_group": "cherry", "scientific_name": "Prunus species", "common_name": "spp. (Prunus spp.) cherry/plum", "subtype_name": "spp. (Prunus spp.) cherry/plum", "zip_code": null, "ownership": "public", "ownership_raw": "City of Brentwood", "city": "Brentwood", "source_dataset": "TreeKeeper Inventory", "source_department": "City of Brentwood", "source_last_edit_at": ""}}, {"type": "Feature", "geometry": {"type": "Point", "coordinates": [-90.3418847166, 38.6180364827]}, "properties": {"id": "brentwood-3202", "species_group": "cherry", "scientific_name": "Prunus species", "common_name": "spp. (Prunus spp.) cherry/plum", "subtype_name": "spp. (Prunus spp.) cherry/plum", "zip_code": null, "ownership": "public", "ownership_raw": "City of Brentwood", "city": "Brentwood", "source_dataset": "TreeKeeper Inventory", "source_department": "City of Brentwood", "source_last_edit_at": ""}}, {"type": "Feature", "geometry": {"type": "Point", "coordinates": [-90.345058632018, 38.6165380761]}, "properties": {"id": "brentwood-3228", "species_group": "cherry", "scientific_name": "Prunus species", "common_name": "spp. (Prunus spp.) cherry/plum", "subtype_name": "spp. (Prunus spp.) cherry/plum", "zip_code": null, "ownership": "public", "ownership_raw": "City of Brentwood", "city": "Brentwood", "source_dataset": "TreeKeeper Inventory", "source_department": "City of Brentwood", "source_last_edit_at": ""}}, {"type": "Feature", "geometry": {"type": "Point", "coordinates": [-90.3454274301, 38.6154003752]}, "properties": {"id": "brentwood-3251", "species_group": "magnolia", "scientific_name": "Magnolia species", "common_name": "sweetbay (Magnolia virginiana) magnolia", "subtype_name": "Sweetbay Magnolia", "zip_code": null, "ownership": "public", "ownership_raw": "City of Brentwood", "city": "Brentwood", "source_dataset": "TreeKeeper Inventory", "source_department": "City of Brentwood", "source_last_edit_at": ""}}, {"type": "Feature", "geometry": {"type": "Point", "coordinates": [-90.3430207683, 38.6164867478]}, "properties": {"id": "brentwood-3284", "species_group": "magnolia", "scientific_name": "Magnolia species", "common_name": "saucer (Magnolia x soulangiana) magnolia", "subtype_name": "Saucer Magnolia", "zip_code": null, "ownership": "public", "ownership_raw": "City of Brentwood", "city": "Brentwood", "source_dataset": "TreeKeeper Inventory", "source_department": "City of Brentwood", "source_last_edit_at": ""}}, {"type": "Feature", "geometry": {"type": "Point", "coordinates": [-90.3426957156, 38.616445644379]}, "properties": {"id": "brentwood-3286", "species_group": "magnolia", "scientific_name": "Magnolia x accuminata ‘Lois’", "common_name": "Magnolia ‘Lois’", "subtype_name": "Magnolia ‘Lois’", "zip_code": null, "ownership": "public", "ownership_raw": "City of Brentwood", "city": "Brentwood", "source_dataset": "TreeKeeper Inventory", "source_department": "City of Brentwood", "source_last_edit_at": ""}}, {"type": "Feature", "geometry": {"type": "Point", "coordinates": [-90.344825262447, 38.6157063168]}, "properties": {"id": "brentwood-3317", "species_group": "cherry", "scientific_name": "Prunus species", "common_name": "spp. (Prunus spp.) cherry/plum", "subtype_name": "spp. (Prunus spp.) cherry/plum", "zip_code": null, "ownership": "public", "ownership_raw": "City of Brentwood", "city": "Brentwood", "source_dataset": "TreeKeeper Inventory", "source_department": "City of Brentwood", "source_last_edit_at": ""}}, {"type": "Feature", "geometry": {"type": "Point", "coordinates": [-90.3433805317, 38.6155540478]}, "properties": {"id": "brentwood-3327", "species_group": "cherry", "scientific_name": "Prunus species", "common_name": "spp. (Prunus spp.) cherry/plum", "subtype_name": "spp. (Prunus spp.) cherry/plum", "zip_code": null, "ownership": "public", "ownership_raw": "City of Brentwood", "city": "Brentwood", "source_dataset": "TreeKeeper Inventory", "source_department": "City of Brentwood", "source_last_edit_at": ""}}, {"type": "Feature", "geometry": {"type": "Point", "coordinates": [-90.3433302769, 38.6155502835]}, "properties": {"id": "brentwood-3328", "species_group": "cherry", "scientific_name": "Prunus species", "common_name": "spp. (Prunus spp.) cherry/plum", "subtype_name": "spp. (Prunus spp.) cherry/plum", "zip_code": null, "ownership": "public", "ownership_raw": "City of Brentwood", "city": "Brentwood", "source_dataset": "TreeKeeper Inventory", "source_department": "City of Brentwood", "source_last_edit_at": ""}}, {"type": "Feature", "geometry": {"type": "Point", "coordinates": [-90.344852722, 38.6149362094]}, "properties": {"id": "brentwood-3350", "species_group": "cherry", "scientific_name": "Prunus species", "common_name": "spp. (Prunus spp.) cherry/plum", "subtype_name": "spp. (Prunus spp.) cherry/plum", "zip_code": null, "ownership": "public", "ownership_raw": "City of Brentwood", "city": "Brentwood", "source_dataset": "TreeKeeper Inventory", "source_department": "City of Brentwood", "source_last_edit_at": ""}}, {"type": "Feature", "geometry": {"type": "Point", "coordinates": [-90.3461135142, 38.6169795334]}, "properties": {"id": "brentwood-3369", "species_group": "crabapple", "scientific_name": "Malus species", "common_name": "flowering (Malus spp.) crabapple", "subtype_name": "flowering (Malus spp.) crabapple", "zip_code": null, "ownership": "public", "ownership_raw": "City of Brentwood", "city": "Brentwood", "source_dataset": "TreeKeeper Inventory", "source_department": "City of Brentwood", "source_last_edit_at": ""}}, {"type": "Feature", "geometry": {"type": "Point", "coordinates": [-90.3470264542, 38.6170829687]}, "properties": {"id": "brentwood-3377", "species_group": "magnolia", "scientific_name": "Magnolia species", "common_name": "sweetbay (Magnolia virginiana) magnolia", "subtype_name": "Sweetbay Magnolia", "zip_code": null, "ownership": "public", "ownership_raw": "City of Brentwood", "city": "Brentwood", "source_dataset": "TreeKeeper Inventory", "source_department": "City of Brentwood", "source_last_edit_at": ""}}, {"type": "Feature", "geometry": {"type": "Point", "coordinates": [-90.3474432912, 38.6169007982]}, "properties": {"id": "brentwood-3386", "species_group": "magnolia", "scientific_name": "Magnolia species", "common_name": "sweetbay (Magnolia virginiana) magnolia", "subtype_name": "Sweetbay Magnolia", "zip_code": null, "ownership": "public", "ownership_raw": "City of Brentwood", "city": "Brentwood", "source_dataset": "TreeKeeper Inventory", "source_department": "City of Brentwood", "source_last_edit_at": ""}}, {"type": "Feature", "geometry": {"type": "Point", "coordinates": [-90.34660682, 38.6169335929]}, "properties": {"id": "brentwood-3392", "species_group": "cherry", "scientific_name": "Prunus species", "common_name": "spp. (Prunus spp.) cherry/plum", "subtype_name": "spp. (Prunus spp.) cherry/plum", "zip_code": null, "ownership": "public", "ownership_raw": "City of Brentwood", "city": "Brentwood", "source_dataset": "TreeKeeper Inventory", "source_department": "City of Brentwood", "source_last_edit_at": ""}}, {"type": "Feature", "geometry": {"type": "Point", "coordinates": [-90.3457922091, 38.6168431805]}, "properties": {"id": "brentwood-3398", "species_group": "magnolia", "scientific_name": "Magnolia species", "common_name": "saucer (Magnolia x soulangiana) magnolia", "subtype_name": "Saucer Magnolia", "zip_code": null, "ownership": "public", "ownership_raw": "City of Brentwood", "city": "Brentwood", "source_dataset": "TreeKeeper Inventory", "source_department": "City of Brentwood", "source_last_edit_at": ""}}, {"type": "Feature", "geometry": {"type": "Point", "coordinates": [-90.3475747791, 38.6148722797]}, "properties": {"id": "brentwood-3412", "species_group": "magnolia", "scientific_name": "Magnolia species", "common_name": "saucer (Magnolia x soulangiana) magnolia", "subtype_name": "Saucer Magnolia", "zip_code": null, "ownership": "public", "ownership_raw": "City of Brentwood", "city": "Brentwood", "source_dataset": "TreeKeeper Inventory", "source_department": "City of Brentwood", "source_last_edit_at": ""}}, {"type": "Feature", "geometry": {"type": "Point", "coordinates": [-90.3465736383, 38.6154428466]}, "properties": {"id": "brentwood-3423", "species_group": "crabapple", "scientific_name": "Malus species", "common_name": "flowering (Malus spp.) crabapple", "subtype_name": "flowering (Malus spp.) crabapple", "zip_code": null, "ownership": "public", "ownership_raw": "City of Brentwood", "city": "Brentwood", "source_dataset": "TreeKeeper Inventory", "source_department": "City of Brentwood", "source_last_edit_at": ""}}, {"type": "Feature", "geometry": {"type": "Point", "coordinates": [-90.3466158659, 38.6154468703]}, "properties": {"id": "brentwood-3424", "species_group": "crabapple", "scientific_name": "Malus species", "common_name": "flowering (Malus spp.) crabapple", "subtype_name": "flowering (Malus spp.) crabapple", "zip_code": null, "ownership": "public", "ownership_raw": "City of Brentwood", "city": "Brentwood", "source_dataset": "TreeKeeper Inventory", "source_department": "City of Brentwood", "source_last_edit_at": ""}}, {"type": "Feature", "geometry": {"type": "Point", "coordinates": [-90.3466405492, 38.6154075171]}, "properties": {"id": "brentwood-3425", "species_group": "crabapple", "scientific_name": "Malus species", "common_name": "flowering (Malus spp.) crabapple", "subtype_name": "flowering (Malus spp.) crabapple", "zip_code": null, "ownership": "public", "ownership_raw": "City of Brentwood", "city": "Brentwood", "source_dataset": "TreeKeeper Inventory", "source_department": "City of Brentwood", "source_last_edit_at": ""}}, {"type": "Feature", "geometry": {"type": "Point", "coordinates": [-90.3465779688, 38.615391996]}, "properties": {"id": "brentwood-3426", "species_group": "crabapple", "scientific_name": "Malus species", "common_name": "flowering (Malus spp.) crabapple", "subtype_name": "flowering (Malus spp.) crabapple", "zip_code": null, "ownership": "public", "ownership_raw": "City of Brentwood", "city": "Brentwood", "source_dataset": "TreeKeeper Inventory", "source_department": "City of Brentwood", "source_last_edit_at": ""}}, {"type": "Feature", "geometry": {"type": "Point", "coordinates": [-90.3464315004, 38.616209271]}, "properties": {"id": "brentwood-3435", "species_group": "cherry", "scientific_name": "Prunus species", "common_name": "spp. (Prunus spp.) cherry/plum", "subtype_name": "spp. (Prunus spp.) cherry/plum", "zip_code": null, "ownership": "public", "ownership_raw": "City of Brentwood", "city": "Brentwood", "source_dataset": "TreeKeeper Inventory", "source_department": "City of Brentwood", "source_last_edit_at": ""}}, {"type": "Feature", "geometry": {"type": "Point", "coordinates": [-90.3464922794, 38.6162219788]}, "properties": {"id": "brentwood-3436", "species_group": "cherry", "scientific_name": "Prunus species", "common_name": "spp. (Prunus spp.) cherry/plum", "subtype_name": "spp. (Prunus spp.) cherry/plum", "zip_code": null, "ownership": "public", "ownership_raw": "City of Brentwood", "city": "Brentwood", "source_dataset": "TreeKeeper Inventory", "source_department": "City of Brentwood", "source_last_edit_at": ""}}, {"type": "Feature", "geometry": {"type": "Point", "coordinates": [-90.3465209956, 38.6161743106]}, "properties": {"id": "brentwood-3437", "species_group": "cherry", "scientific_name": "Prunus species", "common_name": "spp. (Prunus spp.) cherry/plum", "subtype_name": "spp. (Prunus spp.) cherry/plum", "zip_code": null, "ownership": "public", "ownership_raw": "City of Brentwood", "city": "Brentwood", "source_dataset": "TreeKeeper Inventory", "source_department": "City of Brentwood", "source_last_edit_at": ""}}, {"type": "Feature", "geometry": {"type": "Point", "coordinates": [-90.3464423565, 38.6161503544]}, "properties": {"id": "brentwood-3438", "species_group": "cherry", "scientific_name": "Prunus species", "common_name": "spp. (Prunus spp.) cherry/plum", "subtype_name": "spp. (Prunus spp.) cherry/plum", "zip_code": null, "ownership": "public", "ownership_raw": "City of Brentwood", "city": "Brentwood", "source_dataset": "TreeKeeper Inventory", "source_department": "City of Brentwood", "source_last_edit_at": ""}}, {"type": "Feature", "geometry": {"type": "Point", "coordinates": [-90.3476658104, 38.6158794349]}, "properties": {"id": "brentwood-3449", "species_group": "cherry", "scientific_name": "Prunus species", "common_name": "spp. (Prunus spp.) cherry/plum", "subtype_name": "spp. (Prunus spp.) cherry/plum", "zip_code": null, "ownership": "public", "ownership_raw": "City of Brentwood", "city": "Brentwood", "source_dataset": "TreeKeeper Inventory", "source_department": "City of Brentwood", "source_last_edit_at": ""}}, {"type": "Feature", "geometry": {"type": "Point", "coordinates": [-90.3476886014, 38.6157893296]}, "properties": {"id": "brentwood-3451", "species_group": "cherry", "scientific_name": "Prunus species", "common_name": "spp. (Prunus spp.) cherry/plum", "subtype_name": "spp. (Prunus spp.) cherry/plum", "zip_code": null, "ownership": "public", "ownership_raw": "City of Brentwood", "city": "Brentwood", "source_dataset": "TreeKeeper Inventory", "source_department": "City of Brentwood", "source_last_edit_at": ""}}, {"type": "Feature", "geometry": {"type": "Point", "coordinates": [-90.347798864, 38.6142594679]}, "properties": {"id": "brentwood-3483", "species_group": "cherry", "scientific_name": "Prunus species", "common_name": "cherrybark (Quercus pagoda) oak", "subtype_name": "cherrybark (Quercus pagoda) oak", "zip_code": null, "ownership": "public", "ownership_raw": "City of Brentwood", "city": "Brentwood", "source_dataset": "TreeKeeper Inventory", "source_department": "City of Brentwood", "source_last_edit_at": ""}}, {"type": "Feature", "geometry": {"type": "Point", "coordinates": [-90.3410529079, 38.6197086082]}, "properties": {"id": "brentwood-3525", "species_group": "cherry", "scientific_name": "Prunus species", "common_name": "cherrybark (Quercus pagoda) oak", "subtype_name": "cherrybark (Quercus pagoda) oak", "zip_code": null, "ownership": "public", "ownership_raw": "City of Brentwood", "city": "Brentwood", "source_dataset": "TreeKeeper Inventory", "source_department": "City of Brentwood", "source_last_edit_at": ""}}, {"type": "Feature", "geometry": {"type": "Point", "coordinates": [-90.3406652378, 38.6197176828]}, "properties": {"id": "brentwood-3527", "species_group": "cherry", "scientific_name": "Prunus species", "common_name": "spp. (Prunus spp.) cherry/plum", "subtype_name": "spp. (Prunus spp.) cherry/plum", "zip_code": null, "ownership": "public", "ownership_raw": "City of Brentwood", "city": "Brentwood", "source_dataset": "TreeKeeper Inventory", "source_department": "City of Brentwood", "source_last_edit_at": ""}}, {"type": "Feature", "geometry": {"type": "Point", "coordinates": [-90.3408326324, 38.619807592]}, "properties": {"id": "brentwood-3538", "species_group": "cherry", "scientific_name": "Prunus species", "common_name": "spp. (Prunus spp.) cherry/plum", "subtype_name": "spp. (Prunus spp.) cherry/plum", "zip_code": null, "ownership": "public", "ownership_raw": "City of Brentwood", "city": "Brentwood", "source_dataset": "TreeKeeper Inventory", "source_department": "City of Brentwood", "source_last_edit_at": ""}}, {"type": "Feature", "geometry": {"type": "Point", "coordinates": [-90.3420223714, 38.6198167928]}, "properties": {"id": "brentwood-3550", "species_group": "cherry", "scientific_name": "Prunus species", "common_name": "spp. (Prunus spp.) cherry/plum", "subtype_name": "spp. (Prunus spp.) cherry/plum", "zip_code": null, "ownership": "public", "ownership_raw": "City of Brentwood", "city": "Brentwood", "source_dataset": "TreeKeeper Inventory", "source_department": "City of Brentwood", "source_last_edit_at": ""}}, {"type": "Feature", "geometry": {"type": "Point", "coordinates": [-90.3421061803, 38.619827024]}, "properties": {"id": "brentwood-3551", "species_group": "cherry", "scientific_name": "Prunus species", "common_name": "spp. (Prunus spp.) cherry/plum", "subtype_name": "spp. (Prunus spp.) cherry/plum", "zip_code": null, "ownership": "public", "ownership_raw": "City of Brentwood", "city": "Brentwood", "source_dataset": "TreeKeeper Inventory", "source_department": "City of Brentwood", "source_last_edit_at": ""}}, {"type": "Feature", "geometry": {"type": "Point", "coordinates": [-90.3429122536, 38.6198255794]}, "properties": {"id": "brentwood-3557", "species_group": "cherry", "scientific_name": "Prunus species", "common_name": "spp. (Prunus spp.) cherry/plum", "subtype_name": "spp. (Prunus spp.) cherry/plum", "zip_code": null, "ownership": "public", "ownership_raw": "City of Brentwood", "city": "Brentwood", "source_dataset": "TreeKeeper Inventory", "source_department": "City of Brentwood", "source_last_edit_at": ""}}, {"type": "Feature", "geometry": {"type": "Point", "coordinates": [-90.3430251114, 38.6198219366]}, "properties": {"id": "brentwood-3558", "species_group": "cherry", "scientific_name": "Prunus species", "common_name": "spp. (Prunus spp.) cherry/plum", "subtype_name": "spp. (Prunus spp.) cherry/plum", "zip_code": null, "ownership": "public", "ownership_raw": "City of Brentwood", "city": "Brentwood", "source_dataset": "TreeKeeper Inventory", "source_department": "City of Brentwood", "source_last_edit_at": ""}}, {"type": "Feature", "geometry": {"type": "Point", "coordinates": [-90.3393688283, 38.6187644041]}, "properties": {"id": "brentwood-3590", "species_group": "cherry", "scientific_name": "Prunus x yedoensis", "common_name": "Yoshino Cherry", "subtype_name": "Yoshino", "zip_code": null, "ownership": "public", "ownership_raw": "City of Brentwood", "city": "Brentwood", "source_dataset": "TreeKeeper Inventory", "source_department": "City of Brentwood", "source_last_edit_at": ""}}, {"type": "Feature", "geometry": {"type": "Point", "coordinates": [-90.3443020907, 38.6189008937]}, "properties": {"id": "brentwood-3617", "species_group": "cherry", "scientific_name": "Prunus species", "common_name": "spp. (Prunus spp.) cherry/plum", "subtype_name": "spp. (Prunus spp.) cherry/plum", "zip_code": null, "ownership": "public", "ownership_raw": "City of Brentwood", "city": "Brentwood", "source_dataset": "TreeKeeper Inventory", "source_department": "City of Brentwood", "source_last_edit_at": ""}}, {"type": "Feature", "geometry": {"type": "Point", "coordinates": [-90.3432270276, 38.6187880887]}, "properties": {"id": "brentwood-3632", "species_group": "cherry", "scientific_name": "Prunus species", "common_name": "spp. (Prunus spp.) cherry/plum", "subtype_name": "spp. (Prunus spp.) cherry/plum", "zip_code": null, "ownership": "public", "ownership_raw": "City of Brentwood", "city": "Brentwood", "source_dataset": "TreeKeeper Inventory", "source_department": "City of Brentwood", "source_last_edit_at": ""}}, {"type": "Feature", "geometry": {"type": "Point", "coordinates": [-90.3391289779, 38.6188766328]}, "properties": {"id": "brentwood-3666", "species_group": "magnolia", "scientific_name": "Magnolia species", "common_name": "southern (Magnolia grandiflora) magnolia", "subtype_name": "Southern Magnolia", "zip_code": null, "ownership": "public", "ownership_raw": "City of Brentwood", "city": "Brentwood", "source_dataset": "TreeKeeper Inventory", "source_department": "City of Brentwood", "source_last_edit_at": ""}}, {"type": "Feature", "geometry": {"type": "Point", "coordinates": [-90.3399411889, 38.6188842268]}, "properties": {"id": "brentwood-3672", "species_group": "cherry", "scientific_name": "Prunus species", "common_name": "spp. (Prunus spp.) cherry/plum", "subtype_name": "spp. (Prunus spp.) cherry/plum", "zip_code": null, "ownership": "public", "ownership_raw": "City of Brentwood", "city": "Brentwood", "source_dataset": "TreeKeeper Inventory", "source_department": "City of Brentwood", "source_last_edit_at": ""}}, {"type": "Feature", "geometry": {"type": "Point", "coordinates": [-90.3402770875, 38.6188868459]}, "properties": {"id": "brentwood-3674", "species_group": "cherry", "scientific_name": "Prunus species", "common_name": "spp. (Prunus spp.) cherry/plum", "subtype_name": "spp. (Prunus spp.) cherry/plum", "zip_code": null, "ownership": "public", "ownership_raw": "City of Brentwood", "city": "Brentwood", "source_dataset": "TreeKeeper Inventory", "source_department": "City of Brentwood", "source_last_edit_at": ""}}, {"type": "Feature", "geometry": {"type": "Point", "coordinates": [-90.3407809475, 38.6188853725]}, "properties": {"id": "brentwood-3677", "species_group": "cherry", "scientific_name": "Prunus species", "common_name": "cherrybark (Quercus pagoda) oak", "subtype_name": "cherrybark (Quercus pagoda) oak", "zip_code": null, "ownership": "public", "ownership_raw": "City of Brentwood", "city": "Brentwood", "source_dataset": "TreeKeeper Inventory", "source_department": "City of Brentwood", "source_last_edit_at": ""}}, {"type": "Feature", "geometry": {"type": "Point", "coordinates": [-90.3381407758, 38.6223171494]}, "properties": {"id": "brentwood-3742", "species_group": "crabapple", "scientific_name": "Malus species", "common_name": "flowering (Malus spp.) crabapple", "subtype_name": "flowering (Malus spp.) crabapple", "zip_code": null, "ownership": "public", "ownership_raw": "City of Brentwood", "city": "Brentwood", "source_dataset": "TreeKeeper Inventory", "source_department": "City of Brentwood", "source_last_edit_at": ""}}, {"type": "Feature", "geometry": {"type": "Point", "coordinates": [-90.3380192137, 38.6223059753]}, "properties": {"id": "brentwood-3744", "species_group": "crabapple", "scientific_name": "Malus species", "common_name": "flowering (Malus spp.) crabapple", "subtype_name": "flowering (Malus spp.) crabapple", "zip_code": null, "ownership": "public", "ownership_raw": "City of Brentwood", "city": "Brentwood", "source_dataset": "TreeKeeper Inventory", "source_department": "City of Brentwood", "source_last_edit_at": ""}}, {"type": "Feature", "geometry": {"type": "Point", "coordinates": [-90.3464341503, 38.6205897656]}, "properties": {"id": "brentwood-3801", "species_group": "cherry", "scientific_name": "Prunus species", "common_name": "cherrybark (Quercus pagoda) oak", "subtype_name": "cherrybark (Quercus pagoda) oak", "zip_code": null, "ownership": "public", "ownership_raw": "City of Brentwood", "city": "Brentwood", "source_dataset": "TreeKeeper Inventory", "source_department": "City of Brentwood", "source_last_edit_at": ""}}, {"type": "Feature", "geometry": {"type": "Point", "coordinates": [-90.3453575724, 38.6205846851]}, "properties": {"id": "brentwood-3805", "species_group": "magnolia", "scientific_name": "Magnolia species", "common_name": "sweetbay (Magnolia virginiana) magnolia", "subtype_name": "Sweetbay Magnolia", "zip_code": null, "ownership": "public", "ownership_raw": "City of Brentwood", "city": "Brentwood", "source_dataset": "TreeKeeper Inventory", "source_department": "City of Brentwood", "source_last_edit_at": ""}}, {"type": "Feature", "geometry": {"type": "Point", "coordinates": [-90.3446144443, 38.6207455875]}, "properties": {"id": "brentwood-3811", "species_group": "cherry", "scientific_name": "Prunus species", "common_name": "spp. (Prunus spp.) cherry/plum", "subtype_name": "spp. (Prunus spp.) cherry/plum", "zip_code": null, "ownership": "public", "ownership_raw": "City of Brentwood", "city": "Brentwood", "source_dataset": "TreeKeeper Inventory", "source_department": "City of Brentwood", "source_last_edit_at": ""}}, {"type": "Feature", "geometry": {"type": "Point", "coordinates": [-90.347134896, 38.6214777645]}, "properties": {"id": "brentwood-3829", "species_group": "cherry", "scientific_name": "Prunus species", "common_name": "spp. (Prunus spp.) cherry/plum", "subtype_name": "spp. (Prunus spp.) cherry/plum", "zip_code": null, "ownership": "public", "ownership_raw": "City of Brentwood", "city": "Brentwood", "source_dataset": "TreeKeeper Inventory", "source_department": "City of Brentwood", "source_last_edit_at": ""}}, {"type": "Feature", "geometry": {"type": "Point", "coordinates": [-90.3469892423, 38.621473179]}, "properties": {"id": "brentwood-3830", "species_group": "cherry", "scientific_name": "Prunus species", "common_name": "spp. (Prunus spp.) cherry/plum", "subtype_name": "spp. (Prunus spp.) cherry/plum", "zip_code": null, "ownership": "public", "ownership_raw": "City of Brentwood", "city": "Brentwood", "source_dataset": "TreeKeeper Inventory", "source_department": "City of Brentwood", "source_last_edit_at": ""}}, {"type": "Feature", "geometry": {"type": "Point", "coordinates": [-90.3460032346, 38.6214630952]}, "properties": {"id": "brentwood-3834", "species_group": "cherry", "scientific_name": "Prunus species", "common_name": "spp. (Prunus spp.) cherry/plum", "subtype_name": "spp. (Prunus spp.) cherry/plum", "zip_code": null, "ownership": "public", "ownership_raw": "City of Brentwood", "city": "Brentwood", "source_dataset": "TreeKeeper Inventory", "source_department": "City of Brentwood", "source_last_edit_at": ""}}, {"type": "Feature", "geometry": {"type": "Point", "coordinates": [-90.345246917, 38.621457702239]}, "properties": {"id": "brentwood-3837", "species_group": "cherry", "scientific_name": "Prunus species", "common_name": "spp. (Prunus spp.) cherry/plum", "subtype_name": "spp. (Prunus spp.) cherry/plum", "zip_code": null, "ownership": "public", "ownership_raw": "City of Brentwood", "city": "Brentwood", "source_dataset": "TreeKeeper Inventory", "source_department": "City of Brentwood", "source_last_edit_at": ""}}, {"type": "Feature", "geometry": {"type": "Point", "coordinates": [-90.3468639595, 38.6215491971]}, "properties": {"id": "brentwood-3841", "species_group": "cherry", "scientific_name": "Prunus species", "common_name": "spp. (Prunus spp.) cherry/plum", "subtype_name": "spp. (Prunus spp.) cherry/plum", "zip_code": null, "ownership": "public", "ownership_raw": "City of Brentwood", "city": "Brentwood", "source_dataset": "TreeKeeper Inventory", "source_department": "City of Brentwood", "source_last_edit_at": ""}}, {"type": "Feature", "geometry": {"type": "Point", "coordinates": [-90.3466146746, 38.6221160581]}, "properties": {"id": "brentwood-3848", "species_group": "magnolia", "scientific_name": "Magnolia species", "common_name": "cucumbertree (Magnolia acuminata) magnolia", "subtype_name": "cucumbertree (Magnolia acuminata) magnolia", "zip_code": null, "ownership": "public", "ownership_raw": "City of Brentwood", "city": "Brentwood", "source_dataset": "TreeKeeper Inventory", "source_department": "City of Brentwood", "source_last_edit_at": ""}}, {"type": "Feature", "geometry": {"type": "Point", "coordinates": [-90.3396121708, 38.6170597388]}, "properties": {"id": "brentwood-3861", "species_group": "cherry", "scientific_name": "Prunus species", "common_name": "spp. (Prunus spp.) cherry/plum", "subtype_name": "spp. (Prunus spp.) cherry/plum", "zip_code": null, "ownership": "public", "ownership_raw": "City of Brentwood", "city": "Brentwood", "source_dataset": "TreeKeeper Inventory", "source_department": "City of Brentwood", "source_last_edit_at": ""}}, {"type": "Feature", "geometry": {"type": "Point", "coordinates": [-90.34782035891, 38.622711932712]}, "properties": {"id": "brentwood-3911", "species_group": "magnolia", "scientific_name": "Magnolia species", "common_name": "sweetbay (Magnolia virginiana) magnolia", "subtype_name": "Sweetbay Magnolia", "zip_code": null, "ownership": "public", "ownership_raw": "City of Brentwood", "city": "Brentwood", "source_dataset": "TreeKeeper Inventory", "source_department": "City of Brentwood", "source_last_edit_at": ""}}, {"type": "Feature", "geometry": {"type": "Point", "coordinates": [-90.3448332498, 38.6240178373]}, "properties": {"id": "brentwood-3999", "species_group": "magnolia", "scientific_name": "Magnolia species", "common_name": "southern (Magnolia grandiflora) magnolia", "subtype_name": "Southern Magnolia", "zip_code": null, "ownership": "public", "ownership_raw": "City of Brentwood", "city": "Brentwood", "source_dataset": "TreeKeeper Inventory", "source_department": "City of Brentwood", "source_last_edit_at": ""}}, {"type": "Feature", "geometry": {"type": "Point", "coordinates": [-90.3551522261, 38.6093921921]}, "properties": {"id": "brentwood-4041", "species_group": "cherry", "scientific_name": "Prunus species", "common_name": "spp. (Prunus spp.) cherry/plum", "subtype_name": "spp. (Prunus spp.) cherry/plum", "zip_code": null, "ownership": "public", "ownership_raw": "City of Brentwood", "city": "Brentwood", "source_dataset": "TreeKeeper Inventory", "source_department": "City of Brentwood", "source_last_edit_at": ""}}, {"type": "Feature", "geometry": {"type": "Point", "coordinates": [-90.3447065292, 38.6233718828]}, "properties": {"id": "brentwood-4149", "species_group": "cherry", "scientific_name": "Prunus species", "common_name": "cherrybark (Quercus pagoda) oak", "subtype_name": "cherrybark (Quercus pagoda) oak", "zip_code": null, "ownership": "public", "ownership_raw": "City of Brentwood", "city": "Brentwood", "source_dataset": "TreeKeeper Inventory", "source_department": "City of Brentwood", "source_last_edit_at": ""}}, {"type": "Feature", "geometry": {"type": "Point", "coordinates": [-90.3481052434, 38.6117846239]}, "properties": {"id": "brentwood-4230", "species_group": "crabapple", "scientific_name": "Malus species", "common_name": "flowering (Malus spp.) crabapple", "subtype_name": "flowering (Malus spp.) crabapple", "zip_code": null, "ownership": "public", "ownership_raw": "City of Brentwood", "city": "Brentwood", "source_dataset": "TreeKeeper Inventory", "source_department": "City of Brentwood", "source_last_edit_at": ""}}, {"type": "Feature", "geometry": {"type": "Point", "coordinates": [-90.3360532982, 38.6139763309]}, "properties": {"id": "brentwood-4248", "species_group": "crabapple", "scientific_name": "Malus species", "common_name": "flowering (Malus spp.) crabapple", "subtype_name": "flowering (Malus spp.) crabapple", "zip_code": null, "ownership": "public", "ownership_raw": "City of Brentwood", "city": "Brentwood", "source_dataset": "TreeKeeper Inventory", "source_department": "City of Brentwood", "source_last_edit_at": ""}}, {"type": "Feature", "geometry": {"type": "Point", "coordinates": [-90.3361409056, 38.6139996007]}, "properties": {"id": "brentwood-4249", "species_group": "crabapple", "scientific_name": "Malus species", "common_name": "flowering (Malus spp.) crabapple", "subtype_name": "flowering (Malus spp.) crabapple", "zip_code": null, "ownership": "public", "ownership_raw": "City of Brentwood", "city": "Brentwood", "source_dataset": "TreeKeeper Inventory", "source_department": "City of Brentwood", "source_last_edit_at": ""}}, {"type": "Feature", "geometry": {"type": "Point", "coordinates": [-90.3362847175, 38.6140410536]}, "properties": {"id": "brentwood-4276", "species_group": "magnolia", "scientific_name": "Magnolia species", "common_name": "sweetbay (Magnolia virginiana) magnolia", "subtype_name": "Sweetbay Magnolia", "zip_code": null, "ownership": "public", "ownership_raw": "City of Brentwood", "city": "Brentwood", "source_dataset": "TreeKeeper Inventory", "source_department": "City of Brentwood", "source_last_edit_at": ""}}, {"type": "Feature", "geometry": {"type": "Point", "coordinates": [-90.3380708835, 38.6142156101]}, "properties": {"id": "brentwood-4328", "species_group": "magnolia", "scientific_name": "Magnolia species", "common_name": "star (Magnolia stellata) magnolia", "subtype_name": "Star Magnolia", "zip_code": null, "ownership": "public", "ownership_raw": "City of Brentwood", "city": "Brentwood", "source_dataset": "TreeKeeper Inventory", "source_department": "City of Brentwood", "source_last_edit_at": ""}}, {"type": "Feature", "geometry": {"type": "Point", "coordinates": [-90.343301957102, 38.6289534004]}, "properties": {"id": "brentwood-4358", "species_group": "crabapple", "scientific_name": "Malus species", "common_name": "flowering (Malus spp.) crabapple", "subtype_name": "flowering (Malus spp.) crabapple", "zip_code": null, "ownership": "public", "ownership_raw": "City of Brentwood", "city": "Brentwood", "source_dataset": "TreeKeeper Inventory", "source_department": "City of Brentwood", "source_last_edit_at": ""}}, {"type": "Feature", "geometry": {"type": "Point", "coordinates": [-90.3483195695, 38.6277395474]}, "properties": {"id": "brentwood-4365", "species_group": "crabapple", "scientific_name": "Malus species", "common_name": "flowering (Malus spp.) crabapple", "subtype_name": "flowering (Malus spp.) crabapple", "zip_code": null, "ownership": "public", "ownership_raw": "City of Brentwood", "city": "Brentwood", "source_dataset": "TreeKeeper Inventory", "source_department": "City of Brentwood", "source_last_edit_at": ""}}, {"type": "Feature", "geometry": {"type": "Point", "coordinates": [-90.3483026884, 38.6279088864]}, "properties": {"id": "brentwood-4370", "species_group": "crabapple", "scientific_name": "Malus species", "common_name": "flowering (Malus spp.) crabapple", "subtype_name": "flowering (Malus spp.) crabapple", "zip_code": null, "ownership": "public", "ownership_raw": "City of Brentwood", "city": "Brentwood", "source_dataset": "TreeKeeper Inventory", "source_department": "City of Brentwood", "source_last_edit_at": ""}}, {"type": "Feature", "geometry": {"type": "Point", "coordinates": [-90.3483035006, 38.6279361762]}, "properties": {"id": "brentwood-4371", "species_group": "crabapple", "scientific_name": "Malus species", "common_name": "flowering (Malus spp.) crabapple", "subtype_name": "flowering (Malus spp.) crabapple", "zip_code": null, "ownership": "public", "ownership_raw": "City of Brentwood", "city": "Brentwood", "source_dataset": "TreeKeeper Inventory", "source_department": "City of Brentwood", "source_last_edit_at": ""}}, {"type": "Feature", "geometry": {"type": "Point", "coordinates": [-90.356333859986, 38.62850135]}, "properties": {"id": "brentwood-4439", "species_group": "magnolia", "scientific_name": "Magnolia species", "common_name": "saucer (Magnolia x soulangiana) magnolia", "subtype_name": "Saucer Magnolia", "zip_code": null, "ownership": "public", "ownership_raw": "City of Brentwood", "city": "Brentwood", "source_dataset": "TreeKeeper Inventory", "source_department": "City of Brentwood", "source_last_edit_at": ""}}, {"type": "Feature", "geometry": {"type": "Point", "coordinates": [-90.3514915388, 38.6270655967]}, "properties": {"id": "brentwood-4563", "species_group": "crabapple", "scientific_name": "Malus species", "common_name": "flowering (Malus spp.) crabapple", "subtype_name": "flowering (Malus spp.) crabapple", "zip_code": null, "ownership": "public", "ownership_raw": "City of Brentwood", "city": "Brentwood", "source_dataset": "TreeKeeper Inventory", "source_department": "City of Brentwood", "source_last_edit_at": ""}}, {"type": "Feature", "geometry": {"type": "Point", "coordinates": [-90.3500039052, 38.627638668]}, "properties": {"id": "brentwood-4572", "species_group": "magnolia", "scientific_name": "Magnolia species", "common_name": "saucer (Magnolia x soulangiana) magnolia", "subtype_name": "Saucer Magnolia", "zip_code": null, "ownership": "public", "ownership_raw": "City of Brentwood", "city": "Brentwood", "source_dataset": "TreeKeeper Inventory", "source_department": "City of Brentwood", "source_last_edit_at": ""}}, {"type": "Feature", "geometry": {"type": "Point", "coordinates": [-90.3490677422, 38.6157637068]}, "properties": {"id": "brentwood-4687", "species_group": "magnolia", "scientific_name": "Magnolia species", "common_name": "star (Magnolia stellata) magnolia", "subtype_name": "Star Magnolia", "zip_code": null, "ownership": "public", "ownership_raw": "City of Brentwood", "city": "Brentwood", "source_dataset": "TreeKeeper Inventory", "source_department": "City of Brentwood", "source_last_edit_at": ""}}, {"type": "Feature", "geometry": {"type": "Point", "coordinates": [-90.349205678463, 38.616395586167]}, "properties": {"id": "brentwood-4723", "species_group": "magnolia", "scientific_name": "Magnolia species", "common_name": "saucer (Magnolia x soulangiana) magnolia", "subtype_name": "Saucer Magnolia", "zip_code": null, "ownership": "public", "ownership_raw": "City of Brentwood", "city": "Brentwood", "source_dataset": "TreeKeeper Inventory", "source_department": "City of Brentwood", "source_last_edit_at": ""}}, {"type": "Feature", "geometry": {"type": "Point", "coordinates": [-90.348164436031, 38.613541451884]}, "properties": {"id": "brentwood-4846", "species_group": "cherry", "scientific_name": "Prunus species", "common_name": "spp. (Prunus spp.) cherry/plum", "subtype_name": "spp. (Prunus spp.) cherry/plum", "zip_code": null, "ownership": "public", "ownership_raw": "City of Brentwood", "city": "Brentwood", "source_dataset": "TreeKeeper Inventory", "source_department": "City of Brentwood", "source_last_edit_at": ""}}, {"type": "Feature", "geometry": {"type": "Point", "coordinates": [-90.3460344788, 38.6168706419]}, "properties": {"id": "brentwood-4849", "species_group": "magnolia", "scientific_name": "Magnolia species", "common_name": "saucer (Magnolia x soulangiana) magnolia", "subtype_name": "Saucer Magnolia", "zip_code": null, "ownership": "public", "ownership_raw": "City of Brentwood", "city": "Brentwood", "source_dataset": "TreeKeeper Inventory", "source_department": "City of Brentwood", "source_last_edit_at": ""}}, {"type": "Feature", "geometry": {"type": "Point", "coordinates": [-90.348100501568, 38.613525894128]}, "properties": {"id": "brentwood-4864", "species_group": "cherry", "scientific_name": "Prunus species", "common_name": "spp. (Prunus spp.) cherry/plum", "subtype_name": "spp. (Prunus spp.) cherry/plum", "zip_code": null, "ownership": "public", "ownership_raw": "City of Brentwood", "city": "Brentwood", "source_dataset": "TreeKeeper Inventory", "source_department": "City of Brentwood", "source_last_edit_at": ""}}, {"type": "Feature", "geometry": {"type": "Point", "coordinates": [-90.3405955005, 38.6197106974]}, "properties": {"id": "brentwood-4898", "species_group": "cherry", "scientific_name": "Prunus species", "common_name": "spp. (Prunus spp.) cherry/plum", "subtype_name": "spp. (Prunus spp.) cherry/plum", "zip_code": null, "ownership": "public", "ownership_raw": "City of Brentwood", "city": "Brentwood", "source_dataset": "TreeKeeper Inventory", "source_department": "City of Brentwood", "source_last_edit_at": ""}}, {"type": "Feature", "geometry": {"type": "Point", "coordinates": [-90.3438665146, 38.6210865059]}, "properties": {"id": "brentwood-4931", "species_group": "cherry", "scientific_name": "Prunus species", "common_name": "black (Prunus serotina) cherry", "subtype_name": "black (Prunus serotina) cherry", "zip_code": null, "ownership": "public", "ownership_raw": "City of Brentwood", "city": "Brentwood", "source_dataset": "TreeKeeper Inventory", "source_department": "City of Brentwood", "source_last_edit_at": ""}}, {"type": "Feature", "geometry": {"type": "Point", "coordinates": [-90.3466665033, 38.6222172521]}, "properties": {"id": "brentwood-4933", "species_group": "crabapple", "scientific_name": "Malus species", "common_name": "flowering (Malus spp.) crabapple", "subtype_name": "flowering (Malus spp.) crabapple", "zip_code": null, "ownership": "public", "ownership_raw": "City of Brentwood", "city": "Brentwood", "source_dataset": "TreeKeeper Inventory", "source_department": "City of Brentwood", "source_last_edit_at": ""}}, {"type": "Feature", "geometry": {"type": "Point", "coordinates": [-90.3455340028, 38.6287378878]}, "properties": {"id": "brentwood-4972", "species_group": "magnolia", "scientific_name": "Magnolia species", "common_name": "saucer (Magnolia x soulangiana) magnolia", "subtype_name": "Saucer Magnolia", "zip_code": null, "ownership": "public", "ownership_raw": "City of Brentwood", "city": "Brentwood", "source_dataset": "TreeKeeper Inventory", "source_department": "City of Brentwood", "source_last_edit_at": ""}}, {"type": "Feature", "geometry": {"type": "Point", "coordinates": [-90.3455045452, 38.6287665675]}, "properties": {"id": "brentwood-4987", "species_group": "magnolia", "scientific_name": "Magnolia species", "common_name": "saucer (Magnolia x soulangiana) magnolia", "subtype_name": "Saucer Magnolia", "zip_code": null, "ownership": "public", "ownership_raw": "City of Brentwood", "city": "Brentwood", "source_dataset": "TreeKeeper Inventory", "source_department": "City of Brentwood", "source_last_edit_at": ""}}, {"type": "Feature", "geometry": {"type": "Point", "coordinates": [-90.3366899376, 38.6207682041]}, "properties": {"id": "brentwood-4988", "species_group": "crabapple", "scientific_name": "Malus species", "common_name": "flowering (Malus spp.) crabapple", "subtype_name": "flowering (Malus spp.) crabapple", "zip_code": null, "ownership": "public", "ownership_raw": "City of Brentwood", "city": "Brentwood", "source_dataset": "TreeKeeper Inventory", "source_department": "City of Brentwood", "source_last_edit_at": ""}}, {"type": "Feature", "geometry": {"type": "Point", "coordinates": [-90.3455811571, 38.62884319]}, "properties": {"id": "brentwood-4995", "species_group": "crabapple", "scientific_name": "Malus species", "common_name": "flowering (Malus spp.) crabapple", "subtype_name": "flowering (Malus spp.) crabapple", "zip_code": null, "ownership": "public", "ownership_raw": "City of Brentwood", "city": "Brentwood", "source_dataset": "TreeKeeper Inventory", "source_department": "City of Brentwood", "source_last_edit_at": ""}}, {"type": "Feature", "geometry": {"type": "Point", "coordinates": [-90.3455255402, 38.6288543306]}, "properties": {"id": "brentwood-5005", "species_group": "crabapple", "scientific_name": "Malus species", "common_name": "flowering (Malus spp.) crabapple", "subtype_name": "flowering (Malus spp.) crabapple", "zip_code": null, "ownership": "public", "ownership_raw": "City of Brentwood", "city": "Brentwood", "source_dataset": "TreeKeeper Inventory", "source_department": "City of Brentwood", "source_last_edit_at": ""}}, {"type": "Feature", "geometry": {"type": "Point", "coordinates": [-90.3454749145, 38.6288543306]}, "properties": {"id": "brentwood-5021", "species_group": "crabapple", "scientific_name": "Malus species", "common_name": "flowering (Malus spp.) crabapple", "subtype_name": "flowering (Malus spp.) crabapple", "zip_code": null, "ownership": "public", "ownership_raw": "City of Brentwood", "city": "Brentwood", "source_dataset": "TreeKeeper Inventory", "source_department": "City of Brentwood", "source_last_edit_at": ""}}, {"type": "Feature", "geometry": {"type": "Point", "coordinates": [-90.3455583399, 38.6290827122]}, "properties": {"id": "brentwood-5025", "species_group": "cherry", "scientific_name": "Prunus species", "common_name": "spp. (Prunus spp.) cherry/plum", "subtype_name": "spp. (Prunus spp.) cherry/plum", "zip_code": null, "ownership": "public", "ownership_raw": "City of Brentwood", "city": "Brentwood", "source_dataset": "TreeKeeper Inventory", "source_department": "City of Brentwood", "source_last_edit_at": ""}}, {"type": "Feature", "geometry": {"type": "Point", "coordinates": [-90.3523971808, 38.6257648105]}, "properties": {"id": "brentwood-5027", "species_group": "magnolia", "scientific_name": "Magnolia species", "common_name": "sweetbay (Magnolia virginiana) magnolia", "subtype_name": "Sweetbay Magnolia", "zip_code": null, "ownership": "public", "ownership_raw": "City of Brentwood", "city": "Brentwood", "source_dataset": "TreeKeeper Inventory", "source_department": "City of Brentwood", "source_last_edit_at": ""}}, {"type": "Feature", "geometry": {"type": "Point", "coordinates": [-90.3455472482, 38.6291991308]}, "properties": {"id": "brentwood-5034", "species_group": "cherry", "scientific_name": "Prunus species", "common_name": "spp. (Prunus spp.) cherry/plum", "subtype_name": "spp. (Prunus spp.) cherry/plum", "zip_code": null, "ownership": "public", "ownership_raw": "City of Brentwood", "city": "Brentwood", "source_dataset": "TreeKeeper Inventory", "source_department": "City of Brentwood", "source_last_edit_at": ""}}, {"type": "Feature", "geometry": {"type": "Point", "coordinates": [-90.3454421148, 38.6288359486]}, "properties": {"id": "brentwood-5036", "species_group": "crabapple", "scientific_name": "Malus species", "common_name": "flowering (Malus spp.) crabapple", "subtype_name": "flowering (Malus spp.) crabapple", "zip_code": null, "ownership": "public", "ownership_raw": "City of Brentwood", "city": "Brentwood", "source_dataset": "TreeKeeper Inventory", "source_department": "City of Brentwood", "source_last_edit_at": ""}}, {"type": "Feature", "geometry": {"type": "Point", "coordinates": [-90.3455815533, 38.6287320317]}, "properties": {"id": "brentwood-5066", "species_group": "magnolia", "scientific_name": "Magnolia species", "common_name": "saucer (Magnolia x soulangiana) magnolia", "subtype_name": "Saucer Magnolia", "zip_code": null, "ownership": "public", "ownership_raw": "City of Brentwood", "city": "Brentwood", "source_dataset": "TreeKeeper Inventory", "source_department": "City of Brentwood", "source_last_edit_at": ""}}, {"type": "Feature", "geometry": {"type": "Point", "coordinates": [-90.3529006418, 38.6279111921]}, "properties": {"id": "brentwood-5081", "species_group": "magnolia", "scientific_name": "Magnolia species", "common_name": "saucer (Magnolia x soulangiana) magnolia", "subtype_name": "Saucer Magnolia", "zip_code": null, "ownership": "public", "ownership_raw": "City of Brentwood", "city": "Brentwood", "source_dataset": "TreeKeeper Inventory", "source_department": "City of Brentwood", "source_last_edit_at": ""}}, {"type": "Feature", "geometry": {"type": "Point", "coordinates": [-90.34938016291, 38.6226687809]}, "properties": {"id": "brentwood-5112", "species_group": "cherry", "scientific_name": "Prunus species", "common_name": "common (Prunus virginiana) chokecherry", "subtype_name": "common (Prunus virginiana) chokecherry", "zip_code": null, "ownership": "public", "ownership_raw": "City of Brentwood", "city": "Brentwood", "source_dataset": "TreeKeeper Inventory", "source_department": "City of Brentwood", "source_last_edit_at": ""}}, {"type": "Feature", "geometry": {"type": "Point", "coordinates": [-90.3446279367, 38.6233213749]}, "properties": {"id": "brentwood-5180", "species_group": "magnolia", "scientific_name": "Magnolia species", "common_name": "cucumbertree (Magnolia acuminata) magnolia", "subtype_name": "cucumbertree (Magnolia acuminata) magnolia", "zip_code": null, "ownership": "public", "ownership_raw": "City of Brentwood", "city": "Brentwood", "source_dataset": "TreeKeeper Inventory", "source_department": "City of Brentwood", "source_last_edit_at": ""}}, {"type": "Feature", "geometry": {"type": "Point", "coordinates": [-90.349331424922, 38.6226673456]}, "properties": {"id": "brentwood-5187", "species_group": "cherry", "scientific_name": "Prunus species", "common_name": "common (Prunus virginiana) chokecherry", "subtype_name": "common (Prunus virginiana) chokecherry", "zip_code": null, "ownership": "public", "ownership_raw": "City of Brentwood", "city": "Brentwood", "source_dataset": "TreeKeeper Inventory", "source_department": "City of Brentwood", "source_last_edit_at": ""}}, {"type": "Feature", "geometry": {"type": "Point", "coordinates": [-90.3421126754, 38.6215558059]}, "properties": {"id": "brentwood-5228", "species_group": "magnolia", "scientific_name": "Magnolia species", "common_name": "star (Magnolia stellata) magnolia", "subtype_name": "Star Magnolia", "zip_code": null, "ownership": "public", "ownership_raw": "City of Brentwood", "city": "Brentwood", "source_dataset": "TreeKeeper Inventory", "source_department": "City of Brentwood", "source_last_edit_at": ""}}, {"type": "Feature", "geometry": {"type": "Point", "coordinates": [-90.3360067147, 38.6149734436]}, "properties": {"id": "brentwood-5321", "species_group": "cherry", "scientific_name": "Prunus species", "common_name": "spp. (Prunus spp.) cherry/plum", "subtype_name": "spp. (Prunus spp.) cherry/plum", "zip_code": null, "ownership": "public", "ownership_raw": "City of Brentwood", "city": "Brentwood", "source_dataset": "TreeKeeper Inventory", "source_department": "City of Brentwood", "source_last_edit_at": ""}}, {"type": "Feature", "geometry": {"type": "Point", "coordinates": [-90.3431732503, 38.6220087073]}, "properties": {"id": "brentwood-5340", "species_group": "cherry", "scientific_name": "Prunus species", "common_name": "cherrybark (Quercus pagoda) oak", "subtype_name": "cherrybark (Quercus pagoda) oak", "zip_code": null, "ownership": "public", "ownership_raw": "City of Brentwood", "city": "Brentwood", "source_dataset": "TreeKeeper Inventory", "source_department": "City of Brentwood", "source_last_edit_at": ""}}, {"type": "Feature", "geometry": {"type": "Point", "coordinates": [-90.3408421095, 38.6208750555]}, "properties": {"id": "brentwood-5343", "species_group": "cherry", "scientific_name": "Prunus species", "common_name": "cherrybark (Quercus pagoda) oak", "subtype_name": "cherrybark (Quercus pagoda) oak", "zip_code": null, "ownership": "public", "ownership_raw": "City of Brentwood", "city": "Brentwood", "source_dataset": "TreeKeeper Inventory", "source_department": "City of Brentwood", "source_last_edit_at": ""}}, {"type": "Feature", "geometry": {"type": "Point", "coordinates": [-90.3364422384, 38.6147848819]}, "properties": {"id": "brentwood-5344", "species_group": "magnolia", "scientific_name": "Magnolia species", "common_name": "southern (Magnolia grandiflora) magnolia", "subtype_name": "Southern Magnolia", "zip_code": null, "ownership": "public", "ownership_raw": "City of Brentwood", "city": "Brentwood", "source_dataset": "TreeKeeper Inventory", "source_department": "City of Brentwood", "source_last_edit_at": ""}}, {"type": "Feature", "geometry": {"type": "Point", "coordinates": [-90.343222862754, 38.617104337162]}, "properties": {"id": "brentwood-5389", "species_group": "magnolia", "scientific_name": "Magnolia species", "common_name": "cucumbertree (Magnolia acuminata) magnolia", "subtype_name": "cucumbertree (Magnolia acuminata) magnolia", "zip_code": null, "ownership": "public", "ownership_raw": "City of Brentwood", "city": "Brentwood", "source_dataset": "TreeKeeper Inventory", "source_department": "City of Brentwood", "source_last_edit_at": ""}}, {"type": "Feature", "geometry": {"type": "Point", "coordinates": [-90.3515141976, 38.6270865168]}, "properties": {"id": "brentwood-5439", "species_group": "crabapple", "scientific_name": "Malus species", "common_name": "flowering (Malus spp.) crabapple", "subtype_name": "flowering (Malus spp.) crabapple", "zip_code": null, "ownership": "public", "ownership_raw": "City of Brentwood", "city": "Brentwood", "source_dataset": "TreeKeeper Inventory", "source_department": "City of Brentwood", "source_last_edit_at": ""}}, {"type": "Feature", "geometry": {"type": "Point", "coordinates": [-90.3515028682, 38.6271082415]}, "properties": {"id": "brentwood-5440", "species_group": "crabapple", "scientific_name": "Malus species", "common_name": "flowering (Malus spp.) crabapple", "subtype_name": "flowering (Malus spp.) crabapple", "zip_code": null, "ownership": "public", "ownership_raw": "City of Brentwood", "city": "Brentwood", "source_dataset": "TreeKeeper Inventory", "source_department": "City of Brentwood", "source_last_edit_at": ""}}, {"type": "Feature", "geometry": {"type": "Point", "coordinates": [-90.3476495294, 38.6222212845]}, "properties": {"id": "brentwood-5493", "species_group": "magnolia", "scientific_name": "Magnolia species", "common_name": "saucer (Magnolia x soulangiana) magnolia", "subtype_name": "Saucer Magnolia", "zip_code": null, "ownership": "public", "ownership_raw": "City of Brentwood", "city": "Brentwood", "source_dataset": "TreeKeeper Inventory", "source_department": "City of Brentwood", "source_last_edit_at": ""}}, {"type": "Feature", "geometry": {"type": "Point", "coordinates": [-90.3476702075, 38.6222212845]}, "properties": {"id": "brentwood-5496", "species_group": "cherry", "scientific_name": "Prunus species", "common_name": "spp. (Prunus spp.) cherry/plum", "subtype_name": "spp. (Prunus spp.) cherry/plum", "zip_code": null, "ownership": "public", "ownership_raw": "City of Brentwood", "city": "Brentwood", "source_dataset": "TreeKeeper Inventory", "source_department": "City of Brentwood", "source_last_edit_at": ""}}, {"type": "Feature", "geometry": {"type": "Point", "coordinates": [-90.348505598, 38.6087413508]}, "properties": {"id": "brentwood-5510", "species_group": "magnolia", "scientific_name": "Magnolia species", "common_name": "sweetbay (Magnolia virginiana) magnolia", "subtype_name": "Sweetbay Magnolia", "zip_code": null, "ownership": "public", "ownership_raw": "City of Brentwood", "city": "Brentwood", "source_dataset": "TreeKeeper Inventory", "source_department": "City of Brentwood", "source_last_edit_at": ""}}, {"type": "Feature", "geometry": {"type": "Point", "coordinates": [-90.348563354, 38.6087452511]}, "properties": {"id": "brentwood-5511", "species_group": "magnolia", "scientific_name": "Magnolia species", "common_name": "sweetbay (Magnolia virginiana) magnolia", "subtype_name": "Sweetbay Magnolia", "zip_code": null, "ownership": "public", "ownership_raw": "City of Brentwood", "city": "Brentwood", "source_dataset": "TreeKeeper Inventory", "source_department": "City of Brentwood", "source_last_edit_at": ""}}, {"type": "Feature", "geometry": {"type": "Point", "coordinates": [-90.3481640532, 38.6086990046]}, "properties": {"id": "brentwood-5548", "species_group": "magnolia", "scientific_name": "Magnolia species", "common_name": "sweetbay (Magnolia virginiana) magnolia", "subtype_name": "Sweetbay Magnolia", "zip_code": null, "ownership": "public", "ownership_raw": "City of Brentwood", "city": "Brentwood", "source_dataset": "TreeKeeper Inventory", "source_department": "City of Brentwood", "source_last_edit_at": ""}}, {"type": "Feature", "geometry": {"type": "Point", "coordinates": [-90.3472371046, 38.6092489449]}, "properties": {"id": "brentwood-5571", "species_group": "magnolia", "scientific_name": "Magnolia species", "common_name": "cucumbertree (Magnolia acuminata) magnolia", "subtype_name": "cucumbertree (Magnolia acuminata) magnolia", "zip_code": null, "ownership": "public", "ownership_raw": "City of Brentwood", "city": "Brentwood", "source_dataset": "TreeKeeper Inventory", "source_department": "City of Brentwood", "source_last_edit_at": ""}}, {"type": "Feature", "geometry": {"type": "Point", "coordinates": [-90.3472214178, 38.6093185925]}, "properties": {"id": "brentwood-5572", "species_group": "magnolia", "scientific_name": "Magnolia species", "common_name": "cucumbertree (Magnolia acuminata) magnolia", "subtype_name": "cucumbertree (Magnolia acuminata) magnolia", "zip_code": null, "ownership": "public", "ownership_raw": "City of Brentwood", "city": "Brentwood", "source_dataset": "TreeKeeper Inventory", "source_department": "City of Brentwood", "source_last_edit_at": ""}}, {"type": "Feature", "geometry": {"type": "Point", "coordinates": [-90.3472050179, 38.609384897]}, "properties": {"id": "brentwood-5573", "species_group": "magnolia", "scientific_name": "Magnolia species", "common_name": "saucer (Magnolia x soulangiana) magnolia", "subtype_name": "Saucer Magnolia", "zip_code": null, "ownership": "public", "ownership_raw": "City of Brentwood", "city": "Brentwood", "source_dataset": "TreeKeeper Inventory", "source_department": "City of Brentwood", "source_last_edit_at": ""}}, {"type": "Feature", "geometry": {"type": "Point", "coordinates": [-90.3469811242, 38.6096712872]}, "properties": {"id": "brentwood-5575", "species_group": "magnolia", "scientific_name": "Magnolia species", "common_name": "sweetbay (Magnolia virginiana) magnolia", "subtype_name": "Sweetbay Magnolia", "zip_code": null, "ownership": "public", "ownership_raw": "City of Brentwood", "city": "Brentwood", "source_dataset": "TreeKeeper Inventory", "source_department": "City of Brentwood", "source_last_edit_at": ""}}, {"type": "Feature", "geometry": {"type": "Point", "coordinates": [-90.3480844543, 38.6091707233]}, "properties": {"id": "brentwood-5756", "species_group": "magnolia", "scientific_name": "Magnolia species", "common_name": "sweetbay (Magnolia virginiana) magnolia", "subtype_name": "Sweetbay Magnolia", "zip_code": null, "ownership": "public", "ownership_raw": "City of Brentwood", "city": "Brentwood", "source_dataset": "TreeKeeper Inventory", "source_department": "City of Brentwood", "source_last_edit_at": ""}}, {"type": "Feature", "geometry": {"type": "Point", "coordinates": [-90.345832418, 38.6113402677]}, "properties": {"id": "brentwood-5778", "species_group": "magnolia", "scientific_name": "Magnolia species", "common_name": "sweetbay (Magnolia virginiana) magnolia", "subtype_name": "Sweetbay Magnolia", "zip_code": null, "ownership": "public", "ownership_raw": "City of Brentwood", "city": "Brentwood", "source_dataset": "TreeKeeper Inventory", "source_department": "City of Brentwood", "source_last_edit_at": ""}}, {"type": "Feature", "geometry": {"type": "Point", "coordinates": [-90.3473001132, 38.6106037813]}, "properties": {"id": "brentwood-5850", "species_group": "magnolia", "scientific_name": "Magnolia species", "common_name": "southern (Magnolia grandiflora) magnolia", "subtype_name": "Southern Magnolia", "zip_code": null, "ownership": "public", "ownership_raw": "City of Brentwood", "city": "Brentwood", "source_dataset": "TreeKeeper Inventory", "source_department": "City of Brentwood", "source_last_edit_at": ""}}, {"type": "Feature", "geometry": {"type": "Point", "coordinates": [-90.3472730178, 38.6105252202]}, "properties": {"id": "brentwood-5852", "species_group": "magnolia", "scientific_name": "Magnolia species", "common_name": "cucumbertree (Magnolia acuminata) magnolia", "subtype_name": "cucumbertree (Magnolia acuminata) magnolia", "zip_code": null, "ownership": "public", "ownership_raw": "City of Brentwood", "city": "Brentwood", "source_dataset": "TreeKeeper Inventory", "source_department": "City of Brentwood", "source_last_edit_at": ""}}, {"type": "Feature", "geometry": {"type": "Point", "coordinates": [-90.3471567927, 38.6106171534]}, "properties": {"id": "brentwood-5854", "species_group": "magnolia", "scientific_name": "Magnolia species", "common_name": "southern (Magnolia grandiflora) magnolia", "subtype_name": "Southern Magnolia", "zip_code": null, "ownership": "public", "ownership_raw": "City of Brentwood", "city": "Brentwood", "source_dataset": "TreeKeeper Inventory", "source_department": "City of Brentwood", "source_last_edit_at": ""}}, {"type": "Feature", "geometry": {"type": "Point", "coordinates": [-90.3471489492, 38.6106767707]}, "properties": {"id": "brentwood-5856", "species_group": "magnolia", "scientific_name": "Magnolia species", "common_name": "southern (Magnolia grandiflora) magnolia", "subtype_name": "Southern Magnolia", "zip_code": null, "ownership": "public", "ownership_raw": "City of Brentwood", "city": "Brentwood", "source_dataset": "TreeKeeper Inventory", "source_department": "City of Brentwood", "source_last_edit_at": ""}}, {"type": "Feature", "geometry": {"type": "Point", "coordinates": [-90.3471047409, 38.6107670322]}, "properties": {"id": "brentwood-5858", "species_group": "magnolia", "scientific_name": "Magnolia species", "common_name": "cucumbertree (Magnolia acuminata) magnolia", "subtype_name": "cucumbertree (Magnolia acuminata) magnolia", "zip_code": null, "ownership": "public", "ownership_raw": "City of Brentwood", "city": "Brentwood", "source_dataset": "TreeKeeper Inventory", "source_department": "City of Brentwood", "source_last_edit_at": ""}}, {"type": "Feature", "geometry": {"type": "Point", "coordinates": [-90.3470434197, 38.6108116058]}, "properties": {"id": "brentwood-5860", "species_group": "magnolia", "scientific_name": "Magnolia species", "common_name": "cucumbertree (Magnolia acuminata) magnolia", "subtype_name": "cucumbertree (Magnolia acuminata) magnolia", "zip_code": null, "ownership": "public", "ownership_raw": "City of Brentwood", "city": "Brentwood", "source_dataset": "TreeKeeper Inventory", "source_department": "City of Brentwood", "source_last_edit_at": ""}}, {"type": "Feature", "geometry": {"type": "Point", "coordinates": [-90.346972829, 38.6108249778]}, "properties": {"id": "brentwood-5861", "species_group": "magnolia", "scientific_name": "Magnolia species", "common_name": "southern (Magnolia grandiflora) magnolia", "subtype_name": "Southern Magnolia", "zip_code": null, "ownership": "public", "ownership_raw": "City of Brentwood", "city": "Brentwood", "source_dataset": "TreeKeeper Inventory", "source_department": "City of Brentwood", "source_last_edit_at": ""}}, {"type": "Feature", "geometry": {"type": "Point", "coordinates": [-90.3472393091, 38.6104869208]}, "properties": {"id": "brentwood-6013", "species_group": "magnolia", "scientific_name": "Magnolia species", "common_name": "sweetbay (Magnolia virginiana) magnolia", "subtype_name": "Sweetbay Magnolia", "zip_code": null, "ownership": "public", "ownership_raw": "City of Brentwood", "city": "Brentwood", "source_dataset": "TreeKeeper Inventory", "source_department": "City of Brentwood", "source_last_edit_at": ""}}, {"type": "Feature", "geometry": {"type": "Point", "coordinates": [-90.3444580753, 38.6233302881]}, "properties": {"id": "brentwood-6099", "species_group": "magnolia", "scientific_name": "Magnolia species", "common_name": "cucumbertree (Magnolia acuminata) magnolia", "subtype_name": "cucumbertree (Magnolia acuminata) magnolia", "zip_code": null, "ownership": "public", "ownership_raw": "City of Brentwood", "city": "Brentwood", "source_dataset": "TreeKeeper Inventory", "source_department": "City of Brentwood", "source_last_edit_at": ""}}, {"type": "Feature", "geometry": {"type": "Point", "coordinates": [-90.345988220256, 38.611392274994]}, "properties": {"id": "brentwood-6148", "species_group": "magnolia", "scientific_name": "Magnolia species", "common_name": "sweetbay (Magnolia virginiana) magnolia", "subtype_name": "Sweetbay Magnolia", "zip_code": null, "ownership": "public", "ownership_raw": "City of Brentwood", "city": "Brentwood", "source_dataset": "TreeKeeper Inventory", "source_department": "City of Brentwood", "source_last_edit_at": ""}}, {"type": "Feature", "geometry": {"type": "Point", "coordinates": [-90.350296875358, 38.606084066587]}, "properties": {"id": "brentwood-6176", "species_group": "magnolia", "scientific_name": "Magnolia species", "common_name": "saucer (Magnolia x soulangiana) magnolia", "subtype_name": "Saucer Magnolia", "zip_code": null, "ownership": "public", "ownership_raw": "City of Brentwood", "city": "Brentwood", "source_dataset": "TreeKeeper Inventory", "source_department": "City of Brentwood", "source_last_edit_at": ""}}, {"type": "Feature", "geometry": {"type": "Point", "coordinates": [-90.350316466959, 38.606062753381]}, "properties": {"id": "brentwood-6177", "species_group": "magnolia", "scientific_name": "Magnolia species", "common_name": "saucer (Magnolia x soulangiana) magnolia", "subtype_name": "Saucer Magnolia", "zip_code": null, "ownership": "public", "ownership_raw": "City of Brentwood", "city": "Brentwood", "source_dataset": "TreeKeeper Inventory", "source_department": "City of Brentwood", "source_last_edit_at": ""}}, {"type": "Feature", "geometry": {"type": "Point", "coordinates": [-90.34905266268, 38.616375716428]}, "properties": {"id": "brentwood-6268", "species_group": "magnolia", "scientific_name": "Magnolia species", "common_name": "saucer (Magnolia x soulangiana) magnolia", "subtype_name": "Saucer Magnolia", "zip_code": null, "ownership": "public", "ownership_raw": "City of Brentwood", "city": "Brentwood", "source_dataset": "TreeKeeper Inventory", "source_department": "City of Brentwood", "source_last_edit_at": ""}}, {"type": "Feature", "geometry": {"type": "Point", "coordinates": [-90.340593214568, 38.620708988086]}, "properties": {"id": "brentwood-6277", "species_group": "cherry", "scientific_name": "Prunus species", "common_name": "black (Prunus serotina) cherry", "subtype_name": "black (Prunus serotina) cherry", "zip_code": null, "ownership": "public", "ownership_raw": "City of Brentwood", "city": "Brentwood", "source_dataset": "TreeKeeper Inventory", "source_department": "City of Brentwood", "source_last_edit_at": ""}}, {"type": "Feature", "geometry": {"type": "Point", "coordinates": [-90.344201246825, 38.620404725446]}, "properties": {"id": "brentwood-6278", "species_group": "cherry", "scientific_name": "Prunus species", "common_name": "black (Prunus serotina) cherry", "subtype_name": "black (Prunus serotina) cherry", "zip_code": null, "ownership": "public", "ownership_raw": "City of Brentwood", "city": "Brentwood", "source_dataset": "TreeKeeper Inventory", "source_department": "City of Brentwood", "source_last_edit_at": ""}}, {"type": "Feature", "geometry": {"type": "Point", "coordinates": [-90.344089207728, 38.620228329067]}, "properties": {"id": "brentwood-6311", "species_group": "cherry", "scientific_name": "Prunus species", "common_name": "spp. (Prunus spp.) cherry/plum", "subtype_name": "spp. (Prunus spp.) cherry/plum", "zip_code": null, "ownership": "public", "ownership_raw": "City of Brentwood", "city": "Brentwood", "source_dataset": "TreeKeeper Inventory", "source_department": "City of Brentwood", "source_last_edit_at": ""}}]}