{"type": "FeatureCollection", "features": [{"type": "Feature", "geometry": {"type": "Point", "coordinates": [-85.7514114747, 40.0012202085]}, "properties": {"id": "pendleton-1005", "species_group": "cherry", "scientific_name": "Prunus species", "common_name": "cherry (Prunus cerasifera) plum", "subtype_name": "cherry (Prunus cerasifera) plum", "zip_code": null, "ownership": "public", "ownership_raw": "City of Pendleton", "city": "Pendleton", "source_dataset": "TreeKeeper Inventory", "source_department": "Town of Pendleton", "source_last_edit_at": ""}}, {"type": "Feature", "geometry": {"type": "Point", "coordinates": [-85.7585819313, 39.9878384417]}, "properties": {"id": "pendleton-1015", "species_group": "cherry", "scientific_name": "Prunus species", "common_name": "black (Prunus serotina) cherry", "subtype_name": "black (Prunus serotina) cherry", "zip_code": null, "ownership": "public", "ownership_raw": "City of Pendleton", "city": "Pendleton", "source_dataset": "TreeKeeper Inventory", "source_department": "Town of Pendleton", "source_last_edit_at": ""}}, {"type": "Feature", "geometry": {"type": "Point", "coordinates": [-85.7517525318, 40.0010842929]}, "properties": {"id": "pendleton-1101", "species_group": "cherry", "scientific_name": "Prunus species", "common_name": "spp. (Prunus spp.) cherry/plum", "subtype_name": "spp. (Prunus spp.) cherry/plum", "zip_code": null, "ownership": "public", "ownership_raw": "City of Pendleton", "city": "Pendleton", "source_dataset": "TreeKeeper Inventory", "source_department": "Town of Pendleton", "source_last_edit_at": ""}}, {"type": "Feature", "geometry": {"type": "Point", "coordinates": [-85.788355804, 40.0096726582]}, "properties": {"id": "pendleton-1123", "species_group": "crabapple", "scientific_name": "Malus species", "common_name": "flowering (Malus spp.) crabapple", "subtype_name": "flowering (Malus spp.) crabapple", "zip_code": null, "ownership": "public", "ownership_raw": "City of Pendleton", "city": "Pendleton", "source_dataset": "TreeKeeper Inventory", "source_department": "Town of Pendleton", "source_last_edit_at": ""}}, {"type": "Feature", "geometry": {"type": "Point", "coordinates": [-85.7472277101, 40.0031494534]}, "properties": {"id": "pendleton-1185", "species_group": "cherry", "scientific_name": "Prunus species", "common_name": "spp. (Prunus spp.) cherry/plum", "subtype_name": "spp. (Prunus spp.) cherry/plum", "zip_code": null, "ownership": "public", "ownership_raw": "City of Pendleton", "city": "Pendleton", "source_dataset": "TreeKeeper Inventory", "source_department": "Town of Pendleton", "source_last_edit_at": ""}}, {"type": "Feature", "geometry": {"type": "Point", "coordinates": [-85.7454729399, 40.0038457611]}, "properties": {"id": "pendleton-1187", "species_group": "crabapple", "scientific_name": "Malus species", "common_name": "flowering (Malus spp.) crabapple", "subtype_name": "flowering (Malus spp.) crabapple", "zip_code": null, "ownership": "public", "ownership_raw": "City of Pendleton", "city": "Pendleton", "source_dataset": "TreeKeeper Inventory", "source_department": "Town of Pendleton", "source_last_edit_at": ""}}, {"type": "Feature", "geometry": {"type": "Point", "coordinates": [-85.7578477314, 39.9866811717]}, "properties": {"id": "pendleton-1203", "species_group": "cherry", "scientific_name": "Prunus species", "common_name": "black (Prunus serotina) cherry", "subtype_name": "black (Prunus serotina) cherry", "zip_code": null, "ownership": "public", "ownership_raw": "City of Pendleton", "city": "Pendleton", "source_dataset": "TreeKeeper Inventory", "source_department": "Town of Pendleton", "source_last_edit_at": ""}}, {"type": "Feature", "geometry": {"type": "Point", "coordinates": [-85.7453805748, 40.0049306971]}, "properties": {"id": "pendleton-1208", "species_group": "crabapple", "scientific_name": "Malus species", "common_name": "flowering (Malus spp.) crabapple", "subtype_name": "flowering (Malus spp.) crabapple", "zip_code": null, "ownership": "public", "ownership_raw": "City of Pendleton", "city": "Pendleton", "source_dataset": "TreeKeeper Inventory", "source_department": "Town of Pendleton", "source_last_edit_at": ""}}, {"type": "Feature", "geometry": {"type": "Point", "coordinates": [-85.7454775434, 40.0046704824]}, "properties": {"id": "pendleton-1241", "species_group": "crabapple", "scientific_name": "Malus species", "common_name": "flowering (Malus spp.) crabapple", "subtype_name": "flowering (Malus spp.) crabapple", "zip_code": null, "ownership": "public", "ownership_raw": "City of Pendleton", "city": "Pendleton", "source_dataset": "TreeKeeper Inventory", "source_department": "Town of Pendleton", "source_last_edit_at": ""}}, {"type": "Feature", "geometry": {"type": "Point", "coordinates": [-85.7484466679, 39.999453312]}, "properties": {"id": "pendleton-1245", "species_group": "cherry", "scientific_name": "Prunus species", "common_name": "Japanese flowering (Prunus serrulata) cherry", "subtype_name": "Japanese flowering (Prunus serrulata) cherry", "zip_code": null, "ownership": "public", "ownership_raw": "City of Pendleton", "city": "Pendleton", "source_dataset": "TreeKeeper Inventory", "source_department": "Town of Pendleton", "source_last_edit_at": ""}}, {"type": "Feature", "geometry": {"type": "Point", "coordinates": [-85.746503669, 39.9948436735]}, "properties": {"id": "pendleton-1264", "species_group": "cherry", "scientific_name": "Prunus species", "common_name": "black (Prunus serotina) cherry", "subtype_name": "black (Prunus serotina) cherry", "zip_code": null, "ownership": "public", "ownership_raw": "City of Pendleton", "city": "Pendleton", "source_dataset": "TreeKeeper Inventory", "source_department": "Town of Pendleton", "source_last_edit_at": ""}}, {"type": "Feature", "geometry": {"type": "Point", "coordinates": [-85.7391239663, 40.0133254054]}, "properties": {"id": "pendleton-1277", "species_group": "cherry", "scientific_name": "Prunus species", "common_name": "black (Prunus serotina) cherry", "subtype_name": "black (Prunus serotina) cherry", "zip_code": null, "ownership": "public", "ownership_raw": "City of Pendleton", "city": "Pendleton", "source_dataset": "TreeKeeper Inventory", "source_department": "Town of Pendleton", "source_last_edit_at": ""}}, {"type": "Feature", "geometry": {"type": "Point", "coordinates": [-85.7438035126, 39.9830078961]}, "properties": {"id": "pendleton-13", "species_group": "crabapple", "scientific_name": "Malus species", "common_name": "flowering (Malus spp.) crabapple", "subtype_name": "flowering (Malus spp.) crabapple", "zip_code": null, "ownership": "public", "ownership_raw": "City of Pendleton", "city": "Pendleton", "source_dataset": "TreeKeeper Inventory", "source_department": "Town of Pendleton", "source_last_edit_at": ""}}, {"type": "Feature", "geometry": {"type": "Point", "coordinates": [-85.7392279905, 40.0134326859]}, "properties": {"id": "pendleton-1313", "species_group": "cherry", "scientific_name": "Prunus species", "common_name": "black (Prunus serotina) cherry", "subtype_name": "black (Prunus serotina) cherry", "zip_code": null, "ownership": "public", "ownership_raw": "City of Pendleton", "city": "Pendleton", "source_dataset": "TreeKeeper Inventory", "source_department": "Town of Pendleton", "source_last_edit_at": ""}}, {"type": "Feature", "geometry": {"type": "Point", "coordinates": [-85.7583194355, 39.9850954244]}, "properties": {"id": "pendleton-1316", "species_group": "cherry", "scientific_name": "Prunus species", "common_name": "black (Prunus serotina) cherry", "subtype_name": "black (Prunus serotina) cherry", "zip_code": null, "ownership": "public", "ownership_raw": "City of Pendleton", "city": "Pendleton", "source_dataset": "TreeKeeper Inventory", "source_department": "Town of Pendleton", "source_last_edit_at": ""}}, {"type": "Feature", "geometry": {"type": "Point", "coordinates": [-85.7452387059, 40.0054205465]}, "properties": {"id": "pendleton-1323", "species_group": "cherry", "scientific_name": "Prunus species", "common_name": "spp. (Prunus spp.) cherry/plum", "subtype_name": "spp. (Prunus spp.) cherry/plum", "zip_code": null, "ownership": "public", "ownership_raw": "City of Pendleton", "city": "Pendleton", "source_dataset": "TreeKeeper Inventory", "source_department": "Town of Pendleton", "source_last_edit_at": ""}}, {"type": "Feature", "geometry": {"type": "Point", "coordinates": [-85.7454124626, 40.0041318574]}, "properties": {"id": "pendleton-1356", "species_group": "crabapple", "scientific_name": "Malus species", "common_name": "flowering (Malus spp.) crabapple", "subtype_name": "flowering (Malus spp.) crabapple", "zip_code": null, "ownership": "public", "ownership_raw": "City of Pendleton", "city": "Pendleton", "source_dataset": "TreeKeeper Inventory", "source_department": "Town of Pendleton", "source_last_edit_at": ""}}, {"type": "Feature", "geometry": {"type": "Point", "coordinates": [-85.7423796407, 40.0109618747]}, "properties": {"id": "pendleton-1361", "species_group": "crabapple", "scientific_name": "Malus species", "common_name": "flowering (Malus spp.) crabapple", "subtype_name": "flowering (Malus spp.) crabapple", "zip_code": null, "ownership": "public", "ownership_raw": "City of Pendleton", "city": "Pendleton", "source_dataset": "TreeKeeper Inventory", "source_department": "Town of Pendleton", "source_last_edit_at": ""}}, {"type": "Feature", "geometry": {"type": "Point", "coordinates": [-85.7455173726, 40.0011431297]}, "properties": {"id": "pendleton-1366", "species_group": "crabapple", "scientific_name": "Malus species", "common_name": "flowering (Malus spp.) crabapple", "subtype_name": "flowering (Malus spp.) crabapple", "zip_code": null, "ownership": "public", "ownership_raw": "City of Pendleton", "city": "Pendleton", "source_dataset": "TreeKeeper Inventory", "source_department": "Town of Pendleton", "source_last_edit_at": ""}}, {"type": "Feature", "geometry": {"type": "Point", "coordinates": [-85.7423954337, 40.0109095763]}, "properties": {"id": "pendleton-1370", "species_group": "crabapple", "scientific_name": "Malus species", "common_name": "flowering (Malus spp.) crabapple", "subtype_name": "flowering (Malus spp.) crabapple", "zip_code": null, "ownership": "public", "ownership_raw": "City of Pendleton", "city": "Pendleton", "source_dataset": "TreeKeeper Inventory", "source_department": "Town of Pendleton", "source_last_edit_at": ""}}, {"type": "Feature", "geometry": {"type": "Point", "coordinates": [-85.7473121349, 39.9998673071]}, "properties": {"id": "pendleton-1398", "species_group": "crabapple", "scientific_name": "Malus species", "common_name": "flowering (Malus spp.) crabapple", "subtype_name": "flowering (Malus spp.) crabapple", "zip_code": null, "ownership": "public", "ownership_raw": "City of Pendleton", "city": "Pendleton", "source_dataset": "TreeKeeper Inventory", "source_department": "Town of Pendleton", "source_last_edit_at": ""}}, {"type": "Feature", "geometry": {"type": "Point", "coordinates": [-85.7507657788, 39.9994348593]}, "properties": {"id": "pendleton-1415", "species_group": "cherry", "scientific_name": "Prunus species", "common_name": "spp. (Prunus spp.) cherry/plum", "subtype_name": "spp. (Prunus spp.) cherry/plum", "zip_code": null, "ownership": "public", "ownership_raw": "City of Pendleton", "city": "Pendleton", "source_dataset": "TreeKeeper Inventory", "source_department": "Town of Pendleton", "source_last_edit_at": ""}}, {"type": "Feature", "geometry": {"type": "Point", "coordinates": [-85.7454716246, 40.0055284392]}, "properties": {"id": "pendleton-1481", "species_group": "crabapple", "scientific_name": "Malus species", "common_name": "flowering (Malus spp.) crabapple", "subtype_name": "flowering (Malus spp.) crabapple", "zip_code": null, "ownership": "public", "ownership_raw": "City of Pendleton", "city": "Pendleton", "source_dataset": "TreeKeeper Inventory", "source_department": "Town of Pendleton", "source_last_edit_at": ""}}, {"type": "Feature", "geometry": {"type": "Point", "coordinates": [-85.7426819233, 40.010252248]}, "properties": {"id": "pendleton-1493", "species_group": "cherry", "scientific_name": "Prunus species", "common_name": "spp. (Prunus spp.) cherry/plum", "subtype_name": "spp. (Prunus spp.) cherry/plum", "zip_code": null, "ownership": "public", "ownership_raw": "City of Pendleton", "city": "Pendleton", "source_dataset": "TreeKeeper Inventory", "source_department": "Town of Pendleton", "source_last_edit_at": ""}}, {"type": "Feature", "geometry": {"type": "Point", "coordinates": [-85.7869596197, 40.0138599527]}, "properties": {"id": "pendleton-1536", "species_group": "cherry", "scientific_name": "Prunus species", "common_name": "black (Prunus serotina) cherry", "subtype_name": "black (Prunus serotina) cherry", "zip_code": null, "ownership": "public", "ownership_raw": "City of Pendleton", "city": "Pendleton", "source_dataset": "TreeKeeper Inventory", "source_department": "Town of Pendleton", "source_last_edit_at": ""}}, {"type": "Feature", "geometry": {"type": "Point", "coordinates": [-85.7451017814, 40.0056824912]}, "properties": {"id": "pendleton-1538", "species_group": "cherry", "scientific_name": "Prunus species", "common_name": "Japanese flowering (Prunus serrulata) cherry", "subtype_name": "Japanese flowering (Prunus serrulata) cherry", "zip_code": null, "ownership": "public", "ownership_raw": "City of Pendleton", "city": "Pendleton", "source_dataset": "TreeKeeper Inventory", "source_department": "Town of Pendleton", "source_last_edit_at": ""}}, {"type": "Feature", "geometry": {"type": "Point", "coordinates": [-85.7473302432, 40.0017412357]}, "properties": {"id": "pendleton-1565", "species_group": "crabapple", "scientific_name": "Malus species", "common_name": "flowering (Malus spp.) crabapple", "subtype_name": "flowering (Malus spp.) crabapple", "zip_code": null, "ownership": "public", "ownership_raw": "City of Pendleton", "city": "Pendleton", "source_dataset": "TreeKeeper Inventory", "source_department": "Town of Pendleton", "source_last_edit_at": ""}}, {"type": "Feature", "geometry": {"type": "Point", "coordinates": [-85.74733147, 40.0016741382]}, "properties": {"id": "pendleton-1574", "species_group": "crabapple", "scientific_name": "Malus species", "common_name": "flowering (Malus spp.) crabapple", "subtype_name": "flowering (Malus spp.) crabapple", "zip_code": null, "ownership": "public", "ownership_raw": "City of Pendleton", "city": "Pendleton", "source_dataset": "TreeKeeper Inventory", "source_department": "Town of Pendleton", "source_last_edit_at": ""}}, {"type": "Feature", "geometry": {"type": "Point", "coordinates": [-85.744957344, 40.0055529765]}, "properties": {"id": "pendleton-1591", "species_group": "crabapple", "scientific_name": "Malus species", "common_name": "flowering (Malus spp.) crabapple", "subtype_name": "flowering (Malus spp.) crabapple", "zip_code": null, "ownership": "public", "ownership_raw": "City of Pendleton", "city": "Pendleton", "source_dataset": "TreeKeeper Inventory", "source_department": "Town of Pendleton", "source_last_edit_at": ""}}, {"type": "Feature", "geometry": {"type": "Point", "coordinates": [-85.7438049276, 39.9828668881]}, "properties": {"id": "pendleton-16", "species_group": "crabapple", "scientific_name": "Malus species", "common_name": "flowering (Malus spp.) crabapple", "subtype_name": "flowering (Malus spp.) crabapple", "zip_code": null, "ownership": "public", "ownership_raw": "City of Pendleton", "city": "Pendleton", "source_dataset": "TreeKeeper Inventory", "source_department": "Town of Pendleton", "source_last_edit_at": ""}}, {"type": "Feature", "geometry": {"type": "Point", "coordinates": [-85.7442373137, 39.9981374668]}, "properties": {"id": "pendleton-1613", "species_group": "crabapple", "scientific_name": "Malus species", "common_name": "flowering (Malus spp.) crabapple", "subtype_name": "flowering (Malus spp.) crabapple", "zip_code": null, "ownership": "public", "ownership_raw": "City of Pendleton", "city": "Pendleton", "source_dataset": "TreeKeeper Inventory", "source_department": "Town of Pendleton", "source_last_edit_at": ""}}, {"type": "Feature", "geometry": {"type": "Point", "coordinates": [-85.7880922753, 40.009864869]}, "properties": {"id": "pendleton-1662", "species_group": "crabapple", "scientific_name": "Malus species", "common_name": "flowering (Malus spp.) crabapple", "subtype_name": "flowering (Malus spp.) crabapple", "zip_code": null, "ownership": "public", "ownership_raw": "City of Pendleton", "city": "Pendleton", "source_dataset": "TreeKeeper Inventory", "source_department": "Town of Pendleton", "source_last_edit_at": ""}}, {"type": "Feature", "geometry": {"type": "Point", "coordinates": [-85.7577841913, 39.9880347021]}, "properties": {"id": "pendleton-1666", "species_group": "cherry", "scientific_name": "Prunus species", "common_name": "black (Prunus serotina) cherry", "subtype_name": "black (Prunus serotina) cherry", "zip_code": null, "ownership": "public", "ownership_raw": "City of Pendleton", "city": "Pendleton", "source_dataset": "TreeKeeper Inventory", "source_department": "Town of Pendleton", "source_last_edit_at": ""}}, {"type": "Feature", "geometry": {"type": "Point", "coordinates": [-85.7579447058, 39.9880434851]}, "properties": {"id": "pendleton-1674", "species_group": "cherry", "scientific_name": "Prunus species", "common_name": "black (Prunus serotina) cherry", "subtype_name": "black (Prunus serotina) cherry", "zip_code": null, "ownership": "public", "ownership_raw": "City of Pendleton", "city": "Pendleton", "source_dataset": "TreeKeeper Inventory", "source_department": "Town of Pendleton", "source_last_edit_at": ""}}, {"type": "Feature", "geometry": {"type": "Point", "coordinates": [-85.7439943554, 40.0066437557]}, "properties": {"id": "pendleton-1684", "species_group": "crabapple", "scientific_name": "Malus species", "common_name": "flowering (Malus spp.) crabapple", "subtype_name": "flowering (Malus spp.) crabapple", "zip_code": null, "ownership": "public", "ownership_raw": "City of Pendleton", "city": "Pendleton", "source_dataset": "TreeKeeper Inventory", "source_department": "Town of Pendleton", "source_last_edit_at": ""}}, {"type": "Feature", "geometry": {"type": "Point", "coordinates": [-85.757925707, 39.9880785939]}, "properties": {"id": "pendleton-1690", "species_group": "cherry", "scientific_name": "Prunus species", "common_name": "black (Prunus serotina) cherry", "subtype_name": "black (Prunus serotina) cherry", "zip_code": null, "ownership": "public", "ownership_raw": "City of Pendleton", "city": "Pendleton", "source_dataset": "TreeKeeper Inventory", "source_department": "Town of Pendleton", "source_last_edit_at": ""}}, {"type": "Feature", "geometry": {"type": "Point", "coordinates": [-85.7579019907, 39.9881207136]}, "properties": {"id": "pendleton-1704", "species_group": "cherry", "scientific_name": "Prunus species", "common_name": "black (Prunus serotina) cherry", "subtype_name": "black (Prunus serotina) cherry", "zip_code": null, "ownership": "public", "ownership_raw": "City of Pendleton", "city": "Pendleton", "source_dataset": "TreeKeeper Inventory", "source_department": "Town of Pendleton", "source_last_edit_at": ""}}, {"type": "Feature", "geometry": {"type": "Point", "coordinates": [-85.7868541319, 40.0086585138]}, "properties": {"id": "pendleton-1716", "species_group": "cherry", "scientific_name": "Prunus species", "common_name": "black (Prunus serotina) cherry", "subtype_name": "black (Prunus serotina) cherry", "zip_code": null, "ownership": "public", "ownership_raw": "City of Pendleton", "city": "Pendleton", "source_dataset": "TreeKeeper Inventory", "source_department": "Town of Pendleton", "source_last_edit_at": ""}}, {"type": "Feature", "geometry": {"type": "Point", "coordinates": [-85.7473543468, 40.0035736197]}, "properties": {"id": "pendleton-1717", "species_group": "cherry", "scientific_name": "Prunus species", "common_name": "common (Prunus virginiana) chokecherry", "subtype_name": "common (Prunus virginiana) chokecherry", "zip_code": null, "ownership": "public", "ownership_raw": "City of Pendleton", "city": "Pendleton", "source_dataset": "TreeKeeper Inventory", "source_department": "Town of Pendleton", "source_last_edit_at": ""}}, {"type": "Feature", "geometry": {"type": "Point", "coordinates": [-85.7582338621, 39.988046584]}, "properties": {"id": "pendleton-1719", "species_group": "cherry", "scientific_name": "Prunus species", "common_name": "black (Prunus serotina) cherry", "subtype_name": "black (Prunus serotina) cherry", "zip_code": null, "ownership": "public", "ownership_raw": "City of Pendleton", "city": "Pendleton", "source_dataset": "TreeKeeper Inventory", "source_department": "Town of Pendleton", "source_last_edit_at": ""}}, {"type": "Feature", "geometry": {"type": "Point", "coordinates": [-85.7868413134, 40.0087476868]}, "properties": {"id": "pendleton-1724", "species_group": "cherry", "scientific_name": "Prunus species", "common_name": "black (Prunus serotina) cherry", "subtype_name": "black (Prunus serotina) cherry", "zip_code": null, "ownership": "public", "ownership_raw": "City of Pendleton", "city": "Pendleton", "source_dataset": "TreeKeeper Inventory", "source_department": "Town of Pendleton", "source_last_edit_at": ""}}, {"type": "Feature", "geometry": {"type": "Point", "coordinates": [-85.758359449, 39.9879561188]}, "properties": {"id": "pendleton-1727", "species_group": "cherry", "scientific_name": "Prunus species", "common_name": "black (Prunus serotina) cherry", "subtype_name": "black (Prunus serotina) cherry", "zip_code": null, "ownership": "public", "ownership_raw": "City of Pendleton", "city": "Pendleton", "source_dataset": "TreeKeeper Inventory", "source_department": "Town of Pendleton", "source_last_edit_at": ""}}, {"type": "Feature", "geometry": {"type": "Point", "coordinates": [-85.758213918, 39.9878804043]}, "properties": {"id": "pendleton-1735", "species_group": "cherry", "scientific_name": "Prunus species", "common_name": "black (Prunus serotina) cherry", "subtype_name": "black (Prunus serotina) cherry", "zip_code": null, "ownership": "public", "ownership_raw": "City of Pendleton", "city": "Pendleton", "source_dataset": "TreeKeeper Inventory", "source_department": "Town of Pendleton", "source_last_edit_at": ""}}, {"type": "Feature", "geometry": {"type": "Point", "coordinates": [-85.7582329809, 39.9878417657]}, "properties": {"id": "pendleton-1743", "species_group": "cherry", "scientific_name": "Prunus species", "common_name": "black (Prunus serotina) cherry", "subtype_name": "black (Prunus serotina) cherry", "zip_code": null, "ownership": "public", "ownership_raw": "City of Pendleton", "city": "Pendleton", "source_dataset": "TreeKeeper Inventory", "source_department": "Town of Pendleton", "source_last_edit_at": ""}}, {"type": "Feature", "geometry": {"type": "Point", "coordinates": [-85.7324226644, 40.0032053776]}, "properties": {"id": "pendleton-1761", "species_group": "crabapple", "scientific_name": "Malus species", "common_name": "flowering (Malus spp.) crabapple", "subtype_name": "flowering (Malus spp.) crabapple", "zip_code": null, "ownership": "public", "ownership_raw": "City of Pendleton", "city": "Pendleton", "source_dataset": "TreeKeeper Inventory", "source_department": "Town of Pendleton", "source_last_edit_at": ""}}, {"type": "Feature", "geometry": {"type": "Point", "coordinates": [-85.7437761755, 40.0065052994]}, "properties": {"id": "pendleton-1772", "species_group": "crabapple", "scientific_name": "Malus species", "common_name": "flowering (Malus spp.) crabapple", "subtype_name": "flowering (Malus spp.) crabapple", "zip_code": null, "ownership": "public", "ownership_raw": "City of Pendleton", "city": "Pendleton", "source_dataset": "TreeKeeper Inventory", "source_department": "Town of Pendleton", "source_last_edit_at": ""}}, {"type": "Feature", "geometry": {"type": "Point", "coordinates": [-85.7294424362, 40.027988745]}, "properties": {"id": "pendleton-1783", "species_group": "crabapple", "scientific_name": "Malus species", "common_name": "flowering (Malus spp.) crabapple", "subtype_name": "flowering (Malus spp.) crabapple", "zip_code": null, "ownership": "public", "ownership_raw": "City of Pendleton", "city": "Pendleton", "source_dataset": "TreeKeeper Inventory", "source_department": "Town of Pendleton", "source_last_edit_at": ""}}, {"type": "Feature", "geometry": {"type": "Point", "coordinates": [-85.7871386687, 40.0153594552]}, "properties": {"id": "pendleton-1785", "species_group": "crabapple", "scientific_name": "Malus species", "common_name": "flowering (Malus spp.) crabapple", "subtype_name": "flowering (Malus spp.) crabapple", "zip_code": null, "ownership": "public", "ownership_raw": "City of Pendleton", "city": "Pendleton", "source_dataset": "TreeKeeper Inventory", "source_department": "Town of Pendleton", "source_last_edit_at": ""}}, {"type": "Feature", "geometry": {"type": "Point", "coordinates": [-85.7587461372, 39.9872628508]}, "properties": {"id": "pendleton-1788", "species_group": "cherry", "scientific_name": "Prunus species", "common_name": "black (Prunus serotina) cherry", "subtype_name": "black (Prunus serotina) cherry", "zip_code": null, "ownership": "public", "ownership_raw": "City of Pendleton", "city": "Pendleton", "source_dataset": "TreeKeeper Inventory", "source_department": "Town of Pendleton", "source_last_edit_at": ""}}, {"type": "Feature", "geometry": {"type": "Point", "coordinates": [-85.7294173647, 40.0280244359]}, "properties": {"id": "pendleton-1789", "species_group": "crabapple", "scientific_name": "Malus species", "common_name": "flowering (Malus spp.) crabapple", "subtype_name": "flowering (Malus spp.) crabapple", "zip_code": null, "ownership": "public", "ownership_raw": "City of Pendleton", "city": "Pendleton", "source_dataset": "TreeKeeper Inventory", "source_department": "Town of Pendleton", "source_last_edit_at": ""}}, {"type": "Feature", "geometry": {"type": "Point", "coordinates": [-85.7455525468, 40.0016052327]}, "properties": {"id": "pendleton-179", "species_group": "cherry", "scientific_name": "Prunus species", "common_name": "Japanese flowering (Prunus serrulata) cherry", "subtype_name": "Japanese flowering (Prunus serrulata) cherry", "zip_code": null, "ownership": "public", "ownership_raw": "City of Pendleton", "city": "Pendleton", "source_dataset": "TreeKeeper Inventory", "source_department": "Town of Pendleton", "source_last_edit_at": ""}}, {"type": "Feature", "geometry": {"type": "Point", "coordinates": [-85.7871754698, 40.0152914145]}, "properties": {"id": "pendleton-1793", "species_group": "magnolia", "scientific_name": "Magnolia species", "common_name": "saucer (Magnolia x soulangiana) magnolia", "subtype_name": "Saucer Magnolia", "zip_code": null, "ownership": "public", "ownership_raw": "City of Pendleton", "city": "Pendleton", "source_dataset": "TreeKeeper Inventory", "source_department": "Town of Pendleton", "source_last_edit_at": ""}}, {"type": "Feature", "geometry": {"type": "Point", "coordinates": [-85.7872791181, 40.0152678655]}, "properties": {"id": "pendleton-1802", "species_group": "cherry", "scientific_name": "Prunus species", "common_name": "spp. (Prunus spp.) cherry/plum", "subtype_name": "spp. (Prunus spp.) cherry/plum", "zip_code": null, "ownership": "public", "ownership_raw": "City of Pendleton", "city": "Pendleton", "source_dataset": "TreeKeeper Inventory", "source_department": "Town of Pendleton", "source_last_edit_at": ""}}, {"type": "Feature", "geometry": {"type": "Point", "coordinates": [-85.7591694516, 39.9870819962]}, "properties": {"id": "pendleton-1813", "species_group": "cherry", "scientific_name": "Prunus species", "common_name": "black (Prunus serotina) cherry", "subtype_name": "black (Prunus serotina) cherry", "zip_code": null, "ownership": "public", "ownership_raw": "City of Pendleton", "city": "Pendleton", "source_dataset": "TreeKeeper Inventory", "source_department": "Town of Pendleton", "source_last_edit_at": ""}}, {"type": "Feature", "geometry": {"type": "Point", "coordinates": [-85.7884426151, 40.0140894253]}, "properties": {"id": "pendleton-1826", "species_group": "crabapple", "scientific_name": "Malus species", "common_name": "flowering (Malus spp.) crabapple", "subtype_name": "flowering (Malus spp.) crabapple", "zip_code": null, "ownership": "public", "ownership_raw": "City of Pendleton", "city": "Pendleton", "source_dataset": "TreeKeeper Inventory", "source_department": "Town of Pendleton", "source_last_edit_at": ""}}, {"type": "Feature", "geometry": {"type": "Point", "coordinates": [-85.7505324245, 39.9970477965]}, "properties": {"id": "pendleton-1883", "species_group": "cherry", "scientific_name": "Prunus species", "common_name": "black (Prunus serotina) cherry", "subtype_name": "black (Prunus serotina) cherry", "zip_code": null, "ownership": "public", "ownership_raw": "City of Pendleton", "city": "Pendleton", "source_dataset": "TreeKeeper Inventory", "source_department": "Town of Pendleton", "source_last_edit_at": ""}}, {"type": "Feature", "geometry": {"type": "Point", "coordinates": [-85.7438142357, 39.9827412346]}, "properties": {"id": "pendleton-19", "species_group": "crabapple", "scientific_name": "Malus species", "common_name": "flowering (Malus spp.) crabapple", "subtype_name": "flowering (Malus spp.) crabapple", "zip_code": null, "ownership": "public", "ownership_raw": "City of Pendleton", "city": "Pendleton", "source_dataset": "TreeKeeper Inventory", "source_department": "Town of Pendleton", "source_last_edit_at": ""}}, {"type": "Feature", "geometry": {"type": "Point", "coordinates": [-85.7583923437, 39.9885479451]}, "properties": {"id": "pendleton-1906", "species_group": "cherry", "scientific_name": "Prunus species", "common_name": "black (Prunus serotina) cherry", "subtype_name": "black (Prunus serotina) cherry", "zip_code": null, "ownership": "public", "ownership_raw": "City of Pendleton", "city": "Pendleton", "source_dataset": "TreeKeeper Inventory", "source_department": "Town of Pendleton", "source_last_edit_at": ""}}, {"type": "Feature", "geometry": {"type": "Point", "coordinates": [-85.7567681277, 39.9900135864]}, "properties": {"id": "pendleton-1937", "species_group": "crabapple", "scientific_name": "Malus species", "common_name": "flowering (Malus spp.) crabapple", "subtype_name": "flowering (Malus spp.) crabapple", "zip_code": null, "ownership": "public", "ownership_raw": "City of Pendleton", "city": "Pendleton", "source_dataset": "TreeKeeper Inventory", "source_department": "Town of Pendleton", "source_last_edit_at": ""}}, {"type": "Feature", "geometry": {"type": "Point", "coordinates": [-85.7885823733, 40.0143385884]}, "properties": {"id": "pendleton-1954", "species_group": "crabapple", "scientific_name": "Malus species", "common_name": "flowering (Malus spp.) crabapple", "subtype_name": "flowering (Malus spp.) crabapple", "zip_code": null, "ownership": "public", "ownership_raw": "City of Pendleton", "city": "Pendleton", "source_dataset": "TreeKeeper Inventory", "source_department": "Town of Pendleton", "source_last_edit_at": ""}}, {"type": "Feature", "geometry": {"type": "Point", "coordinates": [-85.7444830342, 40.0046408628]}, "properties": {"id": "pendleton-2055", "species_group": "crabapple", "scientific_name": "Malus species", "common_name": "flowering (Malus spp.) crabapple", "subtype_name": "flowering (Malus spp.) crabapple", "zip_code": null, "ownership": "public", "ownership_raw": "City of Pendleton", "city": "Pendleton", "source_dataset": "TreeKeeper Inventory", "source_department": "Town of Pendleton", "source_last_edit_at": ""}}, {"type": "Feature", "geometry": {"type": "Point", "coordinates": [-85.7444492439, 40.0046006706]}, "properties": {"id": "pendleton-2061", "species_group": "crabapple", "scientific_name": "Malus species", "common_name": "flowering (Malus spp.) crabapple", "subtype_name": "flowering (Malus spp.) crabapple", "zip_code": null, "ownership": "public", "ownership_raw": "City of Pendleton", "city": "Pendleton", "source_dataset": "TreeKeeper Inventory", "source_department": "Town of Pendleton", "source_last_edit_at": ""}}, {"type": "Feature", "geometry": {"type": "Point", "coordinates": [-85.7558923315, 39.9866707904]}, "properties": {"id": "pendleton-2062", "species_group": "cherry", "scientific_name": "Prunus species", "common_name": "black (Prunus serotina) cherry", "subtype_name": "black (Prunus serotina) cherry", "zip_code": null, "ownership": "public", "ownership_raw": "City of Pendleton", "city": "Pendleton", "source_dataset": "TreeKeeper Inventory", "source_department": "Town of Pendleton", "source_last_edit_at": ""}}, {"type": "Feature", "geometry": {"type": "Point", "coordinates": [-85.7556994073, 39.9838593616]}, "properties": {"id": "pendleton-2073", "species_group": "cherry", "scientific_name": "Prunus species", "common_name": "black (Prunus serotina) cherry", "subtype_name": "black (Prunus serotina) cherry", "zip_code": null, "ownership": "public", "ownership_raw": "City of Pendleton", "city": "Pendleton", "source_dataset": "TreeKeeper Inventory", "source_department": "Town of Pendleton", "source_last_edit_at": ""}}, {"type": "Feature", "geometry": {"type": "Point", "coordinates": [-85.7441904015, 40.0045952105]}, "properties": {"id": "pendleton-2075", "species_group": "crabapple", "scientific_name": "Malus species", "common_name": "flowering (Malus spp.) crabapple", "subtype_name": "flowering (Malus spp.) crabapple", "zip_code": null, "ownership": "public", "ownership_raw": "City of Pendleton", "city": "Pendleton", "source_dataset": "TreeKeeper Inventory", "source_department": "Town of Pendleton", "source_last_edit_at": ""}}, {"type": "Feature", "geometry": {"type": "Point", "coordinates": [-85.7442350609, 39.9969267639]}, "properties": {"id": "pendleton-2137", "species_group": "magnolia", "scientific_name": "Magnolia species", "common_name": "saucer (Magnolia x soulangiana) magnolia", "subtype_name": "Saucer Magnolia", "zip_code": null, "ownership": "public", "ownership_raw": "City of Pendleton", "city": "Pendleton", "source_dataset": "TreeKeeper Inventory", "source_department": "Town of Pendleton", "source_last_edit_at": ""}}, {"type": "Feature", "geometry": {"type": "Point", "coordinates": [-85.7429270174, 40.009669209]}, "properties": {"id": "pendleton-2149", "species_group": "crabapple", "scientific_name": "Malus species", "common_name": "common (Malus pumila) apple", "subtype_name": "common (Malus pumila) apple", "zip_code": null, "ownership": "public", "ownership_raw": "City of Pendleton", "city": "Pendleton", "source_dataset": "TreeKeeper Inventory", "source_department": "Town of Pendleton", "source_last_edit_at": ""}}, {"type": "Feature", "geometry": {"type": "Point", "coordinates": [-85.7388826584, 40.0143989098]}, "properties": {"id": "pendleton-2167", "species_group": "cherry", "scientific_name": "Prunus species", "common_name": "black (Prunus serotina) cherry", "subtype_name": "black (Prunus serotina) cherry", "zip_code": null, "ownership": "public", "ownership_raw": "City of Pendleton", "city": "Pendleton", "source_dataset": "TreeKeeper Inventory", "source_department": "Town of Pendleton", "source_last_edit_at": ""}}, {"type": "Feature", "geometry": {"type": "Point", "coordinates": [-85.7464897008, 40.0038375575]}, "properties": {"id": "pendleton-2172", "species_group": "magnolia", "scientific_name": "Magnolia species", "common_name": "saucer (Magnolia x soulangiana) magnolia", "subtype_name": "Saucer Magnolia", "zip_code": null, "ownership": "public", "ownership_raw": "City of Pendleton", "city": "Pendleton", "source_dataset": "TreeKeeper Inventory", "source_department": "Town of Pendleton", "source_last_edit_at": ""}}, {"type": "Feature", "geometry": {"type": "Point", "coordinates": [-85.7430070822, 40.0095309707]}, "properties": {"id": "pendleton-2175", "species_group": "crabapple", "scientific_name": "Malus species", "common_name": "flowering (Malus spp.) crabapple", "subtype_name": "flowering (Malus spp.) crabapple", "zip_code": null, "ownership": "public", "ownership_raw": "City of Pendleton", "city": "Pendleton", "source_dataset": "TreeKeeper Inventory", "source_department": "Town of Pendleton", "source_last_edit_at": ""}}, {"type": "Feature", "geometry": {"type": "Point", "coordinates": [-85.7395730172, 40.0152747094]}, "properties": {"id": "pendleton-2244", "species_group": "crabapple", "scientific_name": "Malus species", "common_name": "flowering (Malus spp.) crabapple", "subtype_name": "flowering (Malus spp.) crabapple", "zip_code": null, "ownership": "public", "ownership_raw": "City of Pendleton", "city": "Pendleton", "source_dataset": "TreeKeeper Inventory", "source_department": "Town of Pendleton", "source_last_edit_at": ""}}, {"type": "Feature", "geometry": {"type": "Point", "coordinates": [-85.7443314924, 39.9890061261]}, "properties": {"id": "pendleton-2289", "species_group": "cherry", "scientific_name": "Prunus species", "common_name": "black (Prunus serotina) cherry", "subtype_name": "black (Prunus serotina) cherry", "zip_code": null, "ownership": "public", "ownership_raw": "City of Pendleton", "city": "Pendleton", "source_dataset": "TreeKeeper Inventory", "source_department": "Town of Pendleton", "source_last_edit_at": ""}}, {"type": "Feature", "geometry": {"type": "Point", "coordinates": [-85.7442105336, 40.0042502655]}, "properties": {"id": "pendleton-2315", "species_group": "crabapple", "scientific_name": "Malus species", "common_name": "flowering (Malus spp.) crabapple", "subtype_name": "flowering (Malus spp.) crabapple", "zip_code": null, "ownership": "public", "ownership_raw": "City of Pendleton", "city": "Pendleton", "source_dataset": "TreeKeeper Inventory", "source_department": "Town of Pendleton", "source_last_edit_at": ""}}, {"type": "Feature", "geometry": {"type": "Point", "coordinates": [-85.7442695547, 40.0042323193]}, "properties": {"id": "pendleton-2324", "species_group": "crabapple", "scientific_name": "Malus species", "common_name": "flowering (Malus spp.) crabapple", "subtype_name": "flowering (Malus spp.) crabapple", "zip_code": null, "ownership": "public", "ownership_raw": "City of Pendleton", "city": "Pendleton", "source_dataset": "TreeKeeper Inventory", "source_department": "Town of Pendleton", "source_last_edit_at": ""}}, {"type": "Feature", "geometry": {"type": "Point", "coordinates": [-85.744881478, 39.9939097826]}, "properties": {"id": "pendleton-2328", "species_group": "crabapple", "scientific_name": "Malus species", "common_name": "common (Malus pumila) apple", "subtype_name": "common (Malus pumila) apple", "zip_code": null, "ownership": "public", "ownership_raw": "City of Pendleton", "city": "Pendleton", "source_dataset": "TreeKeeper Inventory", "source_department": "Town of Pendleton", "source_last_edit_at": ""}}, {"type": "Feature", "geometry": {"type": "Point", "coordinates": [-85.743394888, 40.0038329459]}, "properties": {"id": "pendleton-2369", "species_group": "cherry", "scientific_name": "Prunus species", "common_name": "spp. (Prunus spp.) cherry/plum", "subtype_name": "spp. (Prunus spp.) cherry/plum", "zip_code": null, "ownership": "public", "ownership_raw": "City of Pendleton", "city": "Pendleton", "source_dataset": "TreeKeeper Inventory", "source_department": "Town of Pendleton", "source_last_edit_at": ""}}, {"type": "Feature", "geometry": {"type": "Point", "coordinates": [-85.7434772114, 40.0038338389]}, "properties": {"id": "pendleton-2384", "species_group": "crabapple", "scientific_name": "Malus species", "common_name": "flowering (Malus spp.) crabapple", "subtype_name": "flowering (Malus spp.) crabapple", "zip_code": null, "ownership": "public", "ownership_raw": "City of Pendleton", "city": "Pendleton", "source_dataset": "TreeKeeper Inventory", "source_department": "Town of Pendleton", "source_last_edit_at": ""}}, {"type": "Feature", "geometry": {"type": "Point", "coordinates": [-85.7435094243, 40.0038341886]}, "properties": {"id": "pendleton-2393", "species_group": "cherry", "scientific_name": "Prunus species", "common_name": "spp. (Prunus spp.) cherry/plum", "subtype_name": "spp. (Prunus spp.) cherry/plum", "zip_code": null, "ownership": "public", "ownership_raw": "City of Pendleton", "city": "Pendleton", "source_dataset": "TreeKeeper Inventory", "source_department": "Town of Pendleton", "source_last_edit_at": ""}}, {"type": "Feature", "geometry": {"type": "Point", "coordinates": [-85.7435416383, 40.0038345374]}, "properties": {"id": "pendleton-2401", "species_group": "crabapple", "scientific_name": "Malus species", "common_name": "flowering (Malus spp.) crabapple", "subtype_name": "flowering (Malus spp.) crabapple", "zip_code": null, "ownership": "public", "ownership_raw": "City of Pendleton", "city": "Pendleton", "source_dataset": "TreeKeeper Inventory", "source_department": "Town of Pendleton", "source_last_edit_at": ""}}, {"type": "Feature", "geometry": {"type": "Point", "coordinates": [-85.7559224322, 39.9865298657]}, "properties": {"id": "pendleton-2402", "species_group": "cherry", "scientific_name": "Prunus species", "common_name": "black (Prunus serotina) cherry", "subtype_name": "black (Prunus serotina) cherry", "zip_code": null, "ownership": "public", "ownership_raw": "City of Pendleton", "city": "Pendleton", "source_dataset": "TreeKeeper Inventory", "source_department": "Town of Pendleton", "source_last_edit_at": ""}}, {"type": "Feature", "geometry": {"type": "Point", "coordinates": [-85.7436418582, 40.0038356246]}, "properties": {"id": "pendleton-2407", "species_group": "crabapple", "scientific_name": "Malus species", "common_name": "flowering (Malus spp.) crabapple", "subtype_name": "flowering (Malus spp.) crabapple", "zip_code": null, "ownership": "public", "ownership_raw": "City of Pendleton", "city": "Pendleton", "source_dataset": "TreeKeeper Inventory", "source_department": "Town of Pendleton", "source_last_edit_at": ""}}, {"type": "Feature", "geometry": {"type": "Point", "coordinates": [-85.7879239665, 40.0120267271]}, "properties": {"id": "pendleton-2408", "species_group": "crabapple", "scientific_name": "Malus species", "common_name": "flowering (Malus spp.) crabapple", "subtype_name": "flowering (Malus spp.) crabapple", "zip_code": null, "ownership": "public", "ownership_raw": "City of Pendleton", "city": "Pendleton", "source_dataset": "TreeKeeper Inventory", "source_department": "Town of Pendleton", "source_last_edit_at": ""}}, {"type": "Feature", "geometry": {"type": "Point", "coordinates": [-85.7525448043, 39.9888582503]}, "properties": {"id": "pendleton-2416", "species_group": "crabapple", "scientific_name": "Malus species", "common_name": "flowering (Malus spp.) crabapple", "subtype_name": "flowering (Malus spp.) crabapple", "zip_code": null, "ownership": "public", "ownership_raw": "City of Pendleton", "city": "Pendleton", "source_dataset": "TreeKeeper Inventory", "source_department": "Town of Pendleton", "source_last_edit_at": ""}}, {"type": "Feature", "geometry": {"type": "Point", "coordinates": [-85.7878663633, 40.0123046479]}, "properties": {"id": "pendleton-2423", "species_group": "crabapple", "scientific_name": "Malus species", "common_name": "flowering (Malus spp.) crabapple", "subtype_name": "flowering (Malus spp.) crabapple", "zip_code": null, "ownership": "public", "ownership_raw": "City of Pendleton", "city": "Pendleton", "source_dataset": "TreeKeeper Inventory", "source_department": "Town of Pendleton", "source_last_edit_at": ""}}, {"type": "Feature", "geometry": {"type": "Point", "coordinates": [-85.7436777009, 40.00383326]}, "properties": {"id": "pendleton-2424", "species_group": "cherry", "scientific_name": "Prunus species", "common_name": "spp. (Prunus spp.) cherry/plum", "subtype_name": "spp. (Prunus spp.) cherry/plum", "zip_code": null, "ownership": "public", "ownership_raw": "City of Pendleton", "city": "Pendleton", "source_dataset": "TreeKeeper Inventory", "source_department": "Town of Pendleton", "source_last_edit_at": ""}}, {"type": "Feature", "geometry": {"type": "Point", "coordinates": [-85.7396658883, 40.0124215565]}, "properties": {"id": "pendleton-2426", "species_group": "cherry", "scientific_name": "Prunus species", "common_name": "black (Prunus serotina) cherry", "subtype_name": "black (Prunus serotina) cherry", "zip_code": null, "ownership": "public", "ownership_raw": "City of Pendleton", "city": "Pendleton", "source_dataset": "TreeKeeper Inventory", "source_department": "Town of Pendleton", "source_last_edit_at": ""}}, {"type": "Feature", "geometry": {"type": "Point", "coordinates": [-85.7437064362, 40.0038280649]}, "properties": {"id": "pendleton-2431", "species_group": "crabapple", "scientific_name": "Malus species", "common_name": "flowering (Malus spp.) crabapple", "subtype_name": "flowering (Malus spp.) crabapple", "zip_code": null, "ownership": "public", "ownership_raw": "City of Pendleton", "city": "Pendleton", "source_dataset": "TreeKeeper Inventory", "source_department": "Town of Pendleton", "source_last_edit_at": ""}}, {"type": "Feature", "geometry": {"type": "Point", "coordinates": [-85.7525484325, 39.9892796805]}, "properties": {"id": "pendleton-2436", "species_group": "crabapple", "scientific_name": "Malus species", "common_name": "flowering (Malus spp.) crabapple", "subtype_name": "flowering (Malus spp.) crabapple", "zip_code": null, "ownership": "public", "ownership_raw": "City of Pendleton", "city": "Pendleton", "source_dataset": "TreeKeeper Inventory", "source_department": "Town of Pendleton", "source_last_edit_at": ""}}, {"type": "Feature", "geometry": {"type": "Point", "coordinates": [-85.7526492041, 39.9893285517]}, "properties": {"id": "pendleton-2444", "species_group": "crabapple", "scientific_name": "Malus species", "common_name": "flowering (Malus spp.) crabapple", "subtype_name": "flowering (Malus spp.) crabapple", "zip_code": null, "ownership": "public", "ownership_raw": "City of Pendleton", "city": "Pendleton", "source_dataset": "TreeKeeper Inventory", "source_department": "Town of Pendleton", "source_last_edit_at": ""}}, {"type": "Feature", "geometry": {"type": "Point", "coordinates": [-85.8027610961, 40.0073548643]}, "properties": {"id": "pendleton-2487", "species_group": "cherry", "scientific_name": "Prunus species", "common_name": "black (Prunus serotina) cherry", "subtype_name": "black (Prunus serotina) cherry", "zip_code": null, "ownership": "public", "ownership_raw": "City of Pendleton", "city": "Pendleton", "source_dataset": "TreeKeeper Inventory", "source_department": "Town of Pendleton", "source_last_edit_at": ""}}, {"type": "Feature", "geometry": {"type": "Point", "coordinates": [-85.7475055374, 39.9940064305]}, "properties": {"id": "pendleton-2539", "species_group": "crabapple", "scientific_name": "Malus species", "common_name": "flowering (Malus spp.) crabapple", "subtype_name": "flowering (Malus spp.) crabapple", "zip_code": null, "ownership": "public", "ownership_raw": "City of Pendleton", "city": "Pendleton", "source_dataset": "TreeKeeper Inventory", "source_department": "Town of Pendleton", "source_last_edit_at": ""}}, {"type": "Feature", "geometry": {"type": "Point", "coordinates": [-85.7477290422, 39.9940021503]}, "properties": {"id": "pendleton-2547", "species_group": "magnolia", "scientific_name": "Magnolia species", "common_name": "saucer (Magnolia x soulangiana) magnolia", "subtype_name": "Saucer Magnolia", "zip_code": null, "ownership": "public", "ownership_raw": "City of Pendleton", "city": "Pendleton", "source_dataset": "TreeKeeper Inventory", "source_department": "Town of Pendleton", "source_last_edit_at": ""}}, {"type": "Feature", "geometry": {"type": "Point", "coordinates": [-85.7455707278, 40.0033771525]}, "properties": {"id": "pendleton-2565", "species_group": "cherry", "scientific_name": "Prunus species", "common_name": "spp. (Prunus spp.) cherry/plum", "subtype_name": "spp. (Prunus spp.) cherry/plum", "zip_code": null, "ownership": "public", "ownership_raw": "City of Pendleton", "city": "Pendleton", "source_dataset": "TreeKeeper Inventory", "source_department": "Town of Pendleton", "source_last_edit_at": ""}}, {"type": "Feature", "geometry": {"type": "Point", "coordinates": [-85.7552127845, 39.9898231219]}, "properties": {"id": "pendleton-2566", "species_group": "crabapple", "scientific_name": "Malus species", "common_name": "flowering (Malus spp.) crabapple", "subtype_name": "flowering (Malus spp.) crabapple", "zip_code": null, "ownership": "public", "ownership_raw": "City of Pendleton", "city": "Pendleton", "source_dataset": "TreeKeeper Inventory", "source_department": "Town of Pendleton", "source_last_edit_at": ""}}, {"type": "Feature", "geometry": {"type": "Point", "coordinates": [-85.7455735303, 40.0034147653]}, "properties": {"id": "pendleton-2575", "species_group": "cherry", "scientific_name": "Prunus species", "common_name": "spp. (Prunus spp.) cherry/plum", "subtype_name": "spp. (Prunus spp.) cherry/plum", "zip_code": null, "ownership": "public", "ownership_raw": "City of Pendleton", "city": "Pendleton", "source_dataset": "TreeKeeper Inventory", "source_department": "Town of Pendleton", "source_last_edit_at": ""}}, {"type": "Feature", "geometry": {"type": "Point", "coordinates": [-85.7551857033, 39.9900704524]}, "properties": {"id": "pendleton-2581", "species_group": "magnolia", "scientific_name": "Magnolia species", "common_name": "saucer (Magnolia x soulangiana) magnolia", "subtype_name": "Saucer Magnolia", "zip_code": null, "ownership": "public", "ownership_raw": "City of Pendleton", "city": "Pendleton", "source_dataset": "TreeKeeper Inventory", "source_department": "Town of Pendleton", "source_last_edit_at": ""}}, {"type": "Feature", "geometry": {"type": "Point", "coordinates": [-85.748846942, 40.0005912358]}, "properties": {"id": "pendleton-2625", "species_group": "crabapple", "scientific_name": "Malus species", "common_name": "flowering (Malus spp.) crabapple", "subtype_name": "flowering (Malus spp.) crabapple", "zip_code": null, "ownership": "public", "ownership_raw": "City of Pendleton", "city": "Pendleton", "source_dataset": "TreeKeeper Inventory", "source_department": "Town of Pendleton", "source_last_edit_at": ""}}, {"type": "Feature", "geometry": {"type": "Point", "coordinates": [-85.7457257628, 40.0046965231]}, "properties": {"id": "pendleton-2628", "species_group": "magnolia", "scientific_name": "Magnolia species", "common_name": "saucer (Magnolia x soulangiana) magnolia", "subtype_name": "Saucer Magnolia", "zip_code": null, "ownership": "public", "ownership_raw": "City of Pendleton", "city": "Pendleton", "source_dataset": "TreeKeeper Inventory", "source_department": "Town of Pendleton", "source_last_edit_at": ""}}, {"type": "Feature", "geometry": {"type": "Point", "coordinates": [-85.7471910369, 40.0016229583]}, "properties": {"id": "pendleton-2641", "species_group": "crabapple", "scientific_name": "Malus species", "common_name": "flowering (Malus spp.) crabapple", "subtype_name": "flowering (Malus spp.) crabapple", "zip_code": null, "ownership": "public", "ownership_raw": "City of Pendleton", "city": "Pendleton", "source_dataset": "TreeKeeper Inventory", "source_department": "Town of Pendleton", "source_last_edit_at": ""}}, {"type": "Feature", "geometry": {"type": "Point", "coordinates": [-85.745622962, 39.9959198933]}, "properties": {"id": "pendleton-2647", "species_group": "magnolia", "scientific_name": "Magnolia species", "common_name": "saucer (Magnolia x soulangiana) magnolia", "subtype_name": "Saucer Magnolia", "zip_code": null, "ownership": "public", "ownership_raw": "City of Pendleton", "city": "Pendleton", "source_dataset": "TreeKeeper Inventory", "source_department": "Town of Pendleton", "source_last_edit_at": ""}}, {"type": "Feature", "geometry": {"type": "Point", "coordinates": [-85.7454594263, 40.0040181969]}, "properties": {"id": "pendleton-2680", "species_group": "crabapple", "scientific_name": "Malus species", "common_name": "flowering (Malus spp.) crabapple", "subtype_name": "flowering (Malus spp.) crabapple", "zip_code": null, "ownership": "public", "ownership_raw": "City of Pendleton", "city": "Pendleton", "source_dataset": "TreeKeeper Inventory", "source_department": "Town of Pendleton", "source_last_edit_at": ""}}, {"type": "Feature", "geometry": {"type": "Point", "coordinates": [-85.7450800965, 39.9969205572]}, "properties": {"id": "pendleton-2701", "species_group": "cherry", "scientific_name": "Prunus species", "common_name": "Japanese flowering (Prunus serrulata) cherry", "subtype_name": "Japanese flowering (Prunus serrulata) cherry", "zip_code": null, "ownership": "public", "ownership_raw": "City of Pendleton", "city": "Pendleton", "source_dataset": "TreeKeeper Inventory", "source_department": "Town of Pendleton", "source_last_edit_at": ""}}, {"type": "Feature", "geometry": {"type": "Point", "coordinates": [-85.7454268962, 40.0048976109]}, "properties": {"id": "pendleton-2724", "species_group": "crabapple", "scientific_name": "Malus species", "common_name": "flowering (Malus spp.) crabapple", "subtype_name": "flowering (Malus spp.) crabapple", "zip_code": null, "ownership": "public", "ownership_raw": "City of Pendleton", "city": "Pendleton", "source_dataset": "TreeKeeper Inventory", "source_department": "Town of Pendleton", "source_last_edit_at": ""}}, {"type": "Feature", "geometry": {"type": "Point", "coordinates": [-85.7674417024, 39.9992811216]}, "properties": {"id": "pendleton-2763", "species_group": "cherry", "scientific_name": "Prunus species", "common_name": "cherrybark (Quercus pagoda) oak", "subtype_name": "cherrybark (Quercus pagoda) oak", "zip_code": null, "ownership": "public", "ownership_raw": "City of Pendleton", "city": "Pendleton", "source_dataset": "TreeKeeper Inventory", "source_department": "Town of Pendleton", "source_last_edit_at": ""}}, {"type": "Feature", "geometry": {"type": "Point", "coordinates": [-85.7459075722, 39.9859806384]}, "properties": {"id": "pendleton-2770", "species_group": "crabapple", "scientific_name": "Malus species", "common_name": "flowering (Malus spp.) crabapple", "subtype_name": "flowering (Malus spp.) crabapple", "zip_code": null, "ownership": "public", "ownership_raw": "City of Pendleton", "city": "Pendleton", "source_dataset": "TreeKeeper Inventory", "source_department": "Town of Pendleton", "source_last_edit_at": ""}}, {"type": "Feature", "geometry": {"type": "Point", "coordinates": [-85.7454993171, 39.9854789366]}, "properties": {"id": "pendleton-2846", "species_group": "cherry", "scientific_name": "Prunus species", "common_name": "spp. (Prunus spp.) cherry/plum", "subtype_name": "spp. (Prunus spp.) cherry/plum", "zip_code": null, "ownership": "public", "ownership_raw": "City of Pendleton", "city": "Pendleton", "source_dataset": "TreeKeeper Inventory", "source_department": "Town of Pendleton", "source_last_edit_at": ""}}, {"type": "Feature", "geometry": {"type": "Point", "coordinates": [-85.7455057687, 39.985530155]}, "properties": {"id": "pendleton-2848", "species_group": "cherry", "scientific_name": "Prunus species", "common_name": "spp. (Prunus spp.) cherry/plum", "subtype_name": "spp. (Prunus spp.) cherry/plum", "zip_code": null, "ownership": "public", "ownership_raw": "City of Pendleton", "city": "Pendleton", "source_dataset": "TreeKeeper Inventory", "source_department": "Town of Pendleton", "source_last_edit_at": ""}}, {"type": "Feature", "geometry": {"type": "Point", "coordinates": [-85.7488525244, 40.0019106943]}, "properties": {"id": "pendleton-2868", "species_group": "cherry", "scientific_name": "Prunus species", "common_name": "spp. (Prunus spp.) cherry/plum", "subtype_name": "spp. (Prunus spp.) cherry/plum", "zip_code": null, "ownership": "public", "ownership_raw": "City of Pendleton", "city": "Pendleton", "source_dataset": "TreeKeeper Inventory", "source_department": "Town of Pendleton", "source_last_edit_at": ""}}, {"type": "Feature", "geometry": {"type": "Point", "coordinates": [-85.7488638875, 40.0020530915]}, "properties": {"id": "pendleton-2873", "species_group": "cherry", "scientific_name": "Prunus species", "common_name": "spp. (Prunus spp.) cherry/plum", "subtype_name": "spp. (Prunus spp.) cherry/plum", "zip_code": null, "ownership": "public", "ownership_raw": "City of Pendleton", "city": "Pendleton", "source_dataset": "TreeKeeper Inventory", "source_department": "Town of Pendleton", "source_last_edit_at": ""}}, {"type": "Feature", "geometry": {"type": "Point", "coordinates": [-85.748869942, 40.002199458]}, "properties": {"id": "pendleton-2878", "species_group": "cherry", "scientific_name": "Prunus species", "common_name": "spp. (Prunus spp.) cherry/plum", "subtype_name": "spp. (Prunus spp.) cherry/plum", "zip_code": null, "ownership": "public", "ownership_raw": "City of Pendleton", "city": "Pendleton", "source_dataset": "TreeKeeper Inventory", "source_department": "Town of Pendleton", "source_last_edit_at": ""}}, {"type": "Feature", "geometry": {"type": "Point", "coordinates": [-85.754648369, 39.9875508207]}, "properties": {"id": "pendleton-323", "species_group": "cherry", "scientific_name": "Prunus species", "common_name": "black (Prunus serotina) cherry", "subtype_name": "black (Prunus serotina) cherry", "zip_code": null, "ownership": "public", "ownership_raw": "City of Pendleton", "city": "Pendleton", "source_dataset": "TreeKeeper Inventory", "source_department": "Town of Pendleton", "source_last_edit_at": ""}}, {"type": "Feature", "geometry": {"type": "Point", "coordinates": [-85.7562575428, 39.9869095345]}, "properties": {"id": "pendleton-331", "species_group": "cherry", "scientific_name": "Prunus species", "common_name": "black (Prunus serotina) cherry", "subtype_name": "black (Prunus serotina) cherry", "zip_code": null, "ownership": "public", "ownership_raw": "City of Pendleton", "city": "Pendleton", "source_dataset": "TreeKeeper Inventory", "source_department": "Town of Pendleton", "source_last_edit_at": ""}}, {"type": "Feature", "geometry": {"type": "Point", "coordinates": [-85.7889756978, 40.0121243302]}, "properties": {"id": "pendleton-338", "species_group": "magnolia", "scientific_name": "Magnolia species", "common_name": "saucer (Magnolia x soulangiana) magnolia", "subtype_name": "Saucer Magnolia", "zip_code": null, "ownership": "public", "ownership_raw": "City of Pendleton", "city": "Pendleton", "source_dataset": "TreeKeeper Inventory", "source_department": "Town of Pendleton", "source_last_edit_at": ""}}, {"type": "Feature", "geometry": {"type": "Point", "coordinates": [-85.7890135665, 40.0123984302]}, "properties": {"id": "pendleton-353", "species_group": "magnolia", "scientific_name": "Magnolia species", "common_name": "saucer (Magnolia x soulangiana) magnolia", "subtype_name": "Saucer Magnolia", "zip_code": null, "ownership": "public", "ownership_raw": "City of Pendleton", "city": "Pendleton", "source_dataset": "TreeKeeper Inventory", "source_department": "Town of Pendleton", "source_last_edit_at": ""}}, {"type": "Feature", "geometry": {"type": "Point", "coordinates": [-85.7889816612, 40.0125924265]}, "properties": {"id": "pendleton-356", "species_group": "magnolia", "scientific_name": "Magnolia species", "common_name": "saucer (Magnolia x soulangiana) magnolia", "subtype_name": "Saucer Magnolia", "zip_code": null, "ownership": "public", "ownership_raw": "City of Pendleton", "city": "Pendleton", "source_dataset": "TreeKeeper Inventory", "source_department": "Town of Pendleton", "source_last_edit_at": ""}}, {"type": "Feature", "geometry": {"type": "Point", "coordinates": [-85.7439790196, 39.982830619]}, "properties": {"id": "pendleton-36", "species_group": "crabapple", "scientific_name": "Malus species", "common_name": "flowering (Malus spp.) crabapple", "subtype_name": "flowering (Malus spp.) crabapple", "zip_code": null, "ownership": "public", "ownership_raw": "City of Pendleton", "city": "Pendleton", "source_dataset": "TreeKeeper Inventory", "source_department": "Town of Pendleton", "source_last_edit_at": ""}}, {"type": "Feature", "geometry": {"type": "Point", "coordinates": [-85.7889848814, 40.0126116195]}, "properties": {"id": "pendleton-361", "species_group": "magnolia", "scientific_name": "Magnolia species", "common_name": "saucer (Magnolia x soulangiana) magnolia", "subtype_name": "Saucer Magnolia", "zip_code": null, "ownership": "public", "ownership_raw": "City of Pendleton", "city": "Pendleton", "source_dataset": "TreeKeeper Inventory", "source_department": "Town of Pendleton", "source_last_edit_at": ""}}, {"type": "Feature", "geometry": {"type": "Point", "coordinates": [-85.7869597243, 40.0144119359]}, "properties": {"id": "pendleton-372", "species_group": "crabapple", "scientific_name": "Malus species", "common_name": "flowering (Malus spp.) crabapple", "subtype_name": "flowering (Malus spp.) crabapple", "zip_code": null, "ownership": "public", "ownership_raw": "City of Pendleton", "city": "Pendleton", "source_dataset": "TreeKeeper Inventory", "source_department": "Town of Pendleton", "source_last_edit_at": ""}}, {"type": "Feature", "geometry": {"type": "Point", "coordinates": [-85.7440302277, 39.98285769]}, "properties": {"id": "pendleton-40", "species_group": "crabapple", "scientific_name": "Malus species", "common_name": "flowering (Malus spp.) crabapple", "subtype_name": "flowering (Malus spp.) crabapple", "zip_code": null, "ownership": "public", "ownership_raw": "City of Pendleton", "city": "Pendleton", "source_dataset": "TreeKeeper Inventory", "source_department": "Town of Pendleton", "source_last_edit_at": ""}}, {"type": "Feature", "geometry": {"type": "Point", "coordinates": [-85.7548794636, 39.9889816705]}, "properties": {"id": "pendleton-404", "species_group": "cherry", "scientific_name": "Prunus species", "common_name": "black (Prunus serotina) cherry", "subtype_name": "black (Prunus serotina) cherry", "zip_code": null, "ownership": "public", "ownership_raw": "City of Pendleton", "city": "Pendleton", "source_dataset": "TreeKeeper Inventory", "source_department": "Town of Pendleton", "source_last_edit_at": ""}}, {"type": "Feature", "geometry": {"type": "Point", "coordinates": [-85.7471963002, 40.0017169698]}, "properties": {"id": "pendleton-44", "species_group": "crabapple", "scientific_name": "Malus species", "common_name": "flowering (Malus spp.) crabapple", "subtype_name": "flowering (Malus spp.) crabapple", "zip_code": null, "ownership": "public", "ownership_raw": "City of Pendleton", "city": "Pendleton", "source_dataset": "TreeKeeper Inventory", "source_department": "Town of Pendleton", "source_last_edit_at": ""}}, {"type": "Feature", "geometry": {"type": "Point", "coordinates": [-85.7565639706, 39.9877320588]}, "properties": {"id": "pendleton-447", "species_group": "cherry", "scientific_name": "Prunus species", "common_name": "black (Prunus serotina) cherry", "subtype_name": "black (Prunus serotina) cherry", "zip_code": null, "ownership": "public", "ownership_raw": "City of Pendleton", "city": "Pendleton", "source_dataset": "TreeKeeper Inventory", "source_department": "Town of Pendleton", "source_last_edit_at": ""}}, {"type": "Feature", "geometry": {"type": "Point", "coordinates": [-85.7869784211, 40.0158654981]}, "properties": {"id": "pendleton-489", "species_group": "cherry", "scientific_name": "Prunus species", "common_name": "black (Prunus serotina) cherry", "subtype_name": "black (Prunus serotina) cherry", "zip_code": null, "ownership": "public", "ownership_raw": "City of Pendleton", "city": "Pendleton", "source_dataset": "TreeKeeper Inventory", "source_department": "Town of Pendleton", "source_last_edit_at": ""}}, {"type": "Feature", "geometry": {"type": "Point", "coordinates": [-85.7488125321, 39.9985528528]}, "properties": {"id": "pendleton-521", "species_group": "crabapple", "scientific_name": "Malus species", "common_name": "common (Malus pumila) apple", "subtype_name": "common (Malus pumila) apple", "zip_code": null, "ownership": "public", "ownership_raw": "City of Pendleton", "city": "Pendleton", "source_dataset": "TreeKeeper Inventory", "source_department": "Town of Pendleton", "source_last_edit_at": ""}}, {"type": "Feature", "geometry": {"type": "Point", "coordinates": [-85.7472337777, 40.0032233145]}, "properties": {"id": "pendleton-5876", "species_group": "cherry", "scientific_name": "Prunus species", "common_name": "spp. (Prunus spp.) cherry/plum", "subtype_name": "spp. (Prunus spp.) cherry/plum", "zip_code": null, "ownership": "public", "ownership_raw": "City of Pendleton", "city": "Pendleton", "source_dataset": "TreeKeeper Inventory", "source_department": "Town of Pendleton", "source_last_edit_at": ""}}, {"type": "Feature", "geometry": {"type": "Point", "coordinates": [-85.7440578247, 39.9829403019]}, "properties": {"id": "pendleton-5890", "species_group": "crabapple", "scientific_name": "Malus species", "common_name": "flowering (Malus spp.) crabapple", "subtype_name": "flowering (Malus spp.) crabapple", "zip_code": null, "ownership": "public", "ownership_raw": "City of Pendleton", "city": "Pendleton", "source_dataset": "TreeKeeper Inventory", "source_department": "Town of Pendleton", "source_last_edit_at": ""}}, {"type": "Feature", "geometry": {"type": "Point", "coordinates": [-85.7449049037, 39.993910924]}, "properties": {"id": "pendleton-5904", "species_group": "crabapple", "scientific_name": "Malus species", "common_name": "common (Malus pumila) apple", "subtype_name": "common (Malus pumila) apple", "zip_code": null, "ownership": "public", "ownership_raw": "City of Pendleton", "city": "Pendleton", "source_dataset": "TreeKeeper Inventory", "source_department": "Town of Pendleton", "source_last_edit_at": ""}}, {"type": "Feature", "geometry": {"type": "Point", "coordinates": [-85.7458554206, 39.9938979008]}, "properties": {"id": "pendleton-5924", "species_group": "crabapple", "scientific_name": "Malus species", "common_name": "flowering (Malus spp.) crabapple", "subtype_name": "flowering (Malus spp.) crabapple", "zip_code": null, "ownership": "public", "ownership_raw": "City of Pendleton", "city": "Pendleton", "source_dataset": "TreeKeeper Inventory", "source_department": "Town of Pendleton", "source_last_edit_at": ""}}, {"type": "Feature", "geometry": {"type": "Point", "coordinates": [-85.8027499759, 40.0073647483]}, "properties": {"id": "pendleton-5975", "species_group": "cherry", "scientific_name": "Prunus species", "common_name": "black (Prunus serotina) cherry", "subtype_name": "black (Prunus serotina) cherry", "zip_code": null, "ownership": "public", "ownership_raw": "City of Pendleton", "city": "Pendleton", "source_dataset": "TreeKeeper Inventory", "source_department": "Town of Pendleton", "source_last_edit_at": ""}}, {"type": "Feature", "geometry": {"type": "Point", "coordinates": [-85.7505007308, 40.0000328484]}, "properties": {"id": "pendleton-6027", "species_group": "crabapple", "scientific_name": "Malus species", "common_name": "flowering (Malus spp.) crabapple", "subtype_name": "flowering (Malus spp.) crabapple", "zip_code": null, "ownership": "public", "ownership_raw": "City of Pendleton", "city": "Pendleton", "source_dataset": "TreeKeeper Inventory", "source_department": "Town of Pendleton", "source_last_edit_at": ""}}, {"type": "Feature", "geometry": {"type": "Point", "coordinates": [-85.7517337218, 40.0013408182]}, "properties": {"id": "pendleton-6036", "species_group": "peach", "scientific_name": "Prunus species", "common_name": "common (Prunus persica) peach", "subtype_name": "common (Prunus persica) peach", "zip_code": null, "ownership": "public", "ownership_raw": "City of Pendleton", "city": "Pendleton", "source_dataset": "TreeKeeper Inventory", "source_department": "Town of Pendleton", "source_last_edit_at": ""}}, {"type": "Feature", "geometry": {"type": "Point", "coordinates": [-85.7517299189, 40.0012932375]}, "properties": {"id": "pendleton-6040", "species_group": "crabapple", "scientific_name": "Malus species", "common_name": "common (Malus pumila) apple", "subtype_name": "common (Malus pumila) apple", "zip_code": null, "ownership": "public", "ownership_raw": "City of Pendleton", "city": "Pendleton", "source_dataset": "TreeKeeper Inventory", "source_department": "Town of Pendleton", "source_last_edit_at": ""}}, {"type": "Feature", "geometry": {"type": "Point", "coordinates": [-85.746590724, 40.003696865]}, "properties": {"id": "pendleton-606", "species_group": "cherry", "scientific_name": "Prunus species", "common_name": "spp. (Prunus spp.) cherry/plum", "subtype_name": "spp. (Prunus spp.) cherry/plum", "zip_code": null, "ownership": "public", "ownership_raw": "City of Pendleton", "city": "Pendleton", "source_dataset": "TreeKeeper Inventory", "source_department": "Town of Pendleton", "source_last_edit_at": ""}}, {"type": "Feature", "geometry": {"type": "Point", "coordinates": [-85.7460581563, 39.9929760863]}, "properties": {"id": "pendleton-6077", "species_group": "cherry", "scientific_name": "Prunus species", "common_name": "black (Prunus serotina) cherry", "subtype_name": "black (Prunus serotina) cherry", "zip_code": null, "ownership": "public", "ownership_raw": "City of Pendleton", "city": "Pendleton", "source_dataset": "TreeKeeper Inventory", "source_department": "Town of Pendleton", "source_last_edit_at": ""}}, {"type": "Feature", "geometry": {"type": "Point", "coordinates": [-85.742917264, 40.0062210558]}, "properties": {"id": "pendleton-6095", "species_group": "crabapple", "scientific_name": "Malus species", "common_name": "flowering (Malus spp.) crabapple", "subtype_name": "flowering (Malus spp.) crabapple", "zip_code": null, "ownership": "public", "ownership_raw": "City of Pendleton", "city": "Pendleton", "source_dataset": "TreeKeeper Inventory", "source_department": "Town of Pendleton", "source_last_edit_at": ""}}, {"type": "Feature", "geometry": {"type": "Point", "coordinates": [-85.7374028386, 40.0117273064]}, "properties": {"id": "pendleton-6184", "species_group": "cherry", "scientific_name": "Prunus species", "common_name": "black (Prunus serotina) cherry", "subtype_name": "black (Prunus serotina) cherry", "zip_code": null, "ownership": "public", "ownership_raw": "City of Pendleton", "city": "Pendleton", "source_dataset": "TreeKeeper Inventory", "source_department": "Town of Pendleton", "source_last_edit_at": ""}}, {"type": "Feature", "geometry": {"type": "Point", "coordinates": [-85.744196061832, 40.006500549224]}, "properties": {"id": "pendleton-6515", "species_group": "magnolia", "scientific_name": "Magnolia species", "common_name": "spp. (Magnolia spp.) magnolia", "subtype_name": "spp. (Magnolia spp.) magnolia", "zip_code": null, "ownership": "public", "ownership_raw": "City of Pendleton", "city": "Pendleton", "source_dataset": "TreeKeeper Inventory", "source_department": "Town of Pendleton", "source_last_edit_at": ""}}, {"type": "Feature", "geometry": {"type": "Point", "coordinates": [-85.739853130189, 40.003944746181]}, "properties": {"id": "pendleton-6595", "species_group": "magnolia", "scientific_name": "Magnolia species", "common_name": "saucer (Magnolia x soulangiana) magnolia", "subtype_name": "Saucer Magnolia", "zip_code": null, "ownership": "public", "ownership_raw": "City of Pendleton", "city": "Pendleton", "source_dataset": "TreeKeeper Inventory", "source_department": "Town of Pendleton", "source_last_edit_at": ""}}, {"type": "Feature", "geometry": {"type": "Point", "coordinates": [-85.743517761753, 40.006790352617]}, "properties": {"id": "pendleton-6617", "species_group": "magnolia", "scientific_name": "Magnolia species", "common_name": "spp. (Magnolia spp.) magnolia", "subtype_name": "spp. (Magnolia spp.) magnolia", "zip_code": null, "ownership": "public", "ownership_raw": "City of Pendleton", "city": "Pendleton", "source_dataset": "TreeKeeper Inventory", "source_department": "Town of Pendleton", "source_last_edit_at": ""}}, {"type": "Feature", "geometry": {"type": "Point", "coordinates": [-85.744937237069, 40.009662646801]}, "properties": {"id": "pendleton-6630", "species_group": "crabapple", "scientific_name": "Malus species", "common_name": "flowering (Malus spp.) crabapple", "subtype_name": "flowering (Malus spp.) crabapple", "zip_code": null, "ownership": "public", "ownership_raw": "City of Pendleton", "city": "Pendleton", "source_dataset": "TreeKeeper Inventory", "source_department": "Town of Pendleton", "source_last_edit_at": ""}}, {"type": "Feature", "geometry": {"type": "Point", "coordinates": [-85.747362936359, 40.003626643805]}, "properties": {"id": "pendleton-6655", "species_group": "cherry", "scientific_name": "Prunus species", "common_name": "common (Prunus virginiana) chokecherry", "subtype_name": "common (Prunus virginiana) chokecherry", "zip_code": null, "ownership": "public", "ownership_raw": "City of Pendleton", "city": "Pendleton", "source_dataset": "TreeKeeper Inventory", "source_department": "Town of Pendleton", "source_last_edit_at": ""}}, {"type": "Feature", "geometry": {"type": "Point", "coordinates": [-85.750619305741, 40.000400489262]}, "properties": {"id": "pendleton-6663", "species_group": "cherry", "scientific_name": "Prunus species", "common_name": "common (Prunus virginiana) chokecherry", "subtype_name": "common (Prunus virginiana) chokecherry", "zip_code": null, "ownership": "public", "ownership_raw": "City of Pendleton", "city": "Pendleton", "source_dataset": "TreeKeeper Inventory", "source_department": "Town of Pendleton", "source_last_edit_at": ""}}, {"type": "Feature", "geometry": {"type": "Point", "coordinates": [-85.750613941328, 40.000596710851]}, "properties": {"id": "pendleton-6665", "species_group": "cherry", "scientific_name": "Prunus species", "common_name": "Japanese flowering (Prunus serrulata) cherry", "subtype_name": "Japanese flowering (Prunus serrulata) cherry", "zip_code": null, "ownership": "public", "ownership_raw": "City of Pendleton", "city": "Pendleton", "source_dataset": "TreeKeeper Inventory", "source_department": "Town of Pendleton", "source_last_edit_at": ""}}, {"type": "Feature", "geometry": {"type": "Point", "coordinates": [-85.750495924131, 40.000770330529]}, "properties": {"id": "pendleton-6670", "species_group": "crabapple", "scientific_name": "Malus species", "common_name": "flowering (Malus spp.) crabapple", "subtype_name": "flowering (Malus spp.) crabapple", "zip_code": null, "ownership": "public", "ownership_raw": "City of Pendleton", "city": "Pendleton", "source_dataset": "TreeKeeper Inventory", "source_department": "Town of Pendleton", "source_last_edit_at": ""}}, {"type": "Feature", "geometry": {"type": "Point", "coordinates": [-85.74499515769, 40.003866895005]}, "properties": {"id": "pendleton-6683", "species_group": "crabapple", "scientific_name": "Malus species", "common_name": "flowering (Malus spp.) crabapple", "subtype_name": "flowering (Malus spp.) crabapple", "zip_code": null, "ownership": "public", "ownership_raw": "City of Pendleton", "city": "Pendleton", "source_dataset": "TreeKeeper Inventory", "source_department": "Town of Pendleton", "source_last_edit_at": ""}}, {"type": "Feature", "geometry": {"type": "Point", "coordinates": [-85.750489334082, 40.00234074336]}, "properties": {"id": "pendleton-6695", "species_group": "cherry", "scientific_name": "Prunus species", "common_name": "Japanese flowering (Prunus serrulata) cherry", "subtype_name": "Japanese flowering (Prunus serrulata) cherry", "zip_code": null, "ownership": "public", "ownership_raw": "City of Pendleton", "city": "Pendleton", "source_dataset": "TreeKeeper Inventory", "source_department": "Town of Pendleton", "source_last_edit_at": ""}}, {"type": "Feature", "geometry": {"type": "Point", "coordinates": [-85.750497380708, 39.999957255958]}, "properties": {"id": "pendleton-6697", "species_group": "cherry", "scientific_name": "Prunus species", "common_name": "common (Prunus virginiana) chokecherry", "subtype_name": "common (Prunus virginiana) chokecherry", "zip_code": null, "ownership": "public", "ownership_raw": "City of Pendleton", "city": "Pendleton", "source_dataset": "TreeKeeper Inventory", "source_department": "Town of Pendleton", "source_last_edit_at": ""}}, {"type": "Feature", "geometry": {"type": "Point", "coordinates": [-85.744073148765, 39.983721758388]}, "properties": {"id": "pendleton-6710", "species_group": "crabapple", "scientific_name": "Malus species", "common_name": "flowering (Malus spp.) crabapple", "subtype_name": "flowering (Malus spp.) crabapple", "zip_code": null, "ownership": "public", "ownership_raw": "City of Pendleton", "city": "Pendleton", "source_dataset": "TreeKeeper Inventory", "source_department": "Town of Pendleton", "source_last_edit_at": ""}}, {"type": "Feature", "geometry": {"type": "Point", "coordinates": [-85.744067784347, 39.983783413792]}, "properties": {"id": "pendleton-6711", "species_group": "crabapple", "scientific_name": "Malus species", "common_name": "flowering (Malus spp.) crabapple", "subtype_name": "flowering (Malus spp.) crabapple", "zip_code": null, "ownership": "public", "ownership_raw": "City of Pendleton", "city": "Pendleton", "source_dataset": "TreeKeeper Inventory", "source_department": "Town of Pendleton", "source_last_edit_at": ""}}, {"type": "Feature", "geometry": {"type": "Point", "coordinates": [-85.744062419929, 39.983832738075]}, "properties": {"id": "pendleton-6712", "species_group": "crabapple", "scientific_name": "Malus species", "common_name": "flowering (Malus spp.) crabapple", "subtype_name": "flowering (Malus spp.) crabapple", "zip_code": null, "ownership": "public", "ownership_raw": "City of Pendleton", "city": "Pendleton", "source_dataset": "TreeKeeper Inventory", "source_department": "Town of Pendleton", "source_last_edit_at": ""}}, {"type": "Feature", "geometry": {"type": "Point", "coordinates": [-85.744168590967, 39.983739373072]}, "properties": {"id": "pendleton-6713", "species_group": "crabapple", "scientific_name": "Malus species", "common_name": "flowering (Malus spp.) crabapple", "subtype_name": "flowering (Malus spp.) crabapple", "zip_code": null, "ownership": "public", "ownership_raw": "City of Pendleton", "city": "Pendleton", "source_dataset": "TreeKeeper Inventory", "source_department": "Town of Pendleton", "source_last_edit_at": ""}}, {"type": "Feature", "geometry": {"type": "Point", "coordinates": [-85.744163226549, 39.983809249175]}, "properties": {"id": "pendleton-6714", "species_group": "crabapple", "scientific_name": "Malus species", "common_name": "flowering (Malus spp.) crabapple", "subtype_name": "flowering (Malus spp.) crabapple", "zip_code": null, "ownership": "public", "ownership_raw": "City of Pendleton", "city": "Pendleton", "source_dataset": "TreeKeeper Inventory", "source_department": "Town of Pendleton", "source_last_edit_at": ""}}, {"type": "Feature", "geometry": {"type": "Point", "coordinates": [-85.743975438603, 39.98315720708]}, "properties": {"id": "pendleton-6724", "species_group": "crabapple", "scientific_name": "Malus species", "common_name": "flowering (Malus spp.) crabapple", "subtype_name": "flowering (Malus spp.) crabapple", "zip_code": null, "ownership": "public", "ownership_raw": "City of Pendleton", "city": "Pendleton", "source_dataset": "TreeKeeper Inventory", "source_department": "Town of Pendleton", "source_last_edit_at": ""}}, {"type": "Feature", "geometry": {"type": "Point", "coordinates": [-85.744036671981, 39.983174231386]}, "properties": {"id": "pendleton-6725", "species_group": "crabapple", "scientific_name": "Malus species", "common_name": "flowering (Malus spp.) crabapple", "subtype_name": "flowering (Malus spp.) crabapple", "zip_code": null, "ownership": "public", "ownership_raw": "City of Pendleton", "city": "Pendleton", "source_dataset": "TreeKeeper Inventory", "source_department": "Town of Pendleton", "source_last_edit_at": ""}}, {"type": "Feature", "geometry": {"type": "Point", "coordinates": [-85.7440125321, 39.983194783359]}, "properties": {"id": "pendleton-6726", "species_group": "crabapple", "scientific_name": "Malus species", "common_name": "flowering (Malus spp.) crabapple", "subtype_name": "flowering (Malus spp.) crabapple", "zip_code": null, "ownership": "public", "ownership_raw": "City of Pendleton", "city": "Pendleton", "source_dataset": "TreeKeeper Inventory", "source_department": "Town of Pendleton", "source_last_edit_at": ""}}, {"type": "Feature", "geometry": {"type": "Point", "coordinates": [-85.742904195753, 39.979636757773]}, "properties": {"id": "pendleton-6766", "species_group": "cherry", "scientific_name": "Prunus species", "common_name": "common (Prunus virginiana) chokecherry", "subtype_name": "common (Prunus virginiana) chokecherry", "zip_code": null, "ownership": "public", "ownership_raw": "City of Pendleton", "city": "Pendleton", "source_dataset": "TreeKeeper Inventory", "source_department": "Town of Pendleton", "source_last_edit_at": ""}}, {"type": "Feature", "geometry": {"type": "Point", "coordinates": [-85.734011863669, 39.999067336973]}, "properties": {"id": "pendleton-6774", "species_group": "crabapple", "scientific_name": "Malus species", "common_name": "flowering (Malus spp.) crabapple", "subtype_name": "flowering (Malus spp.) crabapple", "zip_code": null, "ownership": "public", "ownership_raw": "City of Pendleton", "city": "Pendleton", "source_dataset": "TreeKeeper Inventory", "source_department": "Town of Pendleton", "source_last_edit_at": ""}}, {"type": "Feature", "geometry": {"type": "Point", "coordinates": [-85.734054779014, 39.998902959225]}, "properties": {"id": "pendleton-6775", "species_group": "crabapple", "scientific_name": "Malus species", "common_name": "flowering (Malus spp.) crabapple", "subtype_name": "flowering (Malus spp.) crabapple", "zip_code": null, "ownership": "public", "ownership_raw": "City of Pendleton", "city": "Pendleton", "source_dataset": "TreeKeeper Inventory", "source_department": "Town of Pendleton", "source_last_edit_at": ""}}, {"type": "Feature", "geometry": {"type": "Point", "coordinates": [-85.734108389879, 39.998782053723]}, "properties": {"id": "pendleton-6776", "species_group": "crabapple", "scientific_name": "Malus species", "common_name": "flowering (Malus spp.) crabapple", "subtype_name": "flowering (Malus spp.) crabapple", "zip_code": null, "ownership": "public", "ownership_raw": "City of Pendleton", "city": "Pendleton", "source_dataset": "TreeKeeper Inventory", "source_department": "Town of Pendleton", "source_last_edit_at": ""}}, {"type": "Feature", "geometry": {"type": "Point", "coordinates": [-85.74010115956, 40.014706886879]}, "properties": {"id": "pendleton-6779", "species_group": "crabapple", "scientific_name": "Malus species", "common_name": "flowering (Malus spp.) crabapple", "subtype_name": "flowering (Malus spp.) crabapple", "zip_code": null, "ownership": "public", "ownership_raw": "City of Pendleton", "city": "Pendleton", "source_dataset": "TreeKeeper Inventory", "source_department": "Town of Pendleton", "source_last_edit_at": ""}}, {"type": "Feature", "geometry": {"type": "Point", "coordinates": [-85.740179784527, 40.014730249794]}, "properties": {"id": "pendleton-6781", "species_group": "cherry", "scientific_name": "Prunus species", "common_name": "black (Prunus serotina) cherry", "subtype_name": "black (Prunus serotina) cherry", "zip_code": null, "ownership": "public", "ownership_raw": "City of Pendleton", "city": "Pendleton", "source_dataset": "TreeKeeper Inventory", "source_department": "Town of Pendleton", "source_last_edit_at": ""}}, {"type": "Feature", "geometry": {"type": "Point", "coordinates": [-85.788530571862, 40.00975275474]}, "properties": {"id": "pendleton-6796", "species_group": "crabapple", "scientific_name": "Malus species", "common_name": "flowering (Malus spp.) crabapple", "subtype_name": "flowering (Malus spp.) crabapple", "zip_code": null, "ownership": "public", "ownership_raw": "City of Pendleton", "city": "Pendleton", "source_dataset": "TreeKeeper Inventory", "source_department": "Town of Pendleton", "source_last_edit_at": ""}}, {"type": "Feature", "geometry": {"type": "Point", "coordinates": [-85.7427011769, 40.0010119423]}, "properties": {"id": "pendleton-693", "species_group": "magnolia", "scientific_name": "Magnolia species", "common_name": "saucer (Magnolia x soulangiana) magnolia", "subtype_name": "Saucer Magnolia", "zip_code": null, "ownership": "public", "ownership_raw": "City of Pendleton", "city": "Pendleton", "source_dataset": "TreeKeeper Inventory", "source_department": "Town of Pendleton", "source_last_edit_at": ""}}, {"type": "Feature", "geometry": {"type": "Point", "coordinates": [-85.7574452538, 39.9869787739]}, "properties": {"id": "pendleton-728", "species_group": "cherry", "scientific_name": "Prunus species", "common_name": "black (Prunus serotina) cherry", "subtype_name": "black (Prunus serotina) cherry", "zip_code": null, "ownership": "public", "ownership_raw": "City of Pendleton", "city": "Pendleton", "source_dataset": "TreeKeeper Inventory", "source_department": "Town of Pendleton", "source_last_edit_at": ""}}, {"type": "Feature", "geometry": {"type": "Point", "coordinates": [-85.7621105778, 40.0034773093]}, "properties": {"id": "pendleton-778", "species_group": "cherry", "scientific_name": "Prunus species", "common_name": "black (Prunus serotina) cherry", "subtype_name": "black (Prunus serotina) cherry", "zip_code": null, "ownership": "public", "ownership_raw": "City of Pendleton", "city": "Pendleton", "source_dataset": "TreeKeeper Inventory", "source_department": "Town of Pendleton", "source_last_edit_at": ""}}, {"type": "Feature", "geometry": {"type": "Point", "coordinates": [-85.7489652095, 40.0007092856]}, "properties": {"id": "pendleton-82", "species_group": "magnolia", "scientific_name": "Magnolia species", "common_name": "saucer (Magnolia x soulangiana) magnolia", "subtype_name": "Saucer Magnolia", "zip_code": null, "ownership": "public", "ownership_raw": "City of Pendleton", "city": "Pendleton", "source_dataset": "TreeKeeper Inventory", "source_department": "Town of Pendleton", "source_last_edit_at": ""}}, {"type": "Feature", "geometry": {"type": "Point", "coordinates": [-85.7504268048, 39.9897580793]}, "properties": {"id": "pendleton-826", "species_group": "cherry", "scientific_name": "Prunus species", "common_name": "black (Prunus serotina) cherry", "subtype_name": "black (Prunus serotina) cherry", "zip_code": null, "ownership": "public", "ownership_raw": "City of Pendleton", "city": "Pendleton", "source_dataset": "TreeKeeper Inventory", "source_department": "Town of Pendleton", "source_last_edit_at": ""}}, {"type": "Feature", "geometry": {"type": "Point", "coordinates": [-85.7438124236, 39.9831588971]}, "properties": {"id": "pendleton-9", "species_group": "crabapple", "scientific_name": "Malus species", "common_name": "flowering (Malus spp.) crabapple", "subtype_name": "flowering (Malus spp.) crabapple", "zip_code": null, "ownership": "public", "ownership_raw": "City of Pendleton", "city": "Pendleton", "source_dataset": "TreeKeeper Inventory", "source_department": "Town of Pendleton", "source_last_edit_at": ""}}, {"type": "Feature", "geometry": {"type": "Point", "coordinates": [-85.7433554651, 40.0038352723]}, "properties": {"id": "pendleton-902", "species_group": "cherry", "scientific_name": "Prunus species", "common_name": "spp. (Prunus spp.) cherry/plum", "subtype_name": "spp. (Prunus spp.) cherry/plum", "zip_code": null, "ownership": "public", "ownership_raw": "City of Pendleton", "city": "Pendleton", "source_dataset": "TreeKeeper Inventory", "source_department": "Town of Pendleton", "source_last_edit_at": ""}}, {"type": "Feature", "geometry": {"type": "Point", "coordinates": [-85.7597181145, 39.9860620579]}, "properties": {"id": "pendleton-911", "species_group": "cherry", "scientific_name": "Prunus species", "common_name": "black (Prunus serotina) cherry", "subtype_name": "black (Prunus serotina) cherry", "zip_code": null, "ownership": "public", "ownership_raw": "City of Pendleton", "city": "Pendleton", "source_dataset": "TreeKeeper Inventory", "source_department": "Town of Pendleton", "source_last_edit_at": ""}}]}