{"type": "FeatureCollection", "features": [{"type": "Feature", "geometry": {"type": "Point", "coordinates": [-70.96585039874569, 42.458026808674]}, "properties": {"id": "lynn-888", "species_group": "cherry", "scientific_name": "Prunus 'Accolade'", "common_name": "Accolade cherry", "subtype_name": "Accolade", "zip_code": "01905", "ownership": "public", "ownership_raw": "City of Lynn", "city": "Lynn", "source_dataset": "Tree Inventory", "source_department": "City of Lynn", "source_last_edit_at": "2024-11-25T20:00:33.726000+00:00"}}, {"type": "Feature", "geometry": {"type": "Point", "coordinates": [-70.96635143679035, 42.4579772401132]}, "properties": {"id": "lynn-895", "species_group": "crabapple", "scientific_name": "Malus sp. 'spring snow'", "common_name": "Crabapple", "subtype_name": "Malus sp. 'spring snow'", "zip_code": "01905", "ownership": "public", "ownership_raw": "City of Lynn", "city": "Lynn", "source_dataset": "Tree Inventory", "source_department": "City of Lynn", "source_last_edit_at": "2024-11-25T20:00:33.726000+00:00"}}, {"type": "Feature", "geometry": {"type": "Point", "coordinates": [-70.96618564012826, 42.45802507093846]}, "properties": {"id": "lynn-896", "species_group": "crabapple", "scientific_name": "Malus sp. 'spring snow'", "common_name": "Crabapple", "subtype_name": "Malus sp. 'spring snow'", "zip_code": "01905", "ownership": "public", "ownership_raw": "City of Lynn", "city": "Lynn", "source_dataset": "Tree Inventory", "source_department": "City of Lynn", "source_last_edit_at": "2024-11-25T20:00:33.726000+00:00"}}, {"type": "Feature", "geometry": {"type": "Point", "coordinates": [-70.93345695197097, 42.46299417251137]}, "properties": {"id": "lynn-931", "species_group": "cherry", "scientific_name": "Prunus 'Accolade'", "common_name": "Accolade cherry", "subtype_name": "Accolade", "zip_code": "01902", "ownership": "public", "ownership_raw": "City of Lynn", "city": "Lynn", "source_dataset": "Tree Inventory", "source_department": "City of Lynn", "source_last_edit_at": "2024-11-25T20:00:33.726000+00:00"}}]}