{"type": "FeatureCollection", "features": [{"type": "Feature", "geometry": {"type": "Point", "coordinates": [-75.76182248015238, 45.439658927302986]}, "properties": {"id": "gatineau-98", "species_group": "crabapple", "scientific_name": "Malus x baccata", "common_name": "Hybrid Siberian crab apple", "subtype_name": "Hybrid Siberian crab apple", "zip_code": null, "ownership": "public", "ownership_raw": "National Capital Commission", "city": "Gatineau", "source_dataset": "Remarkable Trees", "source_department": "National Capital Commission", "source_last_edit_at": "2025-12-03T13:44:12.726000+00:00"}}]}