{"type": "FeatureCollection", "features": [{"type": "Feature", "geometry": {"type": "Point", "coordinates": [-87.8998306089202, 41.85065185457937]}, "properties": {"id": "westchester-103", "species_group": "magnolia", "scientific_name": "Magnolia x soulangea", "common_name": "Magnolia-Saucer", "subtype_name": "Magnolia-Saucer", "zip_code": "60154", "ownership": "public", "ownership_raw": "Village of Westchester", "city": "Westchester", "source_dataset": "Tree Inventory", "source_department": "Village of Westchester", "source_last_edit_at": "2025-10-10T16:26:13.512000+00:00"}}, {"type": "Feature", "geometry": {"type": "Point", "coordinates": [-87.86961814050132, 41.84935605359496]}, "properties": {"id": "westchester-1096", "species_group": "crabapple", "scientific_name": "Malus spp", "common_name": "Apple-Crab Spp", "subtype_name": "Apple-Crab Spp", "zip_code": "60154", "ownership": "public", "ownership_raw": "Village of Westchester", "city": "Westchester", "source_dataset": "Tree Inventory", "source_department": "Village of Westchester", "source_last_edit_at": "2025-10-10T16:26:13.512000+00:00"}}, {"type": "Feature", "geometry": {"type": "Point", "coordinates": [-87.86823442773994, 41.8691881929109]}, "properties": {"id": "westchester-119", "species_group": "crabapple", "scientific_name": "Malus spp", "common_name": "Apple-Crab Spp", "subtype_name": "Apple-Crab Spp", "zip_code": "60154", "ownership": "public", "ownership_raw": "Village of Westchester", "city": "Westchester", "source_dataset": "Tree Inventory", "source_department": "Village of Westchester", "source_last_edit_at": "2025-10-10T16:26:13.512000+00:00"}}, {"type": "Feature", "geometry": {"type": "Point", "coordinates": [-87.86841051460361, 41.869180649841965]}, "properties": {"id": "westchester-124", "species_group": "crabapple", "scientific_name": "Malus spp", "common_name": "Apple-Crab Spp", "subtype_name": "Apple-Crab Spp", "zip_code": "60154", "ownership": "public", "ownership_raw": "Village of Westchester", "city": "Westchester", "source_dataset": "Tree Inventory", "source_department": "Village of Westchester", "source_last_edit_at": "2025-10-10T16:26:13.512000+00:00"}}, {"type": "Feature", "geometry": {"type": "Point", "coordinates": [-87.88990751376294, 41.83697146982366]}, "properties": {"id": "westchester-1247", "species_group": "magnolia", "scientific_name": "Magnolia stellata", "common_name": "Magnolia-Star", "subtype_name": "Star Magnolia", "zip_code": "60154", "ownership": "public", "ownership_raw": "Village of Westchester", "city": "Westchester", "source_dataset": "Tree Inventory", "source_department": "Village of Westchester", "source_last_edit_at": "2025-10-10T16:26:13.512000+00:00"}}, {"type": "Feature", "geometry": {"type": "Point", "coordinates": [-87.8681802763963, 41.86554521583349]}, "properties": {"id": "westchester-1420", "species_group": "magnolia", "scientific_name": "Magnolia x soulangea", "common_name": "Magnolia-Saucer", "subtype_name": "Magnolia-Saucer", "zip_code": "60154", "ownership": "public", "ownership_raw": "Village of Westchester", "city": "Westchester", "source_dataset": "Tree Inventory", "source_department": "Village of Westchester", "source_last_edit_at": "2025-10-10T16:26:13.512000+00:00"}}, {"type": "Feature", "geometry": {"type": "Point", "coordinates": [-87.8682346020131, 41.865540009775806]}, "properties": {"id": "westchester-1421", "species_group": "magnolia", "scientific_name": "Magnolia x soulangea", "common_name": "Magnolia-Saucer", "subtype_name": "Magnolia-Saucer", "zip_code": "60154", "ownership": "public", "ownership_raw": "Village of Westchester", "city": "Westchester", "source_dataset": "Tree Inventory", "source_department": "Village of Westchester", "source_last_edit_at": "2025-10-10T16:26:13.512000+00:00"}}, {"type": "Feature", "geometry": {"type": "Point", "coordinates": [-87.89961760129836, 41.86054535141696]}, "properties": {"id": "westchester-1591", "species_group": "magnolia", "scientific_name": "Magnolia acuminata", "common_name": "Magnolia-Cucumber", "subtype_name": "Magnolia-Cucumber", "zip_code": "60154", "ownership": "public", "ownership_raw": "Village of Westchester", "city": "Westchester", "source_dataset": "Tree Inventory", "source_department": "Village of Westchester", "source_last_edit_at": "2025-10-10T16:26:13.512000+00:00"}}, {"type": "Feature", "geometry": {"type": "Point", "coordinates": [-87.8996151354229, 41.86038169547388]}, "properties": {"id": "westchester-1595", "species_group": "magnolia", "scientific_name": "Magnolia acuminata", "common_name": "Magnolia-Cucumber", "subtype_name": "Magnolia-Cucumber", "zip_code": "60154", "ownership": "public", "ownership_raw": "Village of Westchester", "city": "Westchester", "source_dataset": "Tree Inventory", "source_department": "Village of Westchester", "source_last_edit_at": "2025-10-10T16:26:13.512000+00:00"}}, {"type": "Feature", "geometry": {"type": "Point", "coordinates": [-87.87571617594114, 41.86703108309721]}, "properties": {"id": "westchester-1612", "species_group": "magnolia", "scientific_name": "Magnolia x soulangea", "common_name": "Magnolia-Saucer", "subtype_name": "Magnolia-Saucer", "zip_code": "60154", "ownership": "public", "ownership_raw": "Village of Westchester", "city": "Westchester", "source_dataset": "Tree Inventory", "source_department": "Village of Westchester", "source_last_edit_at": "2025-10-10T16:26:13.512000+00:00"}}, {"type": "Feature", "geometry": {"type": "Point", "coordinates": [-87.8734488973343, 41.87038122816811]}, "properties": {"id": "westchester-1675", "species_group": "crabapple", "scientific_name": "Malus spp", "common_name": "Apple-Crab Spp", "subtype_name": "Apple-Crab Spp", "zip_code": "60154", "ownership": "public", "ownership_raw": "Village of Westchester", "city": "Westchester", "source_dataset": "Tree Inventory", "source_department": "Village of Westchester", "source_last_edit_at": "2025-10-10T16:26:13.512000+00:00"}}, {"type": "Feature", "geometry": {"type": "Point", "coordinates": [-87.89038077859398, 41.84255039459282]}, "properties": {"id": "westchester-1830", "species_group": "crabapple", "scientific_name": "Malus spp", "common_name": "Apple-Crab Spp", "subtype_name": "Apple-Crab Spp", "zip_code": "60154", "ownership": "public", "ownership_raw": "Village of Westchester", "city": "Westchester", "source_dataset": "Tree Inventory", "source_department": "Village of Westchester", "source_last_edit_at": "2025-10-10T16:26:13.512000+00:00"}}, {"type": "Feature", "geometry": {"type": "Point", "coordinates": [-87.89799321190607, 41.85651171414679]}, "properties": {"id": "westchester-1918", "species_group": "crabapple", "scientific_name": "Malus spp", "common_name": "Apple-Crab Spp", "subtype_name": "Apple-Crab Spp", "zip_code": "60154", "ownership": "public", "ownership_raw": "Village of Westchester", "city": "Westchester", "source_dataset": "Tree Inventory", "source_department": "Village of Westchester", "source_last_edit_at": "2025-10-10T16:26:13.512000+00:00"}}, {"type": "Feature", "geometry": {"type": "Point", "coordinates": [-87.8740142843977, 41.863784978885086]}, "properties": {"id": "westchester-2088", "species_group": "crabapple", "scientific_name": "Malus spp", "common_name": "Apple-Crab Spp", "subtype_name": "Apple-Crab Spp", "zip_code": "60154", "ownership": "public", "ownership_raw": "Village of Westchester", "city": "Westchester", "source_dataset": "Tree Inventory", "source_department": "Village of Westchester", "source_last_edit_at": "2025-10-10T16:26:13.512000+00:00"}}, {"type": "Feature", "geometry": {"type": "Point", "coordinates": [-87.86807350982814, 41.8681347294274]}, "properties": {"id": "westchester-209", "species_group": "crabapple", "scientific_name": "Malus spp", "common_name": "Apple-Crab Spp", "subtype_name": "Apple-Crab Spp", "zip_code": "60154", "ownership": "public", "ownership_raw": "Village of Westchester", "city": "Westchester", "source_dataset": "Tree Inventory", "source_department": "Village of Westchester", "source_last_edit_at": "2025-10-10T16:26:13.512000+00:00"}}, {"type": "Feature", "geometry": {"type": "Point", "coordinates": [-87.87398809491391, 41.86652567042998]}, "properties": {"id": "westchester-2153", "species_group": "crabapple", "scientific_name": "Malus spp", "common_name": "Apple-Crab Spp", "subtype_name": "Apple-Crab Spp", "zip_code": "60154", "ownership": "public", "ownership_raw": "Village of Westchester", "city": "Westchester", "source_dataset": "Tree Inventory", "source_department": "Village of Westchester", "source_last_edit_at": "2025-10-10T16:26:13.512000+00:00"}}, {"type": "Feature", "geometry": {"type": "Point", "coordinates": [-87.87398769965517, 41.86673114298582]}, "properties": {"id": "westchester-2157", "species_group": "crabapple", "scientific_name": "Malus spp", "common_name": "Apple-Crab Spp", "subtype_name": "Apple-Crab Spp", "zip_code": "60154", "ownership": "public", "ownership_raw": "Village of Westchester", "city": "Westchester", "source_dataset": "Tree Inventory", "source_department": "Village of Westchester", "source_last_edit_at": "2025-10-10T16:26:13.512000+00:00"}}, {"type": "Feature", "geometry": {"type": "Point", "coordinates": [-87.87508097989868, 41.86370771606227]}, "properties": {"id": "westchester-2390", "species_group": "magnolia", "scientific_name": "Magnolia x soulangea", "common_name": "Magnolia-Saucer", "subtype_name": "Magnolia-Saucer", "zip_code": "60154", "ownership": "public", "ownership_raw": "Village of Westchester", "city": "Westchester", "source_dataset": "Tree Inventory", "source_department": "Village of Westchester", "source_last_edit_at": "2025-10-10T16:26:13.512000+00:00"}}, {"type": "Feature", "geometry": {"type": "Point", "coordinates": [-87.87644079657518, 41.86653756885063]}, "properties": {"id": "westchester-2460", "species_group": "crabapple", "scientific_name": "Malus spp", "common_name": "Apple-Crab Spp", "subtype_name": "Apple-Crab Spp", "zip_code": "60154", "ownership": "public", "ownership_raw": "Village of Westchester", "city": "Westchester", "source_dataset": "Tree Inventory", "source_department": "Village of Westchester", "source_last_edit_at": "2025-10-10T16:26:13.512000+00:00"}}, {"type": "Feature", "geometry": {"type": "Point", "coordinates": [-87.89738166670843, 41.84243500023659]}, "properties": {"id": "westchester-2606", "species_group": "magnolia", "scientific_name": "Magnolia spp", "common_name": "Magnolia-Spp", "subtype_name": "Magnolia-Spp", "zip_code": "60154", "ownership": "public", "ownership_raw": "Village of Westchester", "city": "Westchester", "source_dataset": "Tree Inventory", "source_department": "Village of Westchester", "source_last_edit_at": "2025-10-10T16:26:13.512000+00:00"}}, {"type": "Feature", "geometry": {"type": "Point", "coordinates": [-87.87010664435282, 41.85923480488665]}, "properties": {"id": "westchester-2749", "species_group": "crabapple", "scientific_name": "Malus spp", "common_name": "Apple-Crab Spp", "subtype_name": "Apple-Crab Spp", "zip_code": "60154", "ownership": "public", "ownership_raw": "Village of Westchester", "city": "Westchester", "source_dataset": "Tree Inventory", "source_department": "Village of Westchester", "source_last_edit_at": "2025-10-10T16:26:13.512000+00:00"}}, {"type": "Feature", "geometry": {"type": "Point", "coordinates": [-87.89587578666165, 41.86171405956417]}, "properties": {"id": "westchester-2830", "species_group": "crabapple", "scientific_name": "Malus domestica", "common_name": "Apple-Edible", "subtype_name": "Apple", "zip_code": "60154", "ownership": "public", "ownership_raw": "Village of Westchester", "city": "Westchester", "source_dataset": "Tree Inventory", "source_department": "Village of Westchester", "source_last_edit_at": "2025-10-10T16:26:13.512000+00:00"}}, {"type": "Feature", "geometry": {"type": "Point", "coordinates": [-87.89708490376273, 41.84162356649557]}, "properties": {"id": "westchester-2845", "species_group": "peach", "scientific_name": "Prunus persica", "common_name": "Peach", "subtype_name": "Peach", "zip_code": "60154", "ownership": "public", "ownership_raw": "Village of Westchester", "city": "Westchester", "source_dataset": "Tree Inventory", "source_department": "Village of Westchester", "source_last_edit_at": "2025-10-10T16:26:13.512000+00:00"}}, {"type": "Feature", "geometry": {"type": "Point", "coordinates": [-87.88735389985425, 41.83789514206637]}, "properties": {"id": "westchester-285", "species_group": "crabapple", "scientific_name": "Malus spp", "common_name": "Apple-Crab Spp", "subtype_name": "Apple-Crab Spp", "zip_code": "60154", "ownership": "public", "ownership_raw": "Village of Westchester", "city": "Westchester", "source_dataset": "Tree Inventory", "source_department": "Village of Westchester", "source_last_edit_at": "2025-10-10T16:26:13.512000+00:00"}}, {"type": "Feature", "geometry": {"type": "Point", "coordinates": [-87.8981060196445, 41.84160074549855]}, "properties": {"id": "westchester-2862", "species_group": "crabapple", "scientific_name": "Malus spp", "common_name": "Apple-Crab Spp", "subtype_name": "Apple-Crab Spp", "zip_code": "60154", "ownership": "public", "ownership_raw": "Village of Westchester", "city": "Westchester", "source_dataset": "Tree Inventory", "source_department": "Village of Westchester", "source_last_edit_at": "2025-10-10T16:26:13.512000+00:00"}}, {"type": "Feature", "geometry": {"type": "Point", "coordinates": [-87.89851538102116, 41.8415939574215]}, "properties": {"id": "westchester-2877", "species_group": "crabapple", "scientific_name": "Malus spp", "common_name": "Apple-Crab Spp", "subtype_name": "Apple-Crab Spp", "zip_code": "60154", "ownership": "public", "ownership_raw": "Village of Westchester", "city": "Westchester", "source_dataset": "Tree Inventory", "source_department": "Village of Westchester", "source_last_edit_at": "2025-10-10T16:26:13.512000+00:00"}}, {"type": "Feature", "geometry": {"type": "Point", "coordinates": [-87.89598077995544, 41.860632052173436]}, "properties": {"id": "westchester-2955", "species_group": "magnolia", "scientific_name": "Magnolia x soulangea", "common_name": "Magnolia-Saucer", "subtype_name": "Magnolia-Saucer", "zip_code": "60154", "ownership": "public", "ownership_raw": "Village of Westchester", "city": "Westchester", "source_dataset": "Tree Inventory", "source_department": "Village of Westchester", "source_last_edit_at": "2025-10-10T16:26:13.512000+00:00"}}, {"type": "Feature", "geometry": {"type": "Point", "coordinates": [-87.89680710604932, 41.85926536120382]}, "properties": {"id": "westchester-3031", "species_group": "crabapple", "scientific_name": "Malus species", "common_name": "Apple-Crab Spp", "subtype_name": "Apple-Crab Spp", "zip_code": "60154", "ownership": "public", "ownership_raw": "Village of Westchester", "city": "Westchester", "source_dataset": "Tree Inventory", "source_department": "Village of Westchester", "source_last_edit_at": "2025-10-10T16:26:13.512000+00:00"}}, {"type": "Feature", "geometry": {"type": "Point", "coordinates": [-87.86998793198802, 41.859800559043755]}, "properties": {"id": "westchester-3085", "species_group": "magnolia", "scientific_name": "Magnolia acuminata", "common_name": "Magnolia-Cucumber", "subtype_name": "Magnolia-Cucumber", "zip_code": "60154", "ownership": "public", "ownership_raw": "Village of Westchester", "city": "Westchester", "source_dataset": "Tree Inventory", "source_department": "Village of Westchester", "source_last_edit_at": "2025-10-10T16:26:13.512000+00:00"}}, {"type": "Feature", "geometry": {"type": "Point", "coordinates": [-87.89487850757595, 41.859197620911345]}, "properties": {"id": "westchester-3447", "species_group": "crabapple", "scientific_name": "Malus domestica", "common_name": "Apple-Edible", "subtype_name": "Apple", "zip_code": "60154", "ownership": "public", "ownership_raw": "Village of Westchester", "city": "Westchester", "source_dataset": "Tree Inventory", "source_department": "Village of Westchester", "source_last_edit_at": "2025-10-10T16:26:13.512000+00:00"}}, {"type": "Feature", "geometry": {"type": "Point", "coordinates": [-87.88076044533186, 41.86701214250335]}, "properties": {"id": "westchester-3823", "species_group": "magnolia", "scientific_name": "Magnolia x soulangea", "common_name": "Magnolia-Saucer", "subtype_name": "Magnolia-Saucer", "zip_code": "60154", "ownership": "public", "ownership_raw": "Village of Westchester", "city": "Westchester", "source_dataset": "Tree Inventory", "source_department": "Village of Westchester", "source_last_edit_at": "2025-10-10T16:26:13.512000+00:00"}}, {"type": "Feature", "geometry": {"type": "Point", "coordinates": [-87.88002609145171, 41.865702014840274]}, "properties": {"id": "westchester-3892", "species_group": "magnolia", "scientific_name": "Magnolia x soulangea", "common_name": "Magnolia-Saucer", "subtype_name": "Magnolia-Saucer", "zip_code": "60154", "ownership": "public", "ownership_raw": "Village of Westchester", "city": "Westchester", "source_dataset": "Tree Inventory", "source_department": "Village of Westchester", "source_last_edit_at": "2025-10-10T16:26:13.512000+00:00"}}, {"type": "Feature", "geometry": {"type": "Point", "coordinates": [-87.882169917284, 41.865938959009476]}, "properties": {"id": "westchester-3971", "species_group": "crabapple", "scientific_name": "Malus spp", "common_name": "Apple-Crab Spp", "subtype_name": "Apple-Crab Spp", "zip_code": "60154", "ownership": "public", "ownership_raw": "Village of Westchester", "city": "Westchester", "source_dataset": "Tree Inventory", "source_department": "Village of Westchester", "source_last_edit_at": "2025-10-10T16:26:13.512000+00:00"}}, {"type": "Feature", "geometry": {"type": "Point", "coordinates": [-87.8890508677316, 41.84804228791927]}, "properties": {"id": "westchester-4074", "species_group": "magnolia", "scientific_name": "Magnolia acuminata", "common_name": "Magnolia-Cucumber", "subtype_name": "Magnolia-Cucumber", "zip_code": "60154", "ownership": "public", "ownership_raw": "Village of Westchester", "city": "Westchester", "source_dataset": "Tree Inventory", "source_department": "Village of Westchester", "source_last_edit_at": "2025-10-10T16:26:13.512000+00:00"}}, {"type": "Feature", "geometry": {"type": "Point", "coordinates": [-87.88905199601558, 41.84812782922638]}, "properties": {"id": "westchester-4075", "species_group": "magnolia", "scientific_name": "Magnolia acuminata", "common_name": "Magnolia-Cucumber", "subtype_name": "Magnolia-Cucumber", "zip_code": "60154", "ownership": "public", "ownership_raw": "Village of Westchester", "city": "Westchester", "source_dataset": "Tree Inventory", "source_department": "Village of Westchester", "source_last_edit_at": "2025-10-10T16:26:13.512000+00:00"}}, {"type": "Feature", "geometry": {"type": "Point", "coordinates": [-87.86945424018278, 41.854415314000484]}, "properties": {"id": "westchester-4122", "species_group": "magnolia", "scientific_name": "Magnolia acuminata", "common_name": "Magnolia-Cucumber", "subtype_name": "Magnolia-Cucumber", "zip_code": "60154", "ownership": "public", "ownership_raw": "Village of Westchester", "city": "Westchester", "source_dataset": "Tree Inventory", "source_department": "Village of Westchester", "source_last_edit_at": "2025-10-10T16:26:13.512000+00:00"}}, {"type": "Feature", "geometry": {"type": "Point", "coordinates": [-87.8693366920346, 41.85441903756148]}, "properties": {"id": "westchester-4123", "species_group": "magnolia", "scientific_name": "Magnolia acuminata", "common_name": "Magnolia-Cucumber", "subtype_name": "Magnolia-Cucumber", "zip_code": "60154", "ownership": "public", "ownership_raw": "Village of Westchester", "city": "Westchester", "source_dataset": "Tree Inventory", "source_department": "Village of Westchester", "source_last_edit_at": "2025-10-10T16:26:13.512000+00:00"}}, {"type": "Feature", "geometry": {"type": "Point", "coordinates": [-87.89041771013193, 41.84762089466918]}, "properties": {"id": "westchester-4292", "species_group": "crabapple", "scientific_name": "Malus domestica", "common_name": "Apple-Edible", "subtype_name": "Apple", "zip_code": "60154", "ownership": "public", "ownership_raw": "Village of Westchester", "city": "Westchester", "source_dataset": "Tree Inventory", "source_department": "Village of Westchester", "source_last_edit_at": "2025-10-10T16:26:13.512000+00:00"}}, {"type": "Feature", "geometry": {"type": "Point", "coordinates": [-87.88735626960995, 41.834404300335244]}, "properties": {"id": "westchester-434", "species_group": "crabapple", "scientific_name": "Malus spp", "common_name": "Apple-Crab Spp", "subtype_name": "Apple-Crab Spp", "zip_code": "60154", "ownership": "public", "ownership_raw": "Village of Westchester", "city": "Westchester", "source_dataset": "Tree Inventory", "source_department": "Village of Westchester", "source_last_edit_at": "2025-10-10T16:26:13.512000+00:00"}}, {"type": "Feature", "geometry": {"type": "Point", "coordinates": [-87.87092779704896, 41.85413379208619]}, "properties": {"id": "westchester-4419", "species_group": "crabapple", "scientific_name": "Malus spp", "common_name": "Apple-Crab Spp", "subtype_name": "Apple-Crab Spp", "zip_code": "60154", "ownership": "public", "ownership_raw": "Village of Westchester", "city": "Westchester", "source_dataset": "Tree Inventory", "source_department": "Village of Westchester", "source_last_edit_at": "2025-10-10T16:26:13.512000+00:00"}}, {"type": "Feature", "geometry": {"type": "Point", "coordinates": [-87.8795315149889, 41.85880975537328]}, "properties": {"id": "westchester-4907", "species_group": "crabapple", "scientific_name": "Malus spp", "common_name": "Apple-Crab Spp", "subtype_name": "Apple-Crab Spp", "zip_code": "60154", "ownership": "public", "ownership_raw": "Village of Westchester", "city": "Westchester", "source_dataset": "Tree Inventory", "source_department": "Village of Westchester", "source_last_edit_at": "2025-10-10T16:26:13.512000+00:00"}}, {"type": "Feature", "geometry": {"type": "Point", "coordinates": [-87.88021959575043, 41.86050391377954]}, "properties": {"id": "westchester-4995", "species_group": "magnolia", "scientific_name": "Magnolia x soulangea", "common_name": "Magnolia-Saucer", "subtype_name": "Magnolia-Saucer", "zip_code": "60154", "ownership": "public", "ownership_raw": "Village of Westchester", "city": "Westchester", "source_dataset": "Tree Inventory", "source_department": "Village of Westchester", "source_last_edit_at": "2025-10-10T16:26:13.512000+00:00"}}, {"type": "Feature", "geometry": {"type": "Point", "coordinates": [-87.87419773026018, 41.85622505486163]}, "properties": {"id": "westchester-5006", "species_group": "magnolia", "scientific_name": "Magnolia x soulangea", "common_name": "Magnolia-Saucer", "subtype_name": "Magnolia-Saucer", "zip_code": "60154", "ownership": "public", "ownership_raw": "Village of Westchester", "city": "Westchester", "source_dataset": "Tree Inventory", "source_department": "Village of Westchester", "source_last_edit_at": "2025-10-10T16:26:13.512000+00:00"}}, {"type": "Feature", "geometry": {"type": "Point", "coordinates": [-87.87622160405259, 41.85616966333125]}, "properties": {"id": "westchester-5014", "species_group": "magnolia", "scientific_name": "Magnolia x soulangea", "common_name": "Magnolia-Saucer", "subtype_name": "Magnolia-Saucer", "zip_code": "60154", "ownership": "public", "ownership_raw": "Village of Westchester", "city": "Westchester", "source_dataset": "Tree Inventory", "source_department": "Village of Westchester", "source_last_edit_at": "2025-10-10T16:26:13.512000+00:00"}}, {"type": "Feature", "geometry": {"type": "Point", "coordinates": [-87.87631384845584, 41.856164409005146]}, "properties": {"id": "westchester-5015", "species_group": "magnolia", "scientific_name": "Magnolia x soulangea", "common_name": "Magnolia-Saucer", "subtype_name": "Magnolia-Saucer", "zip_code": "60154", "ownership": "public", "ownership_raw": "Village of Westchester", "city": "Westchester", "source_dataset": "Tree Inventory", "source_department": "Village of Westchester", "source_last_edit_at": "2025-10-10T16:26:13.512000+00:00"}}, {"type": "Feature", "geometry": {"type": "Point", "coordinates": [-87.87314454362446, 41.85614097228341]}, "properties": {"id": "westchester-5034", "species_group": "crabapple", "scientific_name": "Malus spp", "common_name": "Apple-Crab Spp", "subtype_name": "Apple-Crab Spp", "zip_code": "60154", "ownership": "public", "ownership_raw": "Village of Westchester", "city": "Westchester", "source_dataset": "Tree Inventory", "source_department": "Village of Westchester", "source_last_edit_at": "2025-10-10T16:26:13.512000+00:00"}}, {"type": "Feature", "geometry": {"type": "Point", "coordinates": [-87.87046224874624, 41.85633531723151]}, "properties": {"id": "westchester-5054", "species_group": "crabapple", "scientific_name": "Malus spp", "common_name": "Apple-Crab Spp", "subtype_name": "Apple-Crab Spp", "zip_code": "60154", "ownership": "public", "ownership_raw": "Village of Westchester", "city": "Westchester", "source_dataset": "Tree Inventory", "source_department": "Village of Westchester", "source_last_edit_at": "2025-10-10T16:26:13.512000+00:00"}}, {"type": "Feature", "geometry": {"type": "Point", "coordinates": [-87.88715726852001, 41.837510736701255]}, "properties": {"id": "westchester-534", "species_group": "crabapple", "scientific_name": "Malus spp", "common_name": "Apple-Crab Spp", "subtype_name": "Apple-Crab Spp", "zip_code": "60154", "ownership": "public", "ownership_raw": "Village of Westchester", "city": "Westchester", "source_dataset": "Tree Inventory", "source_department": "Village of Westchester", "source_last_edit_at": "2025-10-10T16:26:13.512000+00:00"}}, {"type": "Feature", "geometry": {"type": "Point", "coordinates": [-87.88702990897228, 41.83750881519735]}, "properties": {"id": "westchester-535", "species_group": "crabapple", "scientific_name": "Malus spp", "common_name": "Apple-Crab Spp", "subtype_name": "Apple-Crab Spp", "zip_code": "60154", "ownership": "public", "ownership_raw": "Village of Westchester", "city": "Westchester", "source_dataset": "Tree Inventory", "source_department": "Village of Westchester", "source_last_edit_at": "2025-10-10T16:26:13.512000+00:00"}}, {"type": "Feature", "geometry": {"type": "Point", "coordinates": [-87.8983718221539, 41.84964405319953]}, "properties": {"id": "westchester-5464", "species_group": "magnolia", "scientific_name": "Magnolia acuminata", "common_name": "Magnolia-Cucumber", "subtype_name": "Magnolia-Cucumber", "zip_code": "60154", "ownership": "public", "ownership_raw": "Village of Westchester", "city": "Westchester", "source_dataset": "Tree Inventory", "source_department": "Village of Westchester", "source_last_edit_at": "2025-10-10T16:26:13.512000+00:00"}}, {"type": "Feature", "geometry": {"type": "Point", "coordinates": [-87.8898721695481, 41.852169844776476]}, "properties": {"id": "westchester-5726", "species_group": "crabapple", "scientific_name": "Malus spp", "common_name": "Apple-Crab Spp", "subtype_name": "Apple-Crab Spp", "zip_code": "60154", "ownership": "public", "ownership_raw": "Village of Westchester", "city": "Westchester", "source_dataset": "Tree Inventory", "source_department": "Village of Westchester", "source_last_edit_at": "2025-10-10T16:26:13.512000+00:00"}}, {"type": "Feature", "geometry": {"type": "Point", "coordinates": [-87.88647348080721, 41.84186300577961]}, "properties": {"id": "westchester-585", "species_group": "crabapple", "scientific_name": "Malus spp", "common_name": "Apple-Crab Spp", "subtype_name": "Apple-Crab Spp", "zip_code": "60154", "ownership": "public", "ownership_raw": "Village of Westchester", "city": "Westchester", "source_dataset": "Tree Inventory", "source_department": "Village of Westchester", "source_last_edit_at": "2025-10-10T16:26:13.512000+00:00"}}, {"type": "Feature", "geometry": {"type": "Point", "coordinates": [-87.8885673073091, 41.84985239846771]}, "properties": {"id": "westchester-5964", "species_group": "crabapple", "scientific_name": "Malus species", "common_name": "Apple-Crab Spp", "subtype_name": "Apple-Crab Spp", "zip_code": "60154", "ownership": "public", "ownership_raw": "Village of Westchester", "city": "Westchester", "source_dataset": "Tree Inventory", "source_department": "Village of Westchester", "source_last_edit_at": "2025-10-10T16:26:13.512000+00:00"}}, {"type": "Feature", "geometry": {"type": "Point", "coordinates": [-87.8867880941759, 41.84928571785245]}, "properties": {"id": "westchester-6211", "species_group": "crabapple", "scientific_name": "Malus domestica", "common_name": "Apple-Edible", "subtype_name": "Apple", "zip_code": "60154", "ownership": "public", "ownership_raw": "Village of Westchester", "city": "Westchester", "source_dataset": "Tree Inventory", "source_department": "Village of Westchester", "source_last_edit_at": "2025-10-10T16:26:13.512000+00:00"}}, {"type": "Feature", "geometry": {"type": "Point", "coordinates": [-87.87124098029975, 41.8574986145991]}, "properties": {"id": "westchester-6249", "species_group": "crabapple", "scientific_name": "Malus spp", "common_name": "Apple-Crab Spp", "subtype_name": "Apple-Crab Spp", "zip_code": "60154", "ownership": "public", "ownership_raw": "Village of Westchester", "city": "Westchester", "source_dataset": "Tree Inventory", "source_department": "Village of Westchester", "source_last_edit_at": "2025-10-10T16:26:13.512000+00:00"}}, {"type": "Feature", "geometry": {"type": "Point", "coordinates": [-87.88678698026494, 41.85210386748024]}, "properties": {"id": "westchester-6317", "species_group": "peach", "scientific_name": "Prunus persica", "common_name": "Peach", "subtype_name": "Peach", "zip_code": "60154", "ownership": "public", "ownership_raw": "Village of Westchester", "city": "Westchester", "source_dataset": "Tree Inventory", "source_department": "Village of Westchester", "source_last_edit_at": "2025-10-10T16:26:13.512000+00:00"}}, {"type": "Feature", "geometry": {"type": "Point", "coordinates": [-87.89686507882618, 41.85223132279912]}, "properties": {"id": "westchester-6409", "species_group": "magnolia", "scientific_name": "Magnolia x soulangea", "common_name": "Magnolia-Saucer", "subtype_name": "Magnolia-Saucer", "zip_code": "60154", "ownership": "public", "ownership_raw": "Village of Westchester", "city": "Westchester", "source_dataset": "Tree Inventory", "source_department": "Village of Westchester", "source_last_edit_at": "2025-10-10T16:26:13.512000+00:00"}}, {"type": "Feature", "geometry": {"type": "Point", "coordinates": [-87.87595304820682, 41.85380729071272]}, "properties": {"id": "westchester-6462", "species_group": "crabapple", "scientific_name": "Malus spp", "common_name": "Apple-Crab Spp", "subtype_name": "Apple-Crab Spp", "zip_code": "60154", "ownership": "public", "ownership_raw": "Village of Westchester", "city": "Westchester", "source_dataset": "Tree Inventory", "source_department": "Village of Westchester", "source_last_edit_at": "2025-10-10T16:26:13.512000+00:00"}}, {"type": "Feature", "geometry": {"type": "Point", "coordinates": [-87.88666499982915, 41.8522139061063]}, "properties": {"id": "westchester-6477", "species_group": "peach", "scientific_name": "Prunus persica", "common_name": "Peach", "subtype_name": "Peach", "zip_code": "60154", "ownership": "public", "ownership_raw": "Village of Westchester", "city": "Westchester", "source_dataset": "Tree Inventory", "source_department": "Village of Westchester", "source_last_edit_at": "2025-10-10T16:26:13.512000+00:00"}}, {"type": "Feature", "geometry": {"type": "Point", "coordinates": [-87.88659224168104, 41.85222766803076]}, "properties": {"id": "westchester-6479", "species_group": "peach", "scientific_name": "Prunus persica", "common_name": "Peach", "subtype_name": "Peach", "zip_code": "60154", "ownership": "public", "ownership_raw": "Village of Westchester", "city": "Westchester", "source_dataset": "Tree Inventory", "source_department": "Village of Westchester", "source_last_edit_at": "2025-10-10T16:26:13.512000+00:00"}}, {"type": "Feature", "geometry": {"type": "Point", "coordinates": [-87.88646666708578, 41.852253333038284]}, "properties": {"id": "westchester-6481", "species_group": "peach", "scientific_name": "Prunus persica", "common_name": "Peach", "subtype_name": "Peach", "zip_code": "60154", "ownership": "public", "ownership_raw": "Village of Westchester", "city": "Westchester", "source_dataset": "Tree Inventory", "source_department": "Village of Westchester", "source_last_edit_at": "2025-10-10T16:26:13.512000+00:00"}}, {"type": "Feature", "geometry": {"type": "Point", "coordinates": [-87.88629441153678, 41.85227905424209]}, "properties": {"id": "westchester-6482", "species_group": "peach", "scientific_name": "Prunus persica", "common_name": "Peach", "subtype_name": "Peach", "zip_code": "60154", "ownership": "public", "ownership_raw": "Village of Westchester", "city": "Westchester", "source_dataset": "Tree Inventory", "source_department": "Village of Westchester", "source_last_edit_at": "2025-10-10T16:26:13.512000+00:00"}}, {"type": "Feature", "geometry": {"type": "Point", "coordinates": [-87.87583460174335, 41.854580578343736]}, "properties": {"id": "westchester-6704", "species_group": "magnolia", "scientific_name": "Magnolia x soulangea", "common_name": "Magnolia-Saucer", "subtype_name": "Magnolia-Saucer", "zip_code": "60154", "ownership": "public", "ownership_raw": "Village of Westchester", "city": "Westchester", "source_dataset": "Tree Inventory", "source_department": "Village of Westchester", "source_last_edit_at": "2025-10-10T16:26:13.512000+00:00"}}, {"type": "Feature", "geometry": {"type": "Point", "coordinates": [-87.896692218711, 41.85062544417287]}, "properties": {"id": "westchester-6735", "species_group": "crabapple", "scientific_name": "Malus spp", "common_name": "Apple-Crab Spp", "subtype_name": "Apple-Crab Spp", "zip_code": "60154", "ownership": "public", "ownership_raw": "Village of Westchester", "city": "Westchester", "source_dataset": "Tree Inventory", "source_department": "Village of Westchester", "source_last_edit_at": "2025-10-10T16:26:13.512000+00:00"}}, {"type": "Feature", "geometry": {"type": "Point", "coordinates": [-87.89664664088843, 41.850578151123315]}, "properties": {"id": "westchester-6736", "species_group": "crabapple", "scientific_name": "Malus spp", "common_name": "Apple-Crab Spp", "subtype_name": "Apple-Crab Spp", "zip_code": "60154", "ownership": "public", "ownership_raw": "Village of Westchester", "city": "Westchester", "source_dataset": "Tree Inventory", "source_department": "Village of Westchester", "source_last_edit_at": "2025-10-10T16:26:13.512000+00:00"}}, {"type": "Feature", "geometry": {"type": "Point", "coordinates": [-87.88432360392318, 41.852583224759435]}, "properties": {"id": "westchester-6779", "species_group": "peach", "scientific_name": "Prunus persica", "common_name": "Peach", "subtype_name": "Peach", "zip_code": "60154", "ownership": "public", "ownership_raw": "Village of Westchester", "city": "Westchester", "source_dataset": "Tree Inventory", "source_department": "Village of Westchester", "source_last_edit_at": "2025-10-10T16:26:13.512000+00:00"}}, {"type": "Feature", "geometry": {"type": "Point", "coordinates": [-87.87783148744967, 41.849195172790985]}, "properties": {"id": "westchester-6812", "species_group": "crabapple", "scientific_name": "Malus spp", "common_name": "Apple-Crab Spp", "subtype_name": "Apple-Crab Spp", "zip_code": "60154", "ownership": "public", "ownership_raw": "Village of Westchester", "city": "Westchester", "source_dataset": "Tree Inventory", "source_department": "Village of Westchester", "source_last_edit_at": "2025-10-10T16:26:13.512000+00:00"}}, {"type": "Feature", "geometry": {"type": "Point", "coordinates": [-87.88409148105038, 41.85290502178142]}, "properties": {"id": "westchester-6856", "species_group": "crabapple", "scientific_name": "Malus spp", "common_name": "Apple-Crab Spp", "subtype_name": "Apple-Crab Spp", "zip_code": "60154", "ownership": "public", "ownership_raw": "Village of Westchester", "city": "Westchester", "source_dataset": "Tree Inventory", "source_department": "Village of Westchester", "source_last_edit_at": "2025-10-10T16:26:13.512000+00:00"}}, {"type": "Feature", "geometry": {"type": "Point", "coordinates": [-87.87721623400653, 41.8541061185056]}, "properties": {"id": "westchester-6917", "species_group": "crabapple", "scientific_name": "Malus spp", "common_name": "Apple-Crab Spp", "subtype_name": "Apple-Crab Spp", "zip_code": "60154", "ownership": "public", "ownership_raw": "Village of Westchester", "city": "Westchester", "source_dataset": "Tree Inventory", "source_department": "Village of Westchester", "source_last_edit_at": "2025-10-10T16:26:13.512000+00:00"}}, {"type": "Feature", "geometry": {"type": "Point", "coordinates": [-87.87354707780496, 41.85770425934536]}, "properties": {"id": "westchester-7140", "species_group": "magnolia", "scientific_name": "Magnolia x soulangea", "common_name": "Magnolia-Saucer", "subtype_name": "Magnolia-Saucer", "zip_code": "60154", "ownership": "public", "ownership_raw": "Village of Westchester", "city": "Westchester", "source_dataset": "Tree Inventory", "source_department": "Village of Westchester", "source_last_edit_at": "2025-10-10T16:26:13.512000+00:00"}}, {"type": "Feature", "geometry": {"type": "Point", "coordinates": [-87.8748687583027, 41.85633740008824]}, "properties": {"id": "westchester-7281", "species_group": "magnolia", "scientific_name": "Magnolia acuminata", "common_name": "Magnolia-Cucumber", "subtype_name": "Magnolia-Cucumber", "zip_code": "60154", "ownership": "public", "ownership_raw": "Village of Westchester", "city": "Westchester", "source_dataset": "Tree Inventory", "source_department": "Village of Westchester", "source_last_edit_at": "2025-10-10T16:26:13.512000+00:00"}}, {"type": "Feature", "geometry": {"type": "Point", "coordinates": [-87.88335858783088, 41.85458006045894]}, "properties": {"id": "westchester-7319", "species_group": "crabapple", "scientific_name": "Malus domestica", "common_name": "Apple-Edible", "subtype_name": "Apple", "zip_code": "60154", "ownership": "public", "ownership_raw": "Village of Westchester", "city": "Westchester", "source_dataset": "Tree Inventory", "source_department": "Village of Westchester", "source_last_edit_at": "2025-10-10T16:26:13.512000+00:00"}}, {"type": "Feature", "geometry": {"type": "Point", "coordinates": [-87.88329427294813, 41.853424211441286]}, "properties": {"id": "westchester-7348", "species_group": "magnolia", "scientific_name": "Magnolia spp", "common_name": "Magnolia-Spp", "subtype_name": "Magnolia-Spp", "zip_code": "60154", "ownership": "public", "ownership_raw": "Village of Westchester", "city": "Westchester", "source_dataset": "Tree Inventory", "source_department": "Village of Westchester", "source_last_edit_at": "2025-10-10T16:26:13.512000+00:00"}}, {"type": "Feature", "geometry": {"type": "Point", "coordinates": [-87.87653077991887, 41.85969921905496]}, "properties": {"id": "westchester-7398", "species_group": "magnolia", "scientific_name": "Magnolia x soulangea", "common_name": "Magnolia-Saucer", "subtype_name": "Magnolia-Saucer", "zip_code": "60154", "ownership": "public", "ownership_raw": "Village of Westchester", "city": "Westchester", "source_dataset": "Tree Inventory", "source_department": "Village of Westchester", "source_last_edit_at": "2025-10-10T16:26:13.512000+00:00"}}, {"type": "Feature", "geometry": {"type": "Point", "coordinates": [-87.87633005675852, 41.85970495748152]}, "properties": {"id": "westchester-7400", "species_group": "magnolia", "scientific_name": "Magnolia x soulangea", "common_name": "Magnolia-Saucer", "subtype_name": "Magnolia-Saucer", "zip_code": "60154", "ownership": "public", "ownership_raw": "Village of Westchester", "city": "Westchester", "source_dataset": "Tree Inventory", "source_department": "Village of Westchester", "source_last_edit_at": "2025-10-10T16:26:13.512000+00:00"}}, {"type": "Feature", "geometry": {"type": "Point", "coordinates": [-87.90883882565616, 41.84581272186845]}, "properties": {"id": "westchester-7567", "species_group": "crabapple", "scientific_name": "Malus spp", "common_name": "Apple-Crab Spp", "subtype_name": "Apple-Crab Spp", "zip_code": "60154", "ownership": "public", "ownership_raw": "Village of Westchester", "city": "Westchester", "source_dataset": "Tree Inventory", "source_department": "Village of Westchester", "source_last_edit_at": "2025-10-10T16:26:13.512000+00:00"}}, {"type": "Feature", "geometry": {"type": "Point", "coordinates": [-87.90881120874937, 41.84497293604615]}, "properties": {"id": "westchester-7570", "species_group": "crabapple", "scientific_name": "Malus spp", "common_name": "Apple-Crab Spp", "subtype_name": "Apple-Crab Spp", "zip_code": "60154", "ownership": "public", "ownership_raw": "Village of Westchester", "city": "Westchester", "source_dataset": "Tree Inventory", "source_department": "Village of Westchester", "source_last_edit_at": "2025-10-10T16:26:13.512000+00:00"}}, {"type": "Feature", "geometry": {"type": "Point", "coordinates": [-87.9088029352656, 41.84481502217718]}, "properties": {"id": "westchester-7571", "species_group": "crabapple", "scientific_name": "Malus spp", "common_name": "Apple-Crab Spp", "subtype_name": "Apple-Crab Spp", "zip_code": "60154", "ownership": "public", "ownership_raw": "Village of Westchester", "city": "Westchester", "source_dataset": "Tree Inventory", "source_department": "Village of Westchester", "source_last_edit_at": "2025-10-10T16:26:13.512000+00:00"}}, {"type": "Feature", "geometry": {"type": "Point", "coordinates": [-87.88702784194882, 41.85404437062728]}, "properties": {"id": "westchester-7842", "species_group": "crabapple", "scientific_name": "Malus domestica", "common_name": "Apple-Edible", "subtype_name": "Apple", "zip_code": "60154", "ownership": "public", "ownership_raw": "Village of Westchester", "city": "Westchester", "source_dataset": "Tree Inventory", "source_department": "Village of Westchester", "source_last_edit_at": "2025-10-10T16:26:13.512000+00:00"}}, {"type": "Feature", "geometry": {"type": "Point", "coordinates": [-87.88702166692954, 41.85400000009235]}, "properties": {"id": "westchester-7843", "species_group": "crabapple", "scientific_name": "Malus domestica", "common_name": "Apple-Edible", "subtype_name": "Apple", "zip_code": "60154", "ownership": "public", "ownership_raw": "Village of Westchester", "city": "Westchester", "source_dataset": "Tree Inventory", "source_department": "Village of Westchester", "source_last_edit_at": "2025-10-10T16:26:13.512000+00:00"}}, {"type": "Feature", "geometry": {"type": "Point", "coordinates": [-87.886912101211, 41.85458498370982]}, "properties": {"id": "westchester-7918", "species_group": "magnolia", "scientific_name": "Magnolia acuminata", "common_name": "Magnolia-Cucumber", "subtype_name": "Magnolia-Cucumber", "zip_code": "60154", "ownership": "public", "ownership_raw": "Village of Westchester", "city": "Westchester", "source_dataset": "Tree Inventory", "source_department": "Village of Westchester", "source_last_edit_at": "2025-10-10T16:26:13.512000+00:00"}}, {"type": "Feature", "geometry": {"type": "Point", "coordinates": [-87.8703877505614, 41.862539263792144]}, "properties": {"id": "westchester-7923", "species_group": "crabapple", "scientific_name": "Malus spp", "common_name": "Apple-Crab Spp", "subtype_name": "Apple-Crab Spp", "zip_code": "60154", "ownership": "public", "ownership_raw": "Village of Westchester", "city": "Westchester", "source_dataset": "Tree Inventory", "source_department": "Village of Westchester", "source_last_edit_at": "2025-10-10T16:26:13.512000+00:00"}}, {"type": "Feature", "geometry": {"type": "Point", "coordinates": [-87.87047115554229, 41.86255932230267]}, "properties": {"id": "westchester-7924", "species_group": "crabapple", "scientific_name": "Malus spp", "common_name": "Apple-Crab Spp", "subtype_name": "Apple-Crab Spp", "zip_code": "60154", "ownership": "public", "ownership_raw": "Village of Westchester", "city": "Westchester", "source_dataset": "Tree Inventory", "source_department": "Village of Westchester", "source_last_edit_at": "2025-10-10T16:26:13.512000+00:00"}}, {"type": "Feature", "geometry": {"type": "Point", "coordinates": [-87.89165023193941, 41.84032634720608]}, "properties": {"id": "westchester-8017", "species_group": "crabapple", "scientific_name": "Malus spp", "common_name": "Apple-Crab Spp", "subtype_name": "Apple-Crab Spp", "zip_code": "60154", "ownership": "public", "ownership_raw": "Village of Westchester", "city": "Westchester", "source_dataset": "Tree Inventory", "source_department": "Village of Westchester", "source_last_edit_at": "2025-10-10T16:26:13.512000+00:00"}}, {"type": "Feature", "geometry": {"type": "Point", "coordinates": [-87.89150650957879, 41.84021210463738]}, "properties": {"id": "westchester-8066", "species_group": "crabapple", "scientific_name": "Malus spp", "common_name": "Apple-Crab Spp", "subtype_name": "Apple-Crab Spp", "zip_code": "60154", "ownership": "public", "ownership_raw": "Village of Westchester", "city": "Westchester", "source_dataset": "Tree Inventory", "source_department": "Village of Westchester", "source_last_edit_at": "2025-10-10T16:26:13.512000+00:00"}}, {"type": "Feature", "geometry": {"type": "Point", "coordinates": [-87.9066914820212, 41.8409023434296]}, "properties": {"id": "westchester-8195", "species_group": "crabapple", "scientific_name": "Malus spp", "common_name": "Apple-Crab Spp", "subtype_name": "Apple-Crab Spp", "zip_code": "60154", "ownership": "public", "ownership_raw": "Village of Westchester", "city": "Westchester", "source_dataset": "Tree Inventory", "source_department": "Village of Westchester", "source_last_edit_at": "2025-10-10T16:26:13.512000+00:00"}}, {"type": "Feature", "geometry": {"type": "Point", "coordinates": [-87.90665175043452, 41.840877120923864]}, "properties": {"id": "westchester-8197", "species_group": "crabapple", "scientific_name": "Malus spp", "common_name": "Apple-Crab Spp", "subtype_name": "Apple-Crab Spp", "zip_code": "60154", "ownership": "public", "ownership_raw": "Village of Westchester", "city": "Westchester", "source_dataset": "Tree Inventory", "source_department": "Village of Westchester", "source_last_edit_at": "2025-10-10T16:26:13.512000+00:00"}}, {"type": "Feature", "geometry": {"type": "Point", "coordinates": [-87.90674825734378, 41.840985953475524]}, "properties": {"id": "westchester-8244", "species_group": "crabapple", "scientific_name": "Malus spp", "common_name": "Apple-Crab Spp", "subtype_name": "Apple-Crab Spp", "zip_code": "60154", "ownership": "public", "ownership_raw": "Village of Westchester", "city": "Westchester", "source_dataset": "Tree Inventory", "source_department": "Village of Westchester", "source_last_edit_at": "2025-10-10T16:26:13.512000+00:00"}}, {"type": "Feature", "geometry": {"type": "Point", "coordinates": [-87.88028166664162, 41.85014500024659]}, "properties": {"id": "westchester-8276", "species_group": "magnolia", "scientific_name": "Magnolia x soulangea", "common_name": "Magnolia-Saucer", "subtype_name": "Magnolia-Saucer", "zip_code": "60154", "ownership": "public", "ownership_raw": "Village of Westchester", "city": "Westchester", "source_dataset": "Tree Inventory", "source_department": "Village of Westchester", "source_last_edit_at": "2025-10-10T16:26:13.512000+00:00"}}, {"type": "Feature", "geometry": {"type": "Point", "coordinates": [-87.90568191757568, 41.84290459170841]}, "properties": {"id": "westchester-8328", "species_group": "crabapple", "scientific_name": "Malus spp", "common_name": "Apple-Crab Spp", "subtype_name": "Apple-Crab Spp", "zip_code": "60154", "ownership": "public", "ownership_raw": "Village of Westchester", "city": "Westchester", "source_dataset": "Tree Inventory", "source_department": "Village of Westchester", "source_last_edit_at": "2025-10-10T16:26:13.512000+00:00"}}, {"type": "Feature", "geometry": {"type": "Point", "coordinates": [-87.87808179851201, 41.852299936319035]}, "properties": {"id": "westchester-8397", "species_group": "crabapple", "scientific_name": "Malus spp", "common_name": "Apple-Crab Spp", "subtype_name": "Apple-Crab Spp", "zip_code": "60154", "ownership": "public", "ownership_raw": "Village of Westchester", "city": "Westchester", "source_dataset": "Tree Inventory", "source_department": "Village of Westchester", "source_last_edit_at": "2025-10-10T16:26:13.512000+00:00"}}, {"type": "Feature", "geometry": {"type": "Point", "coordinates": [-87.8777343705843, 41.85226721138217]}, "properties": {"id": "westchester-8398", "species_group": "crabapple", "scientific_name": "Malus spp", "common_name": "Apple-Crab Spp", "subtype_name": "Apple-Crab Spp", "zip_code": "60154", "ownership": "public", "ownership_raw": "Village of Westchester", "city": "Westchester", "source_dataset": "Tree Inventory", "source_department": "Village of Westchester", "source_last_edit_at": "2025-10-10T16:26:13.512000+00:00"}}, {"type": "Feature", "geometry": {"type": "Point", "coordinates": [-87.8945283334984, 41.8392500000054]}, "properties": {"id": "westchester-8435", "species_group": "crabapple", "scientific_name": "Malus spp", "common_name": "Apple-Crab Spp", "subtype_name": "Apple-Crab Spp", "zip_code": "60154", "ownership": "public", "ownership_raw": "Village of Westchester", "city": "Westchester", "source_dataset": "Tree Inventory", "source_department": "Village of Westchester", "source_last_edit_at": "2025-10-10T16:26:13.512000+00:00"}}, {"type": "Feature", "geometry": {"type": "Point", "coordinates": [-87.89301593078439, 41.83889773423949]}, "properties": {"id": "westchester-8473", "species_group": "crabapple", "scientific_name": "Malus spp", "common_name": "Apple-Crab Spp", "subtype_name": "Apple-Crab Spp", "zip_code": "60154", "ownership": "public", "ownership_raw": "Village of Westchester", "city": "Westchester", "source_dataset": "Tree Inventory", "source_department": "Village of Westchester", "source_last_edit_at": "2025-10-10T16:26:13.512000+00:00"}}, {"type": "Feature", "geometry": {"type": "Point", "coordinates": [-87.8776761777202, 41.850540946055425]}, "properties": {"id": "westchester-8500", "species_group": "crabapple", "scientific_name": "Malus spp", "common_name": "Apple-Crab Spp", "subtype_name": "Apple-Crab Spp", "zip_code": "60154", "ownership": "public", "ownership_raw": "Village of Westchester", "city": "Westchester", "source_dataset": "Tree Inventory", "source_department": "Village of Westchester", "source_last_edit_at": "2025-10-10T16:26:13.512000+00:00"}}, {"type": "Feature", "geometry": {"type": "Point", "coordinates": [-87.89471939967576, 41.84316742392968]}, "properties": {"id": "westchester-8605", "species_group": "crabapple", "scientific_name": "Malus spp", "common_name": "Apple-Crab Spp", "subtype_name": "Apple-Crab Spp", "zip_code": "60154", "ownership": "public", "ownership_raw": "Village of Westchester", "city": "Westchester", "source_dataset": "Tree Inventory", "source_department": "Village of Westchester", "source_last_edit_at": "2025-10-10T16:26:13.512000+00:00"}}, {"type": "Feature", "geometry": {"type": "Point", "coordinates": [-87.86863073390059, 41.854051560185994]}, "properties": {"id": "westchester-875", "species_group": "crabapple", "scientific_name": "Malus spp", "common_name": "Apple-Crab Spp", "subtype_name": "Apple-Crab Spp", "zip_code": "60154", "ownership": "public", "ownership_raw": "Village of Westchester", "city": "Westchester", "source_dataset": "Tree Inventory", "source_department": "Village of Westchester", "source_last_edit_at": "2025-10-10T16:26:13.512000+00:00"}}, {"type": "Feature", "geometry": {"type": "Point", "coordinates": [-87.86745276668475, 41.855286924427155]}, "properties": {"id": "westchester-8905", "species_group": "crabapple", "scientific_name": "Malus species", "common_name": "Apple-Crab Spp", "subtype_name": "Apple-Crab Spp", "zip_code": "60154", "ownership": "public", "ownership_raw": "Village of Westchester", "city": "Westchester", "source_dataset": "Tree Inventory", "source_department": "Village of Westchester", "source_last_edit_at": "2025-10-10T16:26:13.512000+00:00"}}, {"type": "Feature", "geometry": {"type": "Point", "coordinates": [-87.86730993905452, 41.850566490766916]}, "properties": {"id": "westchester-8908", "species_group": "crabapple", "scientific_name": "Malus species", "common_name": "Apple-Crab Spp", "subtype_name": "Apple-Crab Spp", "zip_code": "60154", "ownership": "public", "ownership_raw": "Village of Westchester", "city": "Westchester", "source_dataset": "Tree Inventory", "source_department": "Village of Westchester", "source_last_edit_at": "2025-10-10T16:26:13.512000+00:00"}}, {"type": "Feature", "geometry": {"type": "Point", "coordinates": [-87.86765218490228, 41.85091904114857]}, "properties": {"id": "westchester-8909", "species_group": "crabapple", "scientific_name": "Malus species", "common_name": "Apple-Crab Spp", "subtype_name": "Apple-Crab Spp", "zip_code": "60154", "ownership": "public", "ownership_raw": "Village of Westchester", "city": "Westchester", "source_dataset": "Tree Inventory", "source_department": "Village of Westchester", "source_last_edit_at": "2025-10-10T16:26:13.512000+00:00"}}, {"type": "Feature", "geometry": {"type": "Point", "coordinates": [-87.88854933639712, 41.83421373456338]}, "properties": {"id": "westchester-8920", "species_group": "crabapple", "scientific_name": "Malus species", "common_name": "Apple-Crab Spp", "subtype_name": "Apple-Crab Spp", "zip_code": "60154", "ownership": "public", "ownership_raw": "Village of Westchester", "city": "Westchester", "source_dataset": "Tree Inventory", "source_department": "Village of Westchester", "source_last_edit_at": "2025-10-10T16:26:13.512000+00:00"}}, {"type": "Feature", "geometry": {"type": "Point", "coordinates": [-87.89916665793864, 41.843159010791865]}, "properties": {"id": "westchester-8927", "species_group": "crabapple", "scientific_name": "Malus species", "common_name": "Apple-Crab Spp", "subtype_name": "Apple-Crab Spp", "zip_code": "60154", "ownership": "public", "ownership_raw": "Village of Westchester", "city": "Westchester", "source_dataset": "Tree Inventory", "source_department": "Village of Westchester", "source_last_edit_at": "2025-10-10T16:26:13.512000+00:00"}}, {"type": "Feature", "geometry": {"type": "Point", "coordinates": [-87.8881469624837, 41.84986212865669]}, "properties": {"id": "westchester-8968", "species_group": "crabapple", "scientific_name": "Malus species", "common_name": "Apple-Crab Spp", "subtype_name": "Apple-Crab Spp", "zip_code": "60154", "ownership": "public", "ownership_raw": "Village of Westchester", "city": "Westchester", "source_dataset": "Tree Inventory", "source_department": "Village of Westchester", "source_last_edit_at": "2025-10-10T16:26:13.512000+00:00"}}, {"type": "Feature", "geometry": {"type": "Point", "coordinates": [-87.88658948982427, 41.849199835724114]}, "properties": {"id": "westchester-8971", "species_group": "crabapple", "scientific_name": "Malus species", "common_name": "Apple-Crab Spp", "subtype_name": "Apple-Crab Spp", "zip_code": "60154", "ownership": "public", "ownership_raw": "Village of Westchester", "city": "Westchester", "source_dataset": "Tree Inventory", "source_department": "Village of Westchester", "source_last_edit_at": "2025-10-10T16:26:13.512000+00:00"}}, {"type": "Feature", "geometry": {"type": "Point", "coordinates": [-87.88658278430174, 41.84907596043843]}, "properties": {"id": "westchester-8972", "species_group": "crabapple", "scientific_name": "Malus species", "common_name": "Apple-Crab Spp", "subtype_name": "Apple-Crab Spp", "zip_code": "60154", "ownership": "public", "ownership_raw": "Village of Westchester", "city": "Westchester", "source_dataset": "Tree Inventory", "source_department": "Village of Westchester", "source_last_edit_at": "2025-10-10T16:26:13.512000+00:00"}}, {"type": "Feature", "geometry": {"type": "Point", "coordinates": [-87.89809847438205, 41.858976182285225]}, "properties": {"id": "westchester-8979", "species_group": "crabapple", "scientific_name": "Malus species", "common_name": "Apple-Crab Spp", "subtype_name": "Apple-Crab Spp", "zip_code": "60154", "ownership": "public", "ownership_raw": "Village of Westchester", "city": "Westchester", "source_dataset": "Tree Inventory", "source_department": "Village of Westchester", "source_last_edit_at": "2025-10-10T16:26:13.512000+00:00"}}, {"type": "Feature", "geometry": {"type": "Point", "coordinates": [-87.89227000031518, 41.836953329493795]}, "properties": {"id": "westchester-920", "species_group": "crabapple", "scientific_name": "Malus spp", "common_name": "Apple-Crab Spp", "subtype_name": "Apple-Crab Spp", "zip_code": "60154", "ownership": "public", "ownership_raw": "Village of Westchester", "city": "Westchester", "source_dataset": "Tree Inventory", "source_department": "Village of Westchester", "source_last_edit_at": "2025-10-10T16:26:13.512000+00:00"}}, {"type": "Feature", "geometry": {"type": "Point", "coordinates": [-87.89982950578903, 41.850690291474116]}, "properties": {"id": "westchester-99", "species_group": "magnolia", "scientific_name": "Magnolia x soulangea", "common_name": "Magnolia-Saucer", "subtype_name": "Magnolia-Saucer", "zip_code": "60154", "ownership": "public", "ownership_raw": "Village of Westchester", "city": "Westchester", "source_dataset": "Tree Inventory", "source_department": "Village of Westchester", "source_last_edit_at": "2025-10-10T16:26:13.512000+00:00"}}]}