{"type": "FeatureCollection", "features": [{"type": "Feature", "geometry": {"type": "Point", "coordinates": [-157.82031943, 21.29862238]}, "properties": {"id": "honolulu-1826", "species_group": "magnolia", "scientific_name": "Magnolia grandiflora", "common_name": "Magnolia", "subtype_name": "Southern Magnolia", "zip_code": "96822", "ownership": "public", "ownership_raw": "University of Hawaii at Manoa", "city": "Honolulu", "source_dataset": "Campus Tree Finder", "source_department": "University of Hawaii at Manoa", "source_last_edit_at": ""}}]}