{"type": "FeatureCollection", "features": [{"type": "Feature", "geometry": {"type": "Point", "coordinates": [-79.45844225856942, 44.213670949248566]}, "properties": {"id": "georgina-2169", "species_group": "crabapple", "scientific_name": "Malus sp.", "common_name": "Apple Species", "subtype_name": "Apple", "zip_code": null, "ownership": "public", "ownership_raw": "York Region", "city": "Georgina", "source_dataset": "Street Trees", "source_department": "York Region", "source_last_edit_at": ""}}, {"type": "Feature", "geometry": {"type": "Point", "coordinates": [-79.47948318238367, 44.24972010088009]}, "properties": {"id": "georgina-2353", "species_group": "crabapple", "scientific_name": "Malus sp.", "common_name": "Apple Species", "subtype_name": "Apple", "zip_code": null, "ownership": "public", "ownership_raw": "York Region", "city": "Georgina", "source_dataset": "Street Trees", "source_department": "York Region", "source_last_edit_at": ""}}, {"type": "Feature", "geometry": {"type": "Point", "coordinates": [-79.3959793583423, 44.26539743035093]}, "properties": {"id": "georgina-25176", "species_group": "crabapple", "scientific_name": "Malus sp.", "common_name": "Apple Species", "subtype_name": "Apple", "zip_code": null, "ownership": "public", "ownership_raw": "York Region", "city": "Georgina", "source_dataset": "Street Trees", "source_department": "York Region", "source_last_edit_at": ""}}, {"type": "Feature", "geometry": {"type": "Point", "coordinates": [-79.39585394002738, 44.2654236725799]}, "properties": {"id": "georgina-25177", "species_group": "crabapple", "scientific_name": "Malus sp.", "common_name": "Apple Species", "subtype_name": "Apple", "zip_code": null, "ownership": "public", "ownership_raw": "York Region", "city": "Georgina", "source_dataset": "Street Trees", "source_department": "York Region", "source_last_edit_at": ""}}, {"type": "Feature", "geometry": {"type": "Point", "coordinates": [-79.41059958037147, 44.262400697590266]}, "properties": {"id": "georgina-25860", "species_group": "crabapple", "scientific_name": "Malus sp.", "common_name": "Apple Species", "subtype_name": "Apple", "zip_code": null, "ownership": "public", "ownership_raw": "York Region", "city": "Georgina", "source_dataset": "Street Trees", "source_department": "York Region", "source_last_edit_at": ""}}, {"type": "Feature", "geometry": {"type": "Point", "coordinates": [-79.42254557384514, 44.25986482700904]}, "properties": {"id": "georgina-25889", "species_group": "crabapple", "scientific_name": "Malus sp.", "common_name": "Apple Species", "subtype_name": "Apple", "zip_code": null, "ownership": "public", "ownership_raw": "York Region", "city": "Georgina", "source_dataset": "Street Trees", "source_department": "York Region", "source_last_edit_at": ""}}, {"type": "Feature", "geometry": {"type": "Point", "coordinates": [-79.41953671720631, 44.26036446707477]}, "properties": {"id": "georgina-25891", "species_group": "crabapple", "scientific_name": "Malus sp.", "common_name": "Apple Species", "subtype_name": "Apple", "zip_code": null, "ownership": "public", "ownership_raw": "York Region", "city": "Georgina", "source_dataset": "Street Trees", "source_department": "York Region", "source_last_edit_at": ""}}, {"type": "Feature", "geometry": {"type": "Point", "coordinates": [-79.40833364583213, 44.28217681925512]}, "properties": {"id": "georgina-26010", "species_group": "crabapple", "scientific_name": "Malus sp.", "common_name": "Apple Species", "subtype_name": "Apple", "zip_code": null, "ownership": "public", "ownership_raw": "York Region", "city": "Georgina", "source_dataset": "Street Trees", "source_department": "York Region", "source_last_edit_at": ""}}, {"type": "Feature", "geometry": {"type": "Point", "coordinates": [-79.40832777774119, 44.28224676979165]}, "properties": {"id": "georgina-26011", "species_group": "crabapple", "scientific_name": "Malus sp.", "common_name": "Apple Species", "subtype_name": "Apple", "zip_code": null, "ownership": "public", "ownership_raw": "York Region", "city": "Georgina", "source_dataset": "Street Trees", "source_department": "York Region", "source_last_edit_at": ""}}, {"type": "Feature", "geometry": {"type": "Point", "coordinates": [-79.40950368548256, 44.28708049170777]}, "properties": {"id": "georgina-26012", "species_group": "crabapple", "scientific_name": "Malus sp.", "common_name": "Apple Species", "subtype_name": "Apple", "zip_code": null, "ownership": "public", "ownership_raw": "York Region", "city": "Georgina", "source_dataset": "Street Trees", "source_department": "York Region", "source_last_edit_at": ""}}, {"type": "Feature", "geometry": {"type": "Point", "coordinates": [-79.39876779837078, 44.264908792121204]}, "properties": {"id": "georgina-26109", "species_group": "crabapple", "scientific_name": "Malus sp.", "common_name": "Apple Species", "subtype_name": "Apple", "zip_code": null, "ownership": "public", "ownership_raw": "York Region", "city": "Georgina", "source_dataset": "Street Trees", "source_department": "York Region", "source_last_edit_at": ""}}, {"type": "Feature", "geometry": {"type": "Point", "coordinates": [-79.39933527167094, 44.26478623065156]}, "properties": {"id": "georgina-26110", "species_group": "crabapple", "scientific_name": "Malus sp.", "common_name": "Apple Species", "subtype_name": "Apple", "zip_code": null, "ownership": "public", "ownership_raw": "York Region", "city": "Georgina", "source_dataset": "Street Trees", "source_department": "York Region", "source_last_edit_at": ""}}, {"type": "Feature", "geometry": {"type": "Point", "coordinates": [-79.4210120422892, 44.230524893814355]}, "properties": {"id": "georgina-26111", "species_group": "crabapple", "scientific_name": "Malus sp.", "common_name": "Apple Species", "subtype_name": "Apple", "zip_code": null, "ownership": "public", "ownership_raw": "York Region", "city": "Georgina", "source_dataset": "Street Trees", "source_department": "York Region", "source_last_edit_at": ""}}, {"type": "Feature", "geometry": {"type": "Point", "coordinates": [-79.42074041551105, 44.22956129955431]}, "properties": {"id": "georgina-26112", "species_group": "crabapple", "scientific_name": "Malus sp.", "common_name": "Apple Species", "subtype_name": "Apple", "zip_code": null, "ownership": "public", "ownership_raw": "York Region", "city": "Georgina", "source_dataset": "Street Trees", "source_department": "York Region", "source_last_edit_at": ""}}, {"type": "Feature", "geometry": {"type": "Point", "coordinates": [-79.46614029264515, 44.19298717567868]}, "properties": {"id": "georgina-26262", "species_group": "crabapple", "scientific_name": "Malus sp.", "common_name": "Apple Species", "subtype_name": "Apple", "zip_code": null, "ownership": "public", "ownership_raw": "York Region", "city": "Georgina", "source_dataset": "Street Trees", "source_department": "York Region", "source_last_edit_at": ""}}, {"type": "Feature", "geometry": {"type": "Point", "coordinates": [-79.422182874445, 44.259955248569874]}, "properties": {"id": "georgina-26291", "species_group": "crabapple", "scientific_name": "Malus sp.", "common_name": "Apple Species", "subtype_name": "Apple", "zip_code": null, "ownership": "public", "ownership_raw": "York Region", "city": "Georgina", "source_dataset": "Street Trees", "source_department": "York Region", "source_last_edit_at": ""}}, {"type": "Feature", "geometry": {"type": "Point", "coordinates": [-79.41828894570031, 44.21971684903654]}, "properties": {"id": "georgina-26494", "species_group": "cherry", "scientific_name": "Prunus sp.", "common_name": "Cherry Species", "subtype_name": null, "zip_code": null, "ownership": "public", "ownership_raw": "York Region", "city": "Georgina", "source_dataset": "Street Trees", "source_department": "York Region", "source_last_edit_at": ""}}, {"type": "Feature", "geometry": {"type": "Point", "coordinates": [-79.42406481049565, 44.24299030959837]}, "properties": {"id": "georgina-26516", "species_group": "crabapple", "scientific_name": "Malus sp.", "common_name": "Apple Species", "subtype_name": "Apple", "zip_code": null, "ownership": "public", "ownership_raw": "York Region", "city": "Georgina", "source_dataset": "Street Trees", "source_department": "York Region", "source_last_edit_at": ""}}, {"type": "Feature", "geometry": {"type": "Point", "coordinates": [-79.3903852254449, 44.21101744826842]}, "properties": {"id": "georgina-26519", "species_group": "crabapple", "scientific_name": "Malus sp.", "common_name": "Apple Species", "subtype_name": "Apple", "zip_code": null, "ownership": "public", "ownership_raw": "York Region", "city": "Georgina", "source_dataset": "Street Trees", "source_department": "York Region", "source_last_edit_at": ""}}, {"type": "Feature", "geometry": {"type": "Point", "coordinates": [-79.39208906562774, 44.21714255626488]}, "properties": {"id": "georgina-26569", "species_group": "crabapple", "scientific_name": "Malus sp.", "common_name": "Apple Species", "subtype_name": "Apple", "zip_code": null, "ownership": "public", "ownership_raw": "York Region", "city": "Georgina", "source_dataset": "Street Trees", "source_department": "York Region", "source_last_edit_at": ""}}, {"type": "Feature", "geometry": {"type": "Point", "coordinates": [-79.4210117805913, 44.230572184114635]}, "properties": {"id": "georgina-26676", "species_group": "crabapple", "scientific_name": "Malus sp.", "common_name": "Apple Species", "subtype_name": "Apple", "zip_code": null, "ownership": "public", "ownership_raw": "York Region", "city": "Georgina", "source_dataset": "Street Trees", "source_department": "York Region", "source_last_edit_at": ""}}, {"type": "Feature", "geometry": {"type": "Point", "coordinates": [-79.39555776132977, 44.23133296755607]}, "properties": {"id": "georgina-26764", "species_group": "crabapple", "scientific_name": "Malus sp.", "common_name": "Apple Species", "subtype_name": "Apple", "zip_code": null, "ownership": "public", "ownership_raw": "York Region", "city": "Georgina", "source_dataset": "Street Trees", "source_department": "York Region", "source_last_edit_at": ""}}, {"type": "Feature", "geometry": {"type": "Point", "coordinates": [-79.4164290496065, 44.312136938447935]}, "properties": {"id": "georgina-26794", "species_group": "crabapple", "scientific_name": "Malus sp.", "common_name": "Apple Species", "subtype_name": "Apple", "zip_code": null, "ownership": "public", "ownership_raw": "York Region", "city": "Georgina", "source_dataset": "Street Trees", "source_department": "York Region", "source_last_edit_at": ""}}, {"type": "Feature", "geometry": {"type": "Point", "coordinates": [-79.39505365695051, 44.230335080465224]}, "properties": {"id": "georgina-26843", "species_group": "crabapple", "scientific_name": "Malus sp.", "common_name": "Apple Species", "subtype_name": "Apple", "zip_code": null, "ownership": "public", "ownership_raw": "York Region", "city": "Georgina", "source_dataset": "Street Trees", "source_department": "York Region", "source_last_edit_at": ""}}, {"type": "Feature", "geometry": {"type": "Point", "coordinates": [-79.40261899735734, 44.2599445493921]}, "properties": {"id": "georgina-26881", "species_group": "crabapple", "scientific_name": "Malus sp.", "common_name": "Apple Species", "subtype_name": "Apple", "zip_code": null, "ownership": "public", "ownership_raw": "York Region", "city": "Georgina", "source_dataset": "Street Trees", "source_department": "York Region", "source_last_edit_at": ""}}, {"type": "Feature", "geometry": {"type": "Point", "coordinates": [-79.40262298051118, 44.2600422687919]}, "properties": {"id": "georgina-26882", "species_group": "crabapple", "scientific_name": "Malus sp.", "common_name": "Apple Species", "subtype_name": "Apple", "zip_code": null, "ownership": "public", "ownership_raw": "York Region", "city": "Georgina", "source_dataset": "Street Trees", "source_department": "York Region", "source_last_edit_at": ""}}, {"type": "Feature", "geometry": {"type": "Point", "coordinates": [-79.403529505729, 44.26321449411608]}, "properties": {"id": "georgina-26883", "species_group": "crabapple", "scientific_name": "Malus sp.", "common_name": "Apple Species", "subtype_name": "Apple", "zip_code": null, "ownership": "public", "ownership_raw": "York Region", "city": "Georgina", "source_dataset": "Street Trees", "source_department": "York Region", "source_last_edit_at": ""}}, {"type": "Feature", "geometry": {"type": "Point", "coordinates": [-79.4831390317772, 44.2483364655687]}, "properties": {"id": "georgina-27282", "species_group": "crabapple", "scientific_name": "Malus 'Hargozam'", "common_name": "Harvest Gold Crabapple", "subtype_name": "Harvest Gold Crabapple", "zip_code": null, "ownership": "public", "ownership_raw": "York Region", "city": "Georgina", "source_dataset": "Street Trees", "source_department": "York Region", "source_last_edit_at": ""}}, {"type": "Feature", "geometry": {"type": "Point", "coordinates": [-79.48304937880928, 44.248257373391816]}, "properties": {"id": "georgina-27283", "species_group": "crabapple", "scientific_name": "Malus 'Hargozam'", "common_name": "Harvest Gold Crabapple", "subtype_name": "Harvest Gold Crabapple", "zip_code": null, "ownership": "public", "ownership_raw": "York Region", "city": "Georgina", "source_dataset": "Street Trees", "source_department": "York Region", "source_last_edit_at": ""}}, {"type": "Feature", "geometry": {"type": "Point", "coordinates": [-79.48295566524473, 44.248177850880104]}, "properties": {"id": "georgina-27284", "species_group": "crabapple", "scientific_name": "Malus 'Hargozam'", "common_name": "Harvest Gold Crabapple", "subtype_name": "Harvest Gold Crabapple", "zip_code": null, "ownership": "public", "ownership_raw": "York Region", "city": "Georgina", "source_dataset": "Street Trees", "source_department": "York Region", "source_last_edit_at": ""}}, {"type": "Feature", "geometry": {"type": "Point", "coordinates": [-79.47979595458264, 44.24965157227938]}, "properties": {"id": "georgina-4108", "species_group": "cherry", "scientific_name": "Prunus sp.", "common_name": "Cherry Species", "subtype_name": null, "zip_code": null, "ownership": "public", "ownership_raw": "York Region", "city": "Georgina", "source_dataset": "Street Trees", "source_department": "York Region", "source_last_edit_at": ""}}, {"type": "Feature", "geometry": {"type": "Point", "coordinates": [-79.48066170304294, 44.24946737138794]}, "properties": {"id": "georgina-4443", "species_group": "cherry", "scientific_name": "Prunus sp.", "common_name": "Cherry Species", "subtype_name": null, "zip_code": null, "ownership": "public", "ownership_raw": "York Region", "city": "Georgina", "source_dataset": "Street Trees", "source_department": "York Region", "source_last_edit_at": ""}}, {"type": "Feature", "geometry": {"type": "Point", "coordinates": [-79.16292501843147, 44.26163185457938]}, "properties": {"id": "georgina-47937", "species_group": "crabapple", "scientific_name": "Malus sp.", "common_name": "Apple Species", "subtype_name": "Apple", "zip_code": null, "ownership": "public", "ownership_raw": "York Region", "city": "Georgina", "source_dataset": "Street Trees", "source_department": "York Region", "source_last_edit_at": ""}}, {"type": "Feature", "geometry": {"type": "Point", "coordinates": [-79.16584876822786, 44.26093097039298]}, "properties": {"id": "georgina-48006", "species_group": "crabapple", "scientific_name": "Malus sp.", "common_name": "Apple Species", "subtype_name": "Apple", "zip_code": null, "ownership": "public", "ownership_raw": "York Region", "city": "Georgina", "source_dataset": "Street Trees", "source_department": "York Region", "source_last_edit_at": ""}}, {"type": "Feature", "geometry": {"type": "Point", "coordinates": [-79.16527996886653, 44.261067153799964]}, "properties": {"id": "georgina-48011", "species_group": "crabapple", "scientific_name": "Malus sp.", "common_name": "Apple Species", "subtype_name": "Apple", "zip_code": null, "ownership": "public", "ownership_raw": "York Region", "city": "Georgina", "source_dataset": "Street Trees", "source_department": "York Region", "source_last_edit_at": ""}}, {"type": "Feature", "geometry": {"type": "Point", "coordinates": [-79.1646988352911, 44.2612009376115]}, "properties": {"id": "georgina-48013", "species_group": "crabapple", "scientific_name": "Malus sp.", "common_name": "Apple Species", "subtype_name": "Apple", "zip_code": null, "ownership": "public", "ownership_raw": "York Region", "city": "Georgina", "source_dataset": "Street Trees", "source_department": "York Region", "source_last_edit_at": ""}}, {"type": "Feature", "geometry": {"type": "Point", "coordinates": [-79.16421115067583, 44.26131422110398]}, "properties": {"id": "georgina-48046", "species_group": "crabapple", "scientific_name": "Malus sp.", "common_name": "Apple Species", "subtype_name": "Apple", "zip_code": null, "ownership": "public", "ownership_raw": "York Region", "city": "Georgina", "source_dataset": "Street Trees", "source_department": "York Region", "source_last_edit_at": ""}}, {"type": "Feature", "geometry": {"type": "Point", "coordinates": [-79.16221055187972, 44.26178482132073]}, "properties": {"id": "georgina-48047", "species_group": "crabapple", "scientific_name": "Malus sp.", "common_name": "Apple Species", "subtype_name": "Apple", "zip_code": null, "ownership": "public", "ownership_raw": "York Region", "city": "Georgina", "source_dataset": "Street Trees", "source_department": "York Region", "source_last_edit_at": ""}}, {"type": "Feature", "geometry": {"type": "Point", "coordinates": [-79.16371536765459, 44.261462220987084]}, "properties": {"id": "georgina-48092", "species_group": "crabapple", "scientific_name": "Malus sp.", "common_name": "Apple Species", "subtype_name": "Apple", "zip_code": null, "ownership": "public", "ownership_raw": "York Region", "city": "Georgina", "source_dataset": "Street Trees", "source_department": "York Region", "source_last_edit_at": ""}}, {"type": "Feature", "geometry": {"type": "Point", "coordinates": [-79.15944978330138, 44.262423904777044]}, "properties": {"id": "georgina-48096", "species_group": "crabapple", "scientific_name": "Malus sp.", "common_name": "Apple Species", "subtype_name": "Apple", "zip_code": null, "ownership": "public", "ownership_raw": "York Region", "city": "Georgina", "source_dataset": "Street Trees", "source_department": "York Region", "source_last_edit_at": ""}}, {"type": "Feature", "geometry": {"type": "Point", "coordinates": [-79.4539435189134, 44.25430110341487]}, "properties": {"id": "georgina-68374", "species_group": "crabapple", "scientific_name": "Malus sp.", "common_name": "Apple Species", "subtype_name": "Apple", "zip_code": null, "ownership": "public", "ownership_raw": "York Region", "city": "Georgina", "source_dataset": "Street Trees", "source_department": "York Region", "source_last_edit_at": ""}}, {"type": "Feature", "geometry": {"type": "Point", "coordinates": [-79.47352910667686, 44.251027133379736]}, "properties": {"id": "georgina-68388", "species_group": "crabapple", "scientific_name": "Malus sp.", "common_name": "Apple Species", "subtype_name": "Apple", "zip_code": null, "ownership": "public", "ownership_raw": "York Region", "city": "Georgina", "source_dataset": "Street Trees", "source_department": "York Region", "source_last_edit_at": ""}}, {"type": "Feature", "geometry": {"type": "Point", "coordinates": [-79.48286730674413, 44.248758662771124]}, "properties": {"id": "georgina-68430", "species_group": "cherry", "scientific_name": "Prunus sp.", "common_name": "Cherry Species", "subtype_name": null, "zip_code": null, "ownership": "public", "ownership_raw": "York Region", "city": "Georgina", "source_dataset": "Street Trees", "source_department": "York Region", "source_last_edit_at": ""}}, {"type": "Feature", "geometry": {"type": "Point", "coordinates": [-79.482828415293, 44.248763466028684]}, "properties": {"id": "georgina-68431", "species_group": "cherry", "scientific_name": "Prunus sp.", "common_name": "Cherry Species", "subtype_name": null, "zip_code": null, "ownership": "public", "ownership_raw": "York Region", "city": "Georgina", "source_dataset": "Street Trees", "source_department": "York Region", "source_last_edit_at": ""}}, {"type": "Feature", "geometry": {"type": "Point", "coordinates": [-79.48271844428064, 44.24880861649208]}, "properties": {"id": "georgina-68432", "species_group": "crabapple", "scientific_name": "Malus sp.", "common_name": "Apple Species", "subtype_name": "Apple", "zip_code": null, "ownership": "public", "ownership_raw": "York Region", "city": "Georgina", "source_dataset": "Street Trees", "source_department": "York Region", "source_last_edit_at": ""}}, {"type": "Feature", "geometry": {"type": "Point", "coordinates": [-79.48259908624308, 44.248831672038435]}, "properties": {"id": "georgina-68434", "species_group": "crabapple", "scientific_name": "Malus sp.", "common_name": "Apple Species", "subtype_name": "Apple", "zip_code": null, "ownership": "public", "ownership_raw": "York Region", "city": "Georgina", "source_dataset": "Street Trees", "source_department": "York Region", "source_last_edit_at": ""}}, {"type": "Feature", "geometry": {"type": "Point", "coordinates": [-79.48254678298345, 44.248844161154395]}, "properties": {"id": "georgina-68435", "species_group": "crabapple", "scientific_name": "Malus sp.", "common_name": "Apple Species", "subtype_name": "Apple", "zip_code": null, "ownership": "public", "ownership_raw": "York Region", "city": "Georgina", "source_dataset": "Street Trees", "source_department": "York Region", "source_last_edit_at": ""}}, {"type": "Feature", "geometry": {"type": "Point", "coordinates": [-79.47608138243604, 44.25042834718042]}, "properties": {"id": "georgina-68477", "species_group": "crabapple", "scientific_name": "Malus sp.", "common_name": "Apple Species", "subtype_name": "Apple", "zip_code": null, "ownership": "public", "ownership_raw": "York Region", "city": "Georgina", "source_dataset": "Street Trees", "source_department": "York Region", "source_last_edit_at": ""}}, {"type": "Feature", "geometry": {"type": "Point", "coordinates": [-79.47929558893848, 44.24975988322978]}, "properties": {"id": "georgina-68496", "species_group": "cherry", "scientific_name": "Prunus sp.", "common_name": "Cherry Species", "subtype_name": null, "zip_code": null, "ownership": "public", "ownership_raw": "York Region", "city": "Georgina", "source_dataset": "Street Trees", "source_department": "York Region", "source_last_edit_at": ""}}, {"type": "Feature", "geometry": {"type": "Point", "coordinates": [-79.48299873549534, 44.24875385976455]}, "properties": {"id": "georgina-68506", "species_group": "crabapple", "scientific_name": "Malus sp.", "common_name": "Apple Species", "subtype_name": "Apple", "zip_code": null, "ownership": "public", "ownership_raw": "York Region", "city": "Georgina", "source_dataset": "Street Trees", "source_department": "York Region", "source_last_edit_at": ""}}, {"type": "Feature", "geometry": {"type": "Point", "coordinates": [-79.49176495419545, 44.28049582554038]}, "properties": {"id": "georgina-68608", "species_group": "crabapple", "scientific_name": "Malus sp.", "common_name": "Apple Species", "subtype_name": "Apple", "zip_code": null, "ownership": "public", "ownership_raw": "York Region", "city": "Georgina", "source_dataset": "Street Trees", "source_department": "York Region", "source_last_edit_at": ""}}, {"type": "Feature", "geometry": {"type": "Point", "coordinates": [-79.4945071774647, 44.27793220282802]}, "properties": {"id": "georgina-68631", "species_group": "crabapple", "scientific_name": "Malus sp.", "common_name": "Apple Species", "subtype_name": "Apple", "zip_code": null, "ownership": "public", "ownership_raw": "York Region", "city": "Georgina", "source_dataset": "Street Trees", "source_department": "York Region", "source_last_edit_at": ""}}, {"type": "Feature", "geometry": {"type": "Point", "coordinates": [-79.49460507811635, 44.277841945538206]}, "properties": {"id": "georgina-68633", "species_group": "crabapple", "scientific_name": "Malus sp.", "common_name": "Apple Species", "subtype_name": "Apple", "zip_code": null, "ownership": "public", "ownership_raw": "York Region", "city": "Georgina", "source_dataset": "Street Trees", "source_department": "York Region", "source_last_edit_at": ""}}, {"type": "Feature", "geometry": {"type": "Point", "coordinates": [-79.4946681091312, 44.277790096263274]}, "properties": {"id": "georgina-68634", "species_group": "crabapple", "scientific_name": "Malus sp.", "common_name": "Apple Species", "subtype_name": "Apple", "zip_code": null, "ownership": "public", "ownership_raw": "York Region", "city": "Georgina", "source_dataset": "Street Trees", "source_department": "York Region", "source_last_edit_at": ""}}, {"type": "Feature", "geometry": {"type": "Point", "coordinates": [-79.4947230953197, 44.27774112631158]}, "properties": {"id": "georgina-68637", "species_group": "crabapple", "scientific_name": "Malus sp.", "common_name": "Apple Species", "subtype_name": "Apple", "zip_code": null, "ownership": "public", "ownership_raw": "York Region", "city": "Georgina", "source_dataset": "Street Trees", "source_department": "York Region", "source_last_edit_at": ""}}, {"type": "Feature", "geometry": {"type": "Point", "coordinates": [-79.49476466915605, 44.277698878550794]}, "properties": {"id": "georgina-68639", "species_group": "crabapple", "scientific_name": "Malus sp.", "common_name": "Apple Species", "subtype_name": "Apple", "zip_code": null, "ownership": "public", "ownership_raw": "York Region", "city": "Georgina", "source_dataset": "Street Trees", "source_department": "York Region", "source_last_edit_at": ""}}, {"type": "Feature", "geometry": {"type": "Point", "coordinates": [-79.49489160697175, 44.277590643018335]}, "properties": {"id": "georgina-68641", "species_group": "crabapple", "scientific_name": "Malus sp.", "common_name": "Apple Species", "subtype_name": "Apple", "zip_code": null, "ownership": "public", "ownership_raw": "York Region", "city": "Georgina", "source_dataset": "Street Trees", "source_department": "York Region", "source_last_edit_at": ""}}, {"type": "Feature", "geometry": {"type": "Point", "coordinates": [-79.49490691765926, 44.277563602649266]}, "properties": {"id": "georgina-68642", "species_group": "crabapple", "scientific_name": "Malus sp.", "common_name": "Apple Species", "subtype_name": "Apple", "zip_code": null, "ownership": "public", "ownership_raw": "York Region", "city": "Georgina", "source_dataset": "Street Trees", "source_department": "York Region", "source_last_edit_at": ""}}, {"type": "Feature", "geometry": {"type": "Point", "coordinates": [-79.42343012467434, 44.2023917107062]}, "properties": {"id": "georgina-68645", "species_group": "crabapple", "scientific_name": "Malus sp.", "common_name": "Apple Species", "subtype_name": "Apple", "zip_code": null, "ownership": "public", "ownership_raw": "York Region", "city": "Georgina", "source_dataset": "Street Trees", "source_department": "York Region", "source_last_edit_at": ""}}, {"type": "Feature", "geometry": {"type": "Point", "coordinates": [-79.42473770262468, 44.20213597436189]}, "properties": {"id": "georgina-68650", "species_group": "crabapple", "scientific_name": "Malus sp.", "common_name": "Apple Species", "subtype_name": "Apple", "zip_code": null, "ownership": "public", "ownership_raw": "York Region", "city": "Georgina", "source_dataset": "Street Trees", "source_department": "York Region", "source_last_edit_at": ""}}, {"type": "Feature", "geometry": {"type": "Point", "coordinates": [-79.49397207603559, 44.27840989026925]}, "properties": {"id": "georgina-68722", "species_group": "crabapple", "scientific_name": "Malus sp.", "common_name": "Apple Species", "subtype_name": "Apple", "zip_code": null, "ownership": "public", "ownership_raw": "York Region", "city": "Georgina", "source_dataset": "Street Trees", "source_department": "York Region", "source_last_edit_at": ""}}, {"type": "Feature", "geometry": {"type": "Point", "coordinates": [-79.42216680511424, 44.202686863016204]}, "properties": {"id": "georgina-68725", "species_group": "crabapple", "scientific_name": "Malus sp.", "common_name": "Apple Species", "subtype_name": "Apple", "zip_code": null, "ownership": "public", "ownership_raw": "York Region", "city": "Georgina", "source_dataset": "Street Trees", "source_department": "York Region", "source_last_edit_at": ""}}, {"type": "Feature", "geometry": {"type": "Point", "coordinates": [-79.49495795564627, 44.27753290793495]}, "properties": {"id": "georgina-68728", "species_group": "crabapple", "scientific_name": "Malus sp.", "common_name": "Apple Species", "subtype_name": "Apple", "zip_code": null, "ownership": "public", "ownership_raw": "York Region", "city": "Georgina", "source_dataset": "Street Trees", "source_department": "York Region", "source_last_edit_at": ""}}, {"type": "Feature", "geometry": {"type": "Point", "coordinates": [-79.49502532452834, 44.27747663393688]}, "properties": {"id": "georgina-68729", "species_group": "crabapple", "scientific_name": "Malus sp.", "common_name": "Apple Species", "subtype_name": "Apple", "zip_code": null, "ownership": "public", "ownership_raw": "York Region", "city": "Georgina", "source_dataset": "Street Trees", "source_department": "York Region", "source_last_edit_at": ""}}, {"type": "Feature", "geometry": {"type": "Point", "coordinates": [-79.48365998874715, 44.28748329106723]}, "properties": {"id": "georgina-68949", "species_group": "crabapple", "scientific_name": "Malus sp.", "common_name": "Apple Species", "subtype_name": "Apple", "zip_code": null, "ownership": "public", "ownership_raw": "York Region", "city": "Georgina", "source_dataset": "Street Trees", "source_department": "York Region", "source_last_edit_at": ""}}, {"type": "Feature", "geometry": {"type": "Point", "coordinates": [-79.48023346647739, 44.29052312672921]}, "properties": {"id": "georgina-68963", "species_group": "crabapple", "scientific_name": "Malus sp.", "common_name": "Apple Species", "subtype_name": "Apple", "zip_code": null, "ownership": "public", "ownership_raw": "York Region", "city": "Georgina", "source_dataset": "Street Trees", "source_department": "York Region", "source_last_edit_at": ""}}, {"type": "Feature", "geometry": {"type": "Point", "coordinates": [-79.47214928853236, 44.29755571287188]}, "properties": {"id": "georgina-69005", "species_group": "crabapple", "scientific_name": "Malus sp.", "common_name": "Apple Species", "subtype_name": "Apple", "zip_code": null, "ownership": "public", "ownership_raw": "York Region", "city": "Georgina", "source_dataset": "Street Trees", "source_department": "York Region", "source_last_edit_at": ""}}, {"type": "Feature", "geometry": {"type": "Point", "coordinates": [-79.33463942372336, 44.2219158008789]}, "properties": {"id": "georgina-69043", "species_group": "crabapple", "scientific_name": "Malus sp.", "common_name": "Apple Species", "subtype_name": "Apple", "zip_code": null, "ownership": "public", "ownership_raw": "York Region", "city": "Georgina", "source_dataset": "Street Trees", "source_department": "York Region", "source_last_edit_at": ""}}, {"type": "Feature", "geometry": {"type": "Point", "coordinates": [-79.4829391455109, 44.288102502677795]}, "properties": {"id": "georgina-69074", "species_group": "crabapple", "scientific_name": "Malus sp.", "common_name": "Apple Species", "subtype_name": "Apple", "zip_code": null, "ownership": "public", "ownership_raw": "York Region", "city": "Georgina", "source_dataset": "Street Trees", "source_department": "York Region", "source_last_edit_at": ""}}, {"type": "Feature", "geometry": {"type": "Point", "coordinates": [-79.48157792334025, 44.28931930698422]}, "properties": {"id": "georgina-69077", "species_group": "crabapple", "scientific_name": "Malus sp.", "common_name": "Apple Species", "subtype_name": "Apple", "zip_code": null, "ownership": "public", "ownership_raw": "York Region", "city": "Georgina", "source_dataset": "Street Trees", "source_department": "York Region", "source_last_edit_at": ""}}, {"type": "Feature", "geometry": {"type": "Point", "coordinates": [-79.48485759477416, 44.28614260315718]}, "properties": {"id": "georgina-69117", "species_group": "crabapple", "scientific_name": "Malus sp.", "common_name": "Apple Species", "subtype_name": "Apple", "zip_code": null, "ownership": "public", "ownership_raw": "York Region", "city": "Georgina", "source_dataset": "Street Trees", "source_department": "York Region", "source_last_edit_at": ""}}, {"type": "Feature", "geometry": {"type": "Point", "coordinates": [-79.4675573144829, 44.30099021979418]}, "properties": {"id": "georgina-69131", "species_group": "crabapple", "scientific_name": "Malus sp.", "common_name": "Apple Species", "subtype_name": "Apple", "zip_code": null, "ownership": "public", "ownership_raw": "York Region", "city": "Georgina", "source_dataset": "Street Trees", "source_department": "York Region", "source_last_edit_at": ""}}, {"type": "Feature", "geometry": {"type": "Point", "coordinates": [-79.4611944760602, 44.30344846965536]}, "properties": {"id": "georgina-69134", "species_group": "crabapple", "scientific_name": "Malus sp.", "common_name": "Apple Species", "subtype_name": "Apple", "zip_code": null, "ownership": "public", "ownership_raw": "York Region", "city": "Georgina", "source_dataset": "Street Trees", "source_department": "York Region", "source_last_edit_at": ""}}, {"type": "Feature", "geometry": {"type": "Point", "coordinates": [-79.40252718970503, 44.29448744414808]}, "properties": {"id": "georgina-69286", "species_group": "crabapple", "scientific_name": "Malus sp.", "common_name": "Apple Species", "subtype_name": "Apple", "zip_code": null, "ownership": "public", "ownership_raw": "York Region", "city": "Georgina", "source_dataset": "Street Trees", "source_department": "York Region", "source_last_edit_at": ""}}, {"type": "Feature", "geometry": {"type": "Point", "coordinates": [-79.43016802324954, 44.288450026427135]}, "properties": {"id": "georgina-69322", "species_group": "crabapple", "scientific_name": "Malus sp.", "common_name": "Apple Species", "subtype_name": "Apple", "zip_code": null, "ownership": "public", "ownership_raw": "York Region", "city": "Georgina", "source_dataset": "Street Trees", "source_department": "York Region", "source_last_edit_at": ""}}, {"type": "Feature", "geometry": {"type": "Point", "coordinates": [-79.17226594492915, 44.2728503486892]}, "properties": {"id": "georgina-69405", "species_group": "crabapple", "scientific_name": "Malus sp.", "common_name": "Apple Species", "subtype_name": "Apple", "zip_code": null, "ownership": "public", "ownership_raw": "York Region", "city": "Georgina", "source_dataset": "Street Trees", "source_department": "York Region", "source_last_edit_at": ""}}, {"type": "Feature", "geometry": {"type": "Point", "coordinates": [-79.28974801134386, 44.23677218753877]}, "properties": {"id": "georgina-69614", "species_group": "crabapple", "scientific_name": "Malus sp.", "common_name": "Apple Species", "subtype_name": "Apple", "zip_code": null, "ownership": "public", "ownership_raw": "York Region", "city": "Georgina", "source_dataset": "Street Trees", "source_department": "York Region", "source_last_edit_at": ""}}, {"type": "Feature", "geometry": {"type": "Point", "coordinates": [-79.20550640812974, 44.25743094791715]}, "properties": {"id": "georgina-69768", "species_group": "crabapple", "scientific_name": "Malus sp.", "common_name": "Apple Species", "subtype_name": "Apple", "zip_code": null, "ownership": "public", "ownership_raw": "York Region", "city": "Georgina", "source_dataset": "Street Trees", "source_department": "York Region", "source_last_edit_at": ""}}, {"type": "Feature", "geometry": {"type": "Point", "coordinates": [-79.433293803073, 44.25990927174009]}, "properties": {"id": "georgina-69983", "species_group": "crabapple", "scientific_name": "Malus sp.", "common_name": "Apple Species", "subtype_name": "Apple", "zip_code": null, "ownership": "public", "ownership_raw": "York Region", "city": "Georgina", "source_dataset": "Street Trees", "source_department": "York Region", "source_last_edit_at": ""}}, {"type": "Feature", "geometry": {"type": "Point", "coordinates": [-79.39596717703827, 44.26556042864796]}, "properties": {"id": "georgina-70196", "species_group": "crabapple", "scientific_name": "Malus sp.", "common_name": "Apple Species", "subtype_name": "Apple", "zip_code": null, "ownership": "public", "ownership_raw": "York Region", "city": "Georgina", "source_dataset": "Street Trees", "source_department": "York Region", "source_last_edit_at": ""}}, {"type": "Feature", "geometry": {"type": "Point", "coordinates": [-79.42596473831406, 44.251562893591135]}, "properties": {"id": "georgina-70264", "species_group": "crabapple", "scientific_name": "Malus sp.", "common_name": "Apple Species", "subtype_name": "Apple", "zip_code": null, "ownership": "public", "ownership_raw": "York Region", "city": "Georgina", "source_dataset": "Street Trees", "source_department": "York Region", "source_last_edit_at": ""}}, {"type": "Feature", "geometry": {"type": "Point", "coordinates": [-79.42372166065505, 44.24165499243665]}, "properties": {"id": "georgina-70266", "species_group": "crabapple", "scientific_name": "Malus sp.", "common_name": "Apple Species", "subtype_name": "Apple", "zip_code": null, "ownership": "public", "ownership_raw": "York Region", "city": "Georgina", "source_dataset": "Street Trees", "source_department": "York Region", "source_last_edit_at": ""}}, {"type": "Feature", "geometry": {"type": "Point", "coordinates": [-79.42377262266666, 44.24181928451129]}, "properties": {"id": "georgina-70267", "species_group": "crabapple", "scientific_name": "Malus sp.", "common_name": "Apple Species", "subtype_name": "Apple", "zip_code": null, "ownership": "public", "ownership_raw": "York Region", "city": "Georgina", "source_dataset": "Street Trees", "source_department": "York Region", "source_last_edit_at": ""}}, {"type": "Feature", "geometry": {"type": "Point", "coordinates": [-79.42370087269936, 44.24159590491053]}, "properties": {"id": "georgina-70346", "species_group": "crabapple", "scientific_name": "Malus sp.", "common_name": "Apple Species", "subtype_name": "Apple", "zip_code": null, "ownership": "public", "ownership_raw": "York Region", "city": "Georgina", "source_dataset": "Street Trees", "source_department": "York Region", "source_last_edit_at": ""}}, {"type": "Feature", "geometry": {"type": "Point", "coordinates": [-79.429642929139, 44.265188490330814]}, "properties": {"id": "georgina-70357", "species_group": "crabapple", "scientific_name": "Malus sp.", "common_name": "Apple Species", "subtype_name": "Apple", "zip_code": null, "ownership": "public", "ownership_raw": "York Region", "city": "Georgina", "source_dataset": "Street Trees", "source_department": "York Region", "source_last_edit_at": ""}}, {"type": "Feature", "geometry": {"type": "Point", "coordinates": [-79.4296684101644, 44.26528837065902]}, "properties": {"id": "georgina-70358", "species_group": "crabapple", "scientific_name": "Malus sp.", "common_name": "Apple Species", "subtype_name": "Apple", "zip_code": null, "ownership": "public", "ownership_raw": "York Region", "city": "Georgina", "source_dataset": "Street Trees", "source_department": "York Region", "source_last_edit_at": ""}}, {"type": "Feature", "geometry": {"type": "Point", "coordinates": [-79.40661487579372, 44.27544336497767]}, "properties": {"id": "georgina-70556", "species_group": "crabapple", "scientific_name": "Malus sp.", "common_name": "Apple Species", "subtype_name": "Apple", "zip_code": null, "ownership": "public", "ownership_raw": "York Region", "city": "Georgina", "source_dataset": "Street Trees", "source_department": "York Region", "source_last_edit_at": ""}}, {"type": "Feature", "geometry": {"type": "Point", "coordinates": [-79.41499782532728, 44.20624232033892]}, "properties": {"id": "georgina-70576", "species_group": "crabapple", "scientific_name": "Malus sp.", "common_name": "Apple Species", "subtype_name": "Apple", "zip_code": null, "ownership": "public", "ownership_raw": "York Region", "city": "Georgina", "source_dataset": "Street Trees", "source_department": "York Region", "source_last_edit_at": ""}}, {"type": "Feature", "geometry": {"type": "Point", "coordinates": [-79.4080699741138, 44.28136810459733]}, "properties": {"id": "georgina-70680", "species_group": "crabapple", "scientific_name": "Malus sp.", "common_name": "Apple Species", "subtype_name": "Apple", "zip_code": null, "ownership": "public", "ownership_raw": "York Region", "city": "Georgina", "source_dataset": "Street Trees", "source_department": "York Region", "source_last_edit_at": ""}}, {"type": "Feature", "geometry": {"type": "Point", "coordinates": [-79.40804985817249, 44.28143531318122]}, "properties": {"id": "georgina-70681", "species_group": "crabapple", "scientific_name": "Malus sp.", "common_name": "Apple Species", "subtype_name": "Apple", "zip_code": null, "ownership": "public", "ownership_raw": "York Region", "city": "Georgina", "source_dataset": "Street Trees", "source_department": "York Region", "source_last_edit_at": ""}}, {"type": "Feature", "geometry": {"type": "Point", "coordinates": [-79.39725199033839, 44.239124718360806]}, "properties": {"id": "georgina-70695", "species_group": "crabapple", "scientific_name": "Malus sp.", "common_name": "Apple Species", "subtype_name": "Apple", "zip_code": null, "ownership": "public", "ownership_raw": "York Region", "city": "Georgina", "source_dataset": "Street Trees", "source_department": "York Region", "source_last_edit_at": ""}}, {"type": "Feature", "geometry": {"type": "Point", "coordinates": [-79.39506058931545, 44.22942697840349]}, "properties": {"id": "georgina-70697", "species_group": "crabapple", "scientific_name": "Malus sp.", "common_name": "Apple Species", "subtype_name": "Apple", "zip_code": null, "ownership": "public", "ownership_raw": "York Region", "city": "Georgina", "source_dataset": "Street Trees", "source_department": "York Region", "source_last_edit_at": ""}}, {"type": "Feature", "geometry": {"type": "Point", "coordinates": [-79.3973002342955, 44.2392098177407]}, "properties": {"id": "georgina-70705", "species_group": "crabapple", "scientific_name": "Malus sp.", "common_name": "Apple Species", "subtype_name": "Apple", "zip_code": null, "ownership": "public", "ownership_raw": "York Region", "city": "Georgina", "source_dataset": "Street Trees", "source_department": "York Region", "source_last_edit_at": ""}}, {"type": "Feature", "geometry": {"type": "Point", "coordinates": [-79.39347138050456, 44.22288431880295]}, "properties": {"id": "georgina-70804", "species_group": "crabapple", "scientific_name": "Malus sp.", "common_name": "Apple Species", "subtype_name": "Apple", "zip_code": null, "ownership": "public", "ownership_raw": "York Region", "city": "Georgina", "source_dataset": "Street Trees", "source_department": "York Region", "source_last_edit_at": ""}}, {"type": "Feature", "geometry": {"type": "Point", "coordinates": [-79.40271531206619, 44.26043674656655]}, "properties": {"id": "georgina-70880", "species_group": "crabapple", "scientific_name": "Malus sp.", "common_name": "Apple Species", "subtype_name": "Apple", "zip_code": null, "ownership": "public", "ownership_raw": "York Region", "city": "Georgina", "source_dataset": "Street Trees", "source_department": "York Region", "source_last_edit_at": ""}}, {"type": "Feature", "geometry": {"type": "Point", "coordinates": [-79.40277298039652, 44.26057697451605]}, "properties": {"id": "georgina-70881", "species_group": "crabapple", "scientific_name": "Malus sp.", "common_name": "Apple Species", "subtype_name": "Apple", "zip_code": null, "ownership": "public", "ownership_raw": "York Region", "city": "Georgina", "source_dataset": "Street Trees", "source_department": "York Region", "source_last_edit_at": ""}}, {"type": "Feature", "geometry": {"type": "Point", "coordinates": [-79.39140607964255, 44.2151413612943]}, "properties": {"id": "georgina-70924", "species_group": "crabapple", "scientific_name": "Malus sp.", "common_name": "Apple Species", "subtype_name": "Apple", "zip_code": null, "ownership": "public", "ownership_raw": "York Region", "city": "Georgina", "source_dataset": "Street Trees", "source_department": "York Region", "source_last_edit_at": ""}}, {"type": "Feature", "geometry": {"type": "Point", "coordinates": [-79.40135743702446, 44.255103283703065]}, "properties": {"id": "georgina-70954", "species_group": "crabapple", "scientific_name": "Malus sp.", "common_name": "Apple Species", "subtype_name": "Apple", "zip_code": null, "ownership": "public", "ownership_raw": "York Region", "city": "Georgina", "source_dataset": "Street Trees", "source_department": "York Region", "source_last_edit_at": ""}}, {"type": "Feature", "geometry": {"type": "Point", "coordinates": [-79.40274749949475, 44.26050974203905]}, "properties": {"id": "georgina-70956", "species_group": "crabapple", "scientific_name": "Malus sp.", "common_name": "Apple Species", "subtype_name": "Apple", "zip_code": null, "ownership": "public", "ownership_raw": "York Region", "city": "Georgina", "source_dataset": "Street Trees", "source_department": "York Region", "source_last_edit_at": ""}}, {"type": "Feature", "geometry": {"type": "Point", "coordinates": [-79.40270190088017, 44.26037911893332]}, "properties": {"id": "georgina-70957", "species_group": "crabapple", "scientific_name": "Malus sp.", "common_name": "Apple Species", "subtype_name": "Apple", "zip_code": null, "ownership": "public", "ownership_raw": "York Region", "city": "Georgina", "source_dataset": "Street Trees", "source_department": "York Region", "source_last_edit_at": ""}}]}